<?xml version='1.0' encoding='UTF-8' standalone='yes' ?>
<gpx version="1.1" creator="com.ngt.android.nadeuli" xsi:schemaLocation="http://www.topografix.com/GPX/1/1 http://www.topografix.com/gpx/1/1/gpx.xsd" xmlns="http://www.topografix.com/GPX/1/1" xmlns:xsi="http://www.w3.org/2001/XMLSchema-instance" xmlns:gpx10="http://www.topografix.com/GPX/1/0">
<metadata><time>2026-08-30T08:28:17Z</time></metadata>
<trk><name>Track 2026-08-30 17:28</name>
<trkseg>
<trkpt lat="36.3574257" lon="127.3741076"><ele>43.52781</ele><time>2026-08-30T08:28:18Z</time></trkpt>
<trkpt lat="36.3573829" lon="127.3740039"><ele>44.312477</ele><time>2026-08-30T08:28:27Z</time></trkpt>
<trkpt lat="36.3573899" lon="127.3738851"><ele>44.3928</ele><time>2026-08-30T08:28:36Z</time></trkpt>
<trkpt lat="36.3573834" lon="127.3737719"><ele>44.540565</ele><time>2026-08-30T08:28:44Z</time></trkpt>
<trkpt lat="36.3573717" lon="127.3736585"><ele>43.845253</ele><time>2026-08-30T08:28:52Z</time></trkpt>
<trkpt lat="36.3573476" lon="127.3735424"><ele>43.97428</ele><time>2026-08-30T08:29:00Z</time></trkpt>
<trkpt lat="36.3573477" lon="127.373414"><ele>44.44474</ele><time>2026-08-30T08:29:08Z</time></trkpt>
<trkpt lat="36.3573505" lon="127.3732969"><ele>45.916725</ele><time>2026-08-30T08:29:16Z</time></trkpt>
<trkpt lat="36.3573484" lon="127.3731818"><ele>46.4802</ele><time>2026-08-30T08:29:24Z</time></trkpt>
<trkpt lat="36.3573352" lon="127.3730685"><ele>44.591164</ele><time>2026-08-30T08:29:32Z</time></trkpt>
<trkpt lat="36.3572685" lon="127.3729902"><ele>44.62693</ele><time>2026-08-30T08:29:40Z</time></trkpt>
<trkpt lat="36.3571992" lon="127.3729115"><ele>43.453346</ele><time>2026-08-30T08:29:47Z</time></trkpt>
<trkpt lat="36.3571221" lon="127.3728391"><ele>43.379128</ele><time>2026-08-30T08:29:55Z</time></trkpt>
<trkpt lat="36.3570577" lon="127.3727574"><ele>42.743813</ele><time>2026-08-30T08:30:03Z</time></trkpt>
<trkpt lat="36.357006" lon="127.3726652"><ele>42.790077</ele><time>2026-08-30T08:30:10Z</time></trkpt>
<trkpt lat="36.3569544" lon="127.3725722"><ele>43.303627</ele><time>2026-08-30T08:30:17Z</time></trkpt>
<trkpt lat="36.3569133" lon="127.3724584"><ele>44.11631</ele><time>2026-08-30T08:30:25Z</time></trkpt>
<trkpt lat="36.3568899" lon="127.3723473"><ele>45.230995</ele><time>2026-08-30T08:30:32Z</time></trkpt>
<trkpt lat="36.3568956" lon="127.3722253"><ele>45.690895</ele><time>2026-08-30T08:30:40Z</time></trkpt>
<trkpt lat="36.3568008" lon="127.3721944"><ele>47.600014</ele><time>2026-08-30T08:30:50Z</time></trkpt>
<trkpt lat="36.35671" lon="127.3721871"><ele>46.757423</ele><time>2026-08-30T08:30:59Z</time></trkpt>
<trkpt lat="36.3566241" lon="127.3722214"><ele>45.292458</ele><time>2026-08-30T08:31:07Z</time></trkpt>
<trkpt lat="36.3565513" lon="127.372289"><ele>46.28611</ele><time>2026-08-30T08:31:15Z</time></trkpt>
<trkpt lat="36.3564969" lon="127.3721974"><ele>46.680763</ele><time>2026-08-30T08:31:26Z</time></trkpt>
<trkpt lat="36.3564067" lon="127.3721587"><ele>48.352943</ele><time>2026-08-30T08:31:39Z</time></trkpt>
<trkpt lat="36.3563136" lon="127.3721624"><ele>51.312416</ele><time>2026-08-30T08:31:50Z</time></trkpt>
<trkpt lat="36.3562259" lon="127.3721169"><ele>57.331398</ele><time>2026-08-30T08:32:02Z</time></trkpt>
<trkpt lat="36.3561353" lon="127.3721241"><ele>60.299416</ele><time>2026-08-30T08:32:13Z</time></trkpt>
<trkpt lat="36.3561746" lon="127.3720172"><ele>57.04142</ele><time>2026-08-30T08:32:24Z</time></trkpt>
<trkpt lat="36.3562216" lon="127.3719149"><ele>57.054604</ele><time>2026-08-30T08:32:33Z</time></trkpt>
<trkpt lat="36.3561394" lon="127.3718692"><ele>58.707253</ele><time>2026-08-30T08:32:45Z</time></trkpt>
<trkpt lat="36.3560486" lon="127.3718437"><ele>62.33042</ele><time>2026-08-30T08:32:58Z</time></trkpt>
<trkpt lat="36.3559527" lon="127.3718406"><ele>66.70475</ele><time>2026-08-30T08:33:10Z</time></trkpt>
<trkpt lat="36.3558574" lon="127.3718143"><ele>68.25565</ele><time>2026-08-30T08:33:26Z</time></trkpt>
<trkpt lat="36.3557654" lon="127.3717698"><ele>69.69944</ele><time>2026-08-30T08:33:34Z</time></trkpt>
<trkpt lat="36.3556757" lon="127.371741"><ele>71.706215</ele><time>2026-08-30T08:33:44Z</time></trkpt>
<trkpt lat="36.3555854" lon="127.3717243"><ele>69.66209</ele><time>2026-08-30T08:33:53Z</time></trkpt>
<trkpt lat="36.3554923" lon="127.3717632"><ele>69.080605</ele><time>2026-08-30T08:33:59Z</time></trkpt>
<trkpt lat="36.3554018" lon="127.3717727"><ele>71.294044</ele><time>2026-08-30T08:34:11Z</time></trkpt>
<trkpt lat="36.3553083" lon="127.3717585"><ele>72.606544</ele><time>2026-08-30T08:34:19Z</time></trkpt>
<trkpt lat="36.3552176" lon="127.3717986"><ele>74.054054</ele><time>2026-08-30T08:34:28Z</time></trkpt>
<trkpt lat="36.3551183" lon="127.3718172"><ele>77.70548</ele><time>2026-08-30T08:34:37Z</time></trkpt>
<trkpt lat="36.3550292" lon="127.3718448"><ele>81.147194</ele><time>2026-08-30T08:34:45Z</time></trkpt>
<trkpt lat="36.3549299" lon="127.3718696"><ele>81.238014</ele><time>2026-08-30T08:34:53Z</time></trkpt>
<trkpt lat="36.3548297" lon="127.3718862"><ele>79.304054</ele><time>2026-08-30T08:35:01Z</time></trkpt>
<trkpt lat="36.3547329" lon="127.3718824"><ele>76.42393</ele><time>2026-08-30T08:35:08Z</time></trkpt>
<trkpt lat="36.3546314" lon="127.3718771"><ele>76.739235</ele><time>2026-08-30T08:35:16Z</time></trkpt>
<trkpt lat="36.3545351" lon="127.3718848"><ele>73.1627</ele><time>2026-08-30T08:35:26Z</time></trkpt>
<trkpt lat="36.3544432" lon="127.3719122"><ele>70.975136</ele><time>2026-08-30T08:35:37Z</time></trkpt>
<trkpt lat="36.3543474" lon="127.3719312"><ele>69.04136</ele><time>2026-08-30T08:35:49Z</time></trkpt>
<trkpt lat="36.3543131" lon="127.372036"><ele>67.71732</ele><time>2026-08-30T08:36:00Z</time></trkpt>
<trkpt lat="36.3543111" lon="127.3721539"><ele>66.00248</ele><time>2026-08-30T08:36:09Z</time></trkpt>
<trkpt lat="36.3543542" lon="127.3722619"><ele>65.70304</ele><time>2026-08-30T08:36:18Z</time></trkpt>
<trkpt lat="36.3544546" lon="127.3722735"><ele>62.249794</ele><time>2026-08-30T08:36:27Z</time></trkpt>
<trkpt lat="36.3545493" lon="127.3723028"><ele>62.755836</ele><time>2026-08-30T08:36:34Z</time></trkpt>
<trkpt lat="36.3546377" lon="127.3723566"><ele>63.365883</ele><time>2026-08-30T08:36:43Z</time></trkpt>
<trkpt lat="36.3547327" lon="127.3723843"><ele>65.26725</ele><time>2026-08-30T08:36:52Z</time></trkpt>
<trkpt lat="36.3548271" lon="127.3724216"><ele>64.35929</ele><time>2026-08-30T08:37:01Z</time></trkpt>
<trkpt lat="36.3549136" lon="127.3723687"><ele>66.1981</ele><time>2026-08-30T08:37:09Z</time></trkpt>
<trkpt lat="36.3549904" lon="127.3723097"><ele>66.93412</ele><time>2026-08-30T08:37:17Z</time></trkpt>
<trkpt lat="36.3550739" lon="127.3722676"><ele>67.46671</ele><time>2026-08-30T08:37:25Z</time></trkpt>
<trkpt lat="36.355173" lon="127.3722436"><ele>67.28617</ele><time>2026-08-30T08:37:34Z</time></trkpt>
<trkpt lat="36.3552686" lon="127.3722081"><ele>68.4188</ele><time>2026-08-30T08:37:42Z</time></trkpt>
<trkpt lat="36.3553643" lon="127.3721739"><ele>68.76615</ele><time>2026-08-30T08:37:50Z</time></trkpt>
<trkpt lat="36.3554648" lon="127.3721621"><ele>65.0933</ele><time>2026-08-30T08:37:59Z</time></trkpt>
<trkpt lat="36.3555562" lon="127.3721596"><ele>63.981483</ele><time>2026-08-30T08:38:06Z</time></trkpt>
<trkpt lat="36.3556521" lon="127.3721608"><ele>66.06486</ele><time>2026-08-30T08:38:14Z</time></trkpt>
<trkpt lat="36.3557431" lon="127.3721588"><ele>67.482216</ele><time>2026-08-30T08:38:21Z</time></trkpt>
<trkpt lat="36.3558453" lon="127.3721461"><ele>69.61198</ele><time>2026-08-30T08:38:29Z</time></trkpt>
<trkpt lat="36.3559373" lon="127.372131"><ele>67.7197</ele><time>2026-08-30T08:38:36Z</time></trkpt>
<trkpt lat="36.3560326" lon="127.3721138"><ele>68.731606</ele><time>2026-08-30T08:38:43Z</time></trkpt>
<trkpt lat="36.3561185" lon="127.3720634"><ele>68.44926</ele><time>2026-08-30T08:38:50Z</time></trkpt>
<trkpt lat="36.3561929" lon="127.3719807"><ele>67.02427</ele><time>2026-08-30T08:38:57Z</time></trkpt>
<trkpt lat="36.3561313" lon="127.3718896"><ele>66.991554</ele><time>2026-08-30T08:39:08Z</time></trkpt>
<trkpt lat="36.3560432" lon="127.3718509"><ele>69.80277</ele><time>2026-08-30T08:39:20Z</time></trkpt>
<trkpt lat="36.3559483" lon="127.3718217"><ele>73.00541</ele><time>2026-08-30T08:39:31Z</time></trkpt>
<trkpt lat="36.3558559" lon="127.3717898"><ele>72.98771</ele><time>2026-08-30T08:39:43Z</time></trkpt>
<trkpt lat="36.3557644" lon="127.3717453"><ele>75.14408</ele><time>2026-08-30T08:39:53Z</time></trkpt>
<trkpt lat="36.3556676" lon="127.3717299"><ele>77.52097</ele><time>2026-08-30T08:40:02Z</time></trkpt>
<trkpt lat="36.3555765" lon="127.3717355"><ele>77.4672</ele><time>2026-08-30T08:40:11Z</time></trkpt>
<trkpt lat="36.355486" lon="127.3717675"><ele>80.12638</ele><time>2026-08-30T08:40:21Z</time></trkpt>
<trkpt lat="36.3553848" lon="127.3717706"><ele>78.96287</ele><time>2026-08-30T08:40:30Z</time></trkpt>
<trkpt lat="36.3552906" lon="127.3717905"><ele>79.874794</ele><time>2026-08-30T08:40:38Z</time></trkpt>
<trkpt lat="36.3552" lon="127.3718045"><ele>79.98673</ele><time>2026-08-30T08:40:45Z</time></trkpt>
<trkpt lat="36.355101" lon="127.3718279"><ele>79.894264</ele><time>2026-08-30T08:40:53Z</time></trkpt>
<trkpt lat="36.3550116" lon="127.3718484"><ele>82.16416</ele><time>2026-08-30T08:41:00Z</time></trkpt>
<trkpt lat="36.3549147" lon="127.3718667"><ele>83.24729</ele><time>2026-08-30T08:41:08Z</time></trkpt>
<trkpt lat="36.3548226" lon="127.3718703"><ele>82.64451</ele><time>2026-08-30T08:41:16Z</time></trkpt>
<trkpt lat="36.3547278" lon="127.3718715"><ele>77.579506</ele><time>2026-08-30T08:41:24Z</time></trkpt>
<trkpt lat="36.3546368" lon="127.371872"><ele>77.302284</ele><time>2026-08-30T08:41:31Z</time></trkpt>
<trkpt lat="36.3545384" lon="127.3718833"><ele>76.19199</ele><time>2026-08-30T08:41:41Z</time></trkpt>
<trkpt lat="36.3544488" lon="127.3719038"><ele>74.71024</ele><time>2026-08-30T08:41:52Z</time></trkpt>
<trkpt lat="36.3543532" lon="127.371929"><ele>73.35575</ele><time>2026-08-30T08:42:04Z</time></trkpt>
<trkpt lat="36.3543136" lon="127.3720302"><ele>71.13096</ele><time>2026-08-30T08:42:15Z</time></trkpt>
<trkpt lat="36.3543133" lon="127.372145"><ele>70.82603</ele><time>2026-08-30T08:42:25Z</time></trkpt>
<trkpt lat="36.3543434" lon="127.3722582"><ele>71.50956</ele><time>2026-08-30T08:42:34Z</time></trkpt>
<trkpt lat="36.3544371" lon="127.3722768"><ele>67.67057</ele><time>2026-08-30T08:42:42Z</time></trkpt>
<trkpt lat="36.3545313" lon="127.3723067"><ele>71.28141</ele><time>2026-08-30T08:42:52Z</time></trkpt>
<trkpt lat="36.3546128" lon="127.3723671"><ele>68.83317</ele><time>2026-08-30T08:43:00Z</time></trkpt>
<trkpt lat="36.3546772" lon="127.3724582"><ele>65.64268</ele><time>2026-08-30T08:43:08Z</time></trkpt>
<trkpt lat="36.3547666" lon="127.3725084"><ele>62.719765</ele><time>2026-08-30T08:43:17Z</time></trkpt>
<trkpt lat="36.3548508" lon="127.3724424"><ele>63.430336</ele><time>2026-08-30T08:43:26Z</time></trkpt>
<trkpt lat="36.3549342" lon="127.3723793"><ele>64.53611</ele><time>2026-08-30T08:43:35Z</time></trkpt>
<trkpt lat="36.3550173" lon="127.3723172"><ele>66.222206</ele><time>2026-08-30T08:43:44Z</time></trkpt>
<trkpt lat="36.3550972" lon="127.3722497"><ele>66.58054</ele><time>2026-08-30T08:43:53Z</time></trkpt>
<trkpt lat="36.3551957" lon="127.372231"><ele>65.65653</ele><time>2026-08-30T08:44:02Z</time></trkpt>
<trkpt lat="36.3552884" lon="127.3722135"><ele>68.72538</ele><time>2026-08-30T08:44:10Z</time></trkpt>
<trkpt lat="36.3553884" lon="127.3722015"><ele>71.6049</ele><time>2026-08-30T08:44:19Z</time></trkpt>
<trkpt lat="36.355484" lon="127.3722024"><ele>72.99833</ele><time>2026-08-30T08:44:27Z</time></trkpt>
<trkpt lat="36.3555808" lon="127.372193"><ele>70.53574</ele><time>2026-08-30T08:44:35Z</time></trkpt>
<trkpt lat="36.3556718" lon="127.3721865"><ele>69.6273</ele><time>2026-08-30T08:44:42Z</time></trkpt>
<trkpt lat="36.3557702" lon="127.3721732"><ele>69.02775</ele><time>2026-08-30T08:44:50Z</time></trkpt>
<trkpt lat="36.355862" lon="127.3721422"><ele>67.72813</ele><time>2026-08-30T08:44:58Z</time></trkpt>
<trkpt lat="36.3559558" lon="127.3721299"><ele>68.587685</ele><time>2026-08-30T08:45:06Z</time></trkpt>
<trkpt lat="36.3560533" lon="127.3721254"><ele>68.55729</ele><time>2026-08-30T08:45:14Z</time></trkpt>
<trkpt lat="36.3561408" lon="127.3720841"><ele>64.77482</ele><time>2026-08-30T08:45:21Z</time></trkpt>
<trkpt lat="36.3562173" lon="127.3720034"><ele>65.20109</ele><time>2026-08-30T08:45:29Z</time></trkpt>
<trkpt lat="36.3561647" lon="127.3719025"><ele>64.72733</ele><time>2026-08-30T08:45:41Z</time></trkpt>
<trkpt lat="36.356078" lon="127.371853"><ele>68.92301</ele><time>2026-08-30T08:45:50Z</time></trkpt>
<trkpt lat="36.3559858" lon="127.3718343"><ele>71.54594</ele><time>2026-08-30T08:46:00Z</time></trkpt>
<trkpt lat="36.3558966" lon="127.3718179"><ele>71.11967</ele><time>2026-08-30T08:46:09Z</time></trkpt>
<trkpt lat="36.3558016" lon="127.3717892"><ele>73.751015</ele><time>2026-08-30T08:46:21Z</time></trkpt>
<trkpt lat="36.3557073" lon="127.3717614"><ele>75.85117</ele><time>2026-08-30T08:46:32Z</time></trkpt>
<trkpt lat="36.3556127" lon="127.3717384"><ele>74.24174</ele><time>2026-08-30T08:46:41Z</time></trkpt>
<trkpt lat="36.3555201" lon="127.3717684"><ele>76.06797</ele><time>2026-08-30T08:46:50Z</time></trkpt>
<trkpt lat="36.355426" lon="127.3717792"><ele>74.5167</ele><time>2026-08-30T08:46:59Z</time></trkpt>
<trkpt lat="36.3553323" lon="127.3717942"><ele>75.19047</ele><time>2026-08-30T08:47:07Z</time></trkpt>
<trkpt lat="36.3552333" lon="127.3718079"><ele>73.21067</ele><time>2026-08-30T08:47:16Z</time></trkpt>
<trkpt lat="36.3551421" lon="127.3718122"><ele>73.61814</ele><time>2026-08-30T08:47:24Z</time></trkpt>
<trkpt lat="36.3550509" lon="127.3718481"><ele>74.66874</ele><time>2026-08-30T08:47:32Z</time></trkpt>
<trkpt lat="36.354959" lon="127.3718741"><ele>72.64695</ele><time>2026-08-30T08:47:39Z</time></trkpt>
<trkpt lat="36.3548609" lon="127.371899"><ele>74.69749</ele><time>2026-08-30T08:47:47Z</time></trkpt>
<trkpt lat="36.3547625" lon="127.3718929"><ele>72.945595</ele><time>2026-08-30T08:47:55Z</time></trkpt>
<trkpt lat="36.3546654" lon="127.3718751"><ele>71.50974</ele><time>2026-08-30T08:48:03Z</time></trkpt>
<trkpt lat="36.3545699" lon="127.3718706"><ele>72.4799</ele><time>2026-08-30T08:48:12Z</time></trkpt>
<trkpt lat="36.354478" lon="127.3718938"><ele>71.85917</ele><time>2026-08-30T08:48:23Z</time></trkpt>
<trkpt lat="36.3543814" lon="127.3718934"><ele>72.83762</ele><time>2026-08-30T08:48:34Z</time></trkpt>
<trkpt lat="36.3543216" lon="127.3719871"><ele>71.35172</ele><time>2026-08-30T08:48:45Z</time></trkpt>
<trkpt lat="36.3543136" lon="127.372106"><ele>67.13004</ele><time>2026-08-30T08:48:54Z</time></trkpt>
<trkpt lat="36.3543283" lon="127.3722187"><ele>64.97294</ele><time>2026-08-30T08:49:02Z</time></trkpt>
<trkpt lat="36.3544232" lon="127.3722589"><ele>64.51914</ele><time>2026-08-30T08:49:11Z</time></trkpt>
<trkpt lat="36.3545113" lon="127.3722949"><ele>64.87644</ele><time>2026-08-30T08:49:19Z</time></trkpt>
<trkpt lat="36.3545951" lon="127.3723631"><ele>64.5521</ele><time>2026-08-30T08:49:28Z</time></trkpt>
<trkpt lat="36.354658" lon="127.3724476"><ele>64.17234</ele><time>2026-08-30T08:49:36Z</time></trkpt>
<trkpt lat="36.3547281" lon="127.3725258"><ele>60.950294</ele><time>2026-08-30T08:49:43Z</time></trkpt>
<trkpt lat="36.3548177" lon="127.372479"><ele>61.015236</ele><time>2026-08-30T08:49:52Z</time></trkpt>
<trkpt lat="36.3548965" lon="127.3724208"><ele>62.781776</ele><time>2026-08-30T08:49:59Z</time></trkpt>
<trkpt lat="36.3549763" lon="127.3723577"><ele>62.185097</ele><time>2026-08-30T08:50:07Z</time></trkpt>
<trkpt lat="36.3550633" lon="127.3722953"><ele>64.6616</ele><time>2026-08-30T08:50:14Z</time></trkpt>
<trkpt lat="36.3551555" lon="127.372263"><ele>65.996925</ele><time>2026-08-30T08:50:23Z</time></trkpt>
<trkpt lat="36.3552482" lon="127.3722583"><ele>68.454506</ele><time>2026-08-30T08:50:31Z</time></trkpt>
<trkpt lat="36.355342" lon="127.3722514"><ele>70.041176</ele><time>2026-08-30T08:50:38Z</time></trkpt>
<trkpt lat="36.3554398" lon="127.3722589"><ele>72.74503</ele><time>2026-08-30T08:50:45Z</time></trkpt>
<trkpt lat="36.3555331" lon="127.3722679"><ele>73.34086</ele><time>2026-08-30T08:50:53Z</time></trkpt>
<trkpt lat="36.3556322" lon="127.3722502"><ele>73.26267</ele><time>2026-08-30T08:51:01Z</time></trkpt>
<trkpt lat="36.3557309" lon="127.3722161"><ele>70.30619</ele><time>2026-08-30T08:51:08Z</time></trkpt>
<trkpt lat="36.3558223" lon="127.3722036"><ele>71.572</ele><time>2026-08-30T08:51:15Z</time></trkpt>
<trkpt lat="36.3559223" lon="127.372187"><ele>70.14414</ele><time>2026-08-30T08:51:23Z</time></trkpt>
<trkpt lat="36.3560144" lon="127.372155"><ele>67.932106</ele><time>2026-08-30T08:51:30Z</time></trkpt>
<trkpt lat="36.3560968" lon="127.3721057"><ele>63.464577</ele><time>2026-08-30T08:51:36Z</time></trkpt>
<trkpt lat="36.3561765" lon="127.3720417"><ele>64.2747</ele><time>2026-08-30T08:51:43Z</time></trkpt>
<trkpt lat="36.3562232" lon="127.3719408"><ele>66.055214</ele><time>2026-08-30T08:51:51Z</time></trkpt>
<trkpt lat="36.3561342" lon="127.3718876"><ele>66.16392</ele><time>2026-08-30T08:51:59Z</time></trkpt>
<trkpt lat="36.3560464" lon="127.3718523"><ele>65.87797</ele><time>2026-08-30T08:52:07Z</time></trkpt>
<trkpt lat="36.3559567" lon="127.37184"><ele>67.16477</ele><time>2026-08-30T08:52:16Z</time></trkpt>
<trkpt lat="36.3558672" lon="127.3718157"><ele>68.79539</ele><time>2026-08-30T08:52:27Z</time></trkpt>
<trkpt lat="36.3557829" lon="127.3717722"><ele>71.966896</ele><time>2026-08-30T08:52:38Z</time></trkpt>
<trkpt lat="36.3556946" lon="127.3717489"><ele>75.45652</ele><time>2026-08-30T08:52:48Z</time></trkpt>
<trkpt lat="36.3556007" lon="127.3717422"><ele>73.15983</ele><time>2026-08-30T08:52:58Z</time></trkpt>
<trkpt lat="36.3555089" lon="127.3717922"><ele>74.00272</ele><time>2026-08-30T08:53:08Z</time></trkpt>
<trkpt lat="36.3554133" lon="127.3717825"><ele>73.35941</ele><time>2026-08-30T08:53:17Z</time></trkpt>
<trkpt lat="36.3553192" lon="127.3717901"><ele>72.93345</ele><time>2026-08-30T08:53:25Z</time></trkpt>
<trkpt lat="36.3552181" lon="127.3718107"><ele>71.81541</ele><time>2026-08-30T08:53:33Z</time></trkpt>
<trkpt lat="36.3551208" lon="127.3718086"><ele>70.80973</ele><time>2026-08-30T08:53:40Z</time></trkpt>
<trkpt lat="36.3550216" lon="127.3718377"><ele>73.76963</ele><time>2026-08-30T08:53:48Z</time></trkpt>
<trkpt lat="36.3549311" lon="127.3718692"><ele>73.4484</ele><time>2026-08-30T08:53:56Z</time></trkpt>
<trkpt lat="36.3548332" lon="127.3718737"><ele>72.784096</ele><time>2026-08-30T08:54:04Z</time></trkpt>
<trkpt lat="36.3547332" lon="127.3718775"><ele>70.40745</ele><time>2026-08-30T08:54:11Z</time></trkpt>
<trkpt lat="36.354639" lon="127.3718743"><ele>70.967445</ele><time>2026-08-30T08:54:19Z</time></trkpt>
<trkpt lat="36.354539" lon="127.3718936"><ele>72.065346</ele><time>2026-08-30T08:54:29Z</time></trkpt>
<trkpt lat="36.3544419" lon="127.371909"><ele>71.95554</ele><time>2026-08-30T08:54:39Z</time></trkpt>
<trkpt lat="36.3543478" lon="127.3719388"><ele>71.45664</ele><time>2026-08-30T08:54:49Z</time></trkpt>
<trkpt lat="36.3543122" lon="127.372046"><ele>68.25425</ele><time>2026-08-30T08:54:59Z</time></trkpt>
<trkpt lat="36.3543088" lon="127.372164"><ele>67.56913</ele><time>2026-08-30T08:55:10Z</time></trkpt>
<trkpt lat="36.3543456" lon="127.3722687"><ele>64.96592</ele><time>2026-08-30T08:55:22Z</time></trkpt>
<trkpt lat="36.3544434" lon="127.372283"><ele>62.43461</ele><time>2026-08-30T08:55:31Z</time></trkpt>
<trkpt lat="36.3545343" lon="127.3722895"><ele>62.676247</ele><time>2026-08-30T08:55:39Z</time></trkpt>
<trkpt lat="36.3546128" lon="127.3723445"><ele>61.436745</ele><time>2026-08-30T08:55:47Z</time></trkpt>
<trkpt lat="36.3546859" lon="127.3724184"><ele>61.49601</ele><time>2026-08-30T08:55:55Z</time></trkpt>
<trkpt lat="36.354746" lon="127.3725169"><ele>56.82316</ele><time>2026-08-30T08:56:03Z</time></trkpt>
<trkpt lat="36.3548418" lon="127.372566"><ele>58.12156</ele><time>2026-08-30T08:56:11Z</time></trkpt>
<trkpt lat="36.3549354" lon="127.3725733"><ele>56.810036</ele><time>2026-08-30T08:56:19Z</time></trkpt>
<trkpt lat="36.3550341" lon="127.3725803"><ele>54.12699</ele><time>2026-08-30T08:56:28Z</time></trkpt>
<trkpt lat="36.3551274" lon="127.3725858"><ele>52.097755</ele><time>2026-08-30T08:56:36Z</time></trkpt>
<trkpt lat="36.3552201" lon="127.3725928"><ele>50.596413</ele><time>2026-08-30T08:56:43Z</time></trkpt>
<trkpt lat="36.3553214" lon="127.3726026"><ele>53.79624</ele><time>2026-08-30T08:56:52Z</time></trkpt>
<trkpt lat="36.3554216" lon="127.3726206"><ele>55.145485</ele><time>2026-08-30T08:57:00Z</time></trkpt>
<trkpt lat="36.3555137" lon="127.3726377"><ele>56.69718</ele><time>2026-08-30T08:57:07Z</time></trkpt>
<trkpt lat="36.3556147" lon="127.3726608"><ele>56.85087</ele><time>2026-08-30T08:57:14Z</time></trkpt>
<trkpt lat="36.3557115" lon="127.3726582"><ele>53.765846</ele><time>2026-08-30T08:57:21Z</time></trkpt>
<trkpt lat="36.3558066" lon="127.3726291"><ele>52.445778</ele><time>2026-08-30T08:57:28Z</time></trkpt>
<trkpt lat="36.3558989" lon="127.3726172"><ele>53.07798</ele><time>2026-08-30T08:57:35Z</time></trkpt>
<trkpt lat="36.3560012" lon="127.3726072"><ele>49.547646</ele><time>2026-08-30T08:57:43Z</time></trkpt>
<trkpt lat="36.356102" lon="127.3726045"><ele>49.814125</ele><time>2026-08-30T08:57:51Z</time></trkpt>
<trkpt lat="36.3561933" lon="127.3725941"><ele>47.69114</ele><time>2026-08-30T08:57:58Z</time></trkpt>
<trkpt lat="36.3562924" lon="127.3725994"><ele>48.975563</ele><time>2026-08-30T08:58:05Z</time></trkpt>
<trkpt lat="36.3563782" lon="127.3726439"><ele>48.655922</ele><time>2026-08-30T08:58:13Z</time></trkpt>
<trkpt lat="36.3563861" lon="127.3727613"><ele>45.46958</ele><time>2026-08-30T08:58:20Z</time></trkpt>
<trkpt lat="36.3563908" lon="127.3728773"><ele>45.35331</ele><time>2026-08-30T08:58:27Z</time></trkpt>
<trkpt lat="36.356481" lon="127.3729"><ele>46.996193</ele><time>2026-08-30T08:58:35Z</time></trkpt>
<trkpt lat="36.3565738" lon="127.3728793"><ele>47.50358</ele><time>2026-08-30T08:58:43Z</time></trkpt>
<trkpt lat="36.3566761" lon="127.3728819"><ele>46.79972</ele><time>2026-08-30T08:58:51Z</time></trkpt>
<trkpt lat="36.356772" lon="127.3728822"><ele>42.94999</ele><time>2026-08-30T08:58:58Z</time></trkpt>
<trkpt lat="36.3568693" lon="127.3729181"><ele>42.175026</ele><time>2026-08-30T08:59:06Z</time></trkpt>
<trkpt lat="36.356963" lon="127.3729447"><ele>41.9412</ele><time>2026-08-30T08:59:14Z</time></trkpt>
<trkpt lat="36.3570628" lon="127.3729686"><ele>41.128273</ele><time>2026-08-30T08:59:22Z</time></trkpt>
<trkpt lat="36.3571498" lon="127.3730142"><ele>41.759926</ele><time>2026-08-30T08:59:29Z</time></trkpt>
<trkpt lat="36.3572409" lon="127.3730312"><ele>42.017433</ele><time>2026-08-30T08:59:37Z</time></trkpt>
<trkpt lat="36.357325" lon="127.3729807"><ele>43.371315</ele><time>2026-08-30T09:00:01Z</time></trkpt>
<trkpt lat="36.3573812" lon="127.3730683"><ele>43.980995</ele><time>2026-08-30T09:00:07Z</time></trkpt>
<trkpt lat="36.3573964" lon="127.3731909"><ele>43.89933</ele><time>2026-08-30T09:00:16Z</time></trkpt>
<trkpt lat="36.3573887" lon="127.3733163"><ele>44.63102</ele><time>2026-08-30T09:00:22Z</time></trkpt>
<trkpt lat="36.3573892" lon="127.3734414"><ele>42.606544</ele><time>2026-08-30T09:00:29Z</time></trkpt>
<trkpt lat="36.3573994" lon="127.3735531"><ele>41.1475</ele><time>2026-08-30T09:00:36Z</time></trkpt>
<trkpt lat="36.3573918" lon="127.3736727"><ele>41.877357</ele><time>2026-08-30T09:00:43Z</time></trkpt>
<trkpt lat="36.3573912" lon="127.3737881"><ele>42.686073</ele><time>2026-08-30T09:00:50Z</time></trkpt>
<trkpt lat="36.3573922" lon="127.3739078"><ele>42.397926</ele><time>2026-08-30T09:00:57Z</time></trkpt>
<trkpt lat="36.357391" lon="127.3740243"><ele>42.37278</ele><time>2026-08-30T09:01:05Z</time></trkpt>
<trkpt lat="36.3574639" lon="127.3740946"><ele>43.762672</ele><time>2026-08-30T09:01:13Z</time></trkpt>
<trkpt lat="36.3575487" lon="127.3740412"><ele>43.177773</ele><time>2026-08-30T09:01:22Z</time></trkpt>
<trkpt lat="36.3576233" lon="127.3741173"><ele>39.804543</ele><time>2026-08-30T09:01:37Z</time></trkpt>
<trkpt lat="36.3576593" lon="127.3742231"><ele>41.557106</ele><time>2026-08-30T09:01:46Z</time></trkpt>
<trkpt lat="36.3576503" lon="127.3743438"><ele>40.17765</ele><time>2026-08-30T09:02:29Z</time></trkpt>
</trkseg>
</trk>
</gpx>