<?xml version="1.0" encoding="UTF-8"?>
<gpx version="1.1" creator="gajago-nav" xmlns="http://www.topografix.com/GPX/1/1">
  <metadata><name>감악산20200111</name></metadata>
  <wpt lat="37.248510" lon="128.141708">
    <name>들머리 (감악펜션 - 원점회귀)</name>
    <ele>490</ele>
  </wpt>
  <wpt lat="37.233910" lon="128.142780">
    <name>감악1봉</name>
    <ele>852</ele>
  </wpt>
  <wpt lat="37.231900" lon="128.142020">
    <name>감악2봉</name>
    <ele>890</ele>
  </wpt>
  <wpt lat="37.230670" lon="128.141380">
    <name>감악3봉</name>
    <ele>945</ele>
  </wpt>
  <wpt lat="37.229070" lon="128.141340">
    <name>월출봉</name>
    <ele>935</ele>
  </wpt>
  <wpt lat="37.228340" lon="128.142530">
    <name>감악산</name>
    <ele>954</ele>
  </wpt>
  <wpt lat="37.229570" lon="128.135510">
    <name>감악고개</name>
  </wpt>
  <wpt lat="37.248779" lon="128.140877">
    <name>날머리 (원점회귀)</name>
    <ele>467</ele>
  </wpt>
  <trk>
    <name>감악산20200111</name>
    <trkseg>
      <trkpt lat="37.248510" lon="128.141708"><ele>489.6</ele><time>2020-01-11T09:20:00.000Z</time></trkpt>
      <trkpt lat="37.248427" lon="128.141755"><ele>489.4</ele><time>2020-01-11T09:20:33.000Z</time></trkpt>
      <trkpt lat="37.248326" lon="128.141786"><ele>489.6</ele><time>2020-01-11T09:20:45.000Z</time></trkpt>
      <trkpt lat="37.248236" lon="128.141826"><ele>488.9</ele><time>2020-01-11T09:20:55.000Z</time></trkpt>
      <trkpt lat="37.248182" lon="128.141911"><ele>495.7</ele><time>2020-01-11T09:21:01.000Z</time></trkpt>
      <trkpt lat="37.248095" lon="128.141970"><ele>493.5</ele><time>2020-01-11T09:21:14.000Z</time></trkpt>
      <trkpt lat="37.248015" lon="128.142027"><ele>498.2</ele><time>2020-01-11T09:21:30.000Z</time></trkpt>
      <trkpt lat="37.247920" lon="128.142023"><ele>501.3</ele><time>2020-01-11T09:21:44.000Z</time></trkpt>
      <trkpt lat="37.247860" lon="128.142099"><ele>504.9</ele><time>2020-01-11T09:22:03.000Z</time></trkpt>
      <trkpt lat="37.247776" lon="128.142145"><ele>506.4</ele><time>2020-01-11T09:22:15.000Z</time></trkpt>
      <trkpt lat="37.247701" lon="128.142212"><ele>508.3</ele><time>2020-01-11T09:22:31.000Z</time></trkpt>
      <trkpt lat="37.247601" lon="128.142246"><ele>509.8</ele><time>2020-01-11T09:22:48.000Z</time></trkpt>
      <trkpt lat="37.247515" lon="128.142254"><ele>513.8</ele><time>2020-01-11T09:23:12.000Z</time></trkpt>
      <trkpt lat="37.247444" lon="128.142279"><ele>519.6</ele><time>2020-01-11T09:23:33.000Z</time></trkpt>
      <trkpt lat="37.247362" lon="128.142307"><ele>523.9</ele><time>2020-01-11T09:23:56.000Z</time></trkpt>
      <trkpt lat="37.247287" lon="128.142332"><ele>529.6</ele><time>2020-01-11T09:24:12.000Z</time></trkpt>
      <trkpt lat="37.247204" lon="128.142420"><ele>531.5</ele><time>2020-01-11T09:24:24.000Z</time></trkpt>
      <trkpt lat="37.247123" lon="128.142479"><ele>530.8</ele><time>2020-01-11T09:24:35.000Z</time></trkpt>
      <trkpt lat="37.247046" lon="128.142544"><ele>531.2</ele><time>2020-01-11T09:24:54.000Z</time></trkpt>
      <trkpt lat="37.246975" lon="128.142621"><ele>534.1</ele><time>2020-01-11T09:25:14.000Z</time></trkpt>
      <trkpt lat="37.246901" lon="128.142640"><ele>539.6</ele><time>2020-01-11T09:25:57.000Z</time></trkpt>
      <trkpt lat="37.246850" lon="128.142742"><ele>544.0</ele><time>2020-01-11T09:26:22.000Z</time></trkpt>
      <trkpt lat="37.246786" lon="128.142790"><ele>550.1</ele><time>2020-01-11T09:26:42.000Z</time></trkpt>
      <trkpt lat="37.246717" lon="128.142780"><ele>557.7</ele><time>2020-01-11T09:27:13.000Z</time></trkpt>
      <trkpt lat="37.246695" lon="128.142885"><ele>562.6</ele><time>2020-01-11T09:27:50.000Z</time></trkpt>
      <trkpt lat="37.246652" lon="128.142984"><ele>566.0</ele><time>2020-01-11T09:28:16.000Z</time></trkpt>
      <trkpt lat="37.246574" lon="128.142984"><ele>571.2</ele><time>2020-01-11T09:28:40.000Z</time></trkpt>
      <trkpt lat="37.246501" lon="128.143008"><ele>576.6</ele><time>2020-01-11T09:29:01.000Z</time></trkpt>
      <trkpt lat="37.246425" lon="128.143009"><ele>582.2</ele><time>2020-01-11T09:30:27.000Z</time></trkpt>
      <trkpt lat="37.246342" lon="128.143048"><ele>585.3</ele><time>2020-01-11T09:30:39.000Z</time></trkpt>
      <trkpt lat="37.246256" lon="128.143109"><ele>587.5</ele><time>2020-01-11T09:30:54.000Z</time></trkpt>
      <trkpt lat="37.246164" lon="128.143141"><ele>589.3</ele><time>2020-01-11T09:31:07.000Z</time></trkpt>
      <trkpt lat="37.246073" lon="128.143111"><ele>590.1</ele><time>2020-01-11T09:31:17.000Z</time></trkpt>
      <trkpt lat="37.245981" lon="128.143153"><ele>593.2</ele><time>2020-01-11T09:31:31.000Z</time></trkpt>
      <trkpt lat="37.245890" lon="128.143166"><ele>594.3</ele><time>2020-01-11T09:31:43.000Z</time></trkpt>
      <trkpt lat="37.245802" lon="128.143168"><ele>596.7</ele><time>2020-01-11T09:31:58.000Z</time></trkpt>
      <trkpt lat="37.245713" lon="128.143164"><ele>599.0</ele><time>2020-01-11T09:32:13.000Z</time></trkpt>
      <trkpt lat="37.245690" lon="128.143275"><ele>599.6</ele><time>2020-01-11T09:32:23.000Z</time></trkpt>
      <trkpt lat="37.245649" lon="128.143379"><ele>602.1</ele><time>2020-01-11T09:32:35.000Z</time></trkpt>
      <trkpt lat="37.245596" lon="128.143470"><ele>604.6</ele><time>2020-01-11T09:32:46.000Z</time></trkpt>
      <trkpt lat="37.245538" lon="128.143554"><ele>607.2</ele><time>2020-01-11T09:32:56.000Z</time></trkpt>
      <trkpt lat="37.245445" lon="128.143580"><ele>609.1</ele><time>2020-01-11T09:33:15.000Z</time></trkpt>
      <trkpt lat="37.245369" lon="128.143642"><ele>608.7</ele><time>2020-01-11T09:33:34.000Z</time></trkpt>
      <trkpt lat="37.245349" lon="128.143750"><ele>610.9</ele><time>2020-01-11T09:33:43.000Z</time></trkpt>
      <trkpt lat="37.245296" lon="128.143843"><ele>609.9</ele><time>2020-01-11T09:33:59.000Z</time></trkpt>
      <trkpt lat="37.245268" lon="128.143957"><ele>613.6</ele><time>2020-01-11T09:34:10.000Z</time></trkpt>
      <trkpt lat="37.245224" lon="128.144061"><ele>614.5</ele><time>2020-01-11T09:34:35.000Z</time></trkpt>
      <trkpt lat="37.245130" lon="128.144043"><ele>616.8</ele><time>2020-01-11T09:34:59.000Z</time></trkpt>
      <trkpt lat="37.245116" lon="128.144138"><ele>622.4</ele><time>2020-01-11T09:35:14.000Z</time></trkpt>
      <trkpt lat="37.245107" lon="128.144241"><ele>627.2</ele><time>2020-01-11T09:35:35.000Z</time></trkpt>
      <trkpt lat="37.245056" lon="128.144308"><ele>633.4</ele><time>2020-01-11T09:35:58.000Z</time></trkpt>
      <trkpt lat="37.245034" lon="128.144411"><ele>638.1</ele><time>2020-01-11T09:36:21.000Z</time></trkpt>
      <trkpt lat="37.245004" lon="128.144499"><ele>644.5</ele><time>2020-01-11T09:36:51.000Z</time></trkpt>
      <trkpt lat="37.245006" lon="128.144596"><ele>650.2</ele><time>2020-01-11T09:37:31.000Z</time></trkpt>
      <trkpt lat="37.244967" lon="128.144704"><ele>653.0</ele><time>2020-01-11T09:38:01.000Z</time></trkpt>
      <trkpt lat="37.244935" lon="128.144803"><ele>657.0</ele><time>2020-01-11T09:38:17.000Z</time></trkpt>
      <trkpt lat="37.244920" lon="128.144826"><ele>667.1</ele><time>2020-01-11T09:40:17.000Z</time></trkpt>
      <trkpt lat="37.244821" lon="128.144840"><ele>669.8</ele><time>2020-01-11T09:40:58.000Z</time></trkpt>
      <trkpt lat="37.244741" lon="128.144894"><ele>669.2</ele><time>2020-01-11T09:41:07.000Z</time></trkpt>
      <trkpt lat="37.244683" lon="128.144980"><ele>670.7</ele><time>2020-01-11T09:41:18.000Z</time></trkpt>
      <trkpt lat="37.244596" lon="128.144997"><ele>674.0</ele><time>2020-01-11T09:41:32.000Z</time></trkpt>
      <trkpt lat="37.244516" lon="128.144943"><ele>675.5</ele><time>2020-01-11T09:41:41.000Z</time></trkpt>
      <trkpt lat="37.244421" lon="128.144888"><ele>677.1</ele><time>2020-01-11T09:41:49.000Z</time></trkpt>
      <trkpt lat="37.244348" lon="128.144816"><ele>675.9</ele><time>2020-01-11T09:42:00.000Z</time></trkpt>
      <trkpt lat="37.244252" lon="128.144774"><ele>675.6</ele><time>2020-01-11T09:42:10.000Z</time></trkpt>
      <trkpt lat="37.244174" lon="128.144704"><ele>676.7</ele><time>2020-01-11T09:42:20.000Z</time></trkpt>
      <trkpt lat="37.244084" lon="128.144633"><ele>676.4</ele><time>2020-01-11T09:42:31.000Z</time></trkpt>
      <trkpt lat="37.243998" lon="128.144586"><ele>676.7</ele><time>2020-01-11T09:42:40.000Z</time></trkpt>
      <trkpt lat="37.243913" lon="128.144553"><ele>678.7</ele><time>2020-01-11T09:42:51.000Z</time></trkpt>
      <trkpt lat="37.243827" lon="128.144523"><ele>679.9</ele><time>2020-01-11T09:43:04.000Z</time></trkpt>
      <trkpt lat="37.243736" lon="128.144445"><ele>681.6</ele><time>2020-01-11T09:43:14.000Z</time></trkpt>
      <trkpt lat="37.243638" lon="128.144389"><ele>682.4</ele><time>2020-01-11T09:43:24.000Z</time></trkpt>
      <trkpt lat="37.243537" lon="128.144360"><ele>681.8</ele><time>2020-01-11T09:43:34.000Z</time></trkpt>
      <trkpt lat="37.243446" lon="128.144318"><ele>684.2</ele><time>2020-01-11T09:43:44.000Z</time></trkpt>
      <trkpt lat="37.243369" lon="128.144302"><ele>689.6</ele><time>2020-01-11T09:43:52.000Z</time></trkpt>
      <trkpt lat="37.243279" lon="128.144277"><ele>687.1</ele><time>2020-01-11T09:44:03.000Z</time></trkpt>
      <trkpt lat="37.243184" lon="128.144255"><ele>685.3</ele><time>2020-01-11T09:44:11.000Z</time></trkpt>
      <trkpt lat="37.243086" lon="128.144260"><ele>683.1</ele><time>2020-01-11T09:44:20.000Z</time></trkpt>
      <trkpt lat="37.243008" lon="128.144317"><ele>682.3</ele><time>2020-01-11T09:44:28.000Z</time></trkpt>
      <trkpt lat="37.242931" lon="128.144419"><ele>684.7</ele><time>2020-01-11T09:44:39.000Z</time></trkpt>
      <trkpt lat="37.242827" lon="128.144461"><ele>685.6</ele><time>2020-01-11T09:44:51.000Z</time></trkpt>
      <trkpt lat="37.242738" lon="128.144514"><ele>686.9</ele><time>2020-01-11T09:45:00.000Z</time></trkpt>
      <trkpt lat="37.242676" lon="128.144418"><ele>687.4</ele><time>2020-01-11T09:45:14.000Z</time></trkpt>
      <trkpt lat="37.242636" lon="128.144505"><ele>693.0</ele><time>2020-01-11T09:45:38.000Z</time></trkpt>
      <trkpt lat="37.242538" lon="128.144458"><ele>692.0</ele><time>2020-01-11T09:46:03.000Z</time></trkpt>
      <trkpt lat="37.242466" lon="128.144402"><ele>696.4</ele><time>2020-01-11T09:46:22.000Z</time></trkpt>
      <trkpt lat="37.242378" lon="128.144402"><ele>701.7</ele><time>2020-01-11T09:46:35.000Z</time></trkpt>
      <trkpt lat="37.242297" lon="128.144455"><ele>705.6</ele><time>2020-01-11T09:46:45.000Z</time></trkpt>
      <trkpt lat="37.242207" lon="128.144462"><ele>706.7</ele><time>2020-01-11T09:47:04.000Z</time></trkpt>
      <trkpt lat="37.242111" lon="128.144440"><ele>708.2</ele><time>2020-01-11T09:47:18.000Z</time></trkpt>
      <trkpt lat="37.242036" lon="128.144374"><ele>707.3</ele><time>2020-01-11T09:47:26.000Z</time></trkpt>
      <trkpt lat="37.241958" lon="128.144293"><ele>708.5</ele><time>2020-01-11T09:47:50.000Z</time></trkpt>
      <trkpt lat="37.241902" lon="128.144201"><ele>709.1</ele><time>2020-01-11T09:48:02.000Z</time></trkpt>
      <trkpt lat="37.241860" lon="128.144085"><ele>708.9</ele><time>2020-01-11T09:48:11.000Z</time></trkpt>
      <trkpt lat="37.241854" lon="128.143972"><ele>708.5</ele><time>2020-01-11T09:48:23.000Z</time></trkpt>
      <trkpt lat="37.241866" lon="128.143851"><ele>709.3</ele><time>2020-01-11T09:48:34.000Z</time></trkpt>
      <trkpt lat="37.241798" lon="128.143771"><ele>708.6</ele><time>2020-01-11T09:48:45.000Z</time></trkpt>
      <trkpt lat="37.241733" lon="128.143685"><ele>707.1</ele><time>2020-01-11T09:48:56.000Z</time></trkpt>
      <trkpt lat="37.241692" lon="128.143581"><ele>707.4</ele><time>2020-01-11T09:49:10.000Z</time></trkpt>
      <trkpt lat="37.241607" lon="128.143520"><ele>709.4</ele><time>2020-01-11T09:49:24.000Z</time></trkpt>
      <trkpt lat="37.241504" lon="128.143490"><ele>709.2</ele><time>2020-01-11T09:49:40.000Z</time></trkpt>
      <trkpt lat="37.241411" lon="128.143481"><ele>707.9</ele><time>2020-01-11T09:49:58.000Z</time></trkpt>
      <trkpt lat="37.241316" lon="128.143469"><ele>707.1</ele><time>2020-01-11T09:50:09.000Z</time></trkpt>
      <trkpt lat="37.241225" lon="128.143452"><ele>705.6</ele><time>2020-01-11T09:50:19.000Z</time></trkpt>
      <trkpt lat="37.241119" lon="128.143409"><ele>704.0</ele><time>2020-01-11T09:50:31.000Z</time></trkpt>
      <trkpt lat="37.241026" lon="128.143376"><ele>704.1</ele><time>2020-01-11T09:50:44.000Z</time></trkpt>
      <trkpt lat="37.240929" lon="128.143385"><ele>703.4</ele><time>2020-01-11T09:51:00.000Z</time></trkpt>
      <trkpt lat="37.240837" lon="128.143375"><ele>703.7</ele><time>2020-01-11T09:51:06.000Z</time></trkpt>
      <trkpt lat="37.240761" lon="128.143312"><ele>703.0</ele><time>2020-01-11T09:51:12.000Z</time></trkpt>
      <trkpt lat="37.240693" lon="128.143226"><ele>702.8</ele><time>2020-01-11T09:51:23.000Z</time></trkpt>
      <trkpt lat="37.240620" lon="128.143155"><ele>702.7</ele><time>2020-01-11T09:51:33.000Z</time></trkpt>
      <trkpt lat="37.240538" lon="128.143075"><ele>702.9</ele><time>2020-01-11T09:51:51.000Z</time></trkpt>
      <trkpt lat="37.240453" lon="128.143026"><ele>705.6</ele><time>2020-01-11T09:52:08.000Z</time></trkpt>
      <trkpt lat="37.240372" lon="128.142979"><ele>708.5</ele><time>2020-01-11T09:52:20.000Z</time></trkpt>
      <trkpt lat="37.240321" lon="128.142863"><ele>715.1</ele><time>2020-01-11T09:52:29.000Z</time></trkpt>
      <trkpt lat="37.240259" lon="128.142779"><ele>714.5</ele><time>2020-01-11T09:52:41.000Z</time></trkpt>
      <trkpt lat="37.240182" lon="128.142722"><ele>714.6</ele><time>2020-01-11T09:52:51.000Z</time></trkpt>
      <trkpt lat="37.240106" lon="128.142659"><ele>711.8</ele><time>2020-01-11T09:53:03.000Z</time></trkpt>
      <trkpt lat="37.240007" lon="128.142615"><ele>712.3</ele><time>2020-01-11T09:53:15.000Z</time></trkpt>
      <trkpt lat="37.239917" lon="128.142566"><ele>711.9</ele><time>2020-01-11T09:53:26.000Z</time></trkpt>
      <trkpt lat="37.239827" lon="128.142587"><ele>712.4</ele><time>2020-01-11T09:53:46.000Z</time></trkpt>
      <trkpt lat="37.239742" lon="128.142629"><ele>712.1</ele><time>2020-01-11T09:53:57.000Z</time></trkpt>
      <trkpt lat="37.239652" lon="128.142631"><ele>712.8</ele><time>2020-01-11T09:54:12.000Z</time></trkpt>
      <trkpt lat="37.239590" lon="128.142723"><ele>711.2</ele><time>2020-01-11T09:54:24.000Z</time></trkpt>
      <trkpt lat="37.239511" lon="128.142792"><ele>710.9</ele><time>2020-01-11T09:54:32.000Z</time></trkpt>
      <trkpt lat="37.239420" lon="128.142780"><ele>708.3</ele><time>2020-01-11T09:54:47.000Z</time></trkpt>
      <trkpt lat="37.239338" lon="128.142726"><ele>708.2</ele><time>2020-01-11T09:54:55.000Z</time></trkpt>
      <trkpt lat="37.239267" lon="128.142661"><ele>705.6</ele><time>2020-01-11T09:55:06.000Z</time></trkpt>
      <trkpt lat="37.239184" lon="128.142651"><ele>701.2</ele><time>2020-01-11T09:55:28.000Z</time></trkpt>
      <trkpt lat="37.239098" lon="128.142613"><ele>698.8</ele><time>2020-01-11T09:55:38.000Z</time></trkpt>
      <trkpt lat="37.239022" lon="128.142548"><ele>696.7</ele><time>2020-01-11T09:55:50.000Z</time></trkpt>
      <trkpt lat="37.238934" lon="128.142520"><ele>692.3</ele><time>2020-01-11T09:56:00.000Z</time></trkpt>
      <trkpt lat="37.238834" lon="128.142503"><ele>689.7</ele><time>2020-01-11T09:56:11.000Z</time></trkpt>
      <trkpt lat="37.238738" lon="128.142483"><ele>689.8</ele><time>2020-01-11T09:56:21.000Z</time></trkpt>
      <trkpt lat="37.238648" lon="128.142473"><ele>690.2</ele><time>2020-01-11T09:56:31.000Z</time></trkpt>
      <trkpt lat="37.238558" lon="128.142519"><ele>693.2</ele><time>2020-01-11T09:56:44.000Z</time></trkpt>
      <trkpt lat="37.238470" lon="128.142485"><ele>694.1</ele><time>2020-01-11T09:57:09.000Z</time></trkpt>
      <trkpt lat="37.238371" lon="128.142469"><ele>697.7</ele><time>2020-01-11T09:57:21.000Z</time></trkpt>
      <trkpt lat="37.238295" lon="128.142401"><ele>699.2</ele><time>2020-01-11T09:57:29.000Z</time></trkpt>
      <trkpt lat="37.238225" lon="128.142334"><ele>704.5</ele><time>2020-01-11T09:57:42.000Z</time></trkpt>
      <trkpt lat="37.238145" lon="128.142274"><ele>705.6</ele><time>2020-01-11T09:57:57.000Z</time></trkpt>
      <trkpt lat="37.238064" lon="128.142200"><ele>708.0</ele><time>2020-01-11T09:58:10.000Z</time></trkpt>
      <trkpt lat="37.237961" lon="128.142187"><ele>710.0</ele><time>2020-01-11T09:58:25.000Z</time></trkpt>
      <trkpt lat="37.237867" lon="128.142157"><ele>710.1</ele><time>2020-01-11T09:58:38.000Z</time></trkpt>
      <trkpt lat="37.237778" lon="128.142116"><ele>712.6</ele><time>2020-01-11T09:58:52.000Z</time></trkpt>
      <trkpt lat="37.237708" lon="128.142061"><ele>717.7</ele><time>2020-01-11T09:59:03.000Z</time></trkpt>
      <trkpt lat="37.237629" lon="128.141978"><ele>718.1</ele><time>2020-01-11T09:59:19.000Z</time></trkpt>
      <trkpt lat="37.237531" lon="128.141964"><ele>720.8</ele><time>2020-01-11T09:59:31.000Z</time></trkpt>
      <trkpt lat="37.237457" lon="128.141945"><ele>727.0</ele><time>2020-01-11T09:59:56.000Z</time></trkpt>
      <trkpt lat="37.237365" lon="128.141950"><ele>729.4</ele><time>2020-01-11T10:00:19.000Z</time></trkpt>
      <trkpt lat="37.237295" lon="128.141995"><ele>736.5</ele><time>2020-01-11T10:00:42.000Z</time></trkpt>
      <trkpt lat="37.237217" lon="128.142025"><ele>741.2</ele><time>2020-01-11T10:00:58.000Z</time></trkpt>
      <trkpt lat="37.237128" lon="128.142003"><ele>745.1</ele><time>2020-01-11T10:01:18.000Z</time></trkpt>
      <trkpt lat="37.237047" lon="128.142065"><ele>746.6</ele><time>2020-01-11T10:01:38.000Z</time></trkpt>
      <trkpt lat="37.236954" lon="128.142047"><ele>748.8</ele><time>2020-01-11T10:01:59.000Z</time></trkpt>
      <trkpt lat="37.236887" lon="128.141960"><ele>750.0</ele><time>2020-01-11T10:02:19.000Z</time></trkpt>
      <trkpt lat="37.236787" lon="128.141957"><ele>755.6</ele><time>2020-01-11T10:03:24.000Z</time></trkpt>
      <trkpt lat="37.236690" lon="128.141972"><ele>757.1</ele><time>2020-01-11T10:03:33.000Z</time></trkpt>
      <trkpt lat="37.236598" lon="128.141969"><ele>759.1</ele><time>2020-01-11T10:03:48.000Z</time></trkpt>
      <trkpt lat="37.236508" lon="128.141965"><ele>765.9</ele><time>2020-01-11T10:04:07.000Z</time></trkpt>
      <trkpt lat="37.236413" lon="128.141979"><ele>768.4</ele><time>2020-01-11T10:04:28.000Z</time></trkpt>
      <trkpt lat="37.236322" lon="128.141989"><ele>768.4</ele><time>2020-01-11T10:04:39.000Z</time></trkpt>
      <trkpt lat="37.236240" lon="128.142052"><ele>769.0</ele><time>2020-01-11T10:04:50.000Z</time></trkpt>
      <trkpt lat="37.236142" lon="128.142032"><ele>770.2</ele><time>2020-01-11T10:05:01.000Z</time></trkpt>
      <trkpt lat="37.236050" lon="128.142035"><ele>774.2</ele><time>2020-01-11T10:05:20.000Z</time></trkpt>
      <trkpt lat="37.235978" lon="128.141970"><ele>771.2</ele><time>2020-01-11T10:05:39.000Z</time></trkpt>
      <trkpt lat="37.235908" lon="128.141998"><ele>777.7</ele><time>2020-01-11T10:05:59.000Z</time></trkpt>
      <trkpt lat="37.235819" lon="128.142060"><ele>781.8</ele><time>2020-01-11T10:06:20.000Z</time></trkpt>
      <trkpt lat="37.235739" lon="128.142110"><ele>785.9</ele><time>2020-01-11T10:06:50.000Z</time></trkpt>
      <trkpt lat="37.235679" lon="128.142173"><ele>791.2</ele><time>2020-01-11T10:07:56.000Z</time></trkpt>
      <trkpt lat="37.235603" lon="128.142209"><ele>798.1</ele><time>2020-01-11T10:08:38.000Z</time></trkpt>
      <trkpt lat="37.235562" lon="128.142277"><ele>808.0</ele><time>2020-01-11T10:09:41.000Z</time></trkpt>
      <trkpt lat="37.235588" lon="128.142381"><ele>811.8</ele><time>2020-01-11T10:10:05.000Z</time></trkpt>
      <trkpt lat="37.235555" lon="128.142483"><ele>814.2</ele><time>2020-01-11T10:10:49.000Z</time></trkpt>
      <trkpt lat="37.235514" lon="128.142594"><ele>816.6</ele><time>2020-01-11T10:11:12.000Z</time></trkpt>
      <trkpt lat="37.235497" lon="128.142699"><ele>821.4</ele><time>2020-01-11T10:11:46.000Z</time></trkpt>
      <trkpt lat="37.235485" lon="128.142706"><ele>822.9</ele><time>2020-01-11T10:13:46.000Z</time></trkpt>
      <trkpt lat="37.235397" lon="128.142761"><ele>821.8</ele><time>2020-01-11T10:18:02.000Z</time></trkpt>
      <trkpt lat="37.235332" lon="128.142765"><ele>828.7</ele><time>2020-01-11T10:19:24.000Z</time></trkpt>
      <trkpt lat="37.235247" lon="128.142756"><ele>833.2</ele><time>2020-01-11T10:20:33.000Z</time></trkpt>
      <trkpt lat="37.235249" lon="128.142711"><ele>836.9</ele><time>2020-01-11T10:21:36.000Z</time></trkpt>
      <trkpt lat="37.235186" lon="128.142636"><ele>841.6</ele><time>2020-01-11T10:23:47.000Z</time></trkpt>
      <trkpt lat="37.235123" lon="128.142654"><ele>859.4</ele><time>2020-01-11T10:24:44.000Z</time></trkpt>
      <trkpt lat="37.235101" lon="128.142758"><ele>863.4</ele><time>2020-01-11T10:25:26.000Z</time></trkpt>
      <trkpt lat="37.235017" lon="128.142798"><ele>866.8</ele><time>2020-01-11T10:25:59.000Z</time></trkpt>
      <trkpt lat="37.234947" lon="128.142824"><ele>873.1</ele><time>2020-01-11T10:26:18.000Z</time></trkpt>
      <trkpt lat="37.234876" lon="128.142862"><ele>878.3</ele><time>2020-01-11T10:28:19.000Z</time></trkpt>
      <trkpt lat="37.234798" lon="128.142784"><ele>882.3</ele><time>2020-01-11T10:29:23.000Z</time></trkpt>
      <trkpt lat="37.234712" lon="128.142743"><ele>883.9</ele><time>2020-01-11T10:29:58.000Z</time></trkpt>
      <trkpt lat="37.234624" lon="128.142728"><ele>881.6</ele><time>2020-01-11T10:30:12.000Z</time></trkpt>
      <trkpt lat="37.234535" lon="128.142716"><ele>883.6</ele><time>2020-01-11T10:30:29.000Z</time></trkpt>
      <trkpt lat="37.234534" lon="128.142604"><ele>886.0</ele><time>2020-01-11T10:31:01.000Z</time></trkpt>
      <trkpt lat="37.234463" lon="128.142587"><ele>893.9</ele><time>2020-01-11T10:31:48.000Z</time></trkpt>
      <trkpt lat="37.234377" lon="128.142648"><ele>895.0</ele><time>2020-01-11T10:32:03.000Z</time></trkpt>
      <trkpt lat="37.234288" lon="128.142675"><ele>897.1</ele><time>2020-01-11T10:32:19.000Z</time></trkpt>
      <trkpt lat="37.234208" lon="128.142613"><ele>897.5</ele><time>2020-01-11T10:34:13.000Z</time></trkpt>
      <trkpt lat="37.234203" lon="128.142626"><ele>895.5</ele><time>2020-01-11T10:34:29.000Z</time></trkpt>
      <trkpt lat="37.234118" lon="128.142677"><ele>894.7</ele><time>2020-01-11T10:38:45.000Z</time></trkpt>
      <trkpt lat="37.234019" lon="128.142678"><ele>896.9</ele><time>2020-01-11T10:38:58.000Z</time></trkpt>
      <trkpt lat="37.233923" lon="128.142704"><ele>899.9</ele><time>2020-01-11T10:39:15.000Z</time></trkpt>
      <trkpt lat="37.233833" lon="128.142712"><ele>900.8</ele><time>2020-01-11T10:39:27.000Z</time></trkpt>
      <trkpt lat="37.233731" lon="128.142711"><ele>899.9</ele><time>2020-01-11T10:39:47.000Z</time></trkpt>
      <trkpt lat="37.233652" lon="128.142788"><ele>899.9</ele><time>2020-01-11T10:40:08.000Z</time></trkpt>
      <trkpt lat="37.233560" lon="128.142754"><ele>899.7</ele><time>2020-01-11T10:40:23.000Z</time></trkpt>
      <trkpt lat="37.233495" lon="128.142669"><ele>898.0</ele><time>2020-01-11T10:40:49.000Z</time></trkpt>
      <trkpt lat="37.233442" lon="128.142575"><ele>895.4</ele><time>2020-01-11T10:41:04.000Z</time></trkpt>
      <trkpt lat="37.233334" lon="128.142516"><ele>894.1</ele><time>2020-01-11T10:41:14.000Z</time></trkpt>
      <trkpt lat="37.233246" lon="128.142493"><ele>894.6</ele><time>2020-01-11T10:41:23.000Z</time></trkpt>
      <trkpt lat="37.233150" lon="128.142529"><ele>895.3</ele><time>2020-01-11T10:41:39.000Z</time></trkpt>
      <trkpt lat="37.233062" lon="128.142537"><ele>899.9</ele><time>2020-01-11T10:42:04.000Z</time></trkpt>
      <trkpt lat="37.232974" lon="128.142573"><ele>903.6</ele><time>2020-01-11T10:42:41.000Z</time></trkpt>
      <trkpt lat="37.233040" lon="128.142625"><ele>909.0</ele><time>2020-01-11T10:43:03.000Z</time></trkpt>
      <trkpt lat="37.233133" lon="128.142619"><ele>909.6</ele><time>2020-01-11T10:43:15.000Z</time></trkpt>
      <trkpt lat="37.233044" lon="128.142637"><ele>914.3</ele><time>2020-01-11T10:43:41.000Z</time></trkpt>
      <trkpt lat="37.233061" lon="128.142740"><ele>918.0</ele><time>2020-01-11T10:44:36.000Z</time></trkpt>
      <trkpt lat="37.232973" lon="128.142769"><ele>919.6</ele><time>2020-01-11T10:44:58.000Z</time></trkpt>
      <trkpt lat="37.232890" lon="128.142808"><ele>921.7</ele><time>2020-01-11T10:45:22.000Z</time></trkpt>
      <trkpt lat="37.232804" lon="128.142762"><ele>920.8</ele><time>2020-01-11T10:45:40.000Z</time></trkpt>
      <trkpt lat="37.232748" lon="128.142673"><ele>919.4</ele><time>2020-01-11T10:45:49.000Z</time></trkpt>
      <trkpt lat="37.232666" lon="128.142612"><ele>919.4</ele><time>2020-01-11T10:45:58.000Z</time></trkpt>
      <trkpt lat="37.232577" lon="128.142595"><ele>918.9</ele><time>2020-01-11T10:46:06.000Z</time></trkpt>
      <trkpt lat="37.232484" lon="128.142533"><ele>920.2</ele><time>2020-01-11T10:46:23.000Z</time></trkpt>
      <trkpt lat="37.232397" lon="128.142515"><ele>925.6</ele><time>2020-01-11T10:46:50.000Z</time></trkpt>
      <trkpt lat="37.232292" lon="128.142516"><ele>924.1</ele><time>2020-01-11T10:47:05.000Z</time></trkpt>
      <trkpt lat="37.232199" lon="128.142462"><ele>925.4</ele><time>2020-01-11T10:47:15.000Z</time></trkpt>
      <trkpt lat="37.232127" lon="128.142523"><ele>930.2</ele><time>2020-01-11T10:47:24.000Z</time></trkpt>
      <trkpt lat="37.232071" lon="128.142434"><ele>932.3</ele><time>2020-01-11T10:47:44.000Z</time></trkpt>
      <trkpt lat="37.232033" lon="128.142329"><ele>932.3</ele><time>2020-01-11T10:48:01.000Z</time></trkpt>
      <trkpt lat="37.232012" lon="128.142221"><ele>936.8</ele><time>2020-01-11T10:48:37.000Z</time></trkpt>
      <trkpt lat="37.231973" lon="128.142153"><ele>944.7</ele><time>2020-01-11T10:49:35.000Z</time></trkpt>
      <trkpt lat="37.231892" lon="128.142106"><ele>952.3</ele><time>2020-01-11T10:50:27.000Z</time></trkpt>
      <trkpt lat="37.231802" lon="128.142078"><ele>957.1</ele><time>2020-01-11T10:51:31.000Z</time></trkpt>
      <trkpt lat="37.231735" lon="128.142157"><ele>956.3</ele><time>2020-01-11T10:51:43.000Z</time></trkpt>
      <trkpt lat="37.231660" lon="128.142231"><ele>955.1</ele><time>2020-01-11T10:52:00.000Z</time></trkpt>
      <trkpt lat="37.231594" lon="128.142306"><ele>952.8</ele><time>2020-01-11T10:52:47.000Z</time></trkpt>
      <trkpt lat="37.231593" lon="128.142295"><ele>952.4</ele><time>2020-01-11T10:54:13.000Z</time></trkpt>
      <trkpt lat="37.231588" lon="128.142203"><ele>946.5</ele><time>2020-01-11T10:58:01.000Z</time></trkpt>
      <trkpt lat="37.231596" lon="128.142193"><ele>941.4</ele><time>2020-01-11T11:00:01.000Z</time></trkpt>
      <trkpt lat="37.231496" lon="128.142077"><ele>935.2</ele><time>2020-01-11T11:02:59.000Z</time></trkpt>
      <trkpt lat="37.231418" lon="128.142017"><ele>935.0</ele><time>2020-01-11T11:03:18.000Z</time></trkpt>
      <trkpt lat="37.231321" lon="128.142017"><ele>935.7</ele><time>2020-01-11T11:03:31.000Z</time></trkpt>
      <trkpt lat="37.231234" lon="128.141943"><ele>931.1</ele><time>2020-01-11T11:03:42.000Z</time></trkpt>
      <trkpt lat="37.231149" lon="128.141884"><ele>932.5</ele><time>2020-01-11T11:03:56.000Z</time></trkpt>
      <trkpt lat="37.231063" lon="128.141912"><ele>936.5</ele><time>2020-01-11T11:04:19.000Z</time></trkpt>
      <trkpt lat="37.230959" lon="128.141897"><ele>937.6</ele><time>2020-01-11T11:04:39.000Z</time></trkpt>
      <trkpt lat="37.230871" lon="128.141869"><ele>937.1</ele><time>2020-01-11T11:04:50.000Z</time></trkpt>
      <trkpt lat="37.230770" lon="128.141849"><ele>939.3</ele><time>2020-01-11T11:05:06.000Z</time></trkpt>
      <trkpt lat="37.230718" lon="128.141765"><ele>943.6</ele><time>2020-01-11T11:05:33.000Z</time></trkpt>
      <trkpt lat="37.230742" lon="128.141656"><ele>943.4</ele><time>2020-01-11T11:05:49.000Z</time></trkpt>
      <trkpt lat="37.230812" lon="128.141583"><ele>946.4</ele><time>2020-01-11T11:06:07.000Z</time></trkpt>
      <trkpt lat="37.230886" lon="128.141562"><ele>952.6</ele><time>2020-01-11T11:06:39.000Z</time></trkpt>
      <trkpt lat="37.230883" lon="128.141581"><ele>962.9</ele><time>2020-01-11T11:08:07.000Z</time></trkpt>
      <trkpt lat="37.230824" lon="128.141541"><ele>970.0</ele><time>2020-01-11T11:08:43.000Z</time></trkpt>
      <trkpt lat="37.230839" lon="128.141437"><ele>973.7</ele><time>2020-01-11T11:09:18.000Z</time></trkpt>
      <trkpt lat="37.230735" lon="128.141447"><ele>974.8</ele><time>2020-01-11T11:10:10.000Z</time></trkpt>
      <trkpt lat="37.230653" lon="128.141489"><ele>978.5</ele><time>2020-01-11T11:10:27.000Z</time></trkpt>
      <trkpt lat="37.230587" lon="128.141399"><ele>980.1</ele><time>2020-01-11T11:10:47.000Z</time></trkpt>
      <trkpt lat="37.230597" lon="128.141289"><ele>982.4</ele><time>2020-01-11T11:11:14.000Z</time></trkpt>
      <trkpt lat="37.230591" lon="128.141265"><ele>985.8</ele><time>2020-01-11T11:13:15.000Z</time></trkpt>
      <trkpt lat="37.230502" lon="128.141234"><ele>983.1</ele><time>2020-01-11T11:14:48.000Z</time></trkpt>
      <trkpt lat="37.230457" lon="128.141239"><ele>982.5</ele><time>2020-01-11T11:16:48.000Z</time></trkpt>
      <trkpt lat="37.230525" lon="128.141239"><ele>961.4</ele><time>2020-01-11T11:41:40.000Z</time></trkpt>
      <trkpt lat="37.230476" lon="128.141187"><ele>979.2</ele><time>2020-01-11T11:42:27.000Z</time></trkpt>
      <trkpt lat="37.230487" lon="128.141227"><ele>987.6</ele><time>2020-01-11T11:43:39.000Z</time></trkpt>
      <trkpt lat="37.230424" lon="128.141266"><ele>980.8</ele><time>2020-01-11T11:46:31.000Z</time></trkpt>
      <trkpt lat="37.230369" lon="128.141328"><ele>973.7</ele><time>2020-01-11T11:46:49.000Z</time></trkpt>
      <trkpt lat="37.230277" lon="128.141284"><ele>972.4</ele><time>2020-01-11T11:47:01.000Z</time></trkpt>
      <trkpt lat="37.230198" lon="128.141223"><ele>968.0</ele><time>2020-01-11T11:47:15.000Z</time></trkpt>
      <trkpt lat="37.230115" lon="128.141167"><ele>968.3</ele><time>2020-01-11T11:47:28.000Z</time></trkpt>
      <trkpt lat="37.230040" lon="128.141232"><ele>966.4</ele><time>2020-01-11T11:48:00.000Z</time></trkpt>
      <trkpt lat="37.229961" lon="128.141247"><ele>961.0</ele><time>2020-01-11T11:48:28.000Z</time></trkpt>
      <trkpt lat="37.229875" lon="128.141306"><ele>959.5</ele><time>2020-01-11T11:48:36.000Z</time></trkpt>
      <trkpt lat="37.229797" lon="128.141399"><ele>962.5</ele><time>2020-01-11T11:48:46.000Z</time></trkpt>
      <trkpt lat="37.229729" lon="128.141466"><ele>966.3</ele><time>2020-01-11T11:48:53.000Z</time></trkpt>
      <trkpt lat="37.229636" lon="128.141451"><ele>965.8</ele><time>2020-01-11T11:49:05.000Z</time></trkpt>
      <trkpt lat="37.229564" lon="128.141413"><ele>971.0</ele><time>2020-01-11T11:49:21.000Z</time></trkpt>
      <trkpt lat="37.229485" lon="128.141415"><ele>976.1</ele><time>2020-01-11T11:49:40.000Z</time></trkpt>
      <trkpt lat="37.229397" lon="128.141371"><ele>976.1</ele><time>2020-01-11T11:50:03.000Z</time></trkpt>
      <trkpt lat="37.229312" lon="128.141362"><ele>979.5</ele><time>2020-01-11T11:50:22.000Z</time></trkpt>
      <trkpt lat="37.229269" lon="128.141256"><ele>980.6</ele><time>2020-01-11T11:50:51.000Z</time></trkpt>
      <trkpt lat="37.229302" lon="128.141158"><ele>984.0</ele><time>2020-01-11T11:51:22.000Z</time></trkpt>
      <trkpt lat="37.229233" lon="128.141107"><ele>986.4</ele><time>2020-01-11T11:53:22.000Z</time></trkpt>
      <trkpt lat="37.229212" lon="128.141219"><ele>985.9</ele><time>2020-01-11T11:53:40.000Z</time></trkpt>
      <trkpt lat="37.229166" lon="128.141325"><ele>984.4</ele><time>2020-01-11T11:53:50.000Z</time></trkpt>
      <trkpt lat="37.229175" lon="128.141439"><ele>986.3</ele><time>2020-01-11T11:54:03.000Z</time></trkpt>
      <trkpt lat="37.229171" lon="128.141550"><ele>983.9</ele><time>2020-01-11T11:54:17.000Z</time></trkpt>
      <trkpt lat="37.229104" lon="128.141614"><ele>980.1</ele><time>2020-01-11T11:54:28.000Z</time></trkpt>
      <trkpt lat="37.229009" lon="128.141599"><ele>979.5</ele><time>2020-01-11T11:54:37.000Z</time></trkpt>
      <trkpt lat="37.228916" lon="128.141631"><ele>978.7</ele><time>2020-01-11T11:54:47.000Z</time></trkpt>
      <trkpt lat="37.228835" lon="128.141582"><ele>979.6</ele><time>2020-01-11T11:54:53.000Z</time></trkpt>
      <trkpt lat="37.228746" lon="128.141582"><ele>981.8</ele><time>2020-01-11T11:55:07.000Z</time></trkpt>
      <trkpt lat="37.228677" lon="128.141655"><ele>982.7</ele><time>2020-01-11T11:55:29.000Z</time></trkpt>
      <trkpt lat="37.228665" lon="128.141772"><ele>984.6</ele><time>2020-01-11T11:55:44.000Z</time></trkpt>
      <trkpt lat="37.228647" lon="128.141893"><ele>987.6</ele><time>2020-01-11T11:56:00.000Z</time></trkpt>
      <trkpt lat="37.228637" lon="128.141990"><ele>994.1</ele><time>2020-01-11T11:56:10.000Z</time></trkpt>
      <trkpt lat="37.228612" lon="128.142105"><ele>992.9</ele><time>2020-01-11T11:56:25.000Z</time></trkpt>
      <trkpt lat="37.228597" lon="128.142222"><ele>993.1</ele><time>2020-01-11T11:56:55.000Z</time></trkpt>
      <trkpt lat="37.228637" lon="128.142341"><ele>994.1</ele><time>2020-01-11T11:57:09.000Z</time></trkpt>
      <trkpt lat="37.228553" lon="128.142430"><ele>994.7</ele><time>2020-01-11T11:57:23.000Z</time></trkpt>
      <trkpt lat="37.228439" lon="128.142418"><ele>994.2</ele><time>2020-01-11T11:57:26.000Z</time></trkpt>
      <trkpt lat="37.228345" lon="128.142408"><ele>994.3</ele><time>2020-01-11T11:57:40.000Z</time></trkpt>
      <trkpt lat="37.228287" lon="128.142334"><ele>1001.0</ele><time>2020-01-11T11:58:16.000Z</time></trkpt>
      <trkpt lat="37.228262" lon="128.142223"><ele>1009.5</ele><time>2020-01-11T11:59:54.000Z</time></trkpt>
      <trkpt lat="37.228282" lon="128.142214"><ele>1010.6</ele><time>2020-01-11T12:01:18.000Z</time></trkpt>
      <trkpt lat="37.228351" lon="128.142306"><ele>1010.4</ele><time>2020-01-11T12:01:27.000Z</time></trkpt>
      <trkpt lat="37.228296" lon="128.142383"><ele>1005.4</ele><time>2020-01-11T12:02:25.000Z</time></trkpt>
      <trkpt lat="37.228361" lon="128.142349"><ele>1000.0</ele><time>2020-01-11T12:03:27.000Z</time></trkpt>
      <trkpt lat="37.228362" lon="128.142221"><ele>998.3</ele><time>2020-01-11T12:03:49.000Z</time></trkpt>
      <trkpt lat="37.228346" lon="128.142100"><ele>996.3</ele><time>2020-01-11T12:03:57.000Z</time></trkpt>
      <trkpt lat="37.228412" lon="128.142023"><ele>995.8</ele><time>2020-01-11T12:04:12.000Z</time></trkpt>
      <trkpt lat="37.228487" lon="128.141952"><ele>994.8</ele><time>2020-01-11T12:04:25.000Z</time></trkpt>
      <trkpt lat="37.228569" lon="128.141892"><ele>991.5</ele><time>2020-01-11T12:04:36.000Z</time></trkpt>
      <trkpt lat="37.228646" lon="128.141808"><ele>993.4</ele><time>2020-01-11T12:04:46.000Z</time></trkpt>
      <trkpt lat="37.228680" lon="128.141690"><ele>992.0</ele><time>2020-01-11T12:05:00.000Z</time></trkpt>
      <trkpt lat="37.228734" lon="128.141591"><ele>991.3</ele><time>2020-01-11T12:05:11.000Z</time></trkpt>
      <trkpt lat="37.228799" lon="128.141522"><ele>988.0</ele><time>2020-01-11T12:05:28.000Z</time></trkpt>
      <trkpt lat="37.228851" lon="128.141441"><ele>983.4</ele><time>2020-01-11T12:05:55.000Z</time></trkpt>
      <trkpt lat="37.228919" lon="128.141341"><ele>983.5</ele><time>2020-01-11T12:06:08.000Z</time></trkpt>
      <trkpt lat="37.228964" lon="128.141240"><ele>982.0</ele><time>2020-01-11T12:06:19.000Z</time></trkpt>
      <trkpt lat="37.229011" lon="128.141135"><ele>982.0</ele><time>2020-01-11T12:06:28.000Z</time></trkpt>
      <trkpt lat="37.229057" lon="128.141041"><ele>979.3</ele><time>2020-01-11T12:06:38.000Z</time></trkpt>
      <trkpt lat="37.229064" lon="128.140927"><ele>982.9</ele><time>2020-01-11T12:06:43.000Z</time></trkpt>
      <trkpt lat="37.229083" lon="128.140819"><ele>979.9</ele><time>2020-01-11T12:06:51.000Z</time></trkpt>
      <trkpt lat="37.229152" lon="128.140762"><ele>975.0</ele><time>2020-01-11T12:07:06.000Z</time></trkpt>
      <trkpt lat="37.229186" lon="128.140654"><ele>971.9</ele><time>2020-01-11T12:07:30.000Z</time></trkpt>
      <trkpt lat="37.229256" lon="128.140574"><ele>967.8</ele><time>2020-01-11T12:07:43.000Z</time></trkpt>
      <trkpt lat="37.229312" lon="128.140474"><ele>965.8</ele><time>2020-01-11T12:07:58.000Z</time></trkpt>
      <trkpt lat="37.229357" lon="128.140405"><ele>959.0</ele><time>2020-01-11T12:08:19.000Z</time></trkpt>
      <trkpt lat="37.229447" lon="128.140353"><ele>956.5</ele><time>2020-01-11T12:08:33.000Z</time></trkpt>
      <trkpt lat="37.229485" lon="128.140249"><ele>951.6</ele><time>2020-01-11T12:08:57.000Z</time></trkpt>
      <trkpt lat="37.229527" lon="128.140124"><ele>951.9</ele><time>2020-01-11T12:09:08.000Z</time></trkpt>
      <trkpt lat="37.229586" lon="128.140033"><ele>949.0</ele><time>2020-01-11T12:09:23.000Z</time></trkpt>
      <trkpt lat="37.229645" lon="128.139923"><ele>946.7</ele><time>2020-01-11T12:09:35.000Z</time></trkpt>
      <trkpt lat="37.229686" lon="128.139836"><ele>942.4</ele><time>2020-01-11T12:09:52.000Z</time></trkpt>
      <trkpt lat="37.229673" lon="128.139724"><ele>941.5</ele><time>2020-01-11T12:10:05.000Z</time></trkpt>
      <trkpt lat="37.229660" lon="128.139631"><ele>935.4</ele><time>2020-01-11T12:10:20.000Z</time></trkpt>
      <trkpt lat="37.229577" lon="128.139594"><ele>932.9</ele><time>2020-01-11T12:10:30.000Z</time></trkpt>
      <trkpt lat="37.229499" lon="128.139556"><ele>928.5</ele><time>2020-01-11T12:10:46.000Z</time></trkpt>
      <trkpt lat="37.229480" lon="128.139442"><ele>925.4</ele><time>2020-01-11T12:11:04.000Z</time></trkpt>
      <trkpt lat="37.229448" lon="128.139328"><ele>922.3</ele><time>2020-01-11T12:11:17.000Z</time></trkpt>
      <trkpt lat="37.229512" lon="128.139242"><ele>918.9</ele><time>2020-01-11T12:11:28.000Z</time></trkpt>
      <trkpt lat="37.229571" lon="128.139156"><ele>918.3</ele><time>2020-01-11T12:11:43.000Z</time></trkpt>
      <trkpt lat="37.229627" lon="128.139059"><ele>917.1</ele><time>2020-01-11T12:11:52.000Z</time></trkpt>
      <trkpt lat="37.229615" lon="128.138925"><ele>917.1</ele><time>2020-01-11T12:12:09.000Z</time></trkpt>
      <trkpt lat="37.229650" lon="128.138799"><ele>915.6</ele><time>2020-01-11T12:12:19.000Z</time></trkpt>
      <trkpt lat="37.229670" lon="128.138690"><ele>913.6</ele><time>2020-01-11T12:12:28.000Z</time></trkpt>
      <trkpt lat="37.229616" lon="128.138598"><ele>916.0</ele><time>2020-01-11T12:12:36.000Z</time></trkpt>
      <trkpt lat="37.229586" lon="128.138478"><ele>915.9</ele><time>2020-01-11T12:12:43.000Z</time></trkpt>
      <trkpt lat="37.229625" lon="128.138344"><ele>917.2</ele><time>2020-01-11T12:12:53.000Z</time></trkpt>
      <trkpt lat="37.229594" lon="128.138224"><ele>916.0</ele><time>2020-01-11T12:13:03.000Z</time></trkpt>
      <trkpt lat="37.229553" lon="128.138124"><ele>911.5</ele><time>2020-01-11T12:13:17.000Z</time></trkpt>
      <trkpt lat="37.229495" lon="128.138026"><ele>909.9</ele><time>2020-01-11T12:13:33.000Z</time></trkpt>
      <trkpt lat="37.229481" lon="128.137922"><ele>906.0</ele><time>2020-01-11T12:14:00.000Z</time></trkpt>
      <trkpt lat="37.229526" lon="128.137837"><ele>900.9</ele><time>2020-01-11T12:14:32.000Z</time></trkpt>
      <trkpt lat="37.229573" lon="128.137751"><ele>895.7</ele><time>2020-01-11T12:14:49.000Z</time></trkpt>
      <trkpt lat="37.229570" lon="128.137609"><ele>894.3</ele><time>2020-01-11T12:15:12.000Z</time></trkpt>
      <trkpt lat="37.229595" lon="128.137507"><ele>889.2</ele><time>2020-01-11T12:15:25.000Z</time></trkpt>
      <trkpt lat="37.229646" lon="128.137418"><ele>885.4</ele><time>2020-01-11T12:15:42.000Z</time></trkpt>
      <trkpt lat="37.229711" lon="128.137356"><ele>879.7</ele><time>2020-01-11T12:15:56.000Z</time></trkpt>
      <trkpt lat="37.229782" lon="128.137301"><ele>875.5</ele><time>2020-01-11T12:16:11.000Z</time></trkpt>
      <trkpt lat="37.229831" lon="128.137206"><ele>872.5</ele><time>2020-01-11T12:16:25.000Z</time></trkpt>
      <trkpt lat="37.229826" lon="128.137099"><ele>868.9</ele><time>2020-01-11T12:16:43.000Z</time></trkpt>
      <trkpt lat="37.229819" lon="128.136990"><ele>865.8</ele><time>2020-01-11T12:16:56.000Z</time></trkpt>
      <trkpt lat="37.229807" lon="128.136869"><ele>862.2</ele><time>2020-01-11T12:17:23.000Z</time></trkpt>
      <trkpt lat="37.229768" lon="128.136770"><ele>859.8</ele><time>2020-01-11T12:18:06.000Z</time></trkpt>
      <trkpt lat="37.229736" lon="128.136648"><ele>857.7</ele><time>2020-01-11T12:18:19.000Z</time></trkpt>
      <trkpt lat="37.229742" lon="128.136541"><ele>853.0</ele><time>2020-01-11T12:18:38.000Z</time></trkpt>
      <trkpt lat="37.229684" lon="128.136464"><ele>847.1</ele><time>2020-01-11T12:18:53.000Z</time></trkpt>
      <trkpt lat="37.229604" lon="128.136399"><ele>844.8</ele><time>2020-01-11T12:18:58.000Z</time></trkpt>
      <trkpt lat="37.229518" lon="128.136348"><ele>842.1</ele><time>2020-01-11T12:19:09.000Z</time></trkpt>
      <trkpt lat="37.229531" lon="128.136210"><ele>838.8</ele><time>2020-01-11T12:19:20.000Z</time></trkpt>
      <trkpt lat="37.229511" lon="128.136110"><ele>832.5</ele><time>2020-01-11T12:19:33.000Z</time></trkpt>
      <trkpt lat="37.229481" lon="128.136002"><ele>829.1</ele><time>2020-01-11T12:19:51.000Z</time></trkpt>
      <trkpt lat="37.229475" lon="128.135896"><ele>824.0</ele><time>2020-01-11T12:20:10.000Z</time></trkpt>
      <trkpt lat="37.229423" lon="128.135799"><ele>822.6</ele><time>2020-01-11T12:20:35.000Z</time></trkpt>
      <trkpt lat="37.229495" lon="128.135818"><ele>820.8</ele><time>2020-01-11T12:22:11.000Z</time></trkpt>
      <trkpt lat="37.229522" lon="128.135695"><ele>821.8</ele><time>2020-01-11T12:27:02.000Z</time></trkpt>
      <trkpt lat="37.229589" lon="128.135645"><ele>816.2</ele><time>2020-01-11T12:27:15.000Z</time></trkpt>
      <trkpt lat="37.229663" lon="128.135586"><ele>809.4</ele><time>2020-01-11T12:27:34.000Z</time></trkpt>
      <trkpt lat="37.229697" lon="128.135471"><ele>806.2</ele><time>2020-01-11T12:27:45.000Z</time></trkpt>
      <trkpt lat="37.229735" lon="128.135364"><ele>802.3</ele><time>2020-01-11T12:28:02.000Z</time></trkpt>
      <trkpt lat="37.229758" lon="128.135250"><ele>799.6</ele><time>2020-01-11T12:28:16.000Z</time></trkpt>
      <trkpt lat="37.229801" lon="128.135155"><ele>797.0</ele><time>2020-01-11T12:28:24.000Z</time></trkpt>
      <trkpt lat="37.229862" lon="128.135038"><ele>796.2</ele><time>2020-01-11T12:28:32.000Z</time></trkpt>
      <trkpt lat="37.229958" lon="128.135016"><ele>793.7</ele><time>2020-01-11T12:28:42.000Z</time></trkpt>
      <trkpt lat="37.230030" lon="128.135083"><ele>792.2</ele><time>2020-01-11T12:28:49.000Z</time></trkpt>
      <trkpt lat="37.230115" lon="128.135149"><ele>788.7</ele><time>2020-01-11T12:28:59.000Z</time></trkpt>
      <trkpt lat="37.230195" lon="128.135198"><ele>785.7</ele><time>2020-01-11T12:29:16.000Z</time></trkpt>
      <trkpt lat="37.230275" lon="128.135143"><ele>783.6</ele><time>2020-01-11T12:29:26.000Z</time></trkpt>
      <trkpt lat="37.230368" lon="128.135101"><ele>782.0</ele><time>2020-01-11T12:29:35.000Z</time></trkpt>
      <trkpt lat="37.230467" lon="128.135097"><ele>779.3</ele><time>2020-01-11T12:29:45.000Z</time></trkpt>
      <trkpt lat="37.230447" lon="128.135174"><ele>771.2</ele><time>2020-01-11T12:30:05.000Z</time></trkpt>
      <trkpt lat="37.230522" lon="128.135255"><ele>770.0</ele><time>2020-01-11T12:30:23.000Z</time></trkpt>
      <trkpt lat="37.230452" lon="128.135322"><ele>763.6</ele><time>2020-01-11T12:30:38.000Z</time></trkpt>
      <trkpt lat="37.230468" lon="128.135429"><ele>760.5</ele><time>2020-01-11T12:30:57.000Z</time></trkpt>
      <trkpt lat="37.230557" lon="128.135487"><ele>758.4</ele><time>2020-01-11T12:31:10.000Z</time></trkpt>
      <trkpt lat="37.230593" lon="128.135595"><ele>754.9</ele><time>2020-01-11T12:31:24.000Z</time></trkpt>
      <trkpt lat="37.230681" lon="128.135623"><ele>753.5</ele><time>2020-01-11T12:31:35.000Z</time></trkpt>
      <trkpt lat="37.230781" lon="128.135586"><ele>750.4</ele><time>2020-01-11T12:31:51.000Z</time></trkpt>
      <trkpt lat="37.230852" lon="128.135660"><ele>748.1</ele><time>2020-01-11T12:31:59.000Z</time></trkpt>
      <trkpt lat="37.230958" lon="128.135653"><ele>746.0</ele><time>2020-01-11T12:32:14.000Z</time></trkpt>
      <trkpt lat="37.231033" lon="128.135610"><ele>741.8</ele><time>2020-01-11T12:32:34.000Z</time></trkpt>
      <trkpt lat="37.231134" lon="128.135635"><ele>739.3</ele><time>2020-01-11T12:32:45.000Z</time></trkpt>
      <trkpt lat="37.231221" lon="128.135614"><ele>737.0</ele><time>2020-01-11T12:33:03.000Z</time></trkpt>
      <trkpt lat="37.231297" lon="128.135663"><ele>732.7</ele><time>2020-01-11T12:33:12.000Z</time></trkpt>
      <trkpt lat="37.231375" lon="128.135718"><ele>729.7</ele><time>2020-01-11T12:33:27.000Z</time></trkpt>
      <trkpt lat="37.231439" lon="128.135785"><ele>725.8</ele><time>2020-01-11T12:33:36.000Z</time></trkpt>
      <trkpt lat="37.231536" lon="128.135789"><ele>721.7</ele><time>2020-01-11T12:33:53.000Z</time></trkpt>
      <trkpt lat="37.231586" lon="128.135709"><ele>717.3</ele><time>2020-01-11T12:34:36.000Z</time></trkpt>
      <trkpt lat="37.231663" lon="128.135642"><ele>715.2</ele><time>2020-01-11T12:34:51.000Z</time></trkpt>
      <trkpt lat="37.231752" lon="128.135592"><ele>711.8</ele><time>2020-01-11T12:35:05.000Z</time></trkpt>
      <trkpt lat="37.231846" lon="128.135588"><ele>708.6</ele><time>2020-01-11T12:35:14.000Z</time></trkpt>
      <trkpt lat="37.231924" lon="128.135660"><ele>705.8</ele><time>2020-01-11T12:35:23.000Z</time></trkpt>
      <trkpt lat="37.232012" lon="128.135735"><ele>703.8</ele><time>2020-01-11T12:35:35.000Z</time></trkpt>
      <trkpt lat="37.232106" lon="128.135713"><ele>702.8</ele><time>2020-01-11T12:35:48.000Z</time></trkpt>
      <trkpt lat="37.232188" lon="128.135669"><ele>701.0</ele><time>2020-01-11T12:36:03.000Z</time></trkpt>
      <trkpt lat="37.232281" lon="128.135676"><ele>699.1</ele><time>2020-01-11T12:36:09.000Z</time></trkpt>
      <trkpt lat="37.232360" lon="128.135767"><ele>698.8</ele><time>2020-01-11T12:36:20.000Z</time></trkpt>
      <trkpt lat="37.232437" lon="128.135847"><ele>697.1</ele><time>2020-01-11T12:36:29.000Z</time></trkpt>
      <trkpt lat="37.232531" lon="128.135873"><ele>695.0</ele><time>2020-01-11T12:36:35.000Z</time></trkpt>
      <trkpt lat="37.232635" lon="128.135908"><ele>694.8</ele><time>2020-01-11T12:36:46.000Z</time></trkpt>
      <trkpt lat="37.232713" lon="128.135964"><ele>692.4</ele><time>2020-01-11T12:36:55.000Z</time></trkpt>
      <trkpt lat="37.232791" lon="128.135894"><ele>689.2</ele><time>2020-01-11T12:37:18.000Z</time></trkpt>
      <trkpt lat="37.232880" lon="128.135915"><ele>686.0</ele><time>2020-01-11T12:37:27.000Z</time></trkpt>
      <trkpt lat="37.232964" lon="128.135966"><ele>684.2</ele><time>2020-01-11T12:37:40.000Z</time></trkpt>
      <trkpt lat="37.233056" lon="128.135935"><ele>684.3</ele><time>2020-01-11T12:37:58.000Z</time></trkpt>
      <trkpt lat="37.233153" lon="128.135971"><ele>681.7</ele><time>2020-01-11T12:38:15.000Z</time></trkpt>
      <trkpt lat="37.233240" lon="128.136002"><ele>679.4</ele><time>2020-01-11T12:38:24.000Z</time></trkpt>
      <trkpt lat="37.233308" lon="128.136082"><ele>677.6</ele><time>2020-01-11T12:38:37.000Z</time></trkpt>
      <trkpt lat="37.233320" lon="128.136191"><ele>673.6</ele><time>2020-01-11T12:38:54.000Z</time></trkpt>
      <trkpt lat="37.233426" lon="128.136187"><ele>668.5</ele><time>2020-01-11T12:39:30.000Z</time></trkpt>
      <trkpt lat="37.233476" lon="128.136088"><ele>668.8</ele><time>2020-01-11T12:39:50.000Z</time></trkpt>
      <trkpt lat="37.233533" lon="128.135999"><ele>666.6</ele><time>2020-01-11T12:39:59.000Z</time></trkpt>
      <trkpt lat="37.233625" lon="128.135981"><ele>664.3</ele><time>2020-01-11T12:40:17.000Z</time></trkpt>
      <trkpt lat="37.233725" lon="128.136069"><ele>662.8</ele><time>2020-01-11T12:40:24.000Z</time></trkpt>
      <trkpt lat="37.233805" lon="128.136135"><ele>662.0</ele><time>2020-01-11T12:40:36.000Z</time></trkpt>
      <trkpt lat="37.233910" lon="128.136158"><ele>660.4</ele><time>2020-01-11T12:40:45.000Z</time></trkpt>
      <trkpt lat="37.234002" lon="128.136143"><ele>658.8</ele><time>2020-01-11T12:40:53.000Z</time></trkpt>
      <trkpt lat="37.234104" lon="128.136200"><ele>656.0</ele><time>2020-01-11T12:41:01.000Z</time></trkpt>
      <trkpt lat="37.234179" lon="128.136270"><ele>655.3</ele><time>2020-01-11T12:41:08.000Z</time></trkpt>
      <trkpt lat="37.234276" lon="128.136239"><ele>652.2</ele><time>2020-01-11T12:41:20.000Z</time></trkpt>
      <trkpt lat="37.234343" lon="128.136148"><ele>652.6</ele><time>2020-01-11T12:41:38.000Z</time></trkpt>
      <trkpt lat="37.234439" lon="128.136152"><ele>650.3</ele><time>2020-01-11T12:41:50.000Z</time></trkpt>
      <trkpt lat="37.234526" lon="128.136169"><ele>647.8</ele><time>2020-01-11T12:42:01.000Z</time></trkpt>
      <trkpt lat="37.234631" lon="128.136153"><ele>644.1</ele><time>2020-01-11T12:42:17.000Z</time></trkpt>
      <trkpt lat="37.234716" lon="128.136212"><ele>643.2</ele><time>2020-01-11T12:42:23.000Z</time></trkpt>
      <trkpt lat="37.234811" lon="128.136245"><ele>642.4</ele><time>2020-01-11T12:42:32.000Z</time></trkpt>
      <trkpt lat="37.234895" lon="128.136287"><ele>641.4</ele><time>2020-01-11T12:42:41.000Z</time></trkpt>
      <trkpt lat="37.234993" lon="128.136305"><ele>640.6</ele><time>2020-01-11T12:42:49.000Z</time></trkpt>
      <trkpt lat="37.235077" lon="128.136264"><ele>639.1</ele><time>2020-01-11T12:43:00.000Z</time></trkpt>
      <trkpt lat="37.235175" lon="128.136277"><ele>638.2</ele><time>2020-01-11T12:43:10.000Z</time></trkpt>
      <trkpt lat="37.235269" lon="128.136324"><ele>636.9</ele><time>2020-01-11T12:43:19.000Z</time></trkpt>
      <trkpt lat="37.235368" lon="128.136367"><ele>635.8</ele><time>2020-01-11T12:43:28.000Z</time></trkpt>
      <trkpt lat="37.235483" lon="128.136374"><ele>633.6</ele><time>2020-01-11T12:43:41.000Z</time></trkpt>
      <trkpt lat="37.235572" lon="128.136440"><ele>633.0</ele><time>2020-01-11T12:43:50.000Z</time></trkpt>
      <trkpt lat="37.235662" lon="128.136463"><ele>630.9</ele><time>2020-01-11T12:44:01.000Z</time></trkpt>
      <trkpt lat="37.235750" lon="128.136529"><ele>628.9</ele><time>2020-01-11T12:44:09.000Z</time></trkpt>
      <trkpt lat="37.235817" lon="128.136608"><ele>627.8</ele><time>2020-01-11T12:44:17.000Z</time></trkpt>
      <trkpt lat="37.235919" lon="128.136600"><ele>625.6</ele><time>2020-01-11T12:44:27.000Z</time></trkpt>
      <trkpt lat="37.236013" lon="128.136531"><ele>623.5</ele><time>2020-01-11T12:44:35.000Z</time></trkpt>
      <trkpt lat="37.236094" lon="128.136462"><ele>622.6</ele><time>2020-01-11T12:44:42.000Z</time></trkpt>
      <trkpt lat="37.236176" lon="128.136388"><ele>622.8</ele><time>2020-01-11T12:44:49.000Z</time></trkpt>
      <trkpt lat="37.236283" lon="128.136387"><ele>621.6</ele><time>2020-01-11T12:44:58.000Z</time></trkpt>
      <trkpt lat="37.236369" lon="128.136447"><ele>621.0</ele><time>2020-01-11T12:45:09.000Z</time></trkpt>
      <trkpt lat="37.236456" lon="128.136515"><ele>619.9</ele><time>2020-01-11T12:45:14.000Z</time></trkpt>
      <trkpt lat="37.236541" lon="128.136550"><ele>617.7</ele><time>2020-01-11T12:45:21.000Z</time></trkpt>
      <trkpt lat="37.236647" lon="128.136590"><ele>615.2</ele><time>2020-01-11T12:45:29.000Z</time></trkpt>
      <trkpt lat="37.236742" lon="128.136605"><ele>613.8</ele><time>2020-01-11T12:45:37.000Z</time></trkpt>
      <trkpt lat="37.236830" lon="128.136650"><ele>612.5</ele><time>2020-01-11T12:45:44.000Z</time></trkpt>
      <trkpt lat="37.236935" lon="128.136706"><ele>610.9</ele><time>2020-01-11T12:45:54.000Z</time></trkpt>
      <trkpt lat="37.237008" lon="128.136772"><ele>609.6</ele><time>2020-01-11T12:46:01.000Z</time></trkpt>
      <trkpt lat="37.237102" lon="128.136813"><ele>607.2</ele><time>2020-01-11T12:46:11.000Z</time></trkpt>
      <trkpt lat="37.237199" lon="128.136827"><ele>605.7</ele><time>2020-01-11T12:46:21.000Z</time></trkpt>
      <trkpt lat="37.237290" lon="128.136851"><ele>604.0</ele><time>2020-01-11T12:46:34.000Z</time></trkpt>
      <trkpt lat="37.237385" lon="128.136921"><ele>603.2</ele><time>2020-01-11T12:46:40.000Z</time></trkpt>
      <trkpt lat="37.237445" lon="128.137012"><ele>602.2</ele><time>2020-01-11T12:46:47.000Z</time></trkpt>
      <trkpt lat="37.237533" lon="128.137056"><ele>600.2</ele><time>2020-01-11T12:46:55.000Z</time></trkpt>
      <trkpt lat="37.237611" lon="128.137139"><ele>598.9</ele><time>2020-01-11T12:47:02.000Z</time></trkpt>
      <trkpt lat="37.237687" lon="128.137210"><ele>597.8</ele><time>2020-01-11T12:47:09.000Z</time></trkpt>
      <trkpt lat="37.237762" lon="128.137289"><ele>595.9</ele><time>2020-01-11T12:47:18.000Z</time></trkpt>
      <trkpt lat="37.237846" lon="128.137368"><ele>594.9</ele><time>2020-01-11T12:47:29.000Z</time></trkpt>
      <trkpt lat="37.237934" lon="128.137429"><ele>593.3</ele><time>2020-01-11T12:47:38.000Z</time></trkpt>
      <trkpt lat="37.238036" lon="128.137468"><ele>591.7</ele><time>2020-01-11T12:47:49.000Z</time></trkpt>
      <trkpt lat="37.238140" lon="128.137426"><ele>593.6</ele><time>2020-01-11T12:48:01.000Z</time></trkpt>
      <trkpt lat="37.238214" lon="128.137386"><ele>588.5</ele><time>2020-01-11T12:48:11.000Z</time></trkpt>
      <trkpt lat="37.238313" lon="128.137372"><ele>586.3</ele><time>2020-01-11T12:48:20.000Z</time></trkpt>
      <trkpt lat="37.238407" lon="128.137456"><ele>585.2</ele><time>2020-01-11T12:48:27.000Z</time></trkpt>
      <trkpt lat="37.238485" lon="128.137533"><ele>583.6</ele><time>2020-01-11T12:48:36.000Z</time></trkpt>
      <trkpt lat="37.238575" lon="128.137555"><ele>583.5</ele><time>2020-01-11T12:48:46.000Z</time></trkpt>
      <trkpt lat="37.238663" lon="128.137621"><ele>582.0</ele><time>2020-01-11T12:48:53.000Z</time></trkpt>
      <trkpt lat="37.238759" lon="128.137698"><ele>581.3</ele><time>2020-01-11T12:49:04.000Z</time></trkpt>
      <trkpt lat="37.238858" lon="128.137744"><ele>580.5</ele><time>2020-01-11T12:49:15.000Z</time></trkpt>
      <trkpt lat="37.238955" lon="128.137760"><ele>580.7</ele><time>2020-01-11T12:49:25.000Z</time></trkpt>
      <trkpt lat="37.239045" lon="128.137835"><ele>579.9</ele><time>2020-01-11T12:49:32.000Z</time></trkpt>
      <trkpt lat="37.239124" lon="128.137907"><ele>579.1</ele><time>2020-01-11T12:49:42.000Z</time></trkpt>
      <trkpt lat="37.239207" lon="128.137966"><ele>577.6</ele><time>2020-01-11T12:49:51.000Z</time></trkpt>
      <trkpt lat="37.239290" lon="128.138013"><ele>574.5</ele><time>2020-01-11T12:50:01.000Z</time></trkpt>
      <trkpt lat="37.239370" lon="128.138051"><ele>571.0</ele><time>2020-01-11T12:50:12.000Z</time></trkpt>
      <trkpt lat="37.239465" lon="128.138028"><ele>569.1</ele><time>2020-01-11T12:50:23.000Z</time></trkpt>
      <trkpt lat="37.239546" lon="128.138104"><ele>568.3</ele><time>2020-01-11T12:50:30.000Z</time></trkpt>
      <trkpt lat="37.239642" lon="128.138165"><ele>566.8</ele><time>2020-01-11T12:50:38.000Z</time></trkpt>
      <trkpt lat="37.239721" lon="128.138121"><ele>563.0</ele><time>2020-01-11T12:51:31.000Z</time></trkpt>
      <trkpt lat="37.239779" lon="128.138025"><ele>563.6</ele><time>2020-01-11T12:51:59.000Z</time></trkpt>
      <trkpt lat="37.239909" lon="128.138039"><ele>563.3</ele><time>2020-01-11T12:52:09.000Z</time></trkpt>
      <trkpt lat="37.240026" lon="128.138046"><ele>561.5</ele><time>2020-01-11T12:52:17.000Z</time></trkpt>
      <trkpt lat="37.240117" lon="128.138061"><ele>560.6</ele><time>2020-01-11T12:52:26.000Z</time></trkpt>
      <trkpt lat="37.240217" lon="128.138053"><ele>559.3</ele><time>2020-01-11T12:52:35.000Z</time></trkpt>
      <trkpt lat="37.240310" lon="128.138059"><ele>558.1</ele><time>2020-01-11T12:52:44.000Z</time></trkpt>
      <trkpt lat="37.240409" lon="128.138093"><ele>556.9</ele><time>2020-01-11T12:52:52.000Z</time></trkpt>
      <trkpt lat="37.240493" lon="128.138154"><ele>555.7</ele><time>2020-01-11T12:53:01.000Z</time></trkpt>
      <trkpt lat="37.240595" lon="128.138148"><ele>553.7</ele><time>2020-01-11T12:53:14.000Z</time></trkpt>
      <trkpt lat="37.240683" lon="128.138177"><ele>553.1</ele><time>2020-01-11T12:53:20.000Z</time></trkpt>
      <trkpt lat="37.240770" lon="128.138212"><ele>551.7</ele><time>2020-01-11T12:53:29.000Z</time></trkpt>
      <trkpt lat="37.240873" lon="128.138248"><ele>549.9</ele><time>2020-01-11T12:53:37.000Z</time></trkpt>
      <trkpt lat="37.240968" lon="128.138223"><ele>548.3</ele><time>2020-01-11T12:53:49.000Z</time></trkpt>
      <trkpt lat="37.241069" lon="128.138233"><ele>547.2</ele><time>2020-01-11T12:53:55.000Z</time></trkpt>
      <trkpt lat="37.241170" lon="128.138206"><ele>544.8</ele><time>2020-01-11T12:54:05.000Z</time></trkpt>
      <trkpt lat="37.241275" lon="128.138269"><ele>543.4</ele><time>2020-01-11T12:54:13.000Z</time></trkpt>
      <trkpt lat="37.241361" lon="128.138329"><ele>542.2</ele><time>2020-01-11T12:54:23.000Z</time></trkpt>
      <trkpt lat="37.241471" lon="128.138387"><ele>541.5</ele><time>2020-01-11T12:54:32.000Z</time></trkpt>
      <trkpt lat="37.241554" lon="128.138435"><ele>540.8</ele><time>2020-01-11T12:54:39.000Z</time></trkpt>
      <trkpt lat="37.241632" lon="128.138506"><ele>539.5</ele><time>2020-01-11T12:54:46.000Z</time></trkpt>
      <trkpt lat="37.241700" lon="128.138582"><ele>539.1</ele><time>2020-01-11T12:54:54.000Z</time></trkpt>
      <trkpt lat="37.241781" lon="128.138627"><ele>537.7</ele><time>2020-01-11T12:55:02.000Z</time></trkpt>
      <trkpt lat="37.241867" lon="128.138689"><ele>535.7</ele><time>2020-01-11T12:55:11.000Z</time></trkpt>
      <trkpt lat="37.241967" lon="128.138757"><ele>534.4</ele><time>2020-01-11T12:55:20.000Z</time></trkpt>
      <trkpt lat="37.242034" lon="128.138841"><ele>532.9</ele><time>2020-01-11T12:55:28.000Z</time></trkpt>
      <trkpt lat="37.242113" lon="128.138911"><ele>532.2</ele><time>2020-01-11T12:55:37.000Z</time></trkpt>
      <trkpt lat="37.242216" lon="128.138898"><ele>532.2</ele><time>2020-01-11T12:55:47.000Z</time></trkpt>
      <trkpt lat="37.242330" lon="128.138880"><ele>532.2</ele><time>2020-01-11T12:55:56.000Z</time></trkpt>
      <trkpt lat="37.242449" lon="128.138872"><ele>532.0</ele><time>2020-01-11T12:56:04.000Z</time></trkpt>
      <trkpt lat="37.242539" lon="128.138839"><ele>531.6</ele><time>2020-01-11T12:56:12.000Z</time></trkpt>
      <trkpt lat="37.242629" lon="128.138810"><ele>531.2</ele><time>2020-01-11T12:56:19.000Z</time></trkpt>
      <trkpt lat="37.242725" lon="128.138800"><ele>530.9</ele><time>2020-01-11T12:56:28.000Z</time></trkpt>
      <trkpt lat="37.242821" lon="128.138778"><ele>530.3</ele><time>2020-01-11T12:56:36.000Z</time></trkpt>
      <trkpt lat="37.242911" lon="128.138735"><ele>529.7</ele><time>2020-01-11T12:56:44.000Z</time></trkpt>
      <trkpt lat="37.242991" lon="128.138658"><ele>529.2</ele><time>2020-01-11T12:56:53.000Z</time></trkpt>
      <trkpt lat="37.243062" lon="128.138588"><ele>528.1</ele><time>2020-01-11T12:57:00.000Z</time></trkpt>
      <trkpt lat="37.243155" lon="128.138535"><ele>527.6</ele><time>2020-01-11T12:57:08.000Z</time></trkpt>
      <trkpt lat="37.243233" lon="128.138456"><ele>527.8</ele><time>2020-01-11T12:57:16.000Z</time></trkpt>
      <trkpt lat="37.243324" lon="128.138394"><ele>527.4</ele><time>2020-01-11T12:57:26.000Z</time></trkpt>
      <trkpt lat="37.243416" lon="128.138433"><ele>527.1</ele><time>2020-01-11T12:57:32.000Z</time></trkpt>
      <trkpt lat="37.243525" lon="128.138417"><ele>526.6</ele><time>2020-01-11T12:57:41.000Z</time></trkpt>
      <trkpt lat="37.243632" lon="128.138452"><ele>525.3</ele><time>2020-01-11T12:57:51.000Z</time></trkpt>
      <trkpt lat="37.243698" lon="128.138549"><ele>525.1</ele><time>2020-01-11T12:57:57.000Z</time></trkpt>
      <trkpt lat="37.243753" lon="128.138641"><ele>523.2</ele><time>2020-01-11T12:58:04.000Z</time></trkpt>
      <trkpt lat="37.243847" lon="128.138624"><ele>521.5</ele><time>2020-01-11T12:58:14.000Z</time></trkpt>
      <trkpt lat="37.243942" lon="128.138553"><ele>519.7</ele><time>2020-01-11T12:58:24.000Z</time></trkpt>
      <trkpt lat="37.244034" lon="128.138615"><ele>519.1</ele><time>2020-01-11T12:58:34.000Z</time></trkpt>
      <trkpt lat="37.244094" lon="128.138714"><ele>517.9</ele><time>2020-01-11T12:58:40.000Z</time></trkpt>
      <trkpt lat="37.244184" lon="128.138730"><ele>516.8</ele><time>2020-01-11T12:58:54.000Z</time></trkpt>
      <trkpt lat="37.244277" lon="128.138829"><ele>514.8</ele><time>2020-01-11T12:59:04.000Z</time></trkpt>
      <trkpt lat="37.244403" lon="128.138888"><ele>513.0</ele><time>2020-01-11T12:59:12.000Z</time></trkpt>
      <trkpt lat="37.244516" lon="128.138961"><ele>511.0</ele><time>2020-01-11T12:59:22.000Z</time></trkpt>
      <trkpt lat="37.244616" lon="128.138993"><ele>510.2</ele><time>2020-01-11T12:59:32.000Z</time></trkpt>
      <trkpt lat="37.244713" lon="128.139050"><ele>508.2</ele><time>2020-01-11T12:59:40.000Z</time></trkpt>
      <trkpt lat="37.244793" lon="128.139115"><ele>506.7</ele><time>2020-01-11T12:59:48.000Z</time></trkpt>
      <trkpt lat="37.244898" lon="128.139174"><ele>504.8</ele><time>2020-01-11T12:59:57.000Z</time></trkpt>
      <trkpt lat="37.244978" lon="128.139230"><ele>504.1</ele><time>2020-01-11T13:00:04.000Z</time></trkpt>
      <trkpt lat="37.245052" lon="128.139299"><ele>503.6</ele><time>2020-01-11T13:00:11.000Z</time></trkpt>
      <trkpt lat="37.245146" lon="128.139376"><ele>502.7</ele><time>2020-01-11T13:00:20.000Z</time></trkpt>
      <trkpt lat="37.245246" lon="128.139423"><ele>502.6</ele><time>2020-01-11T13:00:31.000Z</time></trkpt>
      <trkpt lat="37.245329" lon="128.139476"><ele>501.7</ele><time>2020-01-11T13:00:37.000Z</time></trkpt>
      <trkpt lat="37.245414" lon="128.139539"><ele>500.2</ele><time>2020-01-11T13:00:45.000Z</time></trkpt>
      <trkpt lat="37.245511" lon="128.139605"><ele>497.7</ele><time>2020-01-11T13:00:54.000Z</time></trkpt>
      <trkpt lat="37.245594" lon="128.139664"><ele>497.4</ele><time>2020-01-11T13:01:02.000Z</time></trkpt>
      <trkpt lat="37.245682" lon="128.139717"><ele>497.6</ele><time>2020-01-11T13:01:12.000Z</time></trkpt>
      <trkpt lat="37.245789" lon="128.139736"><ele>497.0</ele><time>2020-01-11T13:01:22.000Z</time></trkpt>
      <trkpt lat="37.245863" lon="128.139811"><ele>496.1</ele><time>2020-01-11T13:01:28.000Z</time></trkpt>
      <trkpt lat="37.245945" lon="128.139901"><ele>493.9</ele><time>2020-01-11T13:01:38.000Z</time></trkpt>
      <trkpt lat="37.246012" lon="128.140008"><ele>492.1</ele><time>2020-01-11T13:01:47.000Z</time></trkpt>
      <trkpt lat="37.246080" lon="128.140103"><ele>489.9</ele><time>2020-01-11T13:01:56.000Z</time></trkpt>
      <trkpt lat="37.246142" lon="128.140184"><ele>489.0</ele><time>2020-01-11T13:02:04.000Z</time></trkpt>
      <trkpt lat="37.246230" lon="128.140237"><ele>487.4</ele><time>2020-01-11T13:02:14.000Z</time></trkpt>
      <trkpt lat="37.246319" lon="128.140270"><ele>486.3</ele><time>2020-01-11T13:02:22.000Z</time></trkpt>
      <trkpt lat="37.246391" lon="128.140356"><ele>485.8</ele><time>2020-01-11T13:02:30.000Z</time></trkpt>
      <trkpt lat="37.246475" lon="128.140425"><ele>484.2</ele><time>2020-01-11T13:02:37.000Z</time></trkpt>
      <trkpt lat="37.246566" lon="128.140481"><ele>483.6</ele><time>2020-01-11T13:02:45.000Z</time></trkpt>
      <trkpt lat="37.246656" lon="128.140492"><ele>482.9</ele><time>2020-01-11T13:02:55.000Z</time></trkpt>
      <trkpt lat="37.246746" lon="128.140508"><ele>482.3</ele><time>2020-01-11T13:03:02.000Z</time></trkpt>
      <trkpt lat="37.246841" lon="128.140533"><ele>481.6</ele><time>2020-01-11T13:03:09.000Z</time></trkpt>
      <trkpt lat="37.246935" lon="128.140526"><ele>480.4</ele><time>2020-01-11T13:03:18.000Z</time></trkpt>
      <trkpt lat="37.247025" lon="128.140566"><ele>479.5</ele><time>2020-01-11T13:03:26.000Z</time></trkpt>
      <trkpt lat="37.247123" lon="128.140606"><ele>479.3</ele><time>2020-01-11T13:03:35.000Z</time></trkpt>
      <trkpt lat="37.247191" lon="128.140696"><ele>478.8</ele><time>2020-01-11T13:03:40.000Z</time></trkpt>
      <trkpt lat="37.247273" lon="128.140760"><ele>478.6</ele><time>2020-01-11T13:03:51.000Z</time></trkpt>
      <trkpt lat="37.247374" lon="128.140753"><ele>477.9</ele><time>2020-01-11T13:04:00.000Z</time></trkpt>
      <trkpt lat="37.247475" lon="128.140784"><ele>476.9</ele><time>2020-01-11T13:04:12.000Z</time></trkpt>
      <trkpt lat="37.247559" lon="128.140850"><ele>476.1</ele><time>2020-01-11T13:04:18.000Z</time></trkpt>
      <trkpt lat="37.247663" lon="128.140866"><ele>475.8</ele><time>2020-01-11T13:04:28.000Z</time></trkpt>
      <trkpt lat="37.247757" lon="128.140900"><ele>474.8</ele><time>2020-01-11T13:04:36.000Z</time></trkpt>
      <trkpt lat="37.247855" lon="128.140916"><ele>474.3</ele><time>2020-01-11T13:04:44.000Z</time></trkpt>
      <trkpt lat="37.247948" lon="128.140910"><ele>473.0</ele><time>2020-01-11T13:04:53.000Z</time></trkpt>
      <trkpt lat="37.248032" lon="128.140991"><ele>472.2</ele><time>2020-01-11T13:05:05.000Z</time></trkpt>
      <trkpt lat="37.248137" lon="128.141039"><ele>471.5</ele><time>2020-01-11T13:05:13.000Z</time></trkpt>
      <trkpt lat="37.248240" lon="128.141033"><ele>471.1</ele><time>2020-01-11T13:05:23.000Z</time></trkpt>
      <trkpt lat="37.248324" lon="128.140972"><ele>470.6</ele><time>2020-01-11T13:05:44.000Z</time></trkpt>
      <trkpt lat="37.248411" lon="128.140919"><ele>469.7</ele><time>2020-01-11T13:05:52.000Z</time></trkpt>
      <trkpt lat="37.248498" lon="128.140879"><ele>468.8</ele><time>2020-01-11T13:05:59.000Z</time></trkpt>
      <trkpt lat="37.248594" lon="128.140846"><ele>468.1</ele><time>2020-01-11T13:06:07.000Z</time></trkpt>
      <trkpt lat="37.248683" lon="128.140829"><ele>467.6</ele><time>2020-01-11T13:06:15.000Z</time></trkpt>
      <trkpt lat="37.248779" lon="128.140877"><ele>466.7</ele><time>2020-01-11T13:06:22.000Z</time></trkpt>
    </trkseg>
  </trk>
</gpx>