<?xml version="1.0" encoding="UTF-8"?>
<gpx version="1.1" creator="gajago-nav" xmlns="http://www.topografix.com/GPX/1/1">
  <metadata><name>경남함양군__남덕유산_20160110</name></metadata>
  <wpt lat="35.745066" lon="127.679414">
    <name>들머리 (상남리 - 원점회귀)</name>
    <ele>701</ele>
  </wpt>
  <wpt lat="35.763040" lon="127.683790">
    <name>영각재</name>
  </wpt>
  <wpt lat="35.767540" lon="127.679520">
    <name>남덕유산</name>
    <ele>1513</ele>
  </wpt>
  <wpt lat="35.767609" lon="127.679323">
    <name>최고지점 (1530m)</name>
    <ele>1530</ele>
  </wpt>
  <wpt lat="35.768458" lon="127.679090">
    <name>갈림길</name>
  </wpt>
  <wpt lat="35.769889" lon="127.676646">
    <name>갈림길</name>
  </wpt>
  <wpt lat="35.771540" lon="127.669210">
    <name>서봉</name>
    <ele>1498</ele>
  </wpt>
  <wpt lat="35.769380" lon="127.677567">
    <name>갈림길</name>
  </wpt>
  <wpt lat="35.746529" lon="127.677610">
    <name>날머리 (원점회귀)</name>
    <ele>713</ele>
  </wpt>
  <trk>
    <name>경남함양군__남덕유산_20160110</name>
    <trkseg>
      <trkpt lat="35.745066" lon="127.679414"><ele>701.0</ele><time>2016-01-10T08:31:02.000Z</time></trkpt>
      <trkpt lat="35.745113" lon="127.679488"><ele>700.0</ele><time>2016-01-10T08:34:08.000Z</time></trkpt>
      <trkpt lat="35.745109" lon="127.679493"><ele>697.7</ele><time>2016-01-10T08:34:59.000Z</time></trkpt>
      <trkpt lat="35.745098" lon="127.679442"><ele>697.7</ele><time>2016-01-10T08:35:43.000Z</time></trkpt>
      <trkpt lat="35.745060" lon="127.679399"><ele>696.0</ele><time>2016-01-10T08:36:05.000Z</time></trkpt>
      <trkpt lat="35.745322" lon="127.679143"><ele>683.0</ele><time>2016-01-10T08:37:26.000Z</time></trkpt>
      <trkpt lat="35.745262" lon="127.679015"><ele>694.4</ele><time>2016-01-10T08:37:36.000Z</time></trkpt>
      <trkpt lat="35.745207" lon="127.678892"><ele>693.8</ele><time>2016-01-10T08:37:42.000Z</time></trkpt>
      <trkpt lat="35.745169" lon="127.678767"><ele>693.6</ele><time>2016-01-10T08:37:49.000Z</time></trkpt>
      <trkpt lat="35.745160" lon="127.678633"><ele>693.2</ele><time>2016-01-10T08:37:59.000Z</time></trkpt>
      <trkpt lat="35.745222" lon="127.678388"><ele>693.3</ele><time>2016-01-10T08:38:08.000Z</time></trkpt>
      <trkpt lat="35.745344" lon="127.678157"><ele>692.8</ele><time>2016-01-10T08:38:47.000Z</time></trkpt>
      <trkpt lat="35.745484" lon="127.677953"><ele>692.6</ele><time>2016-01-10T08:39:02.000Z</time></trkpt>
      <trkpt lat="35.745600" lon="127.677885"><ele>692.3</ele><time>2016-01-10T08:39:08.000Z</time></trkpt>
      <trkpt lat="35.745751" lon="127.677814"><ele>692.6</ele><time>2016-01-10T08:39:14.000Z</time></trkpt>
      <trkpt lat="35.745947" lon="127.677724"><ele>692.6</ele><time>2016-01-10T08:39:33.000Z</time></trkpt>
      <trkpt lat="35.746162" lon="127.677649"><ele>693.7</ele><time>2016-01-10T08:39:51.000Z</time></trkpt>
      <trkpt lat="35.746354" lon="127.677612"><ele>696.6</ele><time>2016-01-10T08:40:02.000Z</time></trkpt>
      <trkpt lat="35.746504" lon="127.677605"><ele>698.7</ele><time>2016-01-10T08:40:20.000Z</time></trkpt>
      <trkpt lat="35.746637" lon="127.677601"><ele>700.3</ele><time>2016-01-10T08:40:27.000Z</time></trkpt>
      <trkpt lat="35.746733" lon="127.677607"><ele>703.1</ele><time>2016-01-10T08:40:35.000Z</time></trkpt>
      <trkpt lat="35.746831" lon="127.677620"><ele>704.7</ele><time>2016-01-10T08:40:43.000Z</time></trkpt>
      <trkpt lat="35.746927" lon="127.677611"><ele>707.7</ele><time>2016-01-10T08:40:51.000Z</time></trkpt>
      <trkpt lat="35.746991" lon="127.677527"><ele>708.1</ele><time>2016-01-10T08:41:00.000Z</time></trkpt>
      <trkpt lat="35.747055" lon="127.677426"><ele>710.3</ele><time>2016-01-10T08:41:12.000Z</time></trkpt>
      <trkpt lat="35.747122" lon="127.677353"><ele>710.6</ele><time>2016-01-10T08:41:23.000Z</time></trkpt>
      <trkpt lat="35.747223" lon="127.677349"><ele>711.4</ele><time>2016-01-10T08:41:43.000Z</time></trkpt>
      <trkpt lat="35.747310" lon="127.677335"><ele>712.3</ele><time>2016-01-10T08:41:49.000Z</time></trkpt>
      <trkpt lat="35.747389" lon="127.677305"><ele>712.8</ele><time>2016-01-10T08:42:33.000Z</time></trkpt>
      <trkpt lat="35.747474" lon="127.677241"><ele>713.8</ele><time>2016-01-10T08:42:49.000Z</time></trkpt>
      <trkpt lat="35.747573" lon="127.677163"><ele>714.1</ele><time>2016-01-10T08:42:59.000Z</time></trkpt>
      <trkpt lat="35.747669" lon="127.677060"><ele>715.4</ele><time>2016-01-10T08:43:13.000Z</time></trkpt>
      <trkpt lat="35.747765" lon="127.676965"><ele>715.8</ele><time>2016-01-10T08:43:23.000Z</time></trkpt>
      <trkpt lat="35.747862" lon="127.676902"><ele>716.9</ele><time>2016-01-10T08:43:40.000Z</time></trkpt>
      <trkpt lat="35.747960" lon="127.676861"><ele>717.3</ele><time>2016-01-10T08:44:00.000Z</time></trkpt>
      <trkpt lat="35.748052" lon="127.676839"><ele>717.7</ele><time>2016-01-10T08:44:10.000Z</time></trkpt>
      <trkpt lat="35.748135" lon="127.676829"><ele>718.1</ele><time>2016-01-10T08:44:21.000Z</time></trkpt>
      <trkpt lat="35.748250" lon="127.676840"><ele>719.0</ele><time>2016-01-10T08:44:29.000Z</time></trkpt>
      <trkpt lat="35.748361" lon="127.676850"><ele>719.6</ele><time>2016-01-10T08:44:52.000Z</time></trkpt>
      <trkpt lat="35.748501" lon="127.676876"><ele>720.4</ele><time>2016-01-10T08:45:02.000Z</time></trkpt>
      <trkpt lat="35.748639" lon="127.676897"><ele>721.3</ele><time>2016-01-10T08:45:20.000Z</time></trkpt>
      <trkpt lat="35.748797" lon="127.676921"><ele>721.6</ele><time>2016-01-10T08:45:34.000Z</time></trkpt>
      <trkpt lat="35.748929" lon="127.676913"><ele>721.9</ele><time>2016-01-10T08:45:54.000Z</time></trkpt>
      <trkpt lat="35.749133" lon="127.676840"><ele>721.9</ele><time>2016-01-10T08:46:00.000Z</time></trkpt>
      <trkpt lat="35.749304" lon="127.676721"><ele>722.7</ele><time>2016-01-10T08:46:30.000Z</time></trkpt>
      <trkpt lat="35.749457" lon="127.676537"><ele>724.2</ele><time>2016-01-10T08:46:44.000Z</time></trkpt>
      <trkpt lat="35.749486" lon="127.676371"><ele>726.5</ele><time>2016-01-10T08:47:00.000Z</time></trkpt>
      <trkpt lat="35.749502" lon="127.676213"><ele>731.5</ele><time>2016-01-10T08:47:11.000Z</time></trkpt>
      <trkpt lat="35.749575" lon="127.676088"><ele>739.9</ele><time>2016-01-10T08:47:22.000Z</time></trkpt>
      <trkpt lat="35.749687" lon="127.676001"><ele>744.9</ele><time>2016-01-10T08:47:54.000Z</time></trkpt>
      <trkpt lat="35.749826" lon="127.675968"><ele>748.0</ele><time>2016-01-10T08:48:13.000Z</time></trkpt>
      <trkpt lat="35.749929" lon="127.675982"><ele>752.8</ele><time>2016-01-10T08:48:25.000Z</time></trkpt>
      <trkpt lat="35.750028" lon="127.676006"><ele>757.2</ele><time>2016-01-10T08:48:38.000Z</time></trkpt>
      <trkpt lat="35.750142" lon="127.676031"><ele>758.7</ele><time>2016-01-10T08:48:53.000Z</time></trkpt>
      <trkpt lat="35.750264" lon="127.676053"><ele>759.4</ele><time>2016-01-10T08:49:10.000Z</time></trkpt>
      <trkpt lat="35.750375" lon="127.676053"><ele>760.9</ele><time>2016-01-10T08:49:25.000Z</time></trkpt>
      <trkpt lat="35.750474" lon="127.676022"><ele>761.5</ele><time>2016-01-10T08:49:34.000Z</time></trkpt>
      <trkpt lat="35.750564" lon="127.675982"><ele>762.8</ele><time>2016-01-10T08:49:48.000Z</time></trkpt>
      <trkpt lat="35.750674" lon="127.675966"><ele>763.8</ele><time>2016-01-10T08:50:01.000Z</time></trkpt>
      <trkpt lat="35.750777" lon="127.675977"><ele>765.6</ele><time>2016-01-10T08:50:20.000Z</time></trkpt>
      <trkpt lat="35.750877" lon="127.675994"><ele>766.3</ele><time>2016-01-10T08:50:32.000Z</time></trkpt>
      <trkpt lat="35.750968" lon="127.676003"><ele>768.5</ele><time>2016-01-10T08:50:40.000Z</time></trkpt>
      <trkpt lat="35.751141" lon="127.676063"><ele>772.8</ele><time>2016-01-10T08:50:53.000Z</time></trkpt>
      <trkpt lat="35.751314" lon="127.676145"><ele>775.4</ele><time>2016-01-10T08:51:44.000Z</time></trkpt>
      <trkpt lat="35.751478" lon="127.676250"><ele>778.4</ele><time>2016-01-10T08:51:56.000Z</time></trkpt>
      <trkpt lat="35.751579" lon="127.676333"><ele>781.6</ele><time>2016-01-10T08:52:08.000Z</time></trkpt>
      <trkpt lat="35.751678" lon="127.676404"><ele>784.8</ele><time>2016-01-10T08:52:28.000Z</time></trkpt>
      <trkpt lat="35.751794" lon="127.676457"><ele>787.9</ele><time>2016-01-10T08:52:36.000Z</time></trkpt>
      <trkpt lat="35.751901" lon="127.676472"><ele>790.6</ele><time>2016-01-10T08:52:53.000Z</time></trkpt>
      <trkpt lat="35.752017" lon="127.676481"><ele>793.9</ele><time>2016-01-10T08:53:03.000Z</time></trkpt>
      <trkpt lat="35.752121" lon="127.676481"><ele>798.0</ele><time>2016-01-10T08:53:10.000Z</time></trkpt>
      <trkpt lat="35.752220" lon="127.676488"><ele>802.6</ele><time>2016-01-10T08:53:21.000Z</time></trkpt>
      <trkpt lat="35.752377" lon="127.676490"><ele>812.2</ele><time>2016-01-10T08:53:30.000Z</time></trkpt>
      <trkpt lat="35.752536" lon="127.676496"><ele>815.3</ele><time>2016-01-10T08:53:54.000Z</time></trkpt>
      <trkpt lat="35.752704" lon="127.676515"><ele>820.3</ele><time>2016-01-10T08:54:02.000Z</time></trkpt>
      <trkpt lat="35.752816" lon="127.676542"><ele>825.3</ele><time>2016-01-10T08:54:19.000Z</time></trkpt>
      <trkpt lat="35.752946" lon="127.676564"><ele>827.8</ele><time>2016-01-10T08:54:34.000Z</time></trkpt>
      <trkpt lat="35.753131" lon="127.676573"><ele>838.0</ele><time>2016-01-10T08:54:57.000Z</time></trkpt>
      <trkpt lat="35.753305" lon="127.676586"><ele>841.0</ele><time>2016-01-10T08:55:35.000Z</time></trkpt>
      <trkpt lat="35.753469" lon="127.676602"><ele>844.5</ele><time>2016-01-10T08:55:44.000Z</time></trkpt>
      <trkpt lat="35.753586" lon="127.676663"><ele>848.3</ele><time>2016-01-10T08:56:01.000Z</time></trkpt>
      <trkpt lat="35.753703" lon="127.676734"><ele>852.8</ele><time>2016-01-10T08:56:33.000Z</time></trkpt>
      <trkpt lat="35.753811" lon="127.676816"><ele>856.3</ele><time>2016-01-10T08:56:44.000Z</time></trkpt>
      <trkpt lat="35.753899" lon="127.676848"><ele>857.9</ele><time>2016-01-10T08:56:58.000Z</time></trkpt>
      <trkpt lat="35.753991" lon="127.676867"><ele>861.3</ele><time>2016-01-10T08:57:12.000Z</time></trkpt>
      <trkpt lat="35.754090" lon="127.676886"><ele>864.4</ele><time>2016-01-10T08:57:24.000Z</time></trkpt>
      <trkpt lat="35.754191" lon="127.676918"><ele>865.4</ele><time>2016-01-10T08:57:42.000Z</time></trkpt>
      <trkpt lat="35.754288" lon="127.676950"><ele>868.3</ele><time>2016-01-10T08:57:58.000Z</time></trkpt>
      <trkpt lat="35.754386" lon="127.676971"><ele>870.9</ele><time>2016-01-10T08:58:07.000Z</time></trkpt>
      <trkpt lat="35.754525" lon="127.676984"><ele>872.9</ele><time>2016-01-10T08:58:19.000Z</time></trkpt>
      <trkpt lat="35.754666" lon="127.677002"><ele>874.6</ele><time>2016-01-10T08:58:57.000Z</time></trkpt>
      <trkpt lat="35.754811" lon="127.677023"><ele>875.4</ele><time>2016-01-10T08:59:13.000Z</time></trkpt>
      <trkpt lat="35.754925" lon="127.677065"><ele>877.4</ele><time>2016-01-10T08:59:31.000Z</time></trkpt>
      <trkpt lat="35.755163" lon="127.677095"><ele>881.5</ele><time>2016-01-10T08:59:56.000Z</time></trkpt>
      <trkpt lat="35.755379" lon="127.677093"><ele>883.9</ele><time>2016-01-10T09:01:06.000Z</time></trkpt>
      <trkpt lat="35.755604" lon="127.677049"><ele>884.7</ele><time>2016-01-10T09:01:19.000Z</time></trkpt>
      <trkpt lat="35.755714" lon="127.677005"><ele>886.2</ele><time>2016-01-10T09:01:36.000Z</time></trkpt>
      <trkpt lat="35.755840" lon="127.676991"><ele>892.0</ele><time>2016-01-10T09:01:50.000Z</time></trkpt>
      <trkpt lat="35.756005" lon="127.676989"><ele>902.9</ele><time>2016-01-10T09:02:03.000Z</time></trkpt>
      <trkpt lat="35.756151" lon="127.676978"><ele>909.1</ele><time>2016-01-10T09:03:31.000Z</time></trkpt>
      <trkpt lat="35.756307" lon="127.676952"><ele>915.1</ele><time>2016-01-10T09:05:31.000Z</time></trkpt>
      <trkpt lat="35.756403" lon="127.676938"><ele>922.6</ele><time>2016-01-10T09:05:58.000Z</time></trkpt>
      <trkpt lat="35.756511" lon="127.676935"><ele>931.7</ele><time>2016-01-10T09:06:07.000Z</time></trkpt>
      <trkpt lat="35.756638" lon="127.676947"><ele>937.6</ele><time>2016-01-10T09:06:21.000Z</time></trkpt>
      <trkpt lat="35.756767" lon="127.676956"><ele>938.3</ele><time>2016-01-10T09:06:44.000Z</time></trkpt>
      <trkpt lat="35.756914" lon="127.676971"><ele>941.8</ele><time>2016-01-10T09:06:54.000Z</time></trkpt>
      <trkpt lat="35.757031" lon="127.676980"><ele>940.6</ele><time>2016-01-10T09:07:14.000Z</time></trkpt>
      <trkpt lat="35.757143" lon="127.676986"><ele>940.7</ele><time>2016-01-10T09:07:24.000Z</time></trkpt>
      <trkpt lat="35.757290" lon="127.676981"><ele>942.5</ele><time>2016-01-10T09:07:33.000Z</time></trkpt>
      <trkpt lat="35.757432" lon="127.676992"><ele>940.7</ele><time>2016-01-10T09:08:00.000Z</time></trkpt>
      <trkpt lat="35.757582" lon="127.676988"><ele>940.7</ele><time>2016-01-10T09:08:11.000Z</time></trkpt>
      <trkpt lat="35.757673" lon="127.676964"><ele>938.8</ele><time>2016-01-10T09:08:25.000Z</time></trkpt>
      <trkpt lat="35.757755" lon="127.676919"><ele>937.3</ele><time>2016-01-10T09:08:33.000Z</time></trkpt>
      <trkpt lat="35.757830" lon="127.676884"><ele>935.2</ele><time>2016-01-10T09:08:52.000Z</time></trkpt>
      <trkpt lat="35.757910" lon="127.676871"><ele>933.7</ele><time>2016-01-10T09:09:07.000Z</time></trkpt>
      <trkpt lat="35.758000" lon="127.676888"><ele>933.1</ele><time>2016-01-10T09:09:21.000Z</time></trkpt>
      <trkpt lat="35.758097" lon="127.676913"><ele>931.9</ele><time>2016-01-10T09:09:37.000Z</time></trkpt>
      <trkpt lat="35.758195" lon="127.676982"><ele>930.3</ele><time>2016-01-10T09:09:58.000Z</time></trkpt>
      <trkpt lat="35.758334" lon="127.677080"><ele>930.3</ele><time>2016-01-10T09:10:19.000Z</time></trkpt>
      <trkpt lat="35.758457" lon="127.677182"><ele>930.3</ele><time>2016-01-10T09:11:00.000Z</time></trkpt>
      <trkpt lat="35.758578" lon="127.677259"><ele>931.9</ele><time>2016-01-10T09:11:09.000Z</time></trkpt>
      <trkpt lat="35.758660" lon="127.677302"><ele>932.0</ele><time>2016-01-10T09:11:25.000Z</time></trkpt>
      <trkpt lat="35.758746" lon="127.677354"><ele>935.0</ele><time>2016-01-10T09:11:41.000Z</time></trkpt>
      <trkpt lat="35.758837" lon="127.677438"><ele>939.9</ele><time>2016-01-10T09:12:01.000Z</time></trkpt>
      <trkpt lat="35.758914" lon="127.677534"><ele>946.3</ele><time>2016-01-10T09:12:34.000Z</time></trkpt>
      <trkpt lat="35.758986" lon="127.677639"><ele>949.9</ele><time>2016-01-10T09:12:46.000Z</time></trkpt>
      <trkpt lat="35.759037" lon="127.677731"><ele>957.1</ele><time>2016-01-10T09:13:02.000Z</time></trkpt>
      <trkpt lat="35.759084" lon="127.677827"><ele>967.9</ele><time>2016-01-10T09:13:15.000Z</time></trkpt>
      <trkpt lat="35.759120" lon="127.677923"><ele>974.6</ele><time>2016-01-10T09:13:25.000Z</time></trkpt>
      <trkpt lat="35.759160" lon="127.678014"><ele>979.5</ele><time>2016-01-10T09:13:36.000Z</time></trkpt>
      <trkpt lat="35.759179" lon="127.678109"><ele>982.9</ele><time>2016-01-10T09:13:57.000Z</time></trkpt>
      <trkpt lat="35.759195" lon="127.678212"><ele>983.8</ele><time>2016-01-10T09:14:06.000Z</time></trkpt>
      <trkpt lat="35.759203" lon="127.678321"><ele>983.8</ele><time>2016-01-10T09:14:16.000Z</time></trkpt>
      <trkpt lat="35.759220" lon="127.678439"><ele>982.4</ele><time>2016-01-10T09:14:29.000Z</time></trkpt>
      <trkpt lat="35.759255" lon="127.678519"><ele>983.2</ele><time>2016-01-10T09:14:54.000Z</time></trkpt>
      <trkpt lat="35.759315" lon="127.678585"><ele>984.0</ele><time>2016-01-10T09:15:26.000Z</time></trkpt>
      <trkpt lat="35.759391" lon="127.678635"><ele>985.6</ele><time>2016-01-10T09:15:55.000Z</time></trkpt>
      <trkpt lat="35.759466" lon="127.678733"><ele>987.5</ele><time>2016-01-10T09:16:12.000Z</time></trkpt>
      <trkpt lat="35.759522" lon="127.678828"><ele>989.2</ele><time>2016-01-10T09:16:41.000Z</time></trkpt>
      <trkpt lat="35.759583" lon="127.678923"><ele>991.1</ele><time>2016-01-10T09:16:54.000Z</time></trkpt>
      <trkpt lat="35.759631" lon="127.679010"><ele>992.6</ele><time>2016-01-10T09:17:14.000Z</time></trkpt>
      <trkpt lat="35.759676" lon="127.679102"><ele>993.4</ele><time>2016-01-10T09:17:30.000Z</time></trkpt>
      <trkpt lat="35.759701" lon="127.679202"><ele>994.7</ele><time>2016-01-10T09:17:40.000Z</time></trkpt>
      <trkpt lat="35.759724" lon="127.679291"><ele>995.6</ele><time>2016-01-10T09:17:52.000Z</time></trkpt>
      <trkpt lat="35.759744" lon="127.679377"><ele>996.8</ele><time>2016-01-10T09:18:06.000Z</time></trkpt>
      <trkpt lat="35.759775" lon="127.679449"><ele>997.8</ele><time>2016-01-10T09:18:20.000Z</time></trkpt>
      <trkpt lat="35.759810" lon="127.679520"><ele>999.0</ele><time>2016-01-10T09:19:03.000Z</time></trkpt>
      <trkpt lat="35.759848" lon="127.679595"><ele>1000.3</ele><time>2016-01-10T09:19:28.000Z</time></trkpt>
      <trkpt lat="35.759892" lon="127.679668"><ele>1002.1</ele><time>2016-01-10T09:19:48.000Z</time></trkpt>
      <trkpt lat="35.759939" lon="127.679742"><ele>1005.0</ele><time>2016-01-10T09:20:07.000Z</time></trkpt>
      <trkpt lat="35.759990" lon="127.679820"><ele>1009.3</ele><time>2016-01-10T09:20:21.000Z</time></trkpt>
      <trkpt lat="35.760049" lon="127.679884"><ele>1014.5</ele><time>2016-01-10T09:20:38.000Z</time></trkpt>
      <trkpt lat="35.760116" lon="127.679938"><ele>1020.0</ele><time>2016-01-10T09:21:08.000Z</time></trkpt>
      <trkpt lat="35.760182" lon="127.679978"><ele>1025.8</ele><time>2016-01-10T09:21:36.000Z</time></trkpt>
      <trkpt lat="35.760247" lon="127.680024"><ele>1031.8</ele><time>2016-01-10T09:21:57.000Z</time></trkpt>
      <trkpt lat="35.760307" lon="127.680076"><ele>1037.8</ele><time>2016-01-10T09:22:23.000Z</time></trkpt>
      <trkpt lat="35.760370" lon="127.680131"><ele>1043.8</ele><time>2016-01-10T09:22:42.000Z</time></trkpt>
      <trkpt lat="35.760430" lon="127.680186"><ele>1050.0</ele><time>2016-01-10T09:22:58.000Z</time></trkpt>
      <trkpt lat="35.760491" lon="127.680244"><ele>1055.8</ele><time>2016-01-10T09:23:28.000Z</time></trkpt>
      <trkpt lat="35.760555" lon="127.680303"><ele>1062.3</ele><time>2016-01-10T09:23:53.000Z</time></trkpt>
      <trkpt lat="35.760626" lon="127.680414"><ele>1071.9</ele><time>2016-01-10T09:24:22.000Z</time></trkpt>
      <trkpt lat="35.760695" lon="127.680520"><ele>1080.5</ele><time>2016-01-10T09:25:04.000Z</time></trkpt>
      <trkpt lat="35.760772" lon="127.680637"><ele>1086.5</ele><time>2016-01-10T09:25:19.000Z</time></trkpt>
      <trkpt lat="35.760840" lon="127.680718"><ele>1095.0</ele><time>2016-01-10T09:25:49.000Z</time></trkpt>
      <trkpt lat="35.760908" lon="127.680816"><ele>1100.6</ele><time>2016-01-10T09:26:03.000Z</time></trkpt>
      <trkpt lat="35.760977" lon="127.680938"><ele>1113.3</ele><time>2016-01-10T09:26:41.000Z</time></trkpt>
      <trkpt lat="35.761052" lon="127.681071"><ele>1123.0</ele><time>2016-01-10T09:27:09.000Z</time></trkpt>
      <trkpt lat="35.761131" lon="127.681186"><ele>1129.0</ele><time>2016-01-10T09:27:42.000Z</time></trkpt>
      <trkpt lat="35.761234" lon="127.681290"><ele>1137.5</ele><time>2016-01-10T09:29:05.000Z</time></trkpt>
      <trkpt lat="35.761296" lon="127.681412"><ele>1145.6</ele><time>2016-01-10T09:29:53.000Z</time></trkpt>
      <trkpt lat="35.761323" lon="127.681559"><ele>1150.7</ele><time>2016-01-10T09:30:12.000Z</time></trkpt>
      <trkpt lat="35.761314" lon="127.681693"><ele>1156.1</ele><time>2016-01-10T09:30:27.000Z</time></trkpt>
      <trkpt lat="35.761330" lon="127.681818"><ele>1159.3</ele><time>2016-01-10T09:30:37.000Z</time></trkpt>
      <trkpt lat="35.761372" lon="127.681924"><ele>1164.0</ele><time>2016-01-10T09:30:55.000Z</time></trkpt>
      <trkpt lat="35.761414" lon="127.682026"><ele>1166.2</ele><time>2016-01-10T09:31:18.000Z</time></trkpt>
      <trkpt lat="35.761453" lon="127.682112"><ele>1170.2</ele><time>2016-01-10T09:31:44.000Z</time></trkpt>
      <trkpt lat="35.761503" lon="127.682209"><ele>1174.2</ele><time>2016-01-10T09:32:00.000Z</time></trkpt>
      <trkpt lat="35.761550" lon="127.682311"><ele>1178.7</ele><time>2016-01-10T09:32:21.000Z</time></trkpt>
      <trkpt lat="35.761605" lon="127.682412"><ele>1182.6</ele><time>2016-01-10T09:32:43.000Z</time></trkpt>
      <trkpt lat="35.761642" lon="127.682511"><ele>1185.0</ele><time>2016-01-10T09:33:05.000Z</time></trkpt>
      <trkpt lat="35.761675" lon="127.682614"><ele>1188.1</ele><time>2016-01-10T09:33:30.000Z</time></trkpt>
      <trkpt lat="35.761717" lon="127.682714"><ele>1190.4</ele><time>2016-01-10T09:33:55.000Z</time></trkpt>
      <trkpt lat="35.761772" lon="127.682811"><ele>1191.4</ele><time>2016-01-10T09:34:23.000Z</time></trkpt>
      <trkpt lat="35.761848" lon="127.682907"><ele>1193.8</ele><time>2016-01-10T09:34:42.000Z</time></trkpt>
      <trkpt lat="35.761927" lon="127.682995"><ele>1197.0</ele><time>2016-01-10T09:35:29.000Z</time></trkpt>
      <trkpt lat="35.762019" lon="127.683078"><ele>1200.2</ele><time>2016-01-10T09:35:48.000Z</time></trkpt>
      <trkpt lat="35.762099" lon="127.683148"><ele>1201.9</ele><time>2016-01-10T09:36:23.000Z</time></trkpt>
      <trkpt lat="35.762158" lon="127.683225"><ele>1205.1</ele><time>2016-01-10T09:36:55.000Z</time></trkpt>
      <trkpt lat="35.762207" lon="127.683303"><ele>1208.6</ele><time>2016-01-10T09:37:19.000Z</time></trkpt>
      <trkpt lat="35.762254" lon="127.683380"><ele>1212.5</ele><time>2016-01-10T09:37:42.000Z</time></trkpt>
      <trkpt lat="35.762344" lon="127.683452"><ele>1216.0</ele><time>2016-01-10T09:38:16.000Z</time></trkpt>
      <trkpt lat="35.762448" lon="127.683496"><ele>1222.0</ele><time>2016-01-10T09:39:24.000Z</time></trkpt>
      <trkpt lat="35.762562" lon="127.683520"><ele>1224.2</ele><time>2016-01-10T09:40:14.000Z</time></trkpt>
      <trkpt lat="35.762653" lon="127.683537"><ele>1228.9</ele><time>2016-01-10T09:41:02.000Z</time></trkpt>
      <trkpt lat="35.762800" lon="127.683606"><ele>1241.6</ele><time>2016-01-10T09:41:25.000Z</time></trkpt>
      <trkpt lat="35.762967" lon="127.683673"><ele>1251.0</ele><time>2016-01-10T09:43:59.000Z</time></trkpt>
      <trkpt lat="35.763135" lon="127.683715"><ele>1257.5</ele><time>2016-01-10T09:44:17.000Z</time></trkpt>
      <trkpt lat="35.763239" lon="127.683694"><ele>1260.8</ele><time>2016-01-10T09:44:26.000Z</time></trkpt>
      <trkpt lat="35.763241" lon="127.683680"><ele>1217.9</ele><time>2016-01-10T09:44:26.000Z</time></trkpt>
      <trkpt lat="35.763315" lon="127.683649"><ele>1219.9</ele><time>2016-01-10T09:48:36.000Z</time></trkpt>
      <trkpt lat="35.763356" lon="127.683623"><ele>1337.0</ele><time>2016-01-10T09:49:18.000Z</time></trkpt>
      <trkpt lat="35.763549" lon="127.683365"><ele>1346.0</ele><time>2016-01-10T09:51:12.000Z</time></trkpt>
      <trkpt lat="35.763627" lon="127.683238"><ele>1257.0</ele><time>2016-01-10T09:52:05.000Z</time></trkpt>
      <trkpt lat="35.763704" lon="127.683138"><ele>1280.5</ele><time>2016-01-10T09:52:44.000Z</time></trkpt>
      <trkpt lat="35.763795" lon="127.683083"><ele>1297.9</ele><time>2016-01-10T09:52:55.000Z</time></trkpt>
      <trkpt lat="35.763874" lon="127.683016"><ele>1315.0</ele><time>2016-01-10T09:53:10.000Z</time></trkpt>
      <trkpt lat="35.763982" lon="127.682981"><ele>1333.0</ele><time>2016-01-10T09:53:41.000Z</time></trkpt>
      <trkpt lat="35.764110" lon="127.682904"><ele>1350.7</ele><time>2016-01-10T09:54:13.000Z</time></trkpt>
      <trkpt lat="35.764241" lon="127.682831"><ele>1356.0</ele><time>2016-01-10T09:55:11.000Z</time></trkpt>
      <trkpt lat="35.764336" lon="127.682719"><ele>1362.5</ele><time>2016-01-10T09:55:22.000Z</time></trkpt>
      <trkpt lat="35.764400" lon="127.682623"><ele>1370.3</ele><time>2016-01-10T09:55:38.000Z</time></trkpt>
      <trkpt lat="35.764463" lon="127.682513"><ele>1373.0</ele><time>2016-01-10T09:57:15.000Z</time></trkpt>
      <trkpt lat="35.764550" lon="127.682406"><ele>1377.0</ele><time>2016-01-10T09:58:12.000Z</time></trkpt>
      <trkpt lat="35.764639" lon="127.682307"><ele>1378.7</ele><time>2016-01-10T09:59:40.000Z</time></trkpt>
      <trkpt lat="35.764732" lon="127.682248"><ele>1383.0</ele><time>2016-01-10T10:00:28.000Z</time></trkpt>
      <trkpt lat="35.764803" lon="127.682181"><ele>1386.1</ele><time>2016-01-10T10:00:50.000Z</time></trkpt>
      <trkpt lat="35.764857" lon="127.682104"><ele>1392.9</ele><time>2016-01-10T10:02:16.000Z</time></trkpt>
      <trkpt lat="35.764898" lon="127.682004"><ele>1399.6</ele><time>2016-01-10T10:02:45.000Z</time></trkpt>
      <trkpt lat="35.764937" lon="127.681906"><ele>1403.7</ele><time>2016-01-10T10:03:39.000Z</time></trkpt>
      <trkpt lat="35.764993" lon="127.681830"><ele>1411.0</ele><time>2016-01-10T10:04:38.000Z</time></trkpt>
      <trkpt lat="35.765044" lon="127.681741"><ele>1417.8</ele><time>2016-01-10T10:04:50.000Z</time></trkpt>
      <trkpt lat="35.765103" lon="127.681659"><ele>1421.4</ele><time>2016-01-10T10:06:00.000Z</time></trkpt>
      <trkpt lat="35.765159" lon="127.681581"><ele>1429.6</ele><time>2016-01-10T10:06:09.000Z</time></trkpt>
      <trkpt lat="35.765235" lon="127.681564"><ele>1432.8</ele><time>2016-01-10T10:07:34.000Z</time></trkpt>
      <trkpt lat="35.765316" lon="127.681572"><ele>1439.7</ele><time>2016-01-10T10:08:10.000Z</time></trkpt>
      <trkpt lat="35.765411" lon="127.681593"><ele>1445.6</ele><time>2016-01-10T10:08:49.000Z</time></trkpt>
      <trkpt lat="35.765514" lon="127.681585"><ele>1450.0</ele><time>2016-01-10T10:10:16.000Z</time></trkpt>
      <trkpt lat="35.765630" lon="127.681573"><ele>1453.4</ele><time>2016-01-10T10:11:57.000Z</time></trkpt>
      <trkpt lat="35.765735" lon="127.681551"><ele>1456.3</ele><time>2016-01-10T10:12:52.000Z</time></trkpt>
      <trkpt lat="35.765845" lon="127.681532"><ele>1458.3</ele><time>2016-01-10T10:13:09.000Z</time></trkpt>
      <trkpt lat="35.765940" lon="127.681499"><ele>1461.2</ele><time>2016-01-10T10:13:31.000Z</time></trkpt>
      <trkpt lat="35.766034" lon="127.681445"><ele>1463.3</ele><time>2016-01-10T10:13:47.000Z</time></trkpt>
      <trkpt lat="35.766143" lon="127.681313"><ele>1465.6</ele><time>2016-01-10T10:14:27.000Z</time></trkpt>
      <trkpt lat="35.766256" lon="127.681179"><ele>1467.3</ele><time>2016-01-10T10:15:02.000Z</time></trkpt>
      <trkpt lat="35.766381" lon="127.681058"><ele>1470.1</ele><time>2016-01-10T10:15:21.000Z</time></trkpt>
      <trkpt lat="35.766472" lon="127.680987"><ele>1471.3</ele><time>2016-01-10T10:15:46.000Z</time></trkpt>
      <trkpt lat="35.766574" lon="127.680921"><ele>1474.0</ele><time>2016-01-10T10:15:59.000Z</time></trkpt>
      <trkpt lat="35.766640" lon="127.680836"><ele>1476.1</ele><time>2016-01-10T10:16:36.000Z</time></trkpt>
      <trkpt lat="35.766699" lon="127.680746"><ele>1476.8</ele><time>2016-01-10T10:16:51.000Z</time></trkpt>
      <trkpt lat="35.766729" lon="127.680646"><ele>1478.0</ele><time>2016-01-10T10:17:10.000Z</time></trkpt>
      <trkpt lat="35.766780" lon="127.680549"><ele>1479.1</ele><time>2016-01-10T10:17:29.000Z</time></trkpt>
      <trkpt lat="35.766827" lon="127.680448"><ele>1480.5</ele><time>2016-01-10T10:17:53.000Z</time></trkpt>
      <trkpt lat="35.766854" lon="127.680346"><ele>1481.5</ele><time>2016-01-10T10:18:04.000Z</time></trkpt>
      <trkpt lat="35.766863" lon="127.680226"><ele>1482.6</ele><time>2016-01-10T10:18:23.000Z</time></trkpt>
      <trkpt lat="35.766873" lon="127.680105"><ele>1484.3</ele><time>2016-01-10T10:18:41.000Z</time></trkpt>
      <trkpt lat="35.766892" lon="127.679979"><ele>1485.0</ele><time>2016-01-10T10:18:52.000Z</time></trkpt>
      <trkpt lat="35.766913" lon="127.679874"><ele>1486.3</ele><time>2016-01-10T10:19:04.000Z</time></trkpt>
      <trkpt lat="35.766958" lon="127.679782"><ele>1487.6</ele><time>2016-01-10T10:19:23.000Z</time></trkpt>
      <trkpt lat="35.767024" lon="127.679706"><ele>1489.0</ele><time>2016-01-10T10:20:16.000Z</time></trkpt>
      <trkpt lat="35.767130" lon="127.679652"><ele>1490.6</ele><time>2016-01-10T10:20:27.000Z</time></trkpt>
      <trkpt lat="35.767221" lon="127.679600"><ele>1491.4</ele><time>2016-01-10T10:21:32.000Z</time></trkpt>
      <trkpt lat="35.767331" lon="127.679558"><ele>1493.1</ele><time>2016-01-10T10:21:56.000Z</time></trkpt>
      <trkpt lat="35.767412" lon="127.679524"><ele>1494.7</ele><time>2016-01-10T10:22:35.000Z</time></trkpt>
      <trkpt lat="35.767494" lon="127.679483"><ele>1495.5</ele><time>2016-01-10T10:23:27.000Z</time></trkpt>
      <trkpt lat="35.767559" lon="127.679429"><ele>1497.5</ele><time>2016-01-10T10:25:54.000Z</time></trkpt>
      <trkpt lat="35.767595" lon="127.679364"><ele>1497.5</ele><time>2016-01-10T10:26:05.000Z</time></trkpt>
      <trkpt lat="35.767609" lon="127.679323"><ele>1530.0</ele><time>2016-01-10T10:27:33.000Z</time></trkpt>
      <trkpt lat="35.767886" lon="127.679239"><ele>1524.0</ele><time>2016-01-10T10:31:12.000Z</time></trkpt>
      <trkpt lat="35.767957" lon="127.679163"><ele>1509.5</ele><time>2016-01-10T10:31:22.000Z</time></trkpt>
      <trkpt lat="35.768063" lon="127.679139"><ele>1514.5</ele><time>2016-01-10T10:31:32.000Z</time></trkpt>
      <trkpt lat="35.768177" lon="127.679136"><ele>1514.6</ele><time>2016-01-10T10:31:54.000Z</time></trkpt>
      <trkpt lat="35.768291" lon="127.679124"><ele>1515.6</ele><time>2016-01-10T10:32:05.000Z</time></trkpt>
      <trkpt lat="35.768374" lon="127.679093"><ele>1516.1</ele><time>2016-01-10T10:32:25.000Z</time></trkpt>
      <trkpt lat="35.768437" lon="127.679033"><ele>1516.1</ele><time>2016-01-10T10:32:42.000Z</time></trkpt>
      <trkpt lat="35.768476" lon="127.678954"><ele>1516.1</ele><time>2016-01-10T10:33:02.000Z</time></trkpt>
      <trkpt lat="35.768511" lon="127.678804"><ele>1517.1</ele><time>2016-01-10T10:33:24.000Z</time></trkpt>
      <trkpt lat="35.768576" lon="127.678674"><ele>1516.6</ele><time>2016-01-10T10:33:57.000Z</time></trkpt>
      <trkpt lat="35.768653" lon="127.678573"><ele>1514.9</ele><time>2016-01-10T10:34:13.000Z</time></trkpt>
      <trkpt lat="35.768730" lon="127.678510"><ele>1512.9</ele><time>2016-01-10T10:34:29.000Z</time></trkpt>
      <trkpt lat="35.768783" lon="127.678418"><ele>1507.8</ele><time>2016-01-10T10:34:49.000Z</time></trkpt>
      <trkpt lat="35.768835" lon="127.678313"><ele>1500.6</ele><time>2016-01-10T10:35:23.000Z</time></trkpt>
      <trkpt lat="35.768885" lon="127.678222"><ele>1498.3</ele><time>2016-01-10T10:35:58.000Z</time></trkpt>
      <trkpt lat="35.768940" lon="127.678133"><ele>1495.0</ele><time>2016-01-10T10:36:13.000Z</time></trkpt>
      <trkpt lat="35.769000" lon="127.678012"><ele>1487.3</ele><time>2016-01-10T10:36:36.000Z</time></trkpt>
      <trkpt lat="35.769063" lon="127.677885"><ele>1484.9</ele><time>2016-01-10T10:37:06.000Z</time></trkpt>
      <trkpt lat="35.769141" lon="127.677776"><ele>1479.7</ele><time>2016-01-10T10:37:17.000Z</time></trkpt>
      <trkpt lat="35.769218" lon="127.677690"><ele>1474.2</ele><time>2016-01-10T10:37:36.000Z</time></trkpt>
      <trkpt lat="35.769308" lon="127.677608"><ele>1466.3</ele><time>2016-01-10T10:38:06.000Z</time></trkpt>
      <trkpt lat="35.769377" lon="127.677505"><ele>1457.2</ele><time>2016-01-10T10:38:28.000Z</time></trkpt>
      <trkpt lat="35.769440" lon="127.677405"><ele>1454.9</ele><time>2016-01-10T10:38:43.000Z</time></trkpt>
      <trkpt lat="35.769487" lon="127.677296"><ele>1450.5</ele><time>2016-01-10T10:38:55.000Z</time></trkpt>
      <trkpt lat="35.769540" lon="127.677214"><ele>1446.1</ele><time>2016-01-10T10:39:07.000Z</time></trkpt>
      <trkpt lat="35.769592" lon="127.677121"><ele>1441.8</ele><time>2016-01-10T10:40:10.000Z</time></trkpt>
      <trkpt lat="35.769636" lon="127.677026"><ele>1436.0</ele><time>2016-01-10T10:40:21.000Z</time></trkpt>
      <trkpt lat="35.769681" lon="127.676923"><ele>1431.1</ele><time>2016-01-10T10:40:33.000Z</time></trkpt>
      <trkpt lat="35.769731" lon="127.676837"><ele>1428.8</ele><time>2016-01-10T10:40:46.000Z</time></trkpt>
      <trkpt lat="35.769787" lon="127.676751"><ele>1423.7</ele><time>2016-01-10T10:40:56.000Z</time></trkpt>
      <trkpt lat="35.769859" lon="127.676680"><ele>1417.6</ele><time>2016-01-10T10:41:05.000Z</time></trkpt>
      <trkpt lat="35.769946" lon="127.676600"><ele>1413.1</ele><time>2016-01-10T10:42:43.000Z</time></trkpt>
      <trkpt lat="35.770050" lon="127.676524"><ele>1408.1</ele><time>2016-01-10T10:44:51.000Z</time></trkpt>
      <trkpt lat="35.770151" lon="127.676432"><ele>1402.8</ele><time>2016-01-10T10:45:03.000Z</time></trkpt>
      <trkpt lat="35.770254" lon="127.676319"><ele>1399.3</ele><time>2016-01-10T10:45:15.000Z</time></trkpt>
      <trkpt lat="35.770355" lon="127.676158"><ele>1394.4</ele><time>2016-01-10T10:45:27.000Z</time></trkpt>
      <trkpt lat="35.770468" lon="127.675927"><ele>1387.9</ele><time>2016-01-10T10:45:42.000Z</time></trkpt>
      <trkpt lat="35.770561" lon="127.675717"><ele>1385.1</ele><time>2016-01-10T10:46:05.000Z</time></trkpt>
      <trkpt lat="35.770638" lon="127.675549"><ele>1384.6</ele><time>2016-01-10T10:46:17.000Z</time></trkpt>
      <trkpt lat="35.770681" lon="127.675448"><ele>1383.1</ele><time>2016-01-10T10:46:27.000Z</time></trkpt>
      <trkpt lat="35.770726" lon="127.675349"><ele>1382.6</ele><time>2016-01-10T10:46:40.000Z</time></trkpt>
      <trkpt lat="35.770772" lon="127.675258"><ele>1382.6</ele><time>2016-01-10T10:47:15.000Z</time></trkpt>
      <trkpt lat="35.770823" lon="127.675167"><ele>1382.6</ele><time>2016-01-10T10:47:43.000Z</time></trkpt>
      <trkpt lat="35.770871" lon="127.675066"><ele>1382.6</ele><time>2016-01-10T10:48:00.000Z</time></trkpt>
      <trkpt lat="35.770874" lon="127.674876"><ele>1383.7</ele><time>2016-01-10T10:48:24.000Z</time></trkpt>
      <trkpt lat="35.770858" lon="127.674682"><ele>1386.3</ele><time>2016-01-10T10:48:55.000Z</time></trkpt>
      <trkpt lat="35.770819" lon="127.674482"><ele>1389.3</ele><time>2016-01-10T10:49:06.000Z</time></trkpt>
      <trkpt lat="35.770814" lon="127.674303"><ele>1392.6</ele><time>2016-01-10T10:49:20.000Z</time></trkpt>
      <trkpt lat="35.770803" lon="127.674078"><ele>1395.0</ele><time>2016-01-10T10:49:41.000Z</time></trkpt>
      <trkpt lat="35.770788" lon="127.673863"><ele>1395.0</ele><time>2016-01-10T10:50:02.000Z</time></trkpt>
      <trkpt lat="35.770755" lon="127.673706"><ele>1396.4</ele><time>2016-01-10T10:50:09.000Z</time></trkpt>
      <trkpt lat="35.770733" lon="127.673581"><ele>1397.8</ele><time>2016-01-10T10:50:17.000Z</time></trkpt>
      <trkpt lat="35.770715" lon="127.673449"><ele>1397.8</ele><time>2016-01-10T10:50:31.000Z</time></trkpt>
      <trkpt lat="35.770712" lon="127.673314"><ele>1397.8</ele><time>2016-01-10T10:50:40.000Z</time></trkpt>
      <trkpt lat="35.770727" lon="127.673195"><ele>1397.8</ele><time>2016-01-10T10:50:50.000Z</time></trkpt>
      <trkpt lat="35.770777" lon="127.672961"><ele>1395.5</ele><time>2016-01-10T10:51:04.000Z</time></trkpt>
      <trkpt lat="35.770837" lon="127.672722"><ele>1393.7</ele><time>2016-01-10T10:51:43.000Z</time></trkpt>
      <trkpt lat="35.770908" lon="127.672397"><ele>1392.3</ele><time>2016-01-10T10:51:56.000Z</time></trkpt>
      <trkpt lat="35.770961" lon="127.672193"><ele>1392.3</ele><time>2016-01-10T10:52:38.000Z</time></trkpt>
      <trkpt lat="35.770996" lon="127.672001"><ele>1392.3</ele><time>2016-01-10T10:52:50.000Z</time></trkpt>
      <trkpt lat="35.771001" lon="127.671895"><ele>1392.7</ele><time>2016-01-10T10:53:15.000Z</time></trkpt>
      <trkpt lat="35.771003" lon="127.671788"><ele>1392.7</ele><time>2016-01-10T10:53:43.000Z</time></trkpt>
      <trkpt lat="35.771036" lon="127.671692"><ele>1392.9</ele><time>2016-01-10T10:54:12.000Z</time></trkpt>
      <trkpt lat="35.771096" lon="127.671612"><ele>1394.0</ele><time>2016-01-10T10:54:34.000Z</time></trkpt>
      <trkpt lat="35.771164" lon="127.671506"><ele>1395.4</ele><time>2016-01-10T10:55:03.000Z</time></trkpt>
      <trkpt lat="35.771205" lon="127.671387"><ele>1398.3</ele><time>2016-01-10T10:56:09.000Z</time></trkpt>
      <trkpt lat="35.771213" lon="127.671252"><ele>1401.3</ele><time>2016-01-10T10:56:25.000Z</time></trkpt>
      <trkpt lat="35.771212" lon="127.671146"><ele>1402.8</ele><time>2016-01-10T10:57:00.000Z</time></trkpt>
      <trkpt lat="35.771206" lon="127.671031"><ele>1407.1</ele><time>2016-01-10T10:57:16.000Z</time></trkpt>
      <trkpt lat="35.771223" lon="127.670926"><ele>1409.9</ele><time>2016-01-10T10:57:58.000Z</time></trkpt>
      <trkpt lat="35.771243" lon="127.670815"><ele>1415.3</ele><time>2016-01-10T10:58:40.000Z</time></trkpt>
      <trkpt lat="35.771272" lon="127.670704"><ele>1417.8</ele><time>2016-01-10T10:59:09.000Z</time></trkpt>
      <trkpt lat="35.771282" lon="127.670586"><ele>1420.9</ele><time>2016-01-10T10:59:37.000Z</time></trkpt>
      <trkpt lat="35.771284" lon="127.670474"><ele>1425.9</ele><time>2016-01-10T10:59:56.000Z</time></trkpt>
      <trkpt lat="35.771280" lon="127.670374"><ele>1428.4</ele><time>2016-01-10T11:00:20.000Z</time></trkpt>
      <trkpt lat="35.771269" lon="127.670272"><ele>1433.6</ele><time>2016-01-10T11:00:37.000Z</time></trkpt>
      <trkpt lat="35.771263" lon="127.670140"><ele>1438.7</ele><time>2016-01-10T11:00:59.000Z</time></trkpt>
      <trkpt lat="35.771295" lon="127.670010"><ele>1447.4</ele><time>2016-01-10T11:03:29.000Z</time></trkpt>
      <trkpt lat="35.771343" lon="127.669877"><ele>1452.2</ele><time>2016-01-10T11:04:30.000Z</time></trkpt>
      <trkpt lat="35.771394" lon="127.669787"><ele>1457.3</ele><time>2016-01-10T11:05:20.000Z</time></trkpt>
      <trkpt lat="35.771447" lon="127.669662"><ele>1461.3</ele><time>2016-01-10T11:05:44.000Z</time></trkpt>
      <trkpt lat="35.771492" lon="127.669529"><ele>1465.9</ele><time>2016-01-10T11:06:28.000Z</time></trkpt>
      <trkpt lat="35.771537" lon="127.669378"><ele>1470.9</ele><time>2016-01-10T11:06:39.000Z</time></trkpt>
      <trkpt lat="35.771540" lon="127.669203"><ele>1481.9</ele><time>2016-01-10T11:06:53.000Z</time></trkpt>
      <trkpt lat="35.771544" lon="127.669037"><ele>1487.4</ele><time>2016-01-10T11:07:42.000Z</time></trkpt>
      <trkpt lat="35.771516" lon="127.668884"><ele>1492.7</ele><time>2016-01-10T11:11:23.000Z</time></trkpt>
      <trkpt lat="35.771475" lon="127.668823"><ele>1492.7</ele><time>2016-01-10T11:11:38.000Z</time></trkpt>
      <trkpt lat="35.771414" lon="127.668806"><ele>1504.0</ele><time>2016-01-10T11:12:43.000Z</time></trkpt>
      <trkpt lat="35.771512" lon="127.669089"><ele>1517.0</ele><time>2016-01-10T11:43:00.000Z</time></trkpt>
      <trkpt lat="35.771544" lon="127.669188"><ele>1509.1</ele><time>2016-01-10T11:43:09.000Z</time></trkpt>
      <trkpt lat="35.771563" lon="127.669286"><ele>1509.7</ele><time>2016-01-10T11:43:33.000Z</time></trkpt>
      <trkpt lat="35.771580" lon="127.669400"><ele>1511.6</ele><time>2016-01-10T11:43:47.000Z</time></trkpt>
      <trkpt lat="35.771566" lon="127.669514"><ele>1513.2</ele><time>2016-01-10T11:43:58.000Z</time></trkpt>
      <trkpt lat="35.771543" lon="127.669625"><ele>1514.3</ele><time>2016-01-10T11:44:20.000Z</time></trkpt>
      <trkpt lat="35.771493" lon="127.669717"><ele>1514.8</ele><time>2016-01-10T11:44:36.000Z</time></trkpt>
      <trkpt lat="35.771445" lon="127.669799"><ele>1514.4</ele><time>2016-01-10T11:45:19.000Z</time></trkpt>
      <trkpt lat="35.771380" lon="127.669907"><ele>1514.2</ele><time>2016-01-10T11:45:49.000Z</time></trkpt>
      <trkpt lat="35.771317" lon="127.670013"><ele>1513.6</ele><time>2016-01-10T11:46:28.000Z</time></trkpt>
      <trkpt lat="35.771269" lon="127.670138"><ele>1512.8</ele><time>2016-01-10T11:46:50.000Z</time></trkpt>
      <trkpt lat="35.771250" lon="127.670270"><ele>1511.9</ele><time>2016-01-10T11:47:00.000Z</time></trkpt>
      <trkpt lat="35.771266" lon="127.670421"><ele>1509.9</ele><time>2016-01-10T11:47:40.000Z</time></trkpt>
      <trkpt lat="35.771273" lon="127.670569"><ele>1506.6</ele><time>2016-01-10T11:47:53.000Z</time></trkpt>
      <trkpt lat="35.771277" lon="127.670684"><ele>1504.0</ele><time>2016-01-10T11:48:05.000Z</time></trkpt>
      <trkpt lat="35.771255" lon="127.670794"><ele>1501.7</ele><time>2016-01-10T11:48:33.000Z</time></trkpt>
      <trkpt lat="35.771245" lon="127.670896"><ele>1498.5</ele><time>2016-01-10T11:48:51.000Z</time></trkpt>
      <trkpt lat="35.771239" lon="127.671009"><ele>1494.6</ele><time>2016-01-10T11:49:18.000Z</time></trkpt>
      <trkpt lat="35.771231" lon="127.671108"><ele>1489.2</ele><time>2016-01-10T11:49:30.000Z</time></trkpt>
      <trkpt lat="35.771211" lon="127.671204"><ele>1483.0</ele><time>2016-01-10T11:49:43.000Z</time></trkpt>
      <trkpt lat="35.771215" lon="127.671278"><ele>1476.8</ele><time>2016-01-10T11:49:52.000Z</time></trkpt>
      <trkpt lat="35.771213" lon="127.671370"><ele>1470.0</ele><time>2016-01-10T11:50:04.000Z</time></trkpt>
      <trkpt lat="35.771182" lon="127.671453"><ele>1463.7</ele><time>2016-01-10T11:50:37.000Z</time></trkpt>
      <trkpt lat="35.771110" lon="127.671553"><ele>1458.4</ele><time>2016-01-10T11:50:48.000Z</time></trkpt>
      <trkpt lat="35.771046" lon="127.671650"><ele>1449.8</ele><time>2016-01-10T11:50:55.000Z</time></trkpt>
      <trkpt lat="35.771005" lon="127.671826"><ele>1442.6</ele><time>2016-01-10T11:51:24.000Z</time></trkpt>
      <trkpt lat="35.770972" lon="127.672048"><ele>1436.0</ele><time>2016-01-10T11:52:01.000Z</time></trkpt>
      <trkpt lat="35.770918" lon="127.672306"><ele>1430.0</ele><time>2016-01-10T11:52:14.000Z</time></trkpt>
      <trkpt lat="35.770856" lon="127.672484"><ele>1425.9</ele><time>2016-01-10T11:52:35.000Z</time></trkpt>
      <trkpt lat="35.770811" lon="127.672612"><ele>1421.6</ele><time>2016-01-10T11:52:42.000Z</time></trkpt>
      <trkpt lat="35.770805" lon="127.672701"><ele>1418.9</ele><time>2016-01-10T11:52:50.000Z</time></trkpt>
      <trkpt lat="35.770823" lon="127.672825"><ele>1411.6</ele><time>2016-01-10T11:52:56.000Z</time></trkpt>
      <trkpt lat="35.770799" lon="127.672993"><ele>1404.1</ele><time>2016-01-10T11:53:05.000Z</time></trkpt>
      <trkpt lat="35.770755" lon="127.673189"><ele>1396.5</ele><time>2016-01-10T11:53:25.000Z</time></trkpt>
      <trkpt lat="35.770711" lon="127.673375"><ele>1392.3</ele><time>2016-01-10T11:53:44.000Z</time></trkpt>
      <trkpt lat="35.770716" lon="127.673568"><ele>1389.7</ele><time>2016-01-10T11:54:07.000Z</time></trkpt>
      <trkpt lat="35.770732" lon="127.673747"><ele>1387.8</ele><time>2016-01-10T11:54:31.000Z</time></trkpt>
      <trkpt lat="35.770742" lon="127.673934"><ele>1387.7</ele><time>2016-01-10T11:54:43.000Z</time></trkpt>
      <trkpt lat="35.770742" lon="127.674078"><ele>1386.6</ele><time>2016-01-10T11:54:55.000Z</time></trkpt>
      <trkpt lat="35.770744" lon="127.674213"><ele>1387.1</ele><time>2016-01-10T11:55:09.000Z</time></trkpt>
      <trkpt lat="35.770765" lon="127.674375"><ele>1386.4</ele><time>2016-01-10T11:55:18.000Z</time></trkpt>
      <trkpt lat="35.770802" lon="127.674619"><ele>1387.3</ele><time>2016-01-10T11:55:37.000Z</time></trkpt>
      <trkpt lat="35.770845" lon="127.674840"><ele>1387.7</ele><time>2016-01-10T11:56:11.000Z</time></trkpt>
      <trkpt lat="35.770862" lon="127.675006"><ele>1388.5</ele><time>2016-01-10T11:56:25.000Z</time></trkpt>
      <trkpt lat="35.770855" lon="127.675088"><ele>1389.0</ele><time>2016-01-10T11:56:38.000Z</time></trkpt>
      <trkpt lat="35.770813" lon="127.675193"><ele>1390.9</ele><time>2016-01-10T11:57:17.000Z</time></trkpt>
      <trkpt lat="35.770749" lon="127.675327"><ele>1392.0</ele><time>2016-01-10T11:57:53.000Z</time></trkpt>
      <trkpt lat="35.770654" lon="127.675488"><ele>1392.1</ele><time>2016-01-10T11:58:18.000Z</time></trkpt>
      <trkpt lat="35.770570" lon="127.675643"><ele>1392.0</ele><time>2016-01-10T11:58:31.000Z</time></trkpt>
      <trkpt lat="35.770500" lon="127.675794"><ele>1392.0</ele><time>2016-01-10T11:58:36.000Z</time></trkpt>
      <trkpt lat="35.770449" lon="127.675913"><ele>1391.0</ele><time>2016-01-10T11:58:44.000Z</time></trkpt>
      <trkpt lat="35.770392" lon="127.676034"><ele>1390.3</ele><time>2016-01-10T11:58:52.000Z</time></trkpt>
      <trkpt lat="35.770332" lon="127.676134"><ele>1389.4</ele><time>2016-01-10T11:59:00.000Z</time></trkpt>
      <trkpt lat="35.770275" lon="127.676234"><ele>1387.9</ele><time>2016-01-10T11:59:09.000Z</time></trkpt>
      <trkpt lat="35.770202" lon="127.676327"><ele>1387.7</ele><time>2016-01-10T11:59:18.000Z</time></trkpt>
      <trkpt lat="35.770135" lon="127.676421"><ele>1386.7</ele><time>2016-01-10T11:59:33.000Z</time></trkpt>
      <trkpt lat="35.770055" lon="127.676505"><ele>1386.0</ele><time>2016-01-10T11:59:40.000Z</time></trkpt>
      <trkpt lat="35.770001" lon="127.676571"><ele>1386.0</ele><time>2016-01-10T11:59:48.000Z</time></trkpt>
      <trkpt lat="35.769958" lon="127.676623"><ele>1380.0</ele><time>2016-01-10T12:04:38.000Z</time></trkpt>
      <trkpt lat="35.769751" lon="127.676830"><ele>1387.0</ele><time>2016-01-10T12:05:22.000Z</time></trkpt>
      <trkpt lat="35.769680" lon="127.676977"><ele>1382.1</ele><time>2016-01-10T12:06:02.000Z</time></trkpt>
      <trkpt lat="35.769618" lon="127.677106"><ele>1382.1</ele><time>2016-01-10T12:06:31.000Z</time></trkpt>
      <trkpt lat="35.769562" lon="127.677202"><ele>1382.1</ele><time>2016-01-10T12:06:49.000Z</time></trkpt>
      <trkpt lat="35.769478" lon="127.677361"><ele>1383.9</ele><time>2016-01-10T12:07:04.000Z</time></trkpt>
      <trkpt lat="35.769393" lon="127.677495"><ele>1386.0</ele><time>2016-01-10T12:07:42.000Z</time></trkpt>
      <trkpt lat="35.769305" lon="127.677624"><ele>1387.3</ele><time>2016-01-10T12:08:29.000Z</time></trkpt>
      <trkpt lat="35.769220" lon="127.677709"><ele>1390.6</ele><time>2016-01-10T12:08:45.000Z</time></trkpt>
      <trkpt lat="35.769135" lon="127.677812"><ele>1393.8</ele><time>2016-01-10T12:10:02.000Z</time></trkpt>
      <trkpt lat="35.769059" lon="127.677932"><ele>1397.5</ele><time>2016-01-10T12:10:52.000Z</time></trkpt>
      <trkpt lat="35.768997" lon="127.678065"><ele>1404.0</ele><time>2016-01-10T12:11:19.000Z</time></trkpt>
      <trkpt lat="35.768892" lon="127.678248"><ele>1411.8</ele><time>2016-01-10T12:12:52.000Z</time></trkpt>
      <trkpt lat="35.768784" lon="127.678418"><ele>1414.7</ele><time>2016-01-10T12:14:20.000Z</time></trkpt>
      <trkpt lat="35.768668" lon="127.678595"><ele>1424.3</ele><time>2016-01-10T12:14:39.000Z</time></trkpt>
      <trkpt lat="35.768599" lon="127.678720"><ele>1431.2</ele><time>2016-01-10T12:15:49.000Z</time></trkpt>
      <trkpt lat="35.768533" lon="127.678851"><ele>1436.1</ele><time>2016-01-10T12:16:10.000Z</time></trkpt>
      <trkpt lat="35.768481" lon="127.678932"><ele>1443.9</ele><time>2016-01-10T12:16:30.000Z</time></trkpt>
      <trkpt lat="35.768420" lon="127.679020"><ele>1452.1</ele><time>2016-01-10T12:16:41.000Z</time></trkpt>
      <trkpt lat="35.768306" lon="127.679087"><ele>1464.8</ele><time>2016-01-10T12:17:02.000Z</time></trkpt>
      <trkpt lat="35.768183" lon="127.679130"><ele>1472.3</ele><time>2016-01-10T12:18:00.000Z</time></trkpt>
      <trkpt lat="35.768048" lon="127.679154"><ele>1479.2</ele><time>2016-01-10T12:18:18.000Z</time></trkpt>
      <trkpt lat="35.767955" lon="127.679181"><ele>1481.7</ele><time>2016-01-10T12:18:46.000Z</time></trkpt>
      <trkpt lat="35.767863" lon="127.679229"><ele>1487.3</ele><time>2016-01-10T12:18:58.000Z</time></trkpt>
      <trkpt lat="35.767774" lon="127.679266"><ele>1489.9</ele><time>2016-01-10T12:19:10.000Z</time></trkpt>
      <trkpt lat="35.767687" lon="127.679303"><ele>1495.5</ele><time>2016-01-10T12:19:24.000Z</time></trkpt>
      <trkpt lat="35.767603" lon="127.679341"><ele>1497.8</ele><time>2016-01-10T12:19:45.000Z</time></trkpt>
      <trkpt lat="35.767520" lon="127.679392"><ele>1502.3</ele><time>2016-01-10T12:20:16.000Z</time></trkpt>
      <trkpt lat="35.767444" lon="127.679439"><ele>1504.5</ele><time>2016-01-10T12:21:15.000Z</time></trkpt>
      <trkpt lat="35.767367" lon="127.679505"><ele>1508.1</ele><time>2016-01-10T12:21:26.000Z</time></trkpt>
      <trkpt lat="35.767286" lon="127.679554"><ele>1511.5</ele><time>2016-01-10T12:22:17.000Z</time></trkpt>
      <trkpt lat="35.767194" lon="127.679605"><ele>1511.7</ele><time>2016-01-10T12:23:44.000Z</time></trkpt>
      <trkpt lat="35.767104" lon="127.679642"><ele>1512.9</ele><time>2016-01-10T12:24:20.000Z</time></trkpt>
      <trkpt lat="35.767047" lon="127.679681"><ele>1512.9</ele><time>2016-01-10T12:24:35.000Z</time></trkpt>
      <trkpt lat="35.767019" lon="127.679717"><ele>1496.0</ele><time>2016-01-10T12:28:47.000Z</time></trkpt>
      <trkpt lat="35.766913" lon="127.680030"><ele>1490.0</ele><time>2016-01-10T12:31:47.000Z</time></trkpt>
      <trkpt lat="35.766868" lon="127.680210"><ele>1513.9</ele><time>2016-01-10T12:32:22.000Z</time></trkpt>
      <trkpt lat="35.766820" lon="127.680377"><ele>1512.4</ele><time>2016-01-10T12:33:02.000Z</time></trkpt>
      <trkpt lat="35.766769" lon="127.680525"><ele>1509.3</ele><time>2016-01-10T12:33:37.000Z</time></trkpt>
      <trkpt lat="35.766710" lon="127.680629"><ele>1506.4</ele><time>2016-01-10T12:33:54.000Z</time></trkpt>
      <trkpt lat="35.766616" lon="127.680757"><ele>1501.1</ele><time>2016-01-10T12:34:02.000Z</time></trkpt>
      <trkpt lat="35.766507" lon="127.680871"><ele>1497.9</ele><time>2016-01-10T12:34:59.000Z</time></trkpt>
      <trkpt lat="35.766402" lon="127.680980"><ele>1494.5</ele><time>2016-01-10T12:35:11.000Z</time></trkpt>
      <trkpt lat="35.766311" lon="127.681080"><ele>1489.4</ele><time>2016-01-10T12:35:30.000Z</time></trkpt>
      <trkpt lat="35.766237" lon="127.681192"><ele>1487.4</ele><time>2016-01-10T12:35:56.000Z</time></trkpt>
      <trkpt lat="35.766153" lon="127.681313"><ele>1485.5</ele><time>2016-01-10T12:36:07.000Z</time></trkpt>
      <trkpt lat="35.766079" lon="127.681399"><ele>1484.3</ele><time>2016-01-10T12:36:49.000Z</time></trkpt>
      <trkpt lat="35.765984" lon="127.681447"><ele>1483.4</ele><time>2016-01-10T12:37:11.000Z</time></trkpt>
      <trkpt lat="35.765900" lon="127.681480"><ele>1481.4</ele><time>2016-01-10T12:37:28.000Z</time></trkpt>
      <trkpt lat="35.765783" lon="127.681502"><ele>1479.5</ele><time>2016-01-10T12:37:40.000Z</time></trkpt>
      <trkpt lat="35.765661" lon="127.681541"><ele>1478.6</ele><time>2016-01-10T12:38:22.000Z</time></trkpt>
      <trkpt lat="35.765507" lon="127.681563"><ele>1477.1</ele><time>2016-01-10T12:39:51.000Z</time></trkpt>
      <trkpt lat="35.765387" lon="127.681555"><ele>1474.3</ele><time>2016-01-10T12:40:48.000Z</time></trkpt>
      <trkpt lat="35.765276" lon="127.681523"><ele>1473.3</ele><time>2016-01-10T12:41:42.000Z</time></trkpt>
      <trkpt lat="35.765191" lon="127.681590"><ele>1470.8</ele><time>2016-01-10T12:42:13.000Z</time></trkpt>
      <trkpt lat="35.765105" lon="127.681696"><ele>1470.1</ele><time>2016-01-10T12:44:08.000Z</time></trkpt>
      <trkpt lat="35.765030" lon="127.681841"><ele>1469.3</ele><time>2016-01-10T12:44:45.000Z</time></trkpt>
      <trkpt lat="35.764964" lon="127.681928"><ele>1467.0</ele><time>2016-01-10T12:46:51.000Z</time></trkpt>
      <trkpt lat="35.764909" lon="127.682023"><ele>1466.3</ele><time>2016-01-10T12:48:30.000Z</time></trkpt>
      <trkpt lat="35.764852" lon="127.682107"><ele>1464.5</ele><time>2016-01-10T12:48:47.000Z</time></trkpt>
      <trkpt lat="35.764797" lon="127.682172"><ele>1462.3</ele><time>2016-01-10T12:49:18.000Z</time></trkpt>
      <trkpt lat="35.764708" lon="127.682225"><ele>1460.3</ele><time>2016-01-10T12:49:47.000Z</time></trkpt>
      <trkpt lat="35.764625" lon="127.682313"><ele>1455.6</ele><time>2016-01-10T12:50:22.000Z</time></trkpt>
      <trkpt lat="35.764488" lon="127.682463"><ele>1450.4</ele><time>2016-01-10T12:51:00.000Z</time></trkpt>
      <trkpt lat="35.764378" lon="127.682619"><ele>1445.1</ele><time>2016-01-10T12:52:01.000Z</time></trkpt>
      <trkpt lat="35.764273" lon="127.682746"><ele>1442.6</ele><time>2016-01-10T12:52:19.000Z</time></trkpt>
      <trkpt lat="35.764219" lon="127.682820"><ele>1440.4</ele><time>2016-01-10T12:52:37.000Z</time></trkpt>
      <trkpt lat="35.764153" lon="127.682861"><ele>1434.0</ele><time>2016-01-10T12:52:53.000Z</time></trkpt>
      <trkpt lat="35.764068" lon="127.682897"><ele>1426.4</ele><time>2016-01-10T12:53:04.000Z</time></trkpt>
      <trkpt lat="35.763975" lon="127.682901"><ele>1418.4</ele><time>2016-01-10T12:53:23.000Z</time></trkpt>
      <trkpt lat="35.763894" lon="127.682947"><ele>1410.1</ele><time>2016-01-10T12:53:38.000Z</time></trkpt>
      <trkpt lat="35.763814" lon="127.683009"><ele>1402.6</ele><time>2016-01-10T12:53:50.000Z</time></trkpt>
      <trkpt lat="35.763729" lon="127.683110"><ele>1393.1</ele><time>2016-01-10T12:54:58.000Z</time></trkpt>
      <trkpt lat="35.763649" lon="127.683215"><ele>1387.1</ele><time>2016-01-10T12:55:29.000Z</time></trkpt>
      <trkpt lat="35.763577" lon="127.683323"><ele>1377.9</ele><time>2016-01-10T12:55:52.000Z</time></trkpt>
      <trkpt lat="35.763514" lon="127.683429"><ele>1373.9</ele><time>2016-01-10T12:56:25.000Z</time></trkpt>
      <trkpt lat="35.763434" lon="127.683515"><ele>1371.4</ele><time>2016-01-10T12:56:58.000Z</time></trkpt>
      <trkpt lat="35.763352" lon="127.683579"><ele>1367.6</ele><time>2016-01-10T12:57:08.000Z</time></trkpt>
      <trkpt lat="35.763268" lon="127.683627"><ele>1366.0</ele><time>2016-01-10T12:57:21.000Z</time></trkpt>
      <trkpt lat="35.763186" lon="127.683661"><ele>1361.5</ele><time>2016-01-10T12:57:38.000Z</time></trkpt>
      <trkpt lat="35.763098" lon="127.683677"><ele>1358.2</ele><time>2016-01-10T12:57:47.000Z</time></trkpt>
      <trkpt lat="35.763008" lon="127.683674"><ele>1350.8</ele><time>2016-01-10T12:57:58.000Z</time></trkpt>
      <trkpt lat="35.762868" lon="127.683616"><ele>1341.0</ele><time>2016-01-10T12:58:34.000Z</time></trkpt>
      <trkpt lat="35.762727" lon="127.683553"><ele>1336.9</ele><time>2016-01-10T12:59:45.000Z</time></trkpt>
      <trkpt lat="35.762580" lon="127.683487"><ele>1335.8</ele><time>2016-01-10T12:59:57.000Z</time></trkpt>
      <trkpt lat="35.762491" lon="127.683491"><ele>1332.8</ele><time>2016-01-10T13:00:11.000Z</time></trkpt>
      <trkpt lat="35.762406" lon="127.683494"><ele>1327.0</ele><time>2016-01-10T13:00:38.000Z</time></trkpt>
      <trkpt lat="35.762328" lon="127.683483"><ele>1325.1</ele><time>2016-01-10T13:00:54.000Z</time></trkpt>
      <trkpt lat="35.762247" lon="127.683440"><ele>1320.5</ele><time>2016-01-10T13:01:04.000Z</time></trkpt>
      <trkpt lat="35.762132" lon="127.683329"><ele>1312.1</ele><time>2016-01-10T13:01:31.000Z</time></trkpt>
      <trkpt lat="35.762002" lon="127.683191"><ele>1299.6</ele><time>2016-01-10T13:02:36.000Z</time></trkpt>
      <trkpt lat="35.761883" lon="127.683048"><ele>1292.3</ele><time>2016-01-10T13:03:01.000Z</time></trkpt>
      <trkpt lat="35.761778" lon="127.682917"><ele>1282.3</ele><time>2016-01-10T13:03:06.000Z</time></trkpt>
      <trkpt lat="35.761695" lon="127.682796"><ele>1280.6</ele><time>2016-01-10T13:04:04.000Z</time></trkpt>
      <trkpt lat="35.761611" lon="127.682662"><ele>1276.3</ele><time>2016-01-10T13:04:18.000Z</time></trkpt>
      <trkpt lat="35.761542" lon="127.682522"><ele>1271.4</ele><time>2016-01-10T13:04:37.000Z</time></trkpt>
      <trkpt lat="35.761482" lon="127.682377"><ele>1264.3</ele><time>2016-01-10T13:05:08.000Z</time></trkpt>
      <trkpt lat="35.761419" lon="127.682240"><ele>1257.6</ele><time>2016-01-10T13:05:23.000Z</time></trkpt>
      <trkpt lat="35.761376" lon="127.682105"><ele>1246.8</ele><time>2016-01-10T13:05:40.000Z</time></trkpt>
      <trkpt lat="35.761342" lon="127.681966"><ele>1238.3</ele><time>2016-01-10T13:06:25.000Z</time></trkpt>
      <trkpt lat="35.761317" lon="127.681815"><ele>1229.7</ele><time>2016-01-10T13:06:32.000Z</time></trkpt>
      <trkpt lat="35.761321" lon="127.681701"><ele>1227.3</ele><time>2016-01-10T13:06:47.000Z</time></trkpt>
      <trkpt lat="35.761217" lon="127.681476"><ele>1213.6</ele><time>2016-01-10T13:06:57.000Z</time></trkpt>
      <trkpt lat="35.761108" lon="127.681264"><ele>1208.3</ele><time>2016-01-10T13:08:04.000Z</time></trkpt>
      <trkpt lat="35.760950" lon="127.681036"><ele>1199.3</ele><time>2016-01-10T13:08:14.000Z</time></trkpt>
      <trkpt lat="35.760889" lon="127.680938"><ele>1200.5</ele><time>2016-01-10T13:09:00.000Z</time></trkpt>
      <trkpt lat="35.760825" lon="127.680858"><ele>1195.5</ele><time>2016-01-10T13:09:09.000Z</time></trkpt>
      <trkpt lat="35.760771" lon="127.680795"><ele>1193.6</ele><time>2016-01-10T13:09:20.000Z</time></trkpt>
      <trkpt lat="35.760714" lon="127.680728"><ele>1187.9</ele><time>2016-01-10T13:09:38.000Z</time></trkpt>
      <trkpt lat="35.760655" lon="127.680615"><ele>1182.2</ele><time>2016-01-10T13:09:50.000Z</time></trkpt>
      <trkpt lat="35.760583" lon="127.680513"><ele>1179.9</ele><time>2016-01-10T13:11:26.000Z</time></trkpt>
      <trkpt lat="35.760483" lon="127.680411"><ele>1175.9</ele><time>2016-01-10T13:12:21.000Z</time></trkpt>
      <trkpt lat="35.760399" lon="127.680337"><ele>1171.4</ele><time>2016-01-10T13:14:04.000Z</time></trkpt>
      <trkpt lat="35.760328" lon="127.680246"><ele>1165.6</ele><time>2016-01-10T13:14:22.000Z</time></trkpt>
      <trkpt lat="35.760277" lon="127.680155"><ele>1162.5</ele><time>2016-01-10T13:14:44.000Z</time></trkpt>
      <trkpt lat="35.760198" lon="127.680086"><ele>1160.0</ele><time>2016-01-10T13:15:03.000Z</time></trkpt>
      <trkpt lat="35.760107" lon="127.680012"><ele>1154.4</ele><time>2016-01-10T13:15:26.000Z</time></trkpt>
      <trkpt lat="35.759992" lon="127.679905"><ele>1149.3</ele><time>2016-01-10T13:17:09.000Z</time></trkpt>
      <trkpt lat="35.759878" lon="127.679774"><ele>1143.7</ele><time>2016-01-10T13:17:54.000Z</time></trkpt>
      <trkpt lat="35.759768" lon="127.679658"><ele>1138.7</ele><time>2016-01-10T13:18:09.000Z</time></trkpt>
      <trkpt lat="35.759678" lon="127.679585"><ele>1133.2</ele><time>2016-01-10T13:18:22.000Z</time></trkpt>
      <trkpt lat="35.759598" lon="127.679513"><ele>1126.8</ele><time>2016-01-10T13:18:50.000Z</time></trkpt>
      <trkpt lat="35.759546" lon="127.679428"><ele>1121.8</ele><time>2016-01-10T13:19:06.000Z</time></trkpt>
      <trkpt lat="35.759485" lon="127.679258"><ele>1116.4</ele><time>2016-01-10T13:19:22.000Z</time></trkpt>
      <trkpt lat="35.759422" lon="127.679109"><ele>1113.4</ele><time>2016-01-10T13:19:49.000Z</time></trkpt>
      <trkpt lat="35.759340" lon="127.678964"><ele>1108.0</ele><time>2016-01-10T13:20:11.000Z</time></trkpt>
      <trkpt lat="35.759288" lon="127.678884"><ele>1105.6</ele><time>2016-01-10T13:20:30.000Z</time></trkpt>
      <trkpt lat="35.759233" lon="127.678764"><ele>1097.6</ele><time>2016-01-10T13:20:52.000Z</time></trkpt>
      <trkpt lat="35.759163" lon="127.678669"><ele>1091.5</ele><time>2016-01-10T13:21:49.000Z</time></trkpt>
      <trkpt lat="35.759069" lon="127.678601"><ele>1085.1</ele><time>2016-01-10T13:22:35.000Z</time></trkpt>
      <trkpt lat="35.759001" lon="127.678555"><ele>1080.1</ele><time>2016-01-10T13:22:59.000Z</time></trkpt>
      <trkpt lat="35.758978" lon="127.678476"><ele>1077.1</ele><time>2016-01-10T13:23:11.000Z</time></trkpt>
      <trkpt lat="35.759005" lon="127.678361"><ele>1071.8</ele><time>2016-01-10T13:23:16.000Z</time></trkpt>
      <trkpt lat="35.759037" lon="127.678239"><ele>1069.3</ele><time>2016-01-10T13:23:23.000Z</time></trkpt>
      <trkpt lat="35.759052" lon="127.678121"><ele>1063.6</ele><time>2016-01-10T13:23:34.000Z</time></trkpt>
      <trkpt lat="35.759024" lon="127.677968"><ele>1054.6</ele><time>2016-01-10T13:23:49.000Z</time></trkpt>
      <trkpt lat="35.758989" lon="127.677823"><ele>1049.3</ele><time>2016-01-10T13:24:20.000Z</time></trkpt>
      <trkpt lat="35.758946" lon="127.677686"><ele>1046.5</ele><time>2016-01-10T13:24:38.000Z</time></trkpt>
      <trkpt lat="35.758911" lon="127.677594"><ele>1042.5</ele><time>2016-01-10T13:25:01.000Z</time></trkpt>
      <trkpt lat="35.758856" lon="127.677513"><ele>1038.1</ele><time>2016-01-10T13:25:09.000Z</time></trkpt>
      <trkpt lat="35.758795" lon="127.677443"><ele>1036.1</ele><time>2016-01-10T13:25:16.000Z</time></trkpt>
      <trkpt lat="35.758729" lon="127.677385"><ele>1031.8</ele><time>2016-01-10T13:25:25.000Z</time></trkpt>
      <trkpt lat="35.758653" lon="127.677330"><ele>1027.8</ele><time>2016-01-10T13:25:32.000Z</time></trkpt>
      <trkpt lat="35.758570" lon="127.677277"><ele>1023.9</ele><time>2016-01-10T13:25:40.000Z</time></trkpt>
      <trkpt lat="35.758478" lon="127.677248"><ele>1020.9</ele><time>2016-01-10T13:25:48.000Z</time></trkpt>
      <trkpt lat="35.758390" lon="127.677231"><ele>1019.4</ele><time>2016-01-10T13:25:57.000Z</time></trkpt>
      <trkpt lat="35.758310" lon="127.677212"><ele>1016.4</ele><time>2016-01-10T13:26:06.000Z</time></trkpt>
      <trkpt lat="35.758241" lon="127.677161"><ele>1013.0</ele><time>2016-01-10T13:26:13.000Z</time></trkpt>
      <trkpt lat="35.758178" lon="127.677085"><ele>1009.6</ele><time>2016-01-10T13:26:21.000Z</time></trkpt>
      <trkpt lat="35.758108" lon="127.677027"><ele>1006.6</ele><time>2016-01-10T13:26:34.000Z</time></trkpt>
      <trkpt lat="35.758029" lon="127.676991"><ele>1004.0</ele><time>2016-01-10T13:27:04.000Z</time></trkpt>
      <trkpt lat="35.757951" lon="127.676958"><ele>1001.7</ele><time>2016-01-10T13:27:13.000Z</time></trkpt>
      <trkpt lat="35.757869" lon="127.676932"><ele>1000.5</ele><time>2016-01-10T13:27:24.000Z</time></trkpt>
      <trkpt lat="35.757776" lon="127.676894"><ele>998.2</ele><time>2016-01-10T13:27:40.000Z</time></trkpt>
      <trkpt lat="35.757661" lon="127.676920"><ele>995.9</ele><time>2016-01-10T13:28:04.000Z</time></trkpt>
      <trkpt lat="35.757547" lon="127.676940"><ele>991.9</ele><time>2016-01-10T13:28:57.000Z</time></trkpt>
      <trkpt lat="35.757440" lon="127.676968"><ele>990.5</ele><time>2016-01-10T13:29:18.000Z</time></trkpt>
      <trkpt lat="35.757349" lon="127.676943"><ele>987.9</ele><time>2016-01-10T13:29:28.000Z</time></trkpt>
      <trkpt lat="35.757258" lon="127.676927"><ele>984.4</ele><time>2016-01-10T13:29:38.000Z</time></trkpt>
      <trkpt lat="35.757178" lon="127.676932"><ele>985.6</ele><time>2016-01-10T13:29:52.000Z</time></trkpt>
      <trkpt lat="35.757085" lon="127.676951"><ele>982.2</ele><time>2016-01-10T13:30:12.000Z</time></trkpt>
      <trkpt lat="35.756980" lon="127.676951"><ele>979.9</ele><time>2016-01-10T13:30:55.000Z</time></trkpt>
      <trkpt lat="35.756856" lon="127.676934"><ele>977.0</ele><time>2016-01-10T13:31:27.000Z</time></trkpt>
      <trkpt lat="35.756653" lon="127.676914"><ele>970.3</ele><time>2016-01-10T13:31:39.000Z</time></trkpt>
      <trkpt lat="35.756458" lon="127.676917"><ele>967.4</ele><time>2016-01-10T13:32:23.000Z</time></trkpt>
      <trkpt lat="35.756244" lon="127.676918"><ele>964.3</ele><time>2016-01-10T13:32:30.000Z</time></trkpt>
      <trkpt lat="35.756070" lon="127.676911"><ele>960.7</ele><time>2016-01-10T13:32:39.000Z</time></trkpt>
      <trkpt lat="35.755904" lon="127.676904"><ele>957.3</ele><time>2016-01-10T13:32:55.000Z</time></trkpt>
      <trkpt lat="35.755748" lon="127.676931"><ele>953.3</ele><time>2016-01-10T13:33:05.000Z</time></trkpt>
      <trkpt lat="35.755654" lon="127.676994"><ele>949.3</ele><time>2016-01-10T13:33:17.000Z</time></trkpt>
      <trkpt lat="35.755556" lon="127.677073"><ele>943.2</ele><time>2016-01-10T13:33:28.000Z</time></trkpt>
      <trkpt lat="35.755429" lon="127.677136"><ele>934.0</ele><time>2016-01-10T13:33:39.000Z</time></trkpt>
      <trkpt lat="35.755278" lon="127.677163"><ele>927.9</ele><time>2016-01-10T13:33:59.000Z</time></trkpt>
      <trkpt lat="35.755134" lon="127.677140"><ele>923.9</ele><time>2016-01-10T13:34:14.000Z</time></trkpt>
      <trkpt lat="35.755036" lon="127.677095"><ele>921.5</ele><time>2016-01-10T13:34:22.000Z</time></trkpt>
      <trkpt lat="35.754955" lon="127.677052"><ele>920.3</ele><time>2016-01-10T13:34:30.000Z</time></trkpt>
      <trkpt lat="35.754862" lon="127.677016"><ele>916.1</ele><time>2016-01-10T13:34:38.000Z</time></trkpt>
      <trkpt lat="35.754738" lon="127.676970"><ele>913.6</ele><time>2016-01-10T13:34:47.000Z</time></trkpt>
      <trkpt lat="35.754587" lon="127.676948"><ele>910.6</ele><time>2016-01-10T13:35:01.000Z</time></trkpt>
      <trkpt lat="35.754436" lon="127.676935"><ele>907.1</ele><time>2016-01-10T13:35:13.000Z</time></trkpt>
      <trkpt lat="35.754307" lon="127.676932"><ele>905.0</ele><time>2016-01-10T13:35:24.000Z</time></trkpt>
      <trkpt lat="35.754206" lon="127.676900"><ele>901.0</ele><time>2016-01-10T13:35:33.000Z</time></trkpt>
      <trkpt lat="35.754050" lon="127.676854"><ele>895.0</ele><time>2016-01-10T13:35:40.000Z</time></trkpt>
      <trkpt lat="35.753900" lon="127.676804"><ele>891.3</ele><time>2016-01-10T13:36:05.000Z</time></trkpt>
      <trkpt lat="35.753748" lon="127.676756"><ele>890.0</ele><time>2016-01-10T13:36:14.000Z</time></trkpt>
      <trkpt lat="35.753656" lon="127.676714"><ele>887.0</ele><time>2016-01-10T13:36:25.000Z</time></trkpt>
      <trkpt lat="35.753564" lon="127.676687"><ele>883.5</ele><time>2016-01-10T13:36:38.000Z</time></trkpt>
      <trkpt lat="35.753470" lon="127.676662"><ele>882.0</ele><time>2016-01-10T13:36:46.000Z</time></trkpt>
      <trkpt lat="35.753379" lon="127.676639"><ele>879.0</ele><time>2016-01-10T13:36:54.000Z</time></trkpt>
      <trkpt lat="35.753153" lon="127.676576"><ele>872.5</ele><time>2016-01-10T13:37:04.000Z</time></trkpt>
      <trkpt lat="35.752934" lon="127.676512"><ele>868.8</ele><time>2016-01-10T13:37:59.000Z</time></trkpt>
      <trkpt lat="35.752704" lon="127.676446"><ele>864.8</ele><time>2016-01-10T13:38:06.000Z</time></trkpt>
      <trkpt lat="35.752587" lon="127.676431"><ele>862.3</ele><time>2016-01-10T13:38:16.000Z</time></trkpt>
      <trkpt lat="35.752445" lon="127.676426"><ele>858.8</ele><time>2016-01-10T13:38:26.000Z</time></trkpt>
      <trkpt lat="35.752303" lon="127.676447"><ele>855.0</ele><time>2016-01-10T13:38:37.000Z</time></trkpt>
      <trkpt lat="35.752104" lon="127.676438"><ele>848.2</ele><time>2016-01-10T13:38:48.000Z</time></trkpt>
      <trkpt lat="35.751919" lon="127.676422"><ele>845.3</ele><time>2016-01-10T13:39:15.000Z</time></trkpt>
      <trkpt lat="35.751750" lon="127.676365"><ele>842.2</ele><time>2016-01-10T13:39:23.000Z</time></trkpt>
      <trkpt lat="35.751654" lon="127.676298"><ele>841.6</ele><time>2016-01-10T13:39:30.000Z</time></trkpt>
      <trkpt lat="35.751554" lon="127.676216"><ele>840.0</ele><time>2016-01-10T13:39:39.000Z</time></trkpt>
      <trkpt lat="35.751432" lon="127.676127"><ele>839.3</ele><time>2016-01-10T13:39:51.000Z</time></trkpt>
      <trkpt lat="35.751267" lon="127.676048"><ele>838.3</ele><time>2016-01-10T13:40:04.000Z</time></trkpt>
      <trkpt lat="35.751102" lon="127.675994"><ele>837.1</ele><time>2016-01-10T13:40:19.000Z</time></trkpt>
      <trkpt lat="35.750953" lon="127.675963"><ele>836.7</ele><time>2016-01-10T13:40:33.000Z</time></trkpt>
      <trkpt lat="35.750859" lon="127.675936"><ele>834.8</ele><time>2016-01-10T13:40:43.000Z</time></trkpt>
      <trkpt lat="35.750778" lon="127.675892"><ele>832.4</ele><time>2016-01-10T13:40:52.000Z</time></trkpt>
      <trkpt lat="35.750645" lon="127.675905"><ele>827.5</ele><time>2016-01-10T13:41:04.000Z</time></trkpt>
      <trkpt lat="35.750504" lon="127.675947"><ele>825.4</ele><time>2016-01-10T13:41:33.000Z</time></trkpt>
      <trkpt lat="35.750351" lon="127.676006"><ele>821.0</ele><time>2016-01-10T13:41:44.000Z</time></trkpt>
      <trkpt lat="35.750241" lon="127.676011"><ele>817.5</ele><time>2016-01-10T13:42:06.000Z</time></trkpt>
      <trkpt lat="35.750125" lon="127.675981"><ele>807.6</ele><time>2016-01-10T13:42:34.000Z</time></trkpt>
      <trkpt lat="35.750014" lon="127.675945"><ele>801.1</ele><time>2016-01-10T13:42:57.000Z</time></trkpt>
      <trkpt lat="35.749906" lon="127.675912"><ele>798.8</ele><time>2016-01-10T13:43:05.000Z</time></trkpt>
      <trkpt lat="35.749798" lon="127.675898"><ele>793.6</ele><time>2016-01-10T13:43:14.000Z</time></trkpt>
      <trkpt lat="35.749701" lon="127.675890"><ele>788.9</ele><time>2016-01-10T13:43:26.000Z</time></trkpt>
      <trkpt lat="35.749620" lon="127.675894"><ele>787.4</ele><time>2016-01-10T13:43:34.000Z</time></trkpt>
      <trkpt lat="35.749565" lon="127.675940"><ele>783.2</ele><time>2016-01-10T13:43:42.000Z</time></trkpt>
      <trkpt lat="35.749534" lon="127.676024"><ele>780.5</ele><time>2016-01-10T13:43:51.000Z</time></trkpt>
      <trkpt lat="35.749529" lon="127.676144"><ele>778.3</ele><time>2016-01-10T13:44:01.000Z</time></trkpt>
      <trkpt lat="35.749536" lon="127.676295"><ele>775.2</ele><time>2016-01-10T13:44:12.000Z</time></trkpt>
      <trkpt lat="35.749520" lon="127.676432"><ele>773.0</ele><time>2016-01-10T13:44:30.000Z</time></trkpt>
      <trkpt lat="35.749425" lon="127.676606"><ele>770.8</ele><time>2016-01-10T13:44:37.000Z</time></trkpt>
      <trkpt lat="35.749297" lon="127.676722"><ele>769.1</ele><time>2016-01-10T13:44:55.000Z</time></trkpt>
      <trkpt lat="35.749165" lon="127.676850"><ele>767.1</ele><time>2016-01-10T13:45:03.000Z</time></trkpt>
      <trkpt lat="35.749069" lon="127.676892"><ele>765.0</ele><time>2016-01-10T13:45:14.000Z</time></trkpt>
      <trkpt lat="35.748966" lon="127.676915"><ele>763.6</ele><time>2016-01-10T13:45:38.000Z</time></trkpt>
      <trkpt lat="35.748857" lon="127.676880"><ele>761.3</ele><time>2016-01-10T13:45:51.000Z</time></trkpt>
      <trkpt lat="35.748752" lon="127.676842"><ele>759.6</ele><time>2016-01-10T13:46:02.000Z</time></trkpt>
      <trkpt lat="35.748651" lon="127.676813"><ele>757.9</ele><time>2016-01-10T13:46:12.000Z</time></trkpt>
      <trkpt lat="35.748544" lon="127.676799"><ele>755.4</ele><time>2016-01-10T13:46:22.000Z</time></trkpt>
      <trkpt lat="35.748424" lon="127.676798"><ele>753.7</ele><time>2016-01-10T13:46:31.000Z</time></trkpt>
      <trkpt lat="35.748303" lon="127.676791"><ele>750.3</ele><time>2016-01-10T13:46:42.000Z</time></trkpt>
      <trkpt lat="35.748190" lon="127.676806"><ele>748.8</ele><time>2016-01-10T13:46:53.000Z</time></trkpt>
      <trkpt lat="35.748083" lon="127.676830"><ele>746.2</ele><time>2016-01-10T13:47:05.000Z</time></trkpt>
      <trkpt lat="35.747981" lon="127.676863"><ele>743.8</ele><time>2016-01-10T13:47:19.000Z</time></trkpt>
      <trkpt lat="35.747855" lon="127.676926"><ele>741.1</ele><time>2016-01-10T13:47:26.000Z</time></trkpt>
      <trkpt lat="35.747732" lon="127.677005"><ele>738.7</ele><time>2016-01-10T13:47:41.000Z</time></trkpt>
      <trkpt lat="35.747614" lon="127.677099"><ele>736.1</ele><time>2016-01-10T13:47:54.000Z</time></trkpt>
      <trkpt lat="35.747481" lon="127.677195"><ele>731.6</ele><time>2016-01-10T13:48:20.000Z</time></trkpt>
      <trkpt lat="35.747353" lon="127.677271"><ele>729.6</ele><time>2016-01-10T13:49:45.000Z</time></trkpt>
      <trkpt lat="35.747216" lon="127.677333"><ele>727.6</ele><time>2016-01-10T13:49:54.000Z</time></trkpt>
      <trkpt lat="35.747119" lon="127.677354"><ele>725.6</ele><time>2016-01-10T13:50:05.000Z</time></trkpt>
      <trkpt lat="35.747043" lon="127.677403"><ele>724.8</ele><time>2016-01-10T13:50:14.000Z</time></trkpt>
      <trkpt lat="35.747004" lon="127.677486"><ele>722.6</ele><time>2016-01-10T13:50:23.000Z</time></trkpt>
      <trkpt lat="35.746964" lon="127.677575"><ele>720.7</ele><time>2016-01-10T13:50:33.000Z</time></trkpt>
      <trkpt lat="35.746904" lon="127.677620"><ele>719.5</ele><time>2016-01-10T13:50:43.000Z</time></trkpt>
      <trkpt lat="35.746815" lon="127.677618"><ele>717.8</ele><time>2016-01-10T13:50:51.000Z</time></trkpt>
      <trkpt lat="35.746721" lon="127.677598"><ele>716.1</ele><time>2016-01-10T13:50:58.000Z</time></trkpt>
      <trkpt lat="35.746626" lon="127.677595"><ele>714.5</ele><time>2016-01-10T13:51:07.000Z</time></trkpt>
      <trkpt lat="35.746529" lon="127.677610"><ele>712.9</ele><time>2016-01-10T13:51:17.000Z</time></trkpt>
    </trkseg>
  </trk>
</gpx>