<?xml version="1.0" encoding="UTF-8"?>
<gpx version="1.1" creator="gajago-nav" xmlns="http://www.topografix.com/GPX/1/1">
  <metadata><name>공작산240906</name><extensions><gajago:roundtrip xmlns:gajago="https://hjwpro1971.github.io/gaja">true</gajago:roundtrip></extensions></metadata>
  <wpt lat="37.703886" lon="128.028476">
    <name>들머리 (공작고개)</name>
    <ele>485</ele>
  </wpt>
  <wpt lat="37.704582" lon="128.027670">
    <name>갈림길</name>
  </wpt>
  <wpt lat="37.710767" lon="128.024177">
    <name>갈림길</name>
  </wpt>
  <wpt lat="37.714130" lon="128.015984">
    <name>갈림길</name>
  </wpt>
  <wpt lat="37.714141" lon="128.011045">
    <name>갈림길</name>
  </wpt>
  <wpt lat="37.715575" lon="128.010268">
    <name>갈림길</name>
  </wpt>
  <wpt lat="37.716025" lon="128.010639">
    <name>공작산</name>
  </wpt>
  <trk>
    <name>공작산240906</name>
    <trkseg>
      <trkpt lat="37.703886" lon="128.028476"><ele>484.7</ele><time>2024-09-06T00:44:29.000Z</time></trkpt>
      <trkpt lat="37.703856" lon="128.028435"><ele>484.9</ele><time>2024-09-06T00:44:30.000Z</time></trkpt>
      <trkpt lat="37.703816" lon="128.028411"><ele>485.0</ele><time>2024-09-06T00:44:32.000Z</time></trkpt>
      <trkpt lat="37.703806" lon="128.028358"><ele>485.2</ele><time>2024-09-06T00:44:33.000Z</time></trkpt>
      <trkpt lat="37.703819" lon="128.028311"><ele>485.6</ele><time>2024-09-06T00:44:49.000Z</time></trkpt>
      <trkpt lat="37.703811" lon="128.028256"><ele>485.8</ele><time>2024-09-06T00:44:53.000Z</time></trkpt>
      <trkpt lat="37.703830" lon="128.028214"><ele>486.3</ele><time>2024-09-06T00:45:06.000Z</time></trkpt>
      <trkpt lat="37.703872" lon="128.028218"><ele>487.2</ele><time>2024-09-06T00:45:12.000Z</time></trkpt>
      <trkpt lat="37.703913" lon="128.028240"><ele>487.9</ele><time>2024-09-06T00:45:17.000Z</time></trkpt>
      <trkpt lat="37.703955" lon="128.028262"><ele>488.6</ele><time>2024-09-06T00:45:17.000Z</time></trkpt>
      <trkpt lat="37.703998" lon="128.028272"><ele>489.7</ele><time>2024-09-06T00:45:23.000Z</time></trkpt>
      <trkpt lat="37.704040" lon="128.028256"><ele>491.1</ele><time>2024-09-06T00:45:30.000Z</time></trkpt>
      <trkpt lat="37.704062" lon="128.028211"><ele>492.9</ele><time>2024-09-06T00:45:38.000Z</time></trkpt>
      <trkpt lat="37.704041" lon="128.028163"><ele>494.5</ele><time>2024-09-06T00:45:43.000Z</time></trkpt>
      <trkpt lat="37.704005" lon="128.028129"><ele>496.0</ele><time>2024-09-06T00:45:50.000Z</time></trkpt>
      <trkpt lat="37.703982" lon="128.028081"><ele>497.0</ele><time>2024-09-06T00:45:56.000Z</time></trkpt>
      <trkpt lat="37.703999" lon="128.028030"><ele>497.7</ele><time>2024-09-06T00:46:03.000Z</time></trkpt>
      <trkpt lat="37.704036" lon="128.027998"><ele>498.5</ele><time>2024-09-06T00:46:10.000Z</time></trkpt>
      <trkpt lat="37.704076" lon="128.027978"><ele>500.1</ele><time>2024-09-06T00:46:17.000Z</time></trkpt>
      <trkpt lat="37.704102" lon="128.027932"><ele>501.1</ele><time>2024-09-06T00:46:27.000Z</time></trkpt>
      <trkpt lat="37.704128" lon="128.027887"><ele>501.2</ele><time>2024-09-06T00:46:32.000Z</time></trkpt>
      <trkpt lat="37.704167" lon="128.027859"><ele>501.2</ele><time>2024-09-06T00:46:32.000Z</time></trkpt>
      <trkpt lat="37.704205" lon="128.027831"><ele>500.9</ele><time>2024-09-06T00:46:39.000Z</time></trkpt>
      <trkpt lat="37.704237" lon="128.027792"><ele>500.4</ele><time>2024-09-06T00:46:45.000Z</time></trkpt>
      <trkpt lat="37.704273" lon="128.027759"><ele>500.2</ele><time>2024-09-06T00:46:49.000Z</time></trkpt>
      <trkpt lat="37.704305" lon="128.027718"><ele>500.5</ele><time>2024-09-06T00:46:55.000Z</time></trkpt>
      <trkpt lat="37.704336" lon="128.027678"><ele>501.2</ele><time>2024-09-06T00:47:00.000Z</time></trkpt>
      <trkpt lat="37.704376" lon="128.027653"><ele>502.1</ele><time>2024-09-06T00:47:05.000Z</time></trkpt>
      <trkpt lat="37.704419" lon="128.027641"><ele>502.9</ele><time>2024-09-06T00:47:11.000Z</time></trkpt>
      <trkpt lat="37.704464" lon="128.027631"><ele>503.9</ele><time>2024-09-06T00:47:14.000Z</time></trkpt>
      <trkpt lat="37.704508" lon="128.027623"><ele>505.2</ele><time>2024-09-06T00:47:17.000Z</time></trkpt>
      <trkpt lat="37.704552" lon="128.027630"><ele>506.3</ele><time>2024-09-06T00:47:24.000Z</time></trkpt>
      <trkpt lat="37.704594" lon="128.027648"><ele>507.4</ele><time>2024-09-06T00:47:29.000Z</time></trkpt>
      <trkpt lat="37.704626" lon="128.027686"><ele>508.3</ele><time>2024-09-06T00:47:35.000Z</time></trkpt>
      <trkpt lat="37.704656" lon="128.027727"><ele>509.1</ele><time>2024-09-06T00:47:41.000Z</time></trkpt>
      <trkpt lat="37.704695" lon="128.027754"><ele>509.8</ele><time>2024-09-06T00:47:45.000Z</time></trkpt>
      <trkpt lat="37.704736" lon="128.027779"><ele>510.4</ele><time>2024-09-06T00:47:54.000Z</time></trkpt>
      <trkpt lat="37.704770" lon="128.027815"><ele>510.9</ele><time>2024-09-06T00:48:01.000Z</time></trkpt>
      <trkpt lat="37.704805" lon="128.027850"><ele>511.7</ele><time>2024-09-06T00:48:08.000Z</time></trkpt>
      <trkpt lat="37.704845" lon="128.027873"><ele>513.0</ele><time>2024-09-06T00:48:16.000Z</time></trkpt>
      <trkpt lat="37.704885" lon="128.027900"><ele>514.0</ele><time>2024-09-06T00:48:23.000Z</time></trkpt>
      <trkpt lat="37.704922" lon="128.027932"><ele>514.5</ele><time>2024-09-06T00:48:23.000Z</time></trkpt>
      <trkpt lat="37.704961" lon="128.027961"><ele>514.8</ele><time>2024-09-06T00:48:27.000Z</time></trkpt>
      <trkpt lat="37.705000" lon="128.027988"><ele>515.2</ele><time>2024-09-06T00:48:32.000Z</time></trkpt>
      <trkpt lat="37.705041" lon="128.028012"><ele>515.5</ele><time>2024-09-06T00:48:37.000Z</time></trkpt>
      <trkpt lat="37.705083" lon="128.028031"><ele>515.5</ele><time>2024-09-06T00:48:37.000Z</time></trkpt>
      <trkpt lat="37.705126" lon="128.028047"><ele>515.5</ele><time>2024-09-06T00:48:48.000Z</time></trkpt>
      <trkpt lat="37.705170" lon="128.028062"><ele>515.6</ele><time>2024-09-06T00:48:48.000Z</time></trkpt>
      <trkpt lat="37.705213" lon="128.028078"><ele>515.6</ele><time>2024-09-06T00:48:52.000Z</time></trkpt>
      <trkpt lat="37.705254" lon="128.028099"><ele>515.7</ele><time>2024-09-06T00:48:59.000Z</time></trkpt>
      <trkpt lat="37.705295" lon="128.028125"><ele>515.7</ele><time>2024-09-06T00:48:59.000Z</time></trkpt>
      <trkpt lat="37.705330" lon="128.028159"><ele>515.7</ele><time>2024-09-06T00:49:05.000Z</time></trkpt>
      <trkpt lat="37.705366" lon="128.028191"><ele>515.7</ele><time>2024-09-06T00:49:05.000Z</time></trkpt>
      <trkpt lat="37.705409" lon="128.028204"><ele>515.8</ele><time>2024-09-06T00:49:14.000Z</time></trkpt>
      <trkpt lat="37.705453" lon="128.028198"><ele>515.8</ele><time>2024-09-06T00:49:19.000Z</time></trkpt>
      <trkpt lat="37.705497" lon="128.028184"><ele>515.8</ele><time>2024-09-06T00:49:19.000Z</time></trkpt>
      <trkpt lat="37.705541" lon="128.028174"><ele>515.8</ele><time>2024-09-06T00:49:25.000Z</time></trkpt>
      <trkpt lat="37.705586" lon="128.028178"><ele>516.0</ele><time>2024-09-06T00:49:29.000Z</time></trkpt>
      <trkpt lat="37.705630" lon="128.028181"><ele>516.3</ele><time>2024-09-06T00:49:38.000Z</time></trkpt>
      <trkpt lat="37.705675" lon="128.028182"><ele>517.2</ele><time>2024-09-06T00:49:40.000Z</time></trkpt>
      <trkpt lat="37.705720" lon="128.028175"><ele>518.1</ele><time>2024-09-06T00:49:44.000Z</time></trkpt>
      <trkpt lat="37.705764" lon="128.028167"><ele>519.0</ele><time>2024-09-06T00:49:52.000Z</time></trkpt>
      <trkpt lat="37.705809" lon="128.028159"><ele>520.2</ele><time>2024-09-06T00:49:54.000Z</time></trkpt>
      <trkpt lat="37.705852" lon="128.028144"><ele>520.9</ele><time>2024-09-06T00:50:01.000Z</time></trkpt>
      <trkpt lat="37.705890" lon="128.028115"><ele>522.3</ele><time>2024-09-06T00:50:14.000Z</time></trkpt>
      <trkpt lat="37.705932" lon="128.028100"><ele>523.8</ele><time>2024-09-06T00:50:24.000Z</time></trkpt>
      <trkpt lat="37.705976" lon="128.028102"><ele>525.2</ele><time>2024-09-06T00:50:32.000Z</time></trkpt>
      <trkpt lat="37.706020" lon="128.028113"><ele>526.3</ele><time>2024-09-06T00:50:37.000Z</time></trkpt>
      <trkpt lat="37.706062" lon="128.028133"><ele>526.4</ele><time>2024-09-06T00:50:46.000Z</time></trkpt>
      <trkpt lat="37.706094" lon="128.028171"><ele>526.0</ele><time>2024-09-06T00:50:59.000Z</time></trkpt>
      <trkpt lat="37.706123" lon="128.028215"><ele>524.6</ele><time>2024-09-06T00:51:04.000Z</time></trkpt>
      <trkpt lat="37.706162" lon="128.028242"><ele>523.7</ele><time>2024-09-06T00:51:08.000Z</time></trkpt>
      <trkpt lat="37.706205" lon="128.028255"><ele>523.5</ele><time>2024-09-06T00:51:08.000Z</time></trkpt>
      <trkpt lat="37.706249" lon="128.028266"><ele>523.6</ele><time>2024-09-06T00:51:19.000Z</time></trkpt>
      <trkpt lat="37.706294" lon="128.028276"><ele>523.7</ele><time>2024-09-06T00:51:19.000Z</time></trkpt>
      <trkpt lat="37.706338" lon="128.028283"><ele>524.1</ele><time>2024-09-06T00:51:28.000Z</time></trkpt>
      <trkpt lat="37.706383" lon="128.028287"><ele>525.4</ele><time>2024-09-06T00:51:33.000Z</time></trkpt>
      <trkpt lat="37.706428" lon="128.028292"><ele>526.4</ele><time>2024-09-06T00:51:39.000Z</time></trkpt>
      <trkpt lat="37.706473" lon="128.028292"><ele>528.0</ele><time>2024-09-06T00:51:51.000Z</time></trkpt>
      <trkpt lat="37.706517" lon="128.028282"><ele>529.2</ele><time>2024-09-06T00:51:58.000Z</time></trkpt>
      <trkpt lat="37.706556" lon="128.028254"><ele>530.4</ele><time>2024-09-06T00:52:04.000Z</time></trkpt>
      <trkpt lat="37.706594" lon="128.028226"><ele>532.8</ele><time>2024-09-06T00:52:14.000Z</time></trkpt>
      <trkpt lat="37.706629" lon="128.028189"><ele>535.1</ele><time>2024-09-06T00:52:24.000Z</time></trkpt>
      <trkpt lat="37.706662" lon="128.028151"><ele>536.5</ele><time>2024-09-06T00:52:33.000Z</time></trkpt>
      <trkpt lat="37.706700" lon="128.028120"><ele>537.3</ele><time>2024-09-06T00:52:36.000Z</time></trkpt>
      <trkpt lat="37.706740" lon="128.028094"><ele>537.6</ele><time>2024-09-06T00:52:45.000Z</time></trkpt>
      <trkpt lat="37.706782" lon="128.028075"><ele>538.0</ele><time>2024-09-06T00:52:50.000Z</time></trkpt>
      <trkpt lat="37.706820" lon="128.028045"><ele>538.5</ele><time>2024-09-06T00:52:55.000Z</time></trkpt>
      <trkpt lat="37.706861" lon="128.028021"><ele>539.0</ele><time>2024-09-06T00:53:05.000Z</time></trkpt>
      <trkpt lat="37.706900" lon="128.027992"><ele>539.1</ele><time>2024-09-06T00:53:05.000Z</time></trkpt>
      <trkpt lat="37.706938" lon="128.027962"><ele>539.2</ele><time>2024-09-06T00:53:14.000Z</time></trkpt>
      <trkpt lat="37.706980" lon="128.027941"><ele>539.2</ele><time>2024-09-06T00:53:14.000Z</time></trkpt>
      <trkpt lat="37.707021" lon="128.027920"><ele>539.1</ele><time>2024-09-06T00:53:26.000Z</time></trkpt>
      <trkpt lat="37.707063" lon="128.027900"><ele>539.1</ele><time>2024-09-06T00:53:26.000Z</time></trkpt>
      <trkpt lat="37.707106" lon="128.027881"><ele>539.0</ele><time>2024-09-06T00:53:29.000Z</time></trkpt>
      <trkpt lat="37.707151" lon="128.027885"><ele>538.8</ele><time>2024-09-06T00:53:34.000Z</time></trkpt>
      <trkpt lat="37.707195" lon="128.027891"><ele>538.7</ele><time>2024-09-06T00:53:37.000Z</time></trkpt>
      <trkpt lat="37.707240" lon="128.027884"><ele>538.9</ele><time>2024-09-06T00:53:40.000Z</time></trkpt>
      <trkpt lat="37.707285" lon="128.027882"><ele>539.3</ele><time>2024-09-06T00:53:43.000Z</time></trkpt>
      <trkpt lat="37.707330" lon="128.027887"><ele>539.8</ele><time>2024-09-06T00:53:53.000Z</time></trkpt>
      <trkpt lat="37.707374" lon="128.027889"><ele>540.5</ele><time>2024-09-06T00:53:54.000Z</time></trkpt>
      <trkpt lat="37.707419" lon="128.027886"><ele>540.7</ele><time>2024-09-06T00:54:03.000Z</time></trkpt>
      <trkpt lat="37.707463" lon="128.027875"><ele>541.9</ele><time>2024-09-06T00:54:06.000Z</time></trkpt>
      <trkpt lat="37.707508" lon="128.027879"><ele>542.2</ele><time>2024-09-06T00:54:13.000Z</time></trkpt>
      <trkpt lat="37.707550" lon="128.027901"><ele>543.3</ele><time>2024-09-06T00:54:19.000Z</time></trkpt>
      <trkpt lat="37.707594" lon="128.027898"><ele>544.4</ele><time>2024-09-06T00:54:26.000Z</time></trkpt>
      <trkpt lat="37.707633" lon="128.027870"><ele>545.7</ele><time>2024-09-06T00:54:35.000Z</time></trkpt>
      <trkpt lat="37.707678" lon="128.027861"><ele>547.3</ele><time>2024-09-06T00:54:40.000Z</time></trkpt>
      <trkpt lat="37.707721" lon="128.027845"><ele>548.6</ele><time>2024-09-06T00:54:50.000Z</time></trkpt>
      <trkpt lat="37.707766" lon="128.027842"><ele>549.7</ele><time>2024-09-06T00:54:55.000Z</time></trkpt>
      <trkpt lat="37.707810" lon="128.027845"><ele>551.8</ele><time>2024-09-06T00:55:01.000Z</time></trkpt>
      <trkpt lat="37.707855" lon="128.027841"><ele>553.7</ele><time>2024-09-06T00:55:12.000Z</time></trkpt>
      <trkpt lat="37.707899" lon="128.027827"><ele>555.5</ele><time>2024-09-06T00:55:24.000Z</time></trkpt>
      <trkpt lat="37.707940" lon="128.027807"><ele>556.3</ele><time>2024-09-06T00:55:31.000Z</time></trkpt>
      <trkpt lat="37.707978" lon="128.027776"><ele>557.1</ele><time>2024-09-06T00:55:32.000Z</time></trkpt>
      <trkpt lat="37.708011" lon="128.027738"><ele>557.7</ele><time>2024-09-06T00:55:41.000Z</time></trkpt>
      <trkpt lat="37.708037" lon="128.027692"><ele>558.6</ele><time>2024-09-06T00:55:44.000Z</time></trkpt>
      <trkpt lat="37.708063" lon="128.027645"><ele>559.8</ele><time>2024-09-06T00:55:51.000Z</time></trkpt>
      <trkpt lat="37.708089" lon="128.027600"><ele>561.2</ele><time>2024-09-06T00:56:01.000Z</time></trkpt>
      <trkpt lat="37.708116" lon="128.027555"><ele>562.5</ele><time>2024-09-06T00:56:06.000Z</time></trkpt>
      <trkpt lat="37.708153" lon="128.027522"><ele>564.2</ele><time>2024-09-06T00:56:19.000Z</time></trkpt>
      <trkpt lat="37.708176" lon="128.027478"><ele>565.5</ele><time>2024-09-06T00:56:30.000Z</time></trkpt>
      <trkpt lat="37.708190" lon="128.027425"><ele>567.0</ele><time>2024-09-06T00:56:36.000Z</time></trkpt>
      <trkpt lat="37.708224" lon="128.027396"><ele>568.2</ele><time>2024-09-06T00:56:42.000Z</time></trkpt>
      <trkpt lat="37.708268" lon="128.027395"><ele>568.9</ele><time>2024-09-06T00:56:49.000Z</time></trkpt>
      <trkpt lat="37.708313" lon="128.027394"><ele>569.5</ele><time>2024-09-06T00:56:53.000Z</time></trkpt>
      <trkpt lat="37.708353" lon="128.027372"><ele>569.8</ele><time>2024-09-06T00:57:03.000Z</time></trkpt>
      <trkpt lat="37.708392" lon="128.027343"><ele>570.0</ele><time>2024-09-06T00:57:03.000Z</time></trkpt>
      <trkpt lat="37.708433" lon="128.027320"><ele>570.2</ele><time>2024-09-06T00:57:10.000Z</time></trkpt>
      <trkpt lat="37.708477" lon="128.027319"><ele>570.4</ele><time>2024-09-06T00:57:14.000Z</time></trkpt>
      <trkpt lat="37.708520" lon="128.027306"><ele>570.3</ele><time>2024-09-06T00:57:14.000Z</time></trkpt>
      <trkpt lat="37.708561" lon="128.027285"><ele>570.1</ele><time>2024-09-06T00:57:23.000Z</time></trkpt>
      <trkpt lat="37.708605" lon="128.027271"><ele>569.9</ele><time>2024-09-06T00:57:31.000Z</time></trkpt>
      <trkpt lat="37.708649" lon="128.027278"><ele>569.3</ele><time>2024-09-06T00:57:31.000Z</time></trkpt>
      <trkpt lat="37.708690" lon="128.027269"><ele>567.3</ele><time>2024-09-06T00:57:36.000Z</time></trkpt>
      <trkpt lat="37.708728" lon="128.027242"><ele>565.4</ele><time>2024-09-06T00:57:50.000Z</time></trkpt>
      <trkpt lat="37.708769" lon="128.027221"><ele>564.0</ele><time>2024-09-06T00:57:54.000Z</time></trkpt>
      <trkpt lat="37.708806" lon="128.027189"><ele>562.9</ele><time>2024-09-06T00:57:58.000Z</time></trkpt>
      <trkpt lat="37.708846" lon="128.027164"><ele>561.8</ele><time>2024-09-06T00:58:05.000Z</time></trkpt>
      <trkpt lat="37.708880" lon="128.027130"><ele>561.1</ele><time>2024-09-06T00:58:11.000Z</time></trkpt>
      <trkpt lat="37.708912" lon="128.027090"><ele>560.6</ele><time>2024-09-06T00:58:11.000Z</time></trkpt>
      <trkpt lat="37.708950" lon="128.027060"><ele>560.2</ele><time>2024-09-06T00:58:18.000Z</time></trkpt>
      <trkpt lat="37.708991" lon="128.027037"><ele>560.1</ele><time>2024-09-06T00:58:21.000Z</time></trkpt>
      <trkpt lat="37.709033" lon="128.027017"><ele>560.2</ele><time>2024-09-06T00:58:29.000Z</time></trkpt>
      <trkpt lat="37.709076" lon="128.027002"><ele>560.4</ele><time>2024-09-06T00:58:29.000Z</time></trkpt>
      <trkpt lat="37.709121" lon="128.026999"><ele>560.8</ele><time>2024-09-06T00:58:33.000Z</time></trkpt>
      <trkpt lat="37.709165" lon="128.026994"><ele>561.3</ele><time>2024-09-06T00:58:40.000Z</time></trkpt>
      <trkpt lat="37.709210" lon="128.026987"><ele>562.2</ele><time>2024-09-06T00:58:41.000Z</time></trkpt>
      <trkpt lat="37.709254" lon="128.026979"><ele>563.1</ele><time>2024-09-06T00:58:50.000Z</time></trkpt>
      <trkpt lat="37.709296" lon="128.026958"><ele>564.6</ele><time>2024-09-06T00:58:55.000Z</time></trkpt>
      <trkpt lat="37.709334" lon="128.026928"><ele>566.1</ele><time>2024-09-06T00:59:00.000Z</time></trkpt>
      <trkpt lat="37.709362" lon="128.026885"><ele>567.7</ele><time>2024-09-06T00:59:05.000Z</time></trkpt>
      <trkpt lat="37.709391" lon="128.026842"><ele>569.3</ele><time>2024-09-06T00:59:14.000Z</time></trkpt>
      <trkpt lat="37.709429" lon="128.026811"><ele>570.8</ele><time>2024-09-06T00:59:19.000Z</time></trkpt>
      <trkpt lat="37.709457" lon="128.026769"><ele>572.4</ele><time>2024-09-06T00:59:25.000Z</time></trkpt>
      <trkpt lat="37.709489" lon="128.026728"><ele>573.4</ele><time>2024-09-06T00:59:36.000Z</time></trkpt>
      <trkpt lat="37.709512" lon="128.026680"><ele>573.9</ele><time>2024-09-06T00:59:45.000Z</time></trkpt>
      <trkpt lat="37.709512" lon="128.026624"><ele>574.2</ele><time>2024-09-06T00:59:47.000Z</time></trkpt>
      <trkpt lat="37.709531" lon="128.026573"><ele>574.0</ele><time>2024-09-06T00:59:56.000Z</time></trkpt>
      <trkpt lat="37.709565" lon="128.026537"><ele>573.6</ele><time>2024-09-06T01:00:04.000Z</time></trkpt>
      <trkpt lat="37.709605" lon="128.026511"><ele>571.7</ele><time>2024-09-06T01:00:08.000Z</time></trkpt>
      <trkpt lat="37.709641" lon="128.026477"><ele>570.1</ele><time>2024-09-06T01:00:16.000Z</time></trkpt>
      <trkpt lat="37.709673" lon="128.026454"><ele>567.5</ele><time>2024-09-06T01:00:24.000Z</time></trkpt>
      <trkpt lat="37.709689" lon="128.026401"><ele>565.9</ele><time>2024-09-06T01:00:29.000Z</time></trkpt>
      <trkpt lat="37.709705" lon="128.026349"><ele>564.9</ele><time>2024-09-06T01:00:33.000Z</time></trkpt>
      <trkpt lat="37.709719" lon="128.026295"><ele>564.0</ele><time>2024-09-06T01:00:38.000Z</time></trkpt>
      <trkpt lat="37.709740" lon="128.026245"><ele>563.3</ele><time>2024-09-06T01:00:45.000Z</time></trkpt>
      <trkpt lat="37.709768" lon="128.026200"><ele>562.8</ele><time>2024-09-06T01:00:48.000Z</time></trkpt>
      <trkpt lat="37.709794" lon="128.026155"><ele>562.5</ele><time>2024-09-06T01:00:51.000Z</time></trkpt>
      <trkpt lat="37.709817" lon="128.026107"><ele>562.2</ele><time>2024-09-06T01:00:52.000Z</time></trkpt>
      <trkpt lat="37.709846" lon="128.026062"><ele>561.8</ele><time>2024-09-06T01:01:02.000Z</time></trkpt>
      <trkpt lat="37.709870" lon="128.026015"><ele>561.4</ele><time>2024-09-06T01:01:06.000Z</time></trkpt>
      <trkpt lat="37.709898" lon="128.025973"><ele>561.1</ele><time>2024-09-06T01:01:12.000Z</time></trkpt>
      <trkpt lat="37.709931" lon="128.025934"><ele>561.0</ele><time>2024-09-06T01:01:12.000Z</time></trkpt>
      <trkpt lat="37.709958" lon="128.025889"><ele>561.3</ele><time>2024-09-06T01:01:18.000Z</time></trkpt>
      <trkpt lat="37.709989" lon="128.025849"><ele>562.0</ele><time>2024-09-06T01:01:27.000Z</time></trkpt>
      <trkpt lat="37.710027" lon="128.025820"><ele>563.0</ele><time>2024-09-06T01:01:31.000Z</time></trkpt>
      <trkpt lat="37.710067" lon="128.025792"><ele>564.5</ele><time>2024-09-06T01:01:38.000Z</time></trkpt>
      <trkpt lat="37.710103" lon="128.025759"><ele>565.9</ele><time>2024-09-06T01:01:45.000Z</time></trkpt>
      <trkpt lat="37.710135" lon="128.025720"><ele>567.4</ele><time>2024-09-06T01:01:51.000Z</time></trkpt>
      <trkpt lat="37.710158" lon="128.025672"><ele>568.2</ele><time>2024-09-06T01:01:58.000Z</time></trkpt>
      <trkpt lat="37.710178" lon="128.025621"><ele>569.1</ele><time>2024-09-06T01:02:06.000Z</time></trkpt>
      <trkpt lat="37.710199" lon="128.025571"><ele>570.0</ele><time>2024-09-06T01:02:12.000Z</time></trkpt>
      <trkpt lat="37.710225" lon="128.025525"><ele>571.3</ele><time>2024-09-06T01:02:18.000Z</time></trkpt>
      <trkpt lat="37.710252" lon="128.025479"><ele>573.1</ele><time>2024-09-06T01:02:25.000Z</time></trkpt>
      <trkpt lat="37.710268" lon="128.025427"><ele>574.4</ele><time>2024-09-06T01:02:36.000Z</time></trkpt>
      <trkpt lat="37.710273" lon="128.025371"><ele>575.5</ele><time>2024-09-06T01:02:39.000Z</time></trkpt>
      <trkpt lat="37.710271" lon="128.025315"><ele>577.5</ele><time>2024-09-06T01:02:55.000Z</time></trkpt>
      <trkpt lat="37.710271" lon="128.025258"><ele>579.7</ele><time>2024-09-06T01:03:04.000Z</time></trkpt>
      <trkpt lat="37.710263" lon="128.025202"><ele>581.3</ele><time>2024-09-06T01:03:16.000Z</time></trkpt>
      <trkpt lat="37.710288" lon="128.025157"><ele>583.9</ele><time>2024-09-06T01:03:26.000Z</time></trkpt>
      <trkpt lat="37.710313" lon="128.025110"><ele>586.2</ele><time>2024-09-06T01:03:46.000Z</time></trkpt>
      <trkpt lat="37.710336" lon="128.025061"><ele>587.6</ele><time>2024-09-06T01:03:56.000Z</time></trkpt>
      <trkpt lat="37.710356" lon="128.025010"><ele>589.2</ele><time>2024-09-06T01:04:04.000Z</time></trkpt>
      <trkpt lat="37.710383" lon="128.024968"><ele>590.8</ele><time>2024-09-06T01:04:09.000Z</time></trkpt>
      <trkpt lat="37.710415" lon="128.024931"><ele>592.2</ele><time>2024-09-06T01:04:16.000Z</time></trkpt>
      <trkpt lat="37.710440" lon="128.024884"><ele>594.3</ele><time>2024-09-06T01:04:33.000Z</time></trkpt>
      <trkpt lat="37.710462" lon="128.024834"><ele>596.1</ele><time>2024-09-06T01:04:41.000Z</time></trkpt>
      <trkpt lat="37.710500" lon="128.024808"><ele>597.9</ele><time>2024-09-06T01:04:54.000Z</time></trkpt>
      <trkpt lat="37.710536" lon="128.024774"><ele>600.8</ele><time>2024-09-06T01:05:05.000Z</time></trkpt>
      <trkpt lat="37.710562" lon="128.024742"><ele>603.4</ele><time>2024-09-06T01:05:29.000Z</time></trkpt>
      <trkpt lat="37.710588" lon="128.024707"><ele>607.0</ele><time>2024-09-06T01:05:41.000Z</time></trkpt>
      <trkpt lat="37.710596" lon="128.024654"><ele>610.1</ele><time>2024-09-06T01:05:52.000Z</time></trkpt>
      <trkpt lat="37.710628" lon="128.024631"><ele>614.6</ele><time>2024-09-06T01:06:20.000Z</time></trkpt>
      <trkpt lat="37.710656" lon="128.024593"><ele>617.1</ele><time>2024-09-06T01:06:37.000Z</time></trkpt>
      <trkpt lat="37.710633" lon="128.024545"><ele>619.3</ele><time>2024-09-06T01:06:50.000Z</time></trkpt>
      <trkpt lat="37.710639" lon="128.024506"><ele>621.7</ele><time>2024-09-06T01:07:03.000Z</time></trkpt>
      <trkpt lat="37.710682" lon="128.024491"><ele>623.2</ele><time>2024-09-06T01:07:13.000Z</time></trkpt>
      <trkpt lat="37.710699" lon="128.024459"><ele>624.7</ele><time>2024-09-06T01:07:19.000Z</time></trkpt>
      <trkpt lat="37.710712" lon="128.024418"><ele>628.0</ele><time>2024-09-06T01:07:48.000Z</time></trkpt>
      <trkpt lat="37.710733" lon="128.024369"><ele>631.3</ele><time>2024-09-06T01:08:04.000Z</time></trkpt>
      <trkpt lat="37.710733" lon="128.024312"><ele>633.3</ele><time>2024-09-06T01:08:17.000Z</time></trkpt>
      <trkpt lat="37.710743" lon="128.024257"><ele>635.9</ele><time>2024-09-06T01:08:28.000Z</time></trkpt>
      <trkpt lat="37.710751" lon="128.024201"><ele>638.5</ele><time>2024-09-06T01:08:57.000Z</time></trkpt>
      <trkpt lat="37.710774" lon="128.024170"><ele>640.5</ele><time>2024-09-06T01:09:33.000Z</time></trkpt>
      <trkpt lat="37.710799" lon="128.024124"><ele>640.5</ele><time>2024-09-06T01:09:51.000Z</time></trkpt>
      <trkpt lat="37.710827" lon="128.024079"><ele>640.0</ele><time>2024-09-06T01:09:57.000Z</time></trkpt>
      <trkpt lat="37.710863" lon="128.024047"><ele>639.8</ele><time>2024-09-06T01:10:06.000Z</time></trkpt>
      <trkpt lat="37.710905" lon="128.024026"><ele>639.4</ele><time>2024-09-06T01:10:10.000Z</time></trkpt>
      <trkpt lat="37.710945" lon="128.024001"><ele>638.9</ele><time>2024-09-06T01:10:18.000Z</time></trkpt>
      <trkpt lat="37.710982" lon="128.023968"><ele>638.4</ele><time>2024-09-06T01:10:21.000Z</time></trkpt>
      <trkpt lat="37.711011" lon="128.023926"><ele>638.3</ele><time>2024-09-06T01:10:33.000Z</time></trkpt>
      <trkpt lat="37.711039" lon="128.023882"><ele>638.3</ele><time>2024-09-06T01:10:33.000Z</time></trkpt>
      <trkpt lat="37.711073" lon="128.023844"><ele>638.4</ele><time>2024-09-06T01:10:39.000Z</time></trkpt>
      <trkpt lat="37.711113" lon="128.023820"><ele>639.0</ele><time>2024-09-06T01:10:43.000Z</time></trkpt>
      <trkpt lat="37.711152" lon="128.023795"><ele>639.6</ele><time>2024-09-06T01:10:48.000Z</time></trkpt>
      <trkpt lat="37.711187" lon="128.023759"><ele>639.9</ele><time>2024-09-06T01:10:59.000Z</time></trkpt>
      <trkpt lat="37.711219" lon="128.023719"><ele>640.2</ele><time>2024-09-06T01:11:00.000Z</time></trkpt>
      <trkpt lat="37.711257" lon="128.023693"><ele>640.7</ele><time>2024-09-06T01:11:04.000Z</time></trkpt>
      <trkpt lat="37.711301" lon="128.023685"><ele>641.0</ele><time>2024-09-06T01:11:10.000Z</time></trkpt>
      <trkpt lat="37.711346" lon="128.023680"><ele>641.3</ele><time>2024-09-06T01:11:14.000Z</time></trkpt>
      <trkpt lat="37.711390" lon="128.023667"><ele>641.6</ele><time>2024-09-06T01:11:18.000Z</time></trkpt>
      <trkpt lat="37.711431" lon="128.023646"><ele>641.7</ele><time>2024-09-06T01:11:23.000Z</time></trkpt>
      <trkpt lat="37.711472" lon="128.023620"><ele>642.2</ele><time>2024-09-06T01:11:25.000Z</time></trkpt>
      <trkpt lat="37.711509" lon="128.023588"><ele>642.9</ele><time>2024-09-06T01:11:33.000Z</time></trkpt>
      <trkpt lat="37.711544" lon="128.023554"><ele>644.0</ele><time>2024-09-06T01:11:41.000Z</time></trkpt>
      <trkpt lat="37.711585" lon="128.023533"><ele>645.1</ele><time>2024-09-06T01:11:44.000Z</time></trkpt>
      <trkpt lat="37.711629" lon="128.023522"><ele>646.9</ele><time>2024-09-06T01:11:53.000Z</time></trkpt>
      <trkpt lat="37.711672" lon="128.023505"><ele>648.2</ele><time>2024-09-06T01:12:01.000Z</time></trkpt>
      <trkpt lat="37.711716" lon="128.023494"><ele>649.7</ele><time>2024-09-06T01:12:08.000Z</time></trkpt>
      <trkpt lat="37.711757" lon="128.023471"><ele>651.8</ele><time>2024-09-06T01:12:18.000Z</time></trkpt>
      <trkpt lat="37.711795" lon="128.023440"><ele>653.2</ele><time>2024-09-06T01:12:24.000Z</time></trkpt>
      <trkpt lat="37.711830" lon="128.023406"><ele>654.0</ele><time>2024-09-06T01:12:29.000Z</time></trkpt>
      <trkpt lat="37.711872" lon="128.023384"><ele>655.8</ele><time>2024-09-06T01:12:32.000Z</time></trkpt>
      <trkpt lat="37.711912" lon="128.023359"><ele>659.5</ele><time>2024-09-06T01:12:42.000Z</time></trkpt>
      <trkpt lat="37.711951" lon="128.023331"><ele>659.2</ele><time>2024-09-06T01:12:47.000Z</time></trkpt>
      <trkpt lat="37.711996" lon="128.023322"><ele>658.6</ele><time>2024-09-06T01:12:53.000Z</time></trkpt>
      <trkpt lat="37.712034" lon="128.023293"><ele>659.5</ele><time>2024-09-06T01:13:03.000Z</time></trkpt>
      <trkpt lat="37.712078" lon="128.023291"><ele>660.7</ele><time>2024-09-06T01:13:07.000Z</time></trkpt>
      <trkpt lat="37.712121" lon="128.023276"><ele>662.2</ele><time>2024-09-06T01:13:18.000Z</time></trkpt>
      <trkpt lat="37.712152" lon="128.023244"><ele>664.6</ele><time>2024-09-06T01:13:26.000Z</time></trkpt>
      <trkpt lat="37.712194" lon="128.023246"><ele>666.1</ele><time>2024-09-06T01:13:34.000Z</time></trkpt>
      <trkpt lat="37.712227" lon="128.023210"><ele>667.8</ele><time>2024-09-06T01:13:46.000Z</time></trkpt>
      <trkpt lat="37.712251" lon="128.023161"><ele>668.6</ele><time>2024-09-06T01:13:54.000Z</time></trkpt>
      <trkpt lat="37.712278" lon="128.023116"><ele>668.7</ele><time>2024-09-06T01:13:58.000Z</time></trkpt>
      <trkpt lat="37.712305" lon="128.023070"><ele>668.5</ele><time>2024-09-06T01:13:58.000Z</time></trkpt>
      <trkpt lat="37.712328" lon="128.023022"><ele>668.3</ele><time>2024-09-06T01:14:09.000Z</time></trkpt>
      <trkpt lat="37.712342" lon="128.022968"><ele>667.5</ele><time>2024-09-06T01:14:13.000Z</time></trkpt>
      <trkpt lat="37.712353" lon="128.022913"><ele>665.8</ele><time>2024-09-06T01:14:19.000Z</time></trkpt>
      <trkpt lat="37.712368" lon="128.022860"><ele>664.4</ele><time>2024-09-06T01:14:27.000Z</time></trkpt>
      <trkpt lat="37.712386" lon="128.022808"><ele>663.6</ele><time>2024-09-06T01:14:31.000Z</time></trkpt>
      <trkpt lat="37.712408" lon="128.022758"><ele>663.0</ele><time>2024-09-06T01:14:36.000Z</time></trkpt>
      <trkpt lat="37.712432" lon="128.022710"><ele>662.9</ele><time>2024-09-06T01:14:39.000Z</time></trkpt>
      <trkpt lat="37.712459" lon="128.022665"><ele>663.3</ele><time>2024-09-06T01:14:45.000Z</time></trkpt>
      <trkpt lat="37.712490" lon="128.022625"><ele>664.5</ele><time>2024-09-06T01:14:50.000Z</time></trkpt>
      <trkpt lat="37.712520" lon="128.022585"><ele>666.6</ele><time>2024-09-06T01:14:58.000Z</time></trkpt>
      <trkpt lat="37.712544" lon="128.022538"><ele>668.6</ele><time>2024-09-06T01:15:16.000Z</time></trkpt>
      <trkpt lat="37.712571" lon="128.022493"><ele>670.2</ele><time>2024-09-06T01:15:23.000Z</time></trkpt>
      <trkpt lat="37.712601" lon="128.022450"><ele>671.5</ele><time>2024-09-06T01:15:33.000Z</time></trkpt>
      <trkpt lat="37.712630" lon="128.022407"><ele>672.8</ele><time>2024-09-06T01:15:36.000Z</time></trkpt>
      <trkpt lat="37.712662" lon="128.022369"><ele>674.3</ele><time>2024-09-06T01:15:47.000Z</time></trkpt>
      <trkpt lat="37.712685" lon="128.022322"><ele>675.5</ele><time>2024-09-06T01:15:55.000Z</time></trkpt>
      <trkpt lat="37.712701" lon="128.022269"><ele>677.2</ele><time>2024-09-06T01:16:06.000Z</time></trkpt>
      <trkpt lat="37.712735" lon="128.022235"><ele>678.8</ele><time>2024-09-06T01:16:14.000Z</time></trkpt>
      <trkpt lat="37.712768" lon="128.022197"><ele>679.7</ele><time>2024-09-06T01:16:27.000Z</time></trkpt>
      <trkpt lat="37.712799" lon="128.022156"><ele>680.3</ele><time>2024-09-06T01:16:35.000Z</time></trkpt>
      <trkpt lat="37.712824" lon="128.022109"><ele>681.3</ele><time>2024-09-06T01:16:43.000Z</time></trkpt>
      <trkpt lat="37.712854" lon="128.022066"><ele>682.7</ele><time>2024-09-06T01:16:47.000Z</time></trkpt>
      <trkpt lat="37.712880" lon="128.022020"><ele>684.7</ele><time>2024-09-06T01:16:56.000Z</time></trkpt>
      <trkpt lat="37.712907" lon="128.021977"><ele>686.2</ele><time>2024-09-06T01:17:06.000Z</time></trkpt>
      <trkpt lat="37.712906" lon="128.021921"><ele>687.0</ele><time>2024-09-06T01:17:16.000Z</time></trkpt>
      <trkpt lat="37.712892" lon="128.021867"><ele>688.5</ele><time>2024-09-06T01:17:22.000Z</time></trkpt>
      <trkpt lat="37.712893" lon="128.021810"><ele>690.4</ele><time>2024-09-06T01:17:29.000Z</time></trkpt>
      <trkpt lat="37.712899" lon="128.021754"><ele>692.7</ele><time>2024-09-06T01:17:44.000Z</time></trkpt>
      <trkpt lat="37.712905" lon="128.021699"><ele>695.1</ele><time>2024-09-06T01:17:57.000Z</time></trkpt>
      <trkpt lat="37.712924" lon="128.021647"><ele>697.9</ele><time>2024-09-06T01:18:06.000Z</time></trkpt>
      <trkpt lat="37.712940" lon="128.021595"><ele>698.9</ele><time>2024-09-06T01:18:16.000Z</time></trkpt>
      <trkpt lat="37.712958" lon="128.021543"><ele>700.4</ele><time>2024-09-06T01:18:25.000Z</time></trkpt>
      <trkpt lat="37.712975" lon="128.021493"><ele>702.1</ele><time>2024-09-06T01:18:49.000Z</time></trkpt>
      <trkpt lat="37.712991" lon="128.021441"><ele>703.7</ele><time>2024-09-06T01:19:02.000Z</time></trkpt>
      <trkpt lat="37.712997" lon="128.021385"><ele>704.9</ele><time>2024-09-06T01:19:14.000Z</time></trkpt>
      <trkpt lat="37.713007" lon="128.021330"><ele>706.5</ele><time>2024-09-06T01:19:30.000Z</time></trkpt>
      <trkpt lat="37.713005" lon="128.021274"><ele>708.4</ele><time>2024-09-06T01:19:41.000Z</time></trkpt>
      <trkpt lat="37.713008" lon="128.021219"><ele>710.2</ele><time>2024-09-06T01:19:56.000Z</time></trkpt>
      <trkpt lat="37.713025" lon="128.021166"><ele>712.2</ele><time>2024-09-06T01:20:01.000Z</time></trkpt>
      <trkpt lat="37.713040" lon="128.021113"><ele>715.1</ele><time>2024-09-06T01:20:14.000Z</time></trkpt>
      <trkpt lat="37.713062" lon="128.021064"><ele>719.4</ele><time>2024-09-06T01:20:26.000Z</time></trkpt>
      <trkpt lat="37.713080" lon="128.021012"><ele>720.6</ele><time>2024-09-06T01:20:35.000Z</time></trkpt>
      <trkpt lat="37.713079" lon="128.020956"><ele>721.9</ele><time>2024-09-06T01:20:47.000Z</time></trkpt>
      <trkpt lat="37.713075" lon="128.020901"><ele>729.6</ele><time>2024-09-06T01:20:59.000Z</time></trkpt>
      <trkpt lat="37.713093" lon="128.020850"><ele>726.5</ele><time>2024-09-06T01:21:12.000Z</time></trkpt>
      <trkpt lat="37.713103" lon="128.020794"><ele>728.8</ele><time>2024-09-06T01:21:24.000Z</time></trkpt>
      <trkpt lat="37.713104" lon="128.020738"><ele>731.3</ele><time>2024-09-06T01:21:50.000Z</time></trkpt>
      <trkpt lat="37.713102" lon="128.020682"><ele>733.0</ele><time>2024-09-06T01:22:05.000Z</time></trkpt>
      <trkpt lat="37.713121" lon="128.020631"><ele>735.2</ele><time>2024-09-06T01:22:13.000Z</time></trkpt>
      <trkpt lat="37.713124" lon="128.020575"><ele>737.8</ele><time>2024-09-06T01:22:28.000Z</time></trkpt>
      <trkpt lat="37.713120" lon="128.020518"><ele>741.5</ele><time>2024-09-06T01:22:48.000Z</time></trkpt>
      <trkpt lat="37.713120" lon="128.020462"><ele>744.1</ele><time>2024-09-06T01:22:56.000Z</time></trkpt>
      <trkpt lat="37.713127" lon="128.020406"><ele>744.9</ele><time>2024-09-06T01:23:05.000Z</time></trkpt>
      <trkpt lat="37.713142" lon="128.020354"><ele>746.0</ele><time>2024-09-06T01:23:32.000Z</time></trkpt>
      <trkpt lat="37.713113" lon="128.020325"><ele>745.5</ele><time>2024-09-06T01:23:42.000Z</time></trkpt>
      <trkpt lat="37.713073" lon="128.020301"><ele>744.7</ele><time>2024-09-06T01:23:47.000Z</time></trkpt>
      <trkpt lat="37.713055" lon="128.020249"><ele>742.6</ele><time>2024-09-06T01:23:56.000Z</time></trkpt>
      <trkpt lat="37.713027" lon="128.020205"><ele>740.3</ele><time>2024-09-06T01:24:18.000Z</time></trkpt>
      <trkpt lat="37.713009" lon="128.020153"><ele>735.2</ele><time>2024-09-06T01:24:26.000Z</time></trkpt>
      <trkpt lat="37.712993" lon="128.020100"><ele>733.1</ele><time>2024-09-06T01:24:30.000Z</time></trkpt>
      <trkpt lat="37.712971" lon="128.020050"><ele>732.5</ele><time>2024-09-06T01:24:39.000Z</time></trkpt>
      <trkpt lat="37.712952" lon="128.019999"><ele>730.8</ele><time>2024-09-06T01:24:43.000Z</time></trkpt>
      <trkpt lat="37.712955" lon="128.019943"><ele>727.8</ele><time>2024-09-06T01:24:55.000Z</time></trkpt>
      <trkpt lat="37.712954" lon="128.019886"><ele>726.1</ele><time>2024-09-06T01:24:59.000Z</time></trkpt>
      <trkpt lat="37.712954" lon="128.019829"><ele>725.4</ele><time>2024-09-06T01:25:18.000Z</time></trkpt>
      <trkpt lat="37.712960" lon="128.019773"><ele>724.5</ele><time>2024-09-06T01:25:24.000Z</time></trkpt>
      <trkpt lat="37.712968" lon="128.019718"><ele>723.1</ele><time>2024-09-06T01:25:35.000Z</time></trkpt>
      <trkpt lat="37.712959" lon="128.019662"><ele>722.9</ele><time>2024-09-06T01:25:40.000Z</time></trkpt>
      <trkpt lat="37.712949" lon="128.019607"><ele>722.7</ele><time>2024-09-06T01:25:42.000Z</time></trkpt>
      <trkpt lat="37.712936" lon="128.019552"><ele>722.6</ele><time>2024-09-06T01:25:46.000Z</time></trkpt>
      <trkpt lat="37.712929" lon="128.019497"><ele>723.0</ele><time>2024-09-06T01:25:52.000Z</time></trkpt>
      <trkpt lat="37.712933" lon="128.019441"><ele>723.1</ele><time>2024-09-06T01:25:57.000Z</time></trkpt>
      <trkpt lat="37.712924" lon="128.019386"><ele>722.0</ele><time>2024-09-06T01:25:59.000Z</time></trkpt>
      <trkpt lat="37.712922" lon="128.019329"><ele>720.8</ele><time>2024-09-06T01:26:06.000Z</time></trkpt>
      <trkpt lat="37.712926" lon="128.019274"><ele>718.4</ele><time>2024-09-06T01:26:09.000Z</time></trkpt>
      <trkpt lat="37.712916" lon="128.019219"><ele>716.3</ele><time>2024-09-06T01:26:12.000Z</time></trkpt>
      <trkpt lat="37.712911" lon="128.019162"><ele>716.6</ele><time>2024-09-06T01:26:17.000Z</time></trkpt>
      <trkpt lat="37.712912" lon="128.019106"><ele>717.3</ele><time>2024-09-06T01:26:20.000Z</time></trkpt>
      <trkpt lat="37.712912" lon="128.019049"><ele>718.1</ele><time>2024-09-06T01:26:26.000Z</time></trkpt>
      <trkpt lat="37.712909" lon="128.018992"><ele>719.2</ele><time>2024-09-06T01:26:30.000Z</time></trkpt>
      <trkpt lat="37.712907" lon="128.018935"><ele>720.3</ele><time>2024-09-06T01:26:38.000Z</time></trkpt>
      <trkpt lat="37.712910" lon="128.018879"><ele>721.4</ele><time>2024-09-06T01:26:45.000Z</time></trkpt>
      <trkpt lat="37.712912" lon="128.018822"><ele>722.9</ele><time>2024-09-06T01:26:46.000Z</time></trkpt>
      <trkpt lat="37.712906" lon="128.018766"><ele>725.2</ele><time>2024-09-06T01:26:53.000Z</time></trkpt>
      <trkpt lat="37.712892" lon="128.018712"><ele>727.1</ele><time>2024-09-06T01:26:58.000Z</time></trkpt>
      <trkpt lat="37.712878" lon="128.018658"><ele>727.7</ele><time>2024-09-06T01:27:05.000Z</time></trkpt>
      <trkpt lat="37.712862" lon="128.018605"><ele>729.4</ele><time>2024-09-06T01:27:12.000Z</time></trkpt>
      <trkpt lat="37.712845" lon="128.018553"><ele>730.9</ele><time>2024-09-06T01:27:25.000Z</time></trkpt>
      <trkpt lat="37.712831" lon="128.018500"><ele>732.4</ele><time>2024-09-06T01:27:35.000Z</time></trkpt>
      <trkpt lat="37.712835" lon="128.018443"><ele>734.0</ele><time>2024-09-06T01:27:41.000Z</time></trkpt>
      <trkpt lat="37.712854" lon="128.018394"><ele>735.0</ele><time>2024-09-06T01:27:47.000Z</time></trkpt>
      <trkpt lat="37.712878" lon="128.018346"><ele>736.2</ele><time>2024-09-06T01:27:50.000Z</time></trkpt>
      <trkpt lat="37.712896" lon="128.018293"><ele>737.6</ele><time>2024-09-06T01:27:56.000Z</time></trkpt>
      <trkpt lat="37.712916" lon="128.018243"><ele>738.7</ele><time>2024-09-06T01:27:57.000Z</time></trkpt>
      <trkpt lat="37.712943" lon="128.018198"><ele>739.1</ele><time>2024-09-06T01:28:03.000Z</time></trkpt>
      <trkpt lat="37.712973" lon="128.018155"><ele>739.4</ele><time>2024-09-06T01:28:08.000Z</time></trkpt>
      <trkpt lat="37.713002" lon="128.018112"><ele>739.7</ele><time>2024-09-06T01:28:12.000Z</time></trkpt>
      <trkpt lat="37.713028" lon="128.018066"><ele>739.8</ele><time>2024-09-06T01:28:18.000Z</time></trkpt>
      <trkpt lat="37.713060" lon="128.018026"><ele>739.8</ele><time>2024-09-06T01:28:25.000Z</time></trkpt>
      <trkpt lat="37.713097" lon="128.017995"><ele>739.5</ele><time>2024-09-06T01:28:28.000Z</time></trkpt>
      <trkpt lat="37.713138" lon="128.017972"><ele>738.8</ele><time>2024-09-06T01:28:30.000Z</time></trkpt>
      <trkpt lat="37.713181" lon="128.017954"><ele>738.3</ele><time>2024-09-06T01:28:35.000Z</time></trkpt>
      <trkpt lat="37.713223" lon="128.017934"><ele>737.8</ele><time>2024-09-06T01:28:38.000Z</time></trkpt>
      <trkpt lat="37.713259" lon="128.017902"><ele>737.9</ele><time>2024-09-06T01:28:43.000Z</time></trkpt>
      <trkpt lat="37.713298" lon="128.017874"><ele>738.4</ele><time>2024-09-06T01:28:47.000Z</time></trkpt>
      <trkpt lat="37.713340" lon="128.017852"><ele>739.1</ele><time>2024-09-06T01:28:55.000Z</time></trkpt>
      <trkpt lat="37.713383" lon="128.017838"><ele>739.5</ele><time>2024-09-06T01:28:59.000Z</time></trkpt>
      <trkpt lat="37.713423" lon="128.017814"><ele>739.7</ele><time>2024-09-06T01:28:59.000Z</time></trkpt>
      <trkpt lat="37.713459" lon="128.017779"><ele>739.7</ele><time>2024-09-06T01:29:10.000Z</time></trkpt>
      <trkpt lat="37.713493" lon="128.017742"><ele>739.7</ele><time>2024-09-06T01:29:10.000Z</time></trkpt>
      <trkpt lat="37.713520" lon="128.017697"><ele>739.6</ele><time>2024-09-06T01:29:12.000Z</time></trkpt>
      <trkpt lat="37.713541" lon="128.017647"><ele>739.6</ele><time>2024-09-06T01:29:20.000Z</time></trkpt>
      <trkpt lat="37.713570" lon="128.017604"><ele>739.0</ele><time>2024-09-06T01:29:23.000Z</time></trkpt>
      <trkpt lat="37.713589" lon="128.017553"><ele>738.8</ele><time>2024-09-06T01:29:29.000Z</time></trkpt>
      <trkpt lat="37.713590" lon="128.017497"><ele>738.4</ele><time>2024-09-06T01:29:31.000Z</time></trkpt>
      <trkpt lat="37.713603" lon="128.017443"><ele>737.9</ele><time>2024-09-06T01:29:35.000Z</time></trkpt>
      <trkpt lat="37.713627" lon="128.017395"><ele>737.4</ele><time>2024-09-06T01:29:43.000Z</time></trkpt>
      <trkpt lat="37.713626" lon="128.017339"><ele>735.9</ele><time>2024-09-06T01:29:47.000Z</time></trkpt>
      <trkpt lat="37.713631" lon="128.017282"><ele>735.3</ele><time>2024-09-06T01:29:51.000Z</time></trkpt>
      <trkpt lat="37.713655" lon="128.017234"><ele>735.2</ele><time>2024-09-06T01:29:56.000Z</time></trkpt>
      <trkpt lat="37.713691" lon="128.017201"><ele>734.0</ele><time>2024-09-06T01:30:02.000Z</time></trkpt>
      <trkpt lat="37.713710" lon="128.017149"><ele>733.2</ele><time>2024-09-06T01:30:09.000Z</time></trkpt>
      <trkpt lat="37.713743" lon="128.017112"><ele>732.1</ele><time>2024-09-06T01:30:12.000Z</time></trkpt>
      <trkpt lat="37.713782" lon="128.017083"><ele>730.4</ele><time>2024-09-06T01:30:20.000Z</time></trkpt>
      <trkpt lat="37.713813" lon="128.017042"><ele>729.5</ele><time>2024-09-06T01:30:20.000Z</time></trkpt>
      <trkpt lat="37.713840" lon="128.016996"><ele>727.9</ele><time>2024-09-06T01:30:30.000Z</time></trkpt>
      <trkpt lat="37.713867" lon="128.016952"><ele>725.5</ele><time>2024-09-06T01:30:34.000Z</time></trkpt>
      <trkpt lat="37.713901" lon="128.016916"><ele>723.1</ele><time>2024-09-06T01:30:41.000Z</time></trkpt>
      <trkpt lat="37.713921" lon="128.016871"><ele>720.8</ele><time>2024-09-06T01:30:45.000Z</time></trkpt>
      <trkpt lat="37.713965" lon="128.016859"><ele>718.2</ele><time>2024-09-06T01:30:54.000Z</time></trkpt>
      <trkpt lat="37.713998" lon="128.016837"><ele>716.2</ele><time>2024-09-06T01:31:02.000Z</time></trkpt>
      <trkpt lat="37.714009" lon="128.016782"><ele>713.9</ele><time>2024-09-06T01:31:13.000Z</time></trkpt>
      <trkpt lat="37.714035" lon="128.016739"><ele>710.5</ele><time>2024-09-06T01:31:34.000Z</time></trkpt>
      <trkpt lat="37.714062" lon="128.016695"><ele>707.0</ele><time>2024-09-06T01:31:41.000Z</time></trkpt>
      <trkpt lat="37.714090" lon="128.016653"><ele>704.5</ele><time>2024-09-06T01:31:53.000Z</time></trkpt>
      <trkpt lat="37.714130" lon="128.016628"><ele>702.7</ele><time>2024-09-06T01:32:02.000Z</time></trkpt>
      <trkpt lat="37.714170" lon="128.016601"><ele>699.6</ele><time>2024-09-06T01:32:12.000Z</time></trkpt>
      <trkpt lat="37.714209" lon="128.016575"><ele>698.6</ele><time>2024-09-06T01:32:18.000Z</time></trkpt>
      <trkpt lat="37.714233" lon="128.016526"><ele>696.1</ele><time>2024-09-06T01:32:21.000Z</time></trkpt>
      <trkpt lat="37.714243" lon="128.016471"><ele>695.0</ele><time>2024-09-06T01:32:34.000Z</time></trkpt>
      <trkpt lat="37.714242" lon="128.016416"><ele>693.4</ele><time>2024-09-06T01:32:36.000Z</time></trkpt>
      <trkpt lat="37.714221" lon="128.016365"><ele>692.2</ele><time>2024-09-06T01:32:43.000Z</time></trkpt>
      <trkpt lat="37.714202" lon="128.016314"><ele>690.8</ele><time>2024-09-06T01:32:44.000Z</time></trkpt>
      <trkpt lat="37.714190" lon="128.016261"><ele>690.0</ele><time>2024-09-06T01:32:48.000Z</time></trkpt>
      <trkpt lat="37.714200" lon="128.016206"><ele>688.7</ele><time>2024-09-06T01:32:53.000Z</time></trkpt>
      <trkpt lat="37.714202" lon="128.016152"><ele>687.1</ele><time>2024-09-06T01:32:58.000Z</time></trkpt>
      <trkpt lat="37.714182" lon="128.016101"><ele>686.7</ele><time>2024-09-06T01:33:05.000Z</time></trkpt>
      <trkpt lat="37.714153" lon="128.016060"><ele>686.4</ele><time>2024-09-06T01:33:09.000Z</time></trkpt>
      <trkpt lat="37.714113" lon="128.016035"><ele>686.7</ele><time>2024-09-06T01:33:33.000Z</time></trkpt>
      <trkpt lat="37.714089" lon="128.015989"><ele>687.1</ele><time>2024-09-06T01:33:42.000Z</time></trkpt>
      <trkpt lat="37.714080" lon="128.015934"><ele>687.4</ele><time>2024-09-06T01:33:48.000Z</time></trkpt>
      <trkpt lat="37.714109" lon="128.015895"><ele>688.4</ele><time>2024-09-06T01:33:53.000Z</time></trkpt>
      <trkpt lat="37.714111" lon="128.015841"><ele>689.5</ele><time>2024-09-06T01:33:59.000Z</time></trkpt>
      <trkpt lat="37.714109" lon="128.015785"><ele>690.9</ele><time>2024-09-06T01:34:04.000Z</time></trkpt>
      <trkpt lat="37.714095" lon="128.015731"><ele>692.7</ele><time>2024-09-06T01:34:14.000Z</time></trkpt>
      <trkpt lat="37.714090" lon="128.015674"><ele>693.5</ele><time>2024-09-06T01:34:18.000Z</time></trkpt>
      <trkpt lat="37.714099" lon="128.015619"><ele>694.4</ele><time>2024-09-06T01:34:23.000Z</time></trkpt>
      <trkpt lat="37.714099" lon="128.015562"><ele>696.0</ele><time>2024-09-06T01:34:28.000Z</time></trkpt>
      <trkpt lat="37.714110" lon="128.015507"><ele>697.4</ele><time>2024-09-06T01:34:31.000Z</time></trkpt>
      <trkpt lat="37.714125" lon="128.015454"><ele>698.7</ele><time>2024-09-06T01:34:37.000Z</time></trkpt>
      <trkpt lat="37.714127" lon="128.015397"><ele>700.6</ele><time>2024-09-06T01:34:44.000Z</time></trkpt>
      <trkpt lat="37.714120" lon="128.015341"><ele>703.1</ele><time>2024-09-06T01:35:04.000Z</time></trkpt>
      <trkpt lat="37.714108" lon="128.015287"><ele>705.4</ele><time>2024-09-06T01:35:14.000Z</time></trkpt>
      <trkpt lat="37.714072" lon="128.015268"><ele>708.2</ele><time>2024-09-06T01:35:44.000Z</time></trkpt>
      <trkpt lat="37.714051" lon="128.015218"><ele>709.6</ele><time>2024-09-06T01:35:54.000Z</time></trkpt>
      <trkpt lat="37.714036" lon="128.015166"><ele>712.0</ele><time>2024-09-06T01:36:02.000Z</time></trkpt>
      <trkpt lat="37.714002" lon="128.015129"><ele>713.9</ele><time>2024-09-06T01:36:09.000Z</time></trkpt>
      <trkpt lat="37.713985" lon="128.015094"><ele>715.9</ele><time>2024-09-06T01:36:17.000Z</time></trkpt>
      <trkpt lat="37.713996" lon="128.015043"><ele>717.7</ele><time>2024-09-06T01:36:24.000Z</time></trkpt>
      <trkpt lat="37.713995" lon="128.014987"><ele>719.5</ele><time>2024-09-06T01:36:42.000Z</time></trkpt>
      <trkpt lat="37.714006" lon="128.014932"><ele>720.4</ele><time>2024-09-06T01:36:46.000Z</time></trkpt>
      <trkpt lat="37.714018" lon="128.014878"><ele>721.2</ele><time>2024-09-06T01:36:50.000Z</time></trkpt>
      <trkpt lat="37.714021" lon="128.014821"><ele>722.0</ele><time>2024-09-06T01:36:54.000Z</time></trkpt>
      <trkpt lat="37.714020" lon="128.014765"><ele>722.7</ele><time>2024-09-06T01:37:01.000Z</time></trkpt>
      <trkpt lat="37.714011" lon="128.014710"><ele>723.7</ele><time>2024-09-06T01:37:11.000Z</time></trkpt>
      <trkpt lat="37.714020" lon="128.014664"><ele>725.3</ele><time>2024-09-06T01:37:20.000Z</time></trkpt>
      <trkpt lat="37.714023" lon="128.014613"><ele>728.0</ele><time>2024-09-06T01:37:32.000Z</time></trkpt>
      <trkpt lat="37.714041" lon="128.014568"><ele>731.1</ele><time>2024-09-06T01:37:47.000Z</time></trkpt>
      <trkpt lat="37.714076" lon="128.014534"><ele>732.8</ele><time>2024-09-06T01:37:53.000Z</time></trkpt>
      <trkpt lat="37.714090" lon="128.014483"><ele>734.1</ele><time>2024-09-06T01:38:00.000Z</time></trkpt>
      <trkpt lat="37.714112" lon="128.014435"><ele>735.5</ele><time>2024-09-06T01:38:08.000Z</time></trkpt>
      <trkpt lat="37.714143" lon="128.014393"><ele>736.1</ele><time>2024-09-06T01:38:21.000Z</time></trkpt>
      <trkpt lat="37.714172" lon="128.014350"><ele>736.7</ele><time>2024-09-06T01:38:21.000Z</time></trkpt>
      <trkpt lat="37.714193" lon="128.014300"><ele>737.5</ele><time>2024-09-06T01:38:27.000Z</time></trkpt>
      <trkpt lat="37.714211" lon="128.014248"><ele>738.1</ele><time>2024-09-06T01:38:34.000Z</time></trkpt>
      <trkpt lat="37.714224" lon="128.014194"><ele>738.7</ele><time>2024-09-06T01:38:44.000Z</time></trkpt>
      <trkpt lat="37.714226" lon="128.014137"><ele>739.1</ele><time>2024-09-06T01:38:55.000Z</time></trkpt>
      <trkpt lat="37.714231" lon="128.014081"><ele>740.0</ele><time>2024-09-06T01:38:56.000Z</time></trkpt>
      <trkpt lat="37.714232" lon="128.014024"><ele>742.3</ele><time>2024-09-06T01:39:12.000Z</time></trkpt>
      <trkpt lat="37.714222" lon="128.013969"><ele>743.1</ele><time>2024-09-06T01:39:20.000Z</time></trkpt>
      <trkpt lat="37.714202" lon="128.013923"><ele>744.3</ele><time>2024-09-06T01:39:32.000Z</time></trkpt>
      <trkpt lat="37.714216" lon="128.013870"><ele>746.6</ele><time>2024-09-06T01:39:40.000Z</time></trkpt>
      <trkpt lat="37.714214" lon="128.013815"><ele>748.2</ele><time>2024-09-06T01:39:51.000Z</time></trkpt>
      <trkpt lat="37.714214" lon="128.013759"><ele>749.2</ele><time>2024-09-06T01:39:59.000Z</time></trkpt>
      <trkpt lat="37.714202" lon="128.013704"><ele>751.6</ele><time>2024-09-06T01:40:19.000Z</time></trkpt>
      <trkpt lat="37.714180" lon="128.013656"><ele>754.5</ele><time>2024-09-06T01:40:27.000Z</time></trkpt>
      <trkpt lat="37.714175" lon="128.013605"><ele>756.0</ele><time>2024-09-06T01:40:42.000Z</time></trkpt>
      <trkpt lat="37.714182" lon="128.013549"><ele>758.0</ele><time>2024-09-06T01:40:50.000Z</time></trkpt>
      <trkpt lat="37.714169" lon="128.013496"><ele>761.9</ele><time>2024-09-06T01:41:01.000Z</time></trkpt>
      <trkpt lat="37.714149" lon="128.013447"><ele>762.6</ele><time>2024-09-06T01:41:08.000Z</time></trkpt>
      <trkpt lat="37.714153" lon="128.013391"><ele>763.1</ele><time>2024-09-06T01:41:19.000Z</time></trkpt>
      <trkpt lat="37.714137" lon="128.013337"><ele>764.5</ele><time>2024-09-06T01:41:32.000Z</time></trkpt>
      <trkpt lat="37.714121" lon="128.013285"><ele>766.6</ele><time>2024-09-06T01:41:43.000Z</time></trkpt>
      <trkpt lat="37.714101" lon="128.013238"><ele>769.2</ele><time>2024-09-06T01:41:48.000Z</time></trkpt>
      <trkpt lat="37.714100" lon="128.013181"><ele>769.6</ele><time>2024-09-06T01:41:59.000Z</time></trkpt>
      <trkpt lat="37.714093" lon="128.013125"><ele>770.7</ele><time>2024-09-06T01:42:06.000Z</time></trkpt>
      <trkpt lat="37.714081" lon="128.013073"><ele>772.8</ele><time>2024-09-06T01:42:32.000Z</time></trkpt>
      <trkpt lat="37.714068" lon="128.013020"><ele>774.6</ele><time>2024-09-06T01:42:41.000Z</time></trkpt>
      <trkpt lat="37.714084" lon="128.012969"><ele>776.6</ele><time>2024-09-06T01:42:53.000Z</time></trkpt>
      <trkpt lat="37.714073" lon="128.012920"><ele>780.1</ele><time>2024-09-06T01:43:04.000Z</time></trkpt>
      <trkpt lat="37.714078" lon="128.012865"><ele>783.7</ele><time>2024-09-06T01:43:16.000Z</time></trkpt>
      <trkpt lat="37.714074" lon="128.012811"><ele>787.3</ele><time>2024-09-06T01:43:47.000Z</time></trkpt>
      <trkpt lat="37.714061" lon="128.012761"><ele>788.5</ele><time>2024-09-06T01:43:58.000Z</time></trkpt>
      <trkpt lat="37.714032" lon="128.012718"><ele>789.4</ele><time>2024-09-06T01:44:19.000Z</time></trkpt>
      <trkpt lat="37.714016" lon="128.012667"><ele>789.8</ele><time>2024-09-06T01:44:28.000Z</time></trkpt>
      <trkpt lat="37.714010" lon="128.012611"><ele>791.1</ele><time>2024-09-06T01:44:41.000Z</time></trkpt>
      <trkpt lat="37.713989" lon="128.012561"><ele>793.5</ele><time>2024-09-06T01:44:46.000Z</time></trkpt>
      <trkpt lat="37.713970" lon="128.012510"><ele>796.4</ele><time>2024-09-06T01:44:53.000Z</time></trkpt>
      <trkpt lat="37.713968" lon="128.012454"><ele>798.9</ele><time>2024-09-06T01:45:03.000Z</time></trkpt>
      <trkpt lat="37.713965" lon="128.012397"><ele>801.3</ele><time>2024-09-06T01:45:14.000Z</time></trkpt>
      <trkpt lat="37.713958" lon="128.012341"><ele>803.4</ele><time>2024-09-06T01:45:24.000Z</time></trkpt>
      <trkpt lat="37.713960" lon="128.012285"><ele>807.1</ele><time>2024-09-06T01:45:41.000Z</time></trkpt>
      <trkpt lat="37.713965" lon="128.012228"><ele>813.4</ele><time>2024-09-06T01:46:28.000Z</time></trkpt>
      <trkpt lat="37.713976" lon="128.012174"><ele>814.9</ele><time>2024-09-06T01:46:35.000Z</time></trkpt>
      <trkpt lat="37.713991" lon="128.012120"><ele>818.1</ele><time>2024-09-06T01:46:49.000Z</time></trkpt>
      <trkpt lat="37.714008" lon="128.012068"><ele>820.0</ele><time>2024-09-06T01:46:56.000Z</time></trkpt>
      <trkpt lat="37.714039" lon="128.012030"><ele>820.3</ele><time>2024-09-06T01:47:07.000Z</time></trkpt>
      <trkpt lat="37.714075" lon="128.011996"><ele>820.4</ele><time>2024-09-06T01:47:14.000Z</time></trkpt>
      <trkpt lat="37.714117" lon="128.011984"><ele>821.4</ele><time>2024-09-06T01:47:22.000Z</time></trkpt>
      <trkpt lat="37.714156" lon="128.011961"><ele>822.1</ele><time>2024-09-06T01:47:32.000Z</time></trkpt>
      <trkpt lat="37.714168" lon="128.011909"><ele>822.2</ele><time>2024-09-06T01:47:38.000Z</time></trkpt>
      <trkpt lat="37.714175" lon="128.011853"><ele>824.0</ele><time>2024-09-06T01:47:50.000Z</time></trkpt>
      <trkpt lat="37.714199" lon="128.011806"><ele>825.7</ele><time>2024-09-06T01:48:00.000Z</time></trkpt>
      <trkpt lat="37.714201" lon="128.011752"><ele>825.5</ele><time>2024-09-06T01:48:11.000Z</time></trkpt>
      <trkpt lat="37.714162" lon="128.011725"><ele>824.7</ele><time>2024-09-06T01:48:21.000Z</time></trkpt>
      <trkpt lat="37.714138" lon="128.011682"><ele>823.0</ele><time>2024-09-06T01:48:31.000Z</time></trkpt>
      <trkpt lat="37.714156" lon="128.011630"><ele>823.3</ele><time>2024-09-06T01:48:41.000Z</time></trkpt>
      <trkpt lat="37.714182" lon="128.011584"><ele>826.5</ele><time>2024-09-06T01:48:50.000Z</time></trkpt>
      <trkpt lat="37.714213" lon="128.011543"><ele>829.5</ele><time>2024-09-06T01:48:57.000Z</time></trkpt>
      <trkpt lat="37.714238" lon="128.011497"><ele>831.8</ele><time>2024-09-06T01:49:09.000Z</time></trkpt>
      <trkpt lat="37.714245" lon="128.011443"><ele>834.0</ele><time>2024-09-06T01:49:19.000Z</time></trkpt>
      <trkpt lat="37.714243" lon="128.011386"><ele>836.1</ele><time>2024-09-06T01:49:27.000Z</time></trkpt>
      <trkpt lat="37.714252" lon="128.011331"><ele>838.4</ele><time>2024-09-06T01:49:42.000Z</time></trkpt>
      <trkpt lat="37.714256" lon="128.011275"><ele>842.0</ele><time>2024-09-06T01:50:28.000Z</time></trkpt>
      <trkpt lat="37.714239" lon="128.011224"><ele>845.6</ele><time>2024-09-06T01:50:40.000Z</time></trkpt>
      <trkpt lat="37.714219" lon="128.011174"><ele>847.7</ele><time>2024-09-06T01:50:50.000Z</time></trkpt>
      <trkpt lat="37.714192" lon="128.011128"><ele>843.7</ele><time>2024-09-06T01:50:58.000Z</time></trkpt>
      <trkpt lat="37.714177" lon="128.011075"><ele>841.2</ele><time>2024-09-06T01:51:04.000Z</time></trkpt>
      <trkpt lat="37.714174" lon="128.011018"><ele>840.9</ele><time>2024-09-06T01:51:10.000Z</time></trkpt>
      <trkpt lat="37.714183" lon="128.010962"><ele>841.6</ele><time>2024-09-06T01:51:16.000Z</time></trkpt>
      <trkpt lat="37.714208" lon="128.010915"><ele>842.8</ele><time>2024-09-06T01:51:17.000Z</time></trkpt>
      <trkpt lat="37.714235" lon="128.010870"><ele>843.2</ele><time>2024-09-06T01:51:24.000Z</time></trkpt>
      <trkpt lat="37.714254" lon="128.010818"><ele>843.7</ele><time>2024-09-06T01:51:29.000Z</time></trkpt>
      <trkpt lat="37.714282" lon="128.010774"><ele>843.4</ele><time>2024-09-06T01:51:32.000Z</time></trkpt>
      <trkpt lat="37.714317" lon="128.010739"><ele>842.2</ele><time>2024-09-06T01:51:35.000Z</time></trkpt>
      <trkpt lat="37.714349" lon="128.010698"><ele>841.7</ele><time>2024-09-06T01:51:44.000Z</time></trkpt>
      <trkpt lat="37.714385" lon="128.010665"><ele>840.3</ele><time>2024-09-06T01:51:48.000Z</time></trkpt>
      <trkpt lat="37.714423" lon="128.010635"><ele>838.4</ele><time>2024-09-06T01:51:53.000Z</time></trkpt>
      <trkpt lat="37.714465" lon="128.010615"><ele>837.3</ele><time>2024-09-06T01:51:58.000Z</time></trkpt>
      <trkpt lat="37.714500" lon="128.010580"><ele>835.4</ele><time>2024-09-06T01:52:02.000Z</time></trkpt>
      <trkpt lat="37.714530" lon="128.010538"><ele>834.8</ele><time>2024-09-06T01:52:10.000Z</time></trkpt>
      <trkpt lat="37.714566" lon="128.010505"><ele>834.3</ele><time>2024-09-06T01:52:12.000Z</time></trkpt>
      <trkpt lat="37.714609" lon="128.010487"><ele>834.0</ele><time>2024-09-06T01:52:18.000Z</time></trkpt>
      <trkpt lat="37.714650" lon="128.010464"><ele>833.6</ele><time>2024-09-06T01:52:19.000Z</time></trkpt>
      <trkpt lat="37.714690" lon="128.010437"><ele>833.3</ele><time>2024-09-06T01:52:28.000Z</time></trkpt>
      <trkpt lat="37.714729" lon="128.010409"><ele>833.1</ele><time>2024-09-06T01:52:32.000Z</time></trkpt>
      <trkpt lat="37.714770" lon="128.010398"><ele>835.1</ele><time>2024-09-06T01:52:38.000Z</time></trkpt>
      <trkpt lat="37.714809" lon="128.010402"><ele>840.0</ele><time>2024-09-06T01:53:20.000Z</time></trkpt>
      <trkpt lat="37.714850" lon="128.010379"><ele>843.6</ele><time>2024-09-06T01:53:33.000Z</time></trkpt>
      <trkpt lat="37.714893" lon="128.010379"><ele>846.7</ele><time>2024-09-06T01:53:50.000Z</time></trkpt>
      <trkpt lat="37.714938" lon="128.010389"><ele>847.7</ele><time>2024-09-06T01:53:57.000Z</time></trkpt>
      <trkpt lat="37.714983" lon="128.010390"><ele>852.6</ele><time>2024-09-06T01:54:12.000Z</time></trkpt>
      <trkpt lat="37.715028" lon="128.010387"><ele>853.3</ele><time>2024-09-06T01:54:23.000Z</time></trkpt>
      <trkpt lat="37.715071" lon="128.010375"><ele>855.2</ele><time>2024-09-06T01:54:35.000Z</time></trkpt>
      <trkpt lat="37.715114" lon="128.010357"><ele>857.1</ele><time>2024-09-06T01:54:43.000Z</time></trkpt>
      <trkpt lat="37.715154" lon="128.010331"><ele>858.4</ele><time>2024-09-06T01:54:56.000Z</time></trkpt>
      <trkpt lat="37.715197" lon="128.010316"><ele>859.4</ele><time>2024-09-06T01:55:05.000Z</time></trkpt>
      <trkpt lat="37.715232" lon="128.010286"><ele>862.0</ele><time>2024-09-06T01:55:15.000Z</time></trkpt>
      <trkpt lat="37.715275" lon="128.010301"><ele>863.8</ele><time>2024-09-06T01:55:26.000Z</time></trkpt>
      <trkpt lat="37.715312" lon="128.010307"><ele>865.2</ele><time>2024-09-06T01:55:37.000Z</time></trkpt>
      <trkpt lat="37.715344" lon="128.010281"><ele>866.8</ele><time>2024-09-06T01:55:50.000Z</time></trkpt>
      <trkpt lat="37.715386" lon="128.010279"><ele>869.4</ele><time>2024-09-06T01:56:04.000Z</time></trkpt>
      <trkpt lat="37.715429" lon="128.010265"><ele>875.1</ele><time>2024-09-06T01:56:26.000Z</time></trkpt>
      <trkpt lat="37.715464" lon="128.010234"><ele>876.4</ele><time>2024-09-06T01:56:42.000Z</time></trkpt>
      <trkpt lat="37.715503" lon="128.010225"><ele>875.3</ele><time>2024-09-06T01:57:01.000Z</time></trkpt>
      <trkpt lat="37.715544" lon="128.010247"><ele>877.2</ele><time>2024-09-06T01:57:06.000Z</time></trkpt>
      <trkpt lat="37.715578" lon="128.010283"><ele>878.9</ele><time>2024-09-06T01:57:14.000Z</time></trkpt>
      <trkpt lat="37.715619" lon="128.010299"><ele>879.7</ele><time>2024-09-06T01:57:24.000Z</time></trkpt>
      <trkpt lat="37.715664" lon="128.010304"><ele>880.4</ele><time>2024-09-06T01:57:24.000Z</time></trkpt>
      <trkpt lat="37.715709" lon="128.010305"><ele>881.3</ele><time>2024-09-06T01:57:30.000Z</time></trkpt>
      <trkpt lat="37.715753" lon="128.010317"><ele>882.6</ele><time>2024-09-06T01:57:37.000Z</time></trkpt>
      <trkpt lat="37.715775" lon="128.010360"><ele>880.7</ele><time>2024-09-06T01:57:41.000Z</time></trkpt>
      <trkpt lat="37.715801" lon="128.010406"><ele>881.5</ele><time>2024-09-06T01:57:52.000Z</time></trkpt>
      <trkpt lat="37.715836" lon="128.010432"><ele>880.3</ele><time>2024-09-06T01:58:13.000Z</time></trkpt>
      <trkpt lat="37.715816" lon="128.010472"><ele>884.4</ele><time>2024-09-06T01:58:27.000Z</time></trkpt>
      <trkpt lat="37.715847" lon="128.010512"><ele>886.8</ele><time>2024-09-06T01:59:07.000Z</time></trkpt>
      <trkpt lat="37.715891" lon="128.010509"><ele>885.5</ele><time>2024-09-06T01:59:23.000Z</time></trkpt>
      <trkpt lat="37.715927" lon="128.010543"><ele>882.6</ele><time>2024-09-06T02:00:01.000Z</time></trkpt>
      <trkpt lat="37.715936" lon="128.010594"><ele>879.8</ele><time>2024-09-06T02:00:30.000Z</time></trkpt>
      <trkpt lat="37.715968" lon="128.010632"><ele>879.6</ele><time>2024-09-06T02:04:35.000Z</time></trkpt>
      <trkpt lat="37.715984" lon="128.010686"><ele>878.0</ele><time>2024-09-06T02:04:47.000Z</time></trkpt>
      <trkpt lat="37.716019" lon="128.010693"><ele>876.1</ele><time>2024-09-06T02:04:58.000Z</time></trkpt>
      <trkpt lat="37.716041" lon="128.010684"><ele>876.3</ele><time>2024-09-06T02:05:12.000Z</time></trkpt>
      <trkpt lat="37.716057" lon="128.010646"><ele>876.9</ele><time>2024-09-06T02:05:22.000Z</time></trkpt>
    </trkseg>
  </trk>
</gpx>