<?xml version="1.0" encoding="UTF-8"?>
<gpx version="1.1" creator="gajago-nav" xmlns="http://www.topografix.com/GPX/1/1">
  <metadata><name>노적봉-법성봉-장군봉-불갑산_20220925</name></metadata>
  <wpt lat="35.203775" lon="126.539641">
    <name>들머리 (주차장)</name>
    <ele>6</ele>
  </wpt>
  <wpt lat="35.205820" lon="126.552520">
    <name>덫고개</name>
  </wpt>
  <wpt lat="35.200780" lon="126.559320">
    <name>법성봉</name>
    <ele>418</ele>
  </wpt>
  <wpt lat="35.197180" lon="126.561540">
    <name>장군봉</name>
    <ele>438</ele>
  </wpt>
  <wpt lat="35.194720" lon="126.563800">
    <name>노루목</name>
  </wpt>
  <wpt lat="35.193690" lon="126.564670">
    <name>전망바위</name>
  </wpt>
  <wpt lat="35.191801" lon="126.564564">
    <name>갈림길</name>
  </wpt>
  <wpt lat="35.190680" lon="126.564980">
    <name>불갑산 연실봉</name>
    <ele>518</ele>
  </wpt>
  <wpt lat="35.186040" lon="126.552320">
    <name>구수재</name>
    <ele>226</ele>
  </wpt>
  <wpt lat="35.194173" lon="126.554521">
    <name>갈림길</name>
  </wpt>
  <wpt lat="35.200789" lon="126.549626">
    <name>날머리 (원점회귀)</name>
    <ele>43</ele>
  </wpt>
  <trk>
    <name>노적봉-법성봉-장군봉-불갑산_20220925</name>
    <trkseg>
      <trkpt lat="35.203775" lon="126.539641"><ele>6.0</ele><time>2022-09-25T01:26:56.000Z</time></trkpt>
      <trkpt lat="35.203838" lon="126.539773"><ele>3.0</ele><time>2022-09-25T01:27:06.000Z</time></trkpt>
      <trkpt lat="35.203894" lon="126.539829"><ele>7.0</ele><time>2022-09-25T01:27:16.000Z</time></trkpt>
      <trkpt lat="35.203970" lon="126.539841"><ele>8.0</ele><time>2022-09-25T01:27:22.000Z</time></trkpt>
      <trkpt lat="35.204051" lon="126.539891"><ele>9.0</ele><time>2022-09-25T01:27:29.000Z</time></trkpt>
      <trkpt lat="35.204133" lon="126.539945"><ele>10.0</ele><time>2022-09-25T01:27:32.000Z</time></trkpt>
      <trkpt lat="35.204213" lon="126.539989"><ele>10.0</ele><time>2022-09-25T01:27:40.000Z</time></trkpt>
      <trkpt lat="35.204310" lon="126.540079"><ele>12.0</ele><time>2022-09-25T01:27:52.000Z</time></trkpt>
      <trkpt lat="35.204378" lon="126.540132"><ele>12.0</ele><time>2022-09-25T01:28:01.000Z</time></trkpt>
      <trkpt lat="35.204456" lon="126.540147"><ele>11.0</ele><time>2022-09-25T01:28:08.000Z</time></trkpt>
      <trkpt lat="35.204582" lon="126.540219"><ele>14.0</ele><time>2022-09-25T01:28:25.000Z</time></trkpt>
      <trkpt lat="35.204672" lon="126.540226"><ele>15.0</ele><time>2022-09-25T01:28:32.000Z</time></trkpt>
      <trkpt lat="35.204759" lon="126.540286"><ele>18.0</ele><time>2022-09-25T01:28:44.000Z</time></trkpt>
      <trkpt lat="35.204854" lon="126.540288"><ele>19.0</ele><time>2022-09-25T01:28:55.000Z</time></trkpt>
      <trkpt lat="35.204960" lon="126.540342"><ele>22.0</ele><time>2022-09-25T01:29:06.000Z</time></trkpt>
      <trkpt lat="35.205038" lon="126.540387"><ele>23.0</ele><time>2022-09-25T01:29:14.000Z</time></trkpt>
      <trkpt lat="35.205131" lon="126.540422"><ele>26.0</ele><time>2022-09-25T01:29:26.000Z</time></trkpt>
      <trkpt lat="35.205213" lon="126.540452"><ele>29.0</ele><time>2022-09-25T01:29:39.000Z</time></trkpt>
      <trkpt lat="35.205301" lon="126.540449"><ele>30.0</ele><time>2022-09-25T01:29:46.000Z</time></trkpt>
      <trkpt lat="35.205376" lon="126.540493"><ele>32.0</ele><time>2022-09-25T01:29:59.000Z</time></trkpt>
      <trkpt lat="35.205448" lon="126.540538"><ele>34.0</ele><time>2022-09-25T01:30:12.000Z</time></trkpt>
      <trkpt lat="35.205529" lon="126.540534"><ele>37.0</ele><time>2022-09-25T01:30:24.000Z</time></trkpt>
      <trkpt lat="35.205609" lon="126.540550"><ele>39.0</ele><time>2022-09-25T01:30:35.000Z</time></trkpt>
      <trkpt lat="35.205691" lon="126.540548"><ele>42.0</ele><time>2022-09-25T01:30:53.000Z</time></trkpt>
      <trkpt lat="35.205750" lon="126.540497"><ele>45.0</ele><time>2022-09-25T01:31:04.000Z</time></trkpt>
      <trkpt lat="35.205821" lon="126.540530"><ele>49.0</ele><time>2022-09-25T01:31:23.000Z</time></trkpt>
      <trkpt lat="35.205842" lon="126.540649"><ele>53.0</ele><time>2022-09-25T01:31:36.000Z</time></trkpt>
      <trkpt lat="35.205858" lon="126.540742"><ele>56.0</ele><time>2022-09-25T01:31:54.000Z</time></trkpt>
      <trkpt lat="35.205830" lon="126.540839"><ele>58.0</ele><time>2022-09-25T01:32:07.000Z</time></trkpt>
      <trkpt lat="35.205856" lon="126.540926"><ele>61.0</ele><time>2022-09-25T01:32:19.000Z</time></trkpt>
      <trkpt lat="35.205922" lon="126.540891"><ele>64.0</ele><time>2022-09-25T01:32:36.000Z</time></trkpt>
      <trkpt lat="35.206014" lon="126.540895"><ele>66.0</ele><time>2022-09-25T01:32:48.000Z</time></trkpt>
      <trkpt lat="35.206083" lon="126.540914"><ele>71.0</ele><time>2022-09-25T01:33:13.000Z</time></trkpt>
      <trkpt lat="35.206147" lon="126.540951"><ele>76.0</ele><time>2022-09-25T01:33:38.000Z</time></trkpt>
      <trkpt lat="35.206138" lon="126.541067"><ele>76.0</ele><time>2022-09-25T01:34:02.000Z</time></trkpt>
      <trkpt lat="35.206099" lon="126.541175"><ele>79.0</ele><time>2022-09-25T01:34:10.000Z</time></trkpt>
      <trkpt lat="35.206082" lon="126.541264"><ele>81.0</ele><time>2022-09-25T01:34:19.000Z</time></trkpt>
      <trkpt lat="35.206027" lon="126.541335"><ele>84.0</ele><time>2022-09-25T01:34:32.000Z</time></trkpt>
      <trkpt lat="35.205966" lon="126.541389"><ele>87.0</ele><time>2022-09-25T01:34:43.000Z</time></trkpt>
      <trkpt lat="35.205900" lon="126.541440"><ele>90.0</ele><time>2022-09-25T01:34:57.000Z</time></trkpt>
      <trkpt lat="35.205832" lon="126.541507"><ele>94.0</ele><time>2022-09-25T01:35:17.000Z</time></trkpt>
      <trkpt lat="35.205754" lon="126.541534"><ele>97.0</ele><time>2022-09-25T01:35:38.000Z</time></trkpt>
      <trkpt lat="35.205691" lon="126.541586"><ele>101.0</ele><time>2022-09-25T01:36:00.000Z</time></trkpt>
      <trkpt lat="35.205645" lon="126.541646"><ele>101.0</ele><time>2022-09-25T01:36:12.000Z</time></trkpt>
      <trkpt lat="35.205602" lon="126.541722"><ele>99.0</ele><time>2022-09-25T01:36:19.000Z</time></trkpt>
      <trkpt lat="35.205597" lon="126.541807"><ele>97.0</ele><time>2022-09-25T01:36:31.000Z</time></trkpt>
      <trkpt lat="35.205546" lon="126.541893"><ele>94.0</ele><time>2022-09-25T01:36:41.000Z</time></trkpt>
      <trkpt lat="35.205542" lon="126.541979"><ele>94.0</ele><time>2022-09-25T01:36:48.000Z</time></trkpt>
      <trkpt lat="35.205512" lon="126.542097"><ele>94.0</ele><time>2022-09-25T01:36:57.000Z</time></trkpt>
      <trkpt lat="35.205470" lon="126.542179"><ele>96.0</ele><time>2022-09-25T01:37:05.000Z</time></trkpt>
      <trkpt lat="35.205446" lon="126.542279"><ele>98.0</ele><time>2022-09-25T01:37:17.000Z</time></trkpt>
      <trkpt lat="35.205398" lon="126.542368"><ele>100.0</ele><time>2022-09-25T01:37:30.000Z</time></trkpt>
      <trkpt lat="35.205341" lon="126.542423"><ele>102.0</ele><time>2022-09-25T01:37:38.000Z</time></trkpt>
      <trkpt lat="35.205278" lon="126.542466"><ele>104.0</ele><time>2022-09-25T01:37:46.000Z</time></trkpt>
      <trkpt lat="35.205198" lon="126.542475"><ele>106.0</ele><time>2022-09-25T01:37:56.000Z</time></trkpt>
      <trkpt lat="35.205127" lon="126.542549"><ele>111.0</ele><time>2022-09-25T01:38:16.000Z</time></trkpt>
      <trkpt lat="35.205045" lon="126.542583"><ele>116.0</ele><time>2022-09-25T01:38:40.000Z</time></trkpt>
      <trkpt lat="35.205057" lon="126.542702"><ele>117.0</ele><time>2022-09-25T01:38:53.000Z</time></trkpt>
      <trkpt lat="35.205087" lon="126.542792"><ele>118.0</ele><time>2022-09-25T01:39:01.000Z</time></trkpt>
      <trkpt lat="35.205102" lon="126.542880"><ele>119.0</ele><time>2022-09-25T01:39:09.000Z</time></trkpt>
      <trkpt lat="35.205123" lon="126.542966"><ele>120.0</ele><time>2022-09-25T01:39:17.000Z</time></trkpt>
      <trkpt lat="35.205171" lon="126.543044"><ele>121.0</ele><time>2022-09-25T01:39:25.000Z</time></trkpt>
      <trkpt lat="35.205220" lon="126.543109"><ele>121.0</ele><time>2022-09-25T01:39:33.000Z</time></trkpt>
      <trkpt lat="35.205294" lon="126.543189"><ele>121.0</ele><time>2022-09-25T01:39:42.000Z</time></trkpt>
      <trkpt lat="35.205358" lon="126.543245"><ele>121.0</ele><time>2022-09-25T01:39:50.000Z</time></trkpt>
      <trkpt lat="35.205420" lon="126.543354"><ele>121.0</ele><time>2022-09-25T01:40:00.000Z</time></trkpt>
      <trkpt lat="35.205470" lon="126.543445"><ele>119.0</ele><time>2022-09-25T01:40:08.000Z</time></trkpt>
      <trkpt lat="35.205449" lon="126.543571"><ele>116.0</ele><time>2022-09-25T01:40:20.000Z</time></trkpt>
      <trkpt lat="35.205421" lon="126.543660"><ele>114.0</ele><time>2022-09-25T01:40:27.000Z</time></trkpt>
      <trkpt lat="35.205417" lon="126.543770"><ele>113.0</ele><time>2022-09-25T01:40:36.000Z</time></trkpt>
      <trkpt lat="35.205379" lon="126.543884"><ele>112.0</ele><time>2022-09-25T01:40:44.000Z</time></trkpt>
      <trkpt lat="35.205366" lon="126.543993"><ele>113.0</ele><time>2022-09-25T01:40:52.000Z</time></trkpt>
      <trkpt lat="35.205323" lon="126.544108"><ele>116.0</ele><time>2022-09-25T01:41:01.000Z</time></trkpt>
      <trkpt lat="35.205316" lon="126.544238"><ele>118.0</ele><time>2022-09-25T01:41:13.000Z</time></trkpt>
      <trkpt lat="35.205315" lon="126.544327"><ele>117.0</ele><time>2022-09-25T01:41:22.000Z</time></trkpt>
      <trkpt lat="35.205296" lon="126.544419"><ele>116.0</ele><time>2022-09-25T01:41:30.000Z</time></trkpt>
      <trkpt lat="35.205275" lon="126.544572"><ele>114.0</ele><time>2022-09-25T01:41:42.000Z</time></trkpt>
      <trkpt lat="35.205280" lon="126.544695"><ele>113.0</ele><time>2022-09-25T01:41:51.000Z</time></trkpt>
      <trkpt lat="35.205253" lon="126.544796"><ele>113.0</ele><time>2022-09-25T01:41:59.000Z</time></trkpt>
      <trkpt lat="35.205206" lon="126.544885"><ele>115.0</ele><time>2022-09-25T01:42:07.000Z</time></trkpt>
      <trkpt lat="35.205150" lon="126.544964"><ele>117.0</ele><time>2022-09-25T01:42:19.000Z</time></trkpt>
      <trkpt lat="35.205096" lon="126.545030"><ele>119.0</ele><time>2022-09-25T01:42:31.000Z</time></trkpt>
      <trkpt lat="35.205064" lon="126.545138"><ele>122.0</ele><time>2022-09-25T01:42:44.000Z</time></trkpt>
      <trkpt lat="35.205039" lon="126.545244"><ele>125.0</ele><time>2022-09-25T01:43:00.000Z</time></trkpt>
      <trkpt lat="35.204996" lon="126.545333"><ele>129.0</ele><time>2022-09-25T01:43:21.000Z</time></trkpt>
      <trkpt lat="35.205074" lon="126.545330"><ele>135.0</ele><time>2022-09-25T01:43:49.000Z</time></trkpt>
      <trkpt lat="35.205132" lon="126.545412"><ele>140.0</ele><time>2022-09-25T01:44:17.000Z</time></trkpt>
      <trkpt lat="35.205191" lon="126.545494"><ele>144.0</ele><time>2022-09-25T01:44:39.000Z</time></trkpt>
      <trkpt lat="35.205167" lon="126.545589"><ele>151.0</ele><time>2022-09-25T01:45:11.000Z</time></trkpt>
      <trkpt lat="35.205114" lon="126.545669"><ele>152.0</ele><time>2022-09-25T01:45:35.000Z</time></trkpt>
      <trkpt lat="35.205048" lon="126.545714"><ele>152.0</ele><time>2022-09-25T01:45:44.000Z</time></trkpt>
      <trkpt lat="35.204977" lon="126.545761"><ele>159.0</ele><time>2022-09-25T01:45:52.000Z</time></trkpt>
      <trkpt lat="35.204887" lon="126.545805"><ele>152.0</ele><time>2022-09-25T01:46:04.000Z</time></trkpt>
      <trkpt lat="35.204806" lon="126.545840"><ele>144.0</ele><time>2022-09-25T01:46:21.000Z</time></trkpt>
      <trkpt lat="35.204799" lon="126.545945"><ele>148.0</ele><time>2022-09-25T01:46:33.000Z</time></trkpt>
      <trkpt lat="35.204739" lon="126.546064"><ele>146.0</ele><time>2022-09-25T01:46:42.000Z</time></trkpt>
      <trkpt lat="35.204692" lon="126.546138"><ele>140.0</ele><time>2022-09-25T01:46:58.000Z</time></trkpt>
      <trkpt lat="35.204702" lon="126.546254"><ele>135.0</ele><time>2022-09-25T01:47:18.000Z</time></trkpt>
      <trkpt lat="35.204680" lon="126.546372"><ele>131.0</ele><time>2022-09-25T01:47:32.000Z</time></trkpt>
      <trkpt lat="35.204638" lon="126.546499"><ele>130.0</ele><time>2022-09-25T01:47:44.000Z</time></trkpt>
      <trkpt lat="35.204588" lon="126.546604"><ele>130.0</ele><time>2022-09-25T01:47:52.000Z</time></trkpt>
      <trkpt lat="35.204547" lon="126.546732"><ele>129.0</ele><time>2022-09-25T01:48:00.000Z</time></trkpt>
      <trkpt lat="35.204504" lon="126.546830"><ele>129.0</ele><time>2022-09-25T01:48:08.000Z</time></trkpt>
      <trkpt lat="35.204461" lon="126.546953"><ele>130.0</ele><time>2022-09-25T01:48:16.000Z</time></trkpt>
      <trkpt lat="35.204417" lon="126.547073"><ele>131.0</ele><time>2022-09-25T01:48:24.000Z</time></trkpt>
      <trkpt lat="35.204418" lon="126.547191"><ele>133.0</ele><time>2022-09-25T01:48:34.000Z</time></trkpt>
      <trkpt lat="35.204428" lon="126.547348"><ele>134.0</ele><time>2022-09-25T01:48:46.000Z</time></trkpt>
      <trkpt lat="35.204446" lon="126.547488"><ele>136.0</ele><time>2022-09-25T01:48:58.000Z</time></trkpt>
      <trkpt lat="35.204416" lon="126.547581"><ele>139.0</ele><time>2022-09-25T01:49:08.000Z</time></trkpt>
      <trkpt lat="35.204401" lon="126.547689"><ele>143.0</ele><time>2022-09-25T01:49:25.000Z</time></trkpt>
      <trkpt lat="35.204395" lon="126.547783"><ele>146.0</ele><time>2022-09-25T01:49:41.000Z</time></trkpt>
      <trkpt lat="35.204352" lon="126.547861"><ele>149.0</ele><time>2022-09-25T01:49:52.000Z</time></trkpt>
      <trkpt lat="35.204286" lon="126.547950"><ele>151.0</ele><time>2022-09-25T01:50:07.000Z</time></trkpt>
      <trkpt lat="35.204262" lon="126.548042"><ele>156.0</ele><time>2022-09-25T01:50:30.000Z</time></trkpt>
      <trkpt lat="35.204221" lon="126.548124"><ele>159.0</ele><time>2022-09-25T01:50:47.000Z</time></trkpt>
      <trkpt lat="35.204270" lon="126.548244"><ele>162.0</ele><time>2022-09-25T01:51:37.000Z</time></trkpt>
      <trkpt lat="35.204292" lon="126.548328"><ele>163.0</ele><time>2022-09-25T01:51:42.000Z</time></trkpt>
      <trkpt lat="35.204300" lon="126.548441"><ele>163.0</ele><time>2022-09-25T01:51:53.000Z</time></trkpt>
      <trkpt lat="35.204314" lon="126.548551"><ele>164.0</ele><time>2022-09-25T01:52:05.000Z</time></trkpt>
      <trkpt lat="35.204363" lon="126.548630"><ele>163.0</ele><time>2022-09-25T01:52:14.000Z</time></trkpt>
      <trkpt lat="35.204405" lon="126.548743"><ele>161.0</ele><time>2022-09-25T01:52:23.000Z</time></trkpt>
      <trkpt lat="35.204463" lon="126.548833"><ele>157.0</ele><time>2022-09-25T01:52:30.000Z</time></trkpt>
      <trkpt lat="35.204526" lon="126.548931"><ele>156.0</ele><time>2022-09-25T01:52:39.000Z</time></trkpt>
      <trkpt lat="35.204594" lon="126.549017"><ele>156.0</ele><time>2022-09-25T01:52:47.000Z</time></trkpt>
      <trkpt lat="35.204643" lon="126.549122"><ele>154.0</ele><time>2022-09-25T01:52:55.000Z</time></trkpt>
      <trkpt lat="35.204671" lon="126.549233"><ele>152.0</ele><time>2022-09-25T01:53:04.000Z</time></trkpt>
      <trkpt lat="35.204714" lon="126.549335"><ele>149.0</ele><time>2022-09-25T01:53:13.000Z</time></trkpt>
      <trkpt lat="35.204721" lon="126.549426"><ele>147.0</ele><time>2022-09-25T01:53:20.000Z</time></trkpt>
      <trkpt lat="35.204744" lon="126.549539"><ele>146.0</ele><time>2022-09-25T01:53:27.000Z</time></trkpt>
      <trkpt lat="35.204758" lon="126.549653"><ele>146.0</ele><time>2022-09-25T01:53:34.000Z</time></trkpt>
      <trkpt lat="35.204802" lon="126.549797"><ele>145.0</ele><time>2022-09-25T01:53:46.000Z</time></trkpt>
      <trkpt lat="35.204869" lon="126.549928"><ele>141.0</ele><time>2022-09-25T01:53:56.000Z</time></trkpt>
      <trkpt lat="35.204939" lon="126.549950"><ele>138.0</ele><time>2022-09-25T01:54:06.000Z</time></trkpt>
      <trkpt lat="35.205018" lon="126.549994"><ele>136.0</ele><time>2022-09-25T01:54:12.000Z</time></trkpt>
      <trkpt lat="35.205097" lon="126.550102"><ele>137.0</ele><time>2022-09-25T01:54:24.000Z</time></trkpt>
      <trkpt lat="35.205165" lon="126.550223"><ele>137.0</ele><time>2022-09-25T01:54:33.000Z</time></trkpt>
      <trkpt lat="35.205243" lon="126.550299"><ele>137.0</ele><time>2022-09-25T01:54:41.000Z</time></trkpt>
      <trkpt lat="35.205307" lon="126.550343"><ele>138.0</ele><time>2022-09-25T01:54:49.000Z</time></trkpt>
      <trkpt lat="35.205396" lon="126.550428"><ele>139.0</ele><time>2022-09-25T01:55:01.000Z</time></trkpt>
      <trkpt lat="35.205480" lon="126.550512"><ele>140.0</ele><time>2022-09-25T01:55:13.000Z</time></trkpt>
      <trkpt lat="35.205547" lon="126.550593"><ele>140.0</ele><time>2022-09-25T01:55:22.000Z</time></trkpt>
      <trkpt lat="35.205611" lon="126.550700"><ele>140.0</ele><time>2022-09-25T01:55:34.000Z</time></trkpt>
      <trkpt lat="35.205662" lon="126.550806"><ele>140.0</ele><time>2022-09-25T01:55:43.000Z</time></trkpt>
      <trkpt lat="35.205718" lon="126.550884"><ele>141.0</ele><time>2022-09-25T01:55:51.000Z</time></trkpt>
      <trkpt lat="35.205737" lon="126.550986"><ele>141.0</ele><time>2022-09-25T01:56:00.000Z</time></trkpt>
      <trkpt lat="35.205719" lon="126.551108"><ele>142.0</ele><time>2022-09-25T01:56:09.000Z</time></trkpt>
      <trkpt lat="35.205697" lon="126.551202"><ele>143.0</ele><time>2022-09-25T01:56:16.000Z</time></trkpt>
      <trkpt lat="35.205691" lon="126.551293"><ele>144.0</ele><time>2022-09-25T01:56:24.000Z</time></trkpt>
      <trkpt lat="35.205676" lon="126.551389"><ele>146.0</ele><time>2022-09-25T01:56:37.000Z</time></trkpt>
      <trkpt lat="35.205708" lon="126.551488"><ele>149.0</ele><time>2022-09-25T01:56:50.000Z</time></trkpt>
      <trkpt lat="35.205704" lon="126.551584"><ele>151.0</ele><time>2022-09-25T01:57:02.000Z</time></trkpt>
      <trkpt lat="35.205692" lon="126.551689"><ele>155.0</ele><time>2022-09-25T01:57:18.000Z</time></trkpt>
      <trkpt lat="35.205676" lon="126.551778"><ele>155.0</ele><time>2022-09-25T01:57:29.000Z</time></trkpt>
      <trkpt lat="35.205693" lon="126.551873"><ele>154.0</ele><time>2022-09-25T01:57:38.000Z</time></trkpt>
      <trkpt lat="35.205687" lon="126.551988"><ele>152.0</ele><time>2022-09-25T01:57:47.000Z</time></trkpt>
      <trkpt lat="35.205721" lon="126.552086"><ele>150.0</ele><time>2022-09-25T01:57:55.000Z</time></trkpt>
      <trkpt lat="35.205757" lon="126.552187"><ele>149.0</ele><time>2022-09-25T01:58:04.000Z</time></trkpt>
      <trkpt lat="35.205782" lon="126.552287"><ele>147.0</ele><time>2022-09-25T01:58:13.000Z</time></trkpt>
      <trkpt lat="35.205800" lon="126.552405"><ele>144.0</ele><time>2022-09-25T01:58:24.000Z</time></trkpt>
      <trkpt lat="35.205778" lon="126.552508"><ele>143.0</ele><time>2022-09-25T01:58:32.000Z</time></trkpt>
      <trkpt lat="35.205857" lon="126.552558"><ele>143.0</ele><time>2022-09-25T01:58:41.000Z</time></trkpt>
      <trkpt lat="35.205904" lon="126.552637"><ele>145.0</ele><time>2022-09-25T01:58:49.000Z</time></trkpt>
      <trkpt lat="35.205943" lon="126.552725"><ele>146.0</ele><time>2022-09-25T01:59:01.000Z</time></trkpt>
      <trkpt lat="35.205970" lon="126.552810"><ele>150.0</ele><time>2022-09-25T01:59:18.000Z</time></trkpt>
      <trkpt lat="35.205915" lon="126.552867"><ele>152.0</ele><time>2022-09-25T01:59:27.000Z</time></trkpt>
      <trkpt lat="35.205895" lon="126.552953"><ele>154.0</ele><time>2022-09-25T01:59:52.000Z</time></trkpt>
      <trkpt lat="35.205854" lon="126.553025"><ele>156.0</ele><time>2022-09-25T02:00:05.000Z</time></trkpt>
      <trkpt lat="35.205807" lon="126.553102"><ele>158.0</ele><time>2022-09-25T02:00:18.000Z</time></trkpt>
      <trkpt lat="35.205758" lon="126.553174"><ele>161.0</ele><time>2022-09-25T02:00:40.000Z</time></trkpt>
      <trkpt lat="35.205700" lon="126.553230"><ele>165.0</ele><time>2022-09-25T02:00:59.000Z</time></trkpt>
      <trkpt lat="35.205671" lon="126.553319"><ele>167.0</ele><time>2022-09-25T02:01:11.000Z</time></trkpt>
      <trkpt lat="35.205630" lon="126.553395"><ele>168.0</ele><time>2022-09-25T02:01:23.000Z</time></trkpt>
      <trkpt lat="35.205562" lon="126.553513"><ele>170.0</ele><time>2022-09-25T02:01:42.000Z</time></trkpt>
      <trkpt lat="35.205539" lon="126.553610"><ele>173.0</ele><time>2022-09-25T02:01:53.000Z</time></trkpt>
      <trkpt lat="35.205495" lon="126.553698"><ele>176.0</ele><time>2022-09-25T02:02:05.000Z</time></trkpt>
      <trkpt lat="35.205451" lon="126.553771"><ele>178.0</ele><time>2022-09-25T02:02:18.000Z</time></trkpt>
      <trkpt lat="35.205427" lon="126.553857"><ele>182.0</ele><time>2022-09-25T02:02:33.000Z</time></trkpt>
      <trkpt lat="35.205388" lon="126.553950"><ele>185.0</ele><time>2022-09-25T02:02:44.000Z</time></trkpt>
      <trkpt lat="35.205337" lon="126.554016"><ele>188.0</ele><time>2022-09-25T02:02:52.000Z</time></trkpt>
      <trkpt lat="35.205280" lon="126.554093"><ele>193.0</ele><time>2022-09-25T02:03:12.000Z</time></trkpt>
      <trkpt lat="35.205237" lon="126.554175"><ele>196.0</ele><time>2022-09-25T02:03:28.000Z</time></trkpt>
      <trkpt lat="35.205190" lon="126.554247"><ele>201.0</ele><time>2022-09-25T02:03:48.000Z</time></trkpt>
      <trkpt lat="35.205192" lon="126.554343"><ele>205.0</ele><time>2022-09-25T02:04:09.000Z</time></trkpt>
      <trkpt lat="35.205133" lon="126.554387"><ele>209.0</ele><time>2022-09-25T02:04:29.000Z</time></trkpt>
      <trkpt lat="35.205121" lon="126.554471"><ele>213.0</ele><time>2022-09-25T02:04:49.000Z</time></trkpt>
      <trkpt lat="35.205087" lon="126.554543"><ele>216.0</ele><time>2022-09-25T02:05:08.000Z</time></trkpt>
      <trkpt lat="35.205029" lon="126.554601"><ele>218.0</ele><time>2022-09-25T02:05:22.000Z</time></trkpt>
      <trkpt lat="35.205030" lon="126.554702"><ele>221.0</ele><time>2022-09-25T02:05:39.000Z</time></trkpt>
      <trkpt lat="35.204988" lon="126.554779"><ele>221.0</ele><time>2022-09-25T02:05:50.000Z</time></trkpt>
      <trkpt lat="35.204936" lon="126.554837"><ele>221.0</ele><time>2022-09-25T02:05:59.000Z</time></trkpt>
      <trkpt lat="35.204942" lon="126.554939"><ele>224.0</ele><time>2022-09-25T02:06:21.000Z</time></trkpt>
      <trkpt lat="35.204899" lon="126.555012"><ele>227.0</ele><time>2022-09-25T02:06:36.000Z</time></trkpt>
      <trkpt lat="35.204938" lon="126.555084"><ele>229.0</ele><time>2022-09-25T02:06:48.000Z</time></trkpt>
      <trkpt lat="35.204875" lon="126.555114"><ele>231.0</ele><time>2022-09-25T02:07:00.000Z</time></trkpt>
      <trkpt lat="35.204832" lon="126.555184"><ele>235.0</ele><time>2022-09-25T02:07:23.000Z</time></trkpt>
      <trkpt lat="35.204783" lon="126.555250"><ele>238.0</ele><time>2022-09-25T02:07:47.000Z</time></trkpt>
      <trkpt lat="35.204750" lon="126.555339"><ele>242.0</ele><time>2022-09-25T02:08:06.000Z</time></trkpt>
      <trkpt lat="35.204696" lon="126.555404"><ele>243.0</ele><time>2022-09-25T02:08:19.000Z</time></trkpt>
      <trkpt lat="35.204591" lon="126.555428"><ele>245.0</ele><time>2022-09-25T02:08:33.000Z</time></trkpt>
      <trkpt lat="35.204529" lon="126.555476"><ele>245.0</ele><time>2022-09-25T02:08:40.000Z</time></trkpt>
      <trkpt lat="35.204445" lon="126.555476"><ele>246.0</ele><time>2022-09-25T02:08:53.000Z</time></trkpt>
      <trkpt lat="35.204376" lon="126.555470"><ele>247.0</ele><time>2022-09-25T02:09:08.000Z</time></trkpt>
      <trkpt lat="35.204290" lon="126.555398"><ele>251.0</ele><time>2022-09-25T02:09:52.000Z</time></trkpt>
      <trkpt lat="35.204201" lon="126.555479"><ele>256.0</ele><time>2022-09-25T02:10:05.000Z</time></trkpt>
      <trkpt lat="35.204100" lon="126.555491"><ele>261.0</ele><time>2022-09-25T02:10:17.000Z</time></trkpt>
      <trkpt lat="35.204024" lon="126.555502"><ele>264.0</ele><time>2022-09-25T02:10:37.000Z</time></trkpt>
      <trkpt lat="35.203944" lon="126.555559"><ele>265.0</ele><time>2022-09-25T02:10:49.000Z</time></trkpt>
      <trkpt lat="35.203874" lon="126.555605"><ele>265.0</ele><time>2022-09-25T02:10:58.000Z</time></trkpt>
      <trkpt lat="35.203840" lon="126.555679"><ele>267.0</ele><time>2022-09-25T02:11:08.000Z</time></trkpt>
      <trkpt lat="35.203789" lon="126.555761"><ele>269.0</ele><time>2022-09-25T02:11:21.000Z</time></trkpt>
      <trkpt lat="35.203719" lon="126.555793"><ele>272.0</ele><time>2022-09-25T02:11:37.000Z</time></trkpt>
      <trkpt lat="35.203639" lon="126.555808"><ele>274.0</ele><time>2022-09-25T02:11:50.000Z</time></trkpt>
      <trkpt lat="35.203567" lon="126.555801"><ele>276.0</ele><time>2022-09-25T02:12:06.000Z</time></trkpt>
      <trkpt lat="35.203475" lon="126.555782"><ele>276.0</ele><time>2022-09-25T02:12:34.000Z</time></trkpt>
      <trkpt lat="35.203475" lon="126.555782"><ele>275.0</ele><time>2022-09-25T02:15:36.000Z</time></trkpt>
      <trkpt lat="35.203518" lon="126.555821"><ele>274.0</ele><time>2022-09-25T02:16:09.000Z</time></trkpt>
      <trkpt lat="35.203518" lon="126.555932"><ele>270.0</ele><time>2022-09-25T02:16:24.000Z</time></trkpt>
      <trkpt lat="35.203497" lon="126.556034"><ele>269.0</ele><time>2022-09-25T02:16:34.000Z</time></trkpt>
      <trkpt lat="35.203474" lon="126.556126"><ele>268.0</ele><time>2022-09-25T02:16:42.000Z</time></trkpt>
      <trkpt lat="35.203398" lon="126.556215"><ele>268.0</ele><time>2022-09-25T02:16:53.000Z</time></trkpt>
      <trkpt lat="35.203313" lon="126.556258"><ele>268.0</ele><time>2022-09-25T02:17:01.000Z</time></trkpt>
      <trkpt lat="35.203232" lon="126.556321"><ele>268.0</ele><time>2022-09-25T02:17:10.000Z</time></trkpt>
      <trkpt lat="35.203174" lon="126.556384"><ele>269.0</ele><time>2022-09-25T02:17:17.000Z</time></trkpt>
      <trkpt lat="35.203101" lon="126.556402"><ele>270.0</ele><time>2022-09-25T02:17:26.000Z</time></trkpt>
      <trkpt lat="35.203034" lon="126.556475"><ele>271.0</ele><time>2022-09-25T02:17:38.000Z</time></trkpt>
      <trkpt lat="35.202963" lon="126.556537"><ele>274.0</ele><time>2022-09-25T02:17:51.000Z</time></trkpt>
      <trkpt lat="35.202889" lon="126.556611"><ele>277.0</ele><time>2022-09-25T02:18:07.000Z</time></trkpt>
      <trkpt lat="35.202809" lon="126.556649"><ele>279.0</ele><time>2022-09-25T02:18:24.000Z</time></trkpt>
      <trkpt lat="35.202717" lon="126.556667"><ele>282.0</ele><time>2022-09-25T02:18:36.000Z</time></trkpt>
      <trkpt lat="35.202631" lon="126.556678"><ele>285.0</ele><time>2022-09-25T02:18:48.000Z</time></trkpt>
      <trkpt lat="35.202542" lon="126.556678"><ele>289.0</ele><time>2022-09-25T02:19:04.000Z</time></trkpt>
      <trkpt lat="35.202447" lon="126.556718"><ele>292.0</ele><time>2022-09-25T02:19:19.000Z</time></trkpt>
      <trkpt lat="35.202367" lon="126.556769"><ele>295.0</ele><time>2022-09-25T02:19:33.000Z</time></trkpt>
      <trkpt lat="35.202288" lon="126.556764"><ele>298.0</ele><time>2022-09-25T02:19:46.000Z</time></trkpt>
      <trkpt lat="35.202226" lon="126.556830"><ele>302.0</ele><time>2022-09-25T02:20:03.000Z</time></trkpt>
      <trkpt lat="35.202152" lon="126.556864"><ele>307.0</ele><time>2022-09-25T02:20:35.000Z</time></trkpt>
      <trkpt lat="35.202095" lon="126.556924"><ele>307.0</ele><time>2022-09-25T02:20:44.000Z</time></trkpt>
      <trkpt lat="35.201991" lon="126.556970"><ele>305.0</ele><time>2022-09-25T02:20:57.000Z</time></trkpt>
      <trkpt lat="35.201885" lon="126.557038"><ele>306.0</ele><time>2022-09-25T02:21:09.000Z</time></trkpt>
      <trkpt lat="35.201821" lon="126.557070"><ele>309.0</ele><time>2022-09-25T02:21:21.000Z</time></trkpt>
      <trkpt lat="35.201845" lon="126.556986"><ele>329.0</ele><time>2022-09-25T02:21:41.000Z</time></trkpt>
      <trkpt lat="35.201919" lon="126.556909"><ele>315.0</ele><time>2022-09-25T02:21:53.000Z</time></trkpt>
      <trkpt lat="35.201836" lon="126.556956"><ele>311.0</ele><time>2022-09-25T02:22:31.000Z</time></trkpt>
      <trkpt lat="35.201774" lon="126.557070"><ele>311.0</ele><time>2022-09-25T02:22:46.000Z</time></trkpt>
      <trkpt lat="35.201698" lon="126.557169"><ele>314.0</ele><time>2022-09-25T02:22:59.000Z</time></trkpt>
      <trkpt lat="35.201646" lon="126.557236"><ele>316.0</ele><time>2022-09-25T02:23:12.000Z</time></trkpt>
      <trkpt lat="35.201604" lon="126.557315"><ele>314.0</ele><time>2022-09-25T02:23:23.000Z</time></trkpt>
      <trkpt lat="35.201605" lon="126.557424"><ele>314.0</ele><time>2022-09-25T02:23:35.000Z</time></trkpt>
      <trkpt lat="35.201615" lon="126.557529"><ele>316.0</ele><time>2022-09-25T02:23:48.000Z</time></trkpt>
      <trkpt lat="35.201621" lon="126.557619"><ele>317.0</ele><time>2022-09-25T02:23:56.000Z</time></trkpt>
      <trkpt lat="35.201598" lon="126.557731"><ele>320.0</ele><time>2022-09-25T02:24:08.000Z</time></trkpt>
      <trkpt lat="35.201586" lon="126.557846"><ele>323.0</ele><time>2022-09-25T02:24:21.000Z</time></trkpt>
      <trkpt lat="35.201505" lon="126.557944"><ele>324.0</ele><time>2022-09-25T02:24:34.000Z</time></trkpt>
      <trkpt lat="35.201444" lon="126.557995"><ele>324.0</ele><time>2022-09-25T02:24:41.000Z</time></trkpt>
      <trkpt lat="35.201378" lon="126.558050"><ele>327.0</ele><time>2022-09-25T02:24:53.000Z</time></trkpt>
      <trkpt lat="35.201353" lon="126.558145"><ele>329.0</ele><time>2022-09-25T02:25:11.000Z</time></trkpt>
      <trkpt lat="35.201317" lon="126.558236"><ele>329.0</ele><time>2022-09-25T02:25:23.000Z</time></trkpt>
      <trkpt lat="35.201280" lon="126.558351"><ele>328.0</ele><time>2022-09-25T02:25:36.000Z</time></trkpt>
      <trkpt lat="35.201298" lon="126.558445"><ele>328.0</ele><time>2022-09-25T02:25:48.000Z</time></trkpt>
      <trkpt lat="35.201255" lon="126.558563"><ele>331.0</ele><time>2022-09-25T02:26:06.000Z</time></trkpt>
      <trkpt lat="35.201196" lon="126.558635"><ele>335.0</ele><time>2022-09-25T02:26:16.000Z</time></trkpt>
      <trkpt lat="35.201150" lon="126.558713"><ele>338.0</ele><time>2022-09-25T02:26:28.000Z</time></trkpt>
      <trkpt lat="35.201095" lon="126.558810"><ele>341.0</ele><time>2022-09-25T02:26:46.000Z</time></trkpt>
      <trkpt lat="35.201076" lon="126.558896"><ele>342.0</ele><time>2022-09-25T02:27:01.000Z</time></trkpt>
      <trkpt lat="35.201078" lon="126.558986"><ele>343.0</ele><time>2022-09-25T02:27:10.000Z</time></trkpt>
      <trkpt lat="35.201110" lon="126.559095"><ele>348.0</ele><time>2022-09-25T02:27:30.000Z</time></trkpt>
      <trkpt lat="35.201051" lon="126.559150"><ele>353.0</ele><time>2022-09-25T02:27:56.000Z</time></trkpt>
      <trkpt lat="35.200992" lon="126.559202"><ele>359.0</ele><time>2022-09-25T02:28:23.000Z</time></trkpt>
      <trkpt lat="35.200925" lon="126.559231"><ele>360.0</ele><time>2022-09-25T02:28:44.000Z</time></trkpt>
      <trkpt lat="35.200852" lon="126.559292"><ele>361.0</ele><time>2022-09-25T02:28:57.000Z</time></trkpt>
      <trkpt lat="35.200803" lon="126.559353"><ele>363.0</ele><time>2022-09-25T02:29:12.000Z</time></trkpt>
      <trkpt lat="35.200762" lon="126.559457"><ele>366.0</ele><time>2022-09-25T02:29:25.000Z</time></trkpt>
      <trkpt lat="35.200751" lon="126.559548"><ele>367.0</ele><time>2022-09-25T02:29:37.000Z</time></trkpt>
      <trkpt lat="35.200823" lon="126.559530"><ele>370.0</ele><time>2022-09-25T02:29:53.000Z</time></trkpt>
      <trkpt lat="35.200758" lon="126.559565"><ele>368.0</ele><time>2022-09-25T02:30:41.000Z</time></trkpt>
      <trkpt lat="35.200694" lon="126.559614"><ele>367.0</ele><time>2022-09-25T02:30:51.000Z</time></trkpt>
      <trkpt lat="35.200602" lon="126.559632"><ele>363.0</ele><time>2022-09-25T02:31:09.000Z</time></trkpt>
      <trkpt lat="35.200532" lon="126.559682"><ele>362.0</ele><time>2022-09-25T02:31:17.000Z</time></trkpt>
      <trkpt lat="35.200443" lon="126.559738"><ele>359.0</ele><time>2022-09-25T02:31:30.000Z</time></trkpt>
      <trkpt lat="35.200371" lon="126.559745"><ele>357.0</ele><time>2022-09-25T02:31:42.000Z</time></trkpt>
      <trkpt lat="35.200266" lon="126.559804"><ele>355.0</ele><time>2022-09-25T02:31:54.000Z</time></trkpt>
      <trkpt lat="35.200212" lon="126.559895"><ele>356.0</ele><time>2022-09-25T02:32:02.000Z</time></trkpt>
      <trkpt lat="35.200168" lon="126.559975"><ele>357.0</ele><time>2022-09-25T02:32:10.000Z</time></trkpt>
      <trkpt lat="35.200097" lon="126.560070"><ele>358.0</ele><time>2022-09-25T02:32:23.000Z</time></trkpt>
      <trkpt lat="35.200023" lon="126.560099"><ele>358.0</ele><time>2022-09-25T02:32:38.000Z</time></trkpt>
      <trkpt lat="35.200002" lon="126.560196"><ele>357.0</ele><time>2022-09-25T02:32:51.000Z</time></trkpt>
      <trkpt lat="35.199968" lon="126.560283"><ele>356.0</ele><time>2022-09-25T02:32:58.000Z</time></trkpt>
      <trkpt lat="35.199912" lon="126.560384"><ele>357.0</ele><time>2022-09-25T02:33:06.000Z</time></trkpt>
      <trkpt lat="35.199859" lon="126.560476"><ele>357.0</ele><time>2022-09-25T02:33:14.000Z</time></trkpt>
      <trkpt lat="35.199808" lon="126.560559"><ele>360.0</ele><time>2022-09-25T02:33:27.000Z</time></trkpt>
      <trkpt lat="35.199776" lon="126.560638"><ele>360.0</ele><time>2022-09-25T02:33:39.000Z</time></trkpt>
      <trkpt lat="35.199725" lon="126.560725"><ele>358.0</ele><time>2022-09-25T02:33:52.000Z</time></trkpt>
      <trkpt lat="35.199643" lon="126.560776"><ele>355.0</ele><time>2022-09-25T02:34:03.000Z</time></trkpt>
      <trkpt lat="35.199564" lon="126.560838"><ele>353.0</ele><time>2022-09-25T02:34:12.000Z</time></trkpt>
      <trkpt lat="35.199470" lon="126.560878"><ele>351.0</ele><time>2022-09-25T02:34:25.000Z</time></trkpt>
      <trkpt lat="35.199420" lon="126.560956"><ele>350.0</ele><time>2022-09-25T02:34:33.000Z</time></trkpt>
      <trkpt lat="35.199330" lon="126.560989"><ele>348.0</ele><time>2022-09-25T02:34:41.000Z</time></trkpt>
      <trkpt lat="35.199244" lon="126.561013"><ele>347.0</ele><time>2022-09-25T02:34:48.000Z</time></trkpt>
      <trkpt lat="35.199155" lon="126.561010"><ele>348.0</ele><time>2022-09-25T02:34:57.000Z</time></trkpt>
      <trkpt lat="35.199032" lon="126.560977"><ele>344.0</ele><time>2022-09-25T02:35:11.000Z</time></trkpt>
      <trkpt lat="35.198923" lon="126.560976"><ele>346.0</ele><time>2022-09-25T02:35:24.000Z</time></trkpt>
      <trkpt lat="35.198811" lon="126.560945"><ele>347.0</ele><time>2022-09-25T02:35:45.000Z</time></trkpt>
      <trkpt lat="35.198719" lon="126.560941"><ele>353.0</ele><time>2022-09-25T02:35:56.000Z</time></trkpt>
      <trkpt lat="35.198643" lon="126.560891"><ele>352.0</ele><time>2022-09-25T02:36:08.000Z</time></trkpt>
      <trkpt lat="35.198562" lon="126.560912"><ele>354.0</ele><time>2022-09-25T02:36:21.000Z</time></trkpt>
      <trkpt lat="35.198476" lon="126.560944"><ele>353.0</ele><time>2022-09-25T02:36:29.000Z</time></trkpt>
      <trkpt lat="35.198394" lon="126.560965"><ele>351.0</ele><time>2022-09-25T02:36:37.000Z</time></trkpt>
      <trkpt lat="35.198312" lon="126.560959"><ele>348.0</ele><time>2022-09-25T02:36:46.000Z</time></trkpt>
      <trkpt lat="35.198225" lon="126.561014"><ele>347.0</ele><time>2022-09-25T02:36:54.000Z</time></trkpt>
      <trkpt lat="35.198145" lon="126.561078"><ele>346.0</ele><time>2022-09-25T02:37:07.000Z</time></trkpt>
      <trkpt lat="35.198065" lon="126.561169"><ele>347.0</ele><time>2022-09-25T02:37:23.000Z</time></trkpt>
      <trkpt lat="35.197994" lon="126.561218"><ele>349.0</ele><time>2022-09-25T02:37:31.000Z</time></trkpt>
      <trkpt lat="35.197906" lon="126.561246"><ele>353.0</ele><time>2022-09-25T02:37:43.000Z</time></trkpt>
      <trkpt lat="35.197844" lon="126.561311"><ele>356.0</ele><time>2022-09-25T02:38:00.000Z</time></trkpt>
      <trkpt lat="35.197776" lon="126.561374"><ele>360.0</ele><time>2022-09-25T02:38:21.000Z</time></trkpt>
      <trkpt lat="35.197688" lon="126.561407"><ele>365.0</ele><time>2022-09-25T02:38:50.000Z</time></trkpt>
      <trkpt lat="35.197621" lon="126.561456"><ele>370.0</ele><time>2022-09-25T02:39:18.000Z</time></trkpt>
      <trkpt lat="35.197556" lon="126.561495"><ele>372.0</ele><time>2022-09-25T02:39:34.000Z</time></trkpt>
      <trkpt lat="35.197494" lon="126.561549"><ele>375.0</ele><time>2022-09-25T02:40:00.000Z</time></trkpt>
      <trkpt lat="35.197422" lon="126.561577"><ele>378.0</ele><time>2022-09-25T02:40:16.000Z</time></trkpt>
      <trkpt lat="35.197332" lon="126.561563"><ele>383.0</ele><time>2022-09-25T02:40:44.000Z</time></trkpt>
      <trkpt lat="35.197261" lon="126.561550"><ele>387.0</ele><time>2022-09-25T02:41:07.000Z</time></trkpt>
      <trkpt lat="35.197183" lon="126.561502"><ele>395.0</ele><time>2022-09-25T02:41:38.000Z</time></trkpt>
      <trkpt lat="35.197148" lon="126.561592"><ele>392.0</ele><time>2022-09-25T02:41:49.000Z</time></trkpt>
      <trkpt lat="35.197101" lon="126.561685"><ele>392.0</ele><time>2022-09-25T02:41:58.000Z</time></trkpt>
      <trkpt lat="35.197067" lon="126.561760"><ele>392.0</ele><time>2022-09-25T02:42:05.000Z</time></trkpt>
      <trkpt lat="35.197022" lon="126.561867"><ele>390.0</ele><time>2022-09-25T02:42:17.000Z</time></trkpt>
      <trkpt lat="35.196960" lon="126.561940"><ele>388.0</ele><time>2022-09-25T02:42:26.000Z</time></trkpt>
      <trkpt lat="35.196865" lon="126.562020"><ele>385.0</ele><time>2022-09-25T02:42:39.000Z</time></trkpt>
      <trkpt lat="35.196826" lon="126.562106"><ele>385.0</ele><time>2022-09-25T02:42:49.000Z</time></trkpt>
      <trkpt lat="35.196814" lon="126.562209"><ele>385.0</ele><time>2022-09-25T02:42:59.000Z</time></trkpt>
      <trkpt lat="35.196741" lon="126.562294"><ele>395.0</ele><time>2022-09-25T02:43:28.000Z</time></trkpt>
      <trkpt lat="35.196684" lon="126.562351"><ele>385.0</ele><time>2022-09-25T02:43:35.000Z</time></trkpt>
      <trkpt lat="35.196627" lon="126.562438"><ele>386.0</ele><time>2022-09-25T02:43:42.000Z</time></trkpt>
      <trkpt lat="35.196550" lon="126.562508"><ele>387.0</ele><time>2022-09-25T02:43:50.000Z</time></trkpt>
      <trkpt lat="35.196434" lon="126.562560"><ele>389.0</ele><time>2022-09-25T02:44:00.000Z</time></trkpt>
      <trkpt lat="35.196360" lon="126.562560"><ele>390.0</ele><time>2022-09-25T02:44:07.000Z</time></trkpt>
      <trkpt lat="35.196305" lon="126.562631"><ele>392.0</ele><time>2022-09-25T02:44:16.000Z</time></trkpt>
      <trkpt lat="35.196228" lon="126.562668"><ele>395.0</ele><time>2022-09-25T02:44:29.000Z</time></trkpt>
      <trkpt lat="35.196201" lon="126.562752"><ele>398.0</ele><time>2022-09-25T02:44:44.000Z</time></trkpt>
      <trkpt lat="35.196201" lon="126.562752"><ele>397.0</ele><time>2022-09-25T02:47:46.000Z</time></trkpt>
      <trkpt lat="35.196156" lon="126.562782"><ele>398.0</ele><time>2022-09-25T02:51:09.000Z</time></trkpt>
      <trkpt lat="35.196088" lon="126.562863"><ele>395.0</ele><time>2022-09-25T02:51:38.000Z</time></trkpt>
      <trkpt lat="35.196037" lon="126.562992"><ele>396.0</ele><time>2022-09-25T02:51:50.000Z</time></trkpt>
      <trkpt lat="35.195967" lon="126.563069"><ele>399.0</ele><time>2022-09-25T02:52:01.000Z</time></trkpt>
      <trkpt lat="35.195895" lon="126.563117"><ele>401.0</ele><time>2022-09-25T02:52:10.000Z</time></trkpt>
      <trkpt lat="35.195820" lon="126.563147"><ele>402.0</ele><time>2022-09-25T02:52:18.000Z</time></trkpt>
      <trkpt lat="35.195730" lon="126.563215"><ele>400.0</ele><time>2022-09-25T02:52:31.000Z</time></trkpt>
      <trkpt lat="35.195652" lon="126.563237"><ele>396.0</ele><time>2022-09-25T02:52:52.000Z</time></trkpt>
      <trkpt lat="35.195570" lon="126.563262"><ele>393.0</ele><time>2022-09-25T02:53:03.000Z</time></trkpt>
      <trkpt lat="35.195471" lon="126.563331"><ele>392.0</ele><time>2022-09-25T02:53:13.000Z</time></trkpt>
      <trkpt lat="35.195376" lon="126.563392"><ele>391.0</ele><time>2022-09-25T02:53:24.000Z</time></trkpt>
      <trkpt lat="35.195298" lon="126.563453"><ele>389.0</ele><time>2022-09-25T02:53:32.000Z</time></trkpt>
      <trkpt lat="35.195192" lon="126.563497"><ele>387.0</ele><time>2022-09-25T02:53:42.000Z</time></trkpt>
      <trkpt lat="35.195124" lon="126.563614"><ele>385.0</ele><time>2022-09-25T02:53:55.000Z</time></trkpt>
      <trkpt lat="35.195046" lon="126.563611"><ele>383.0</ele><time>2022-09-25T02:54:03.000Z</time></trkpt>
      <trkpt lat="35.194979" lon="126.563660"><ele>381.0</ele><time>2022-09-25T02:54:14.000Z</time></trkpt>
      <trkpt lat="35.194899" lon="126.563736"><ele>381.0</ele><time>2022-09-25T02:54:30.000Z</time></trkpt>
      <trkpt lat="35.194838" lon="126.563790"><ele>382.0</ele><time>2022-09-25T02:54:39.000Z</time></trkpt>
      <trkpt lat="35.194772" lon="126.563868"><ele>385.0</ele><time>2022-09-25T02:54:51.000Z</time></trkpt>
      <trkpt lat="35.194697" lon="126.563908"><ele>385.0</ele><time>2022-09-25T02:55:00.000Z</time></trkpt>
      <trkpt lat="35.194635" lon="126.563974"><ele>384.0</ele><time>2022-09-25T02:55:12.000Z</time></trkpt>
      <trkpt lat="35.194530" lon="126.563945"><ele>394.0</ele><time>2022-09-25T02:55:39.000Z</time></trkpt>
      <trkpt lat="35.194545" lon="126.564038"><ele>389.0</ele><time>2022-09-25T02:55:51.000Z</time></trkpt>
      <trkpt lat="35.194548" lon="126.564127"><ele>390.0</ele><time>2022-09-25T02:56:00.000Z</time></trkpt>
      <trkpt lat="35.194459" lon="126.564208"><ele>392.0</ele><time>2022-09-25T02:56:24.000Z</time></trkpt>
      <trkpt lat="35.194384" lon="126.564243"><ele>394.0</ele><time>2022-09-25T02:56:33.000Z</time></trkpt>
      <trkpt lat="35.194385" lon="126.564344"><ele>397.0</ele><time>2022-09-25T02:56:45.000Z</time></trkpt>
      <trkpt lat="35.194341" lon="126.564414"><ele>399.0</ele><time>2022-09-25T02:56:58.000Z</time></trkpt>
      <trkpt lat="35.194284" lon="126.564468"><ele>401.0</ele><time>2022-09-25T02:57:20.000Z</time></trkpt>
      <trkpt lat="35.194225" lon="126.564520"><ele>404.0</ele><time>2022-09-25T02:57:43.000Z</time></trkpt>
      <trkpt lat="35.194143" lon="126.564485"><ele>409.0</ele><time>2022-09-25T02:59:04.000Z</time></trkpt>
      <trkpt lat="35.194052" lon="126.564548"><ele>407.0</ele><time>2022-09-25T02:59:29.000Z</time></trkpt>
      <trkpt lat="35.193978" lon="126.564581"><ele>406.0</ele><time>2022-09-25T02:59:44.000Z</time></trkpt>
      <trkpt lat="35.193908" lon="126.564611"><ele>407.0</ele><time>2022-09-25T02:59:54.000Z</time></trkpt>
      <trkpt lat="35.193835" lon="126.564611"><ele>407.0</ele><time>2022-09-25T03:00:23.000Z</time></trkpt>
      <trkpt lat="35.193762" lon="126.564649"><ele>406.0</ele><time>2022-09-25T03:01:28.000Z</time></trkpt>
      <trkpt lat="35.193686" lon="126.564656"><ele>404.0</ele><time>2022-09-25T03:02:22.000Z</time></trkpt>
      <trkpt lat="35.193583" lon="126.564672"><ele>403.0</ele><time>2022-09-25T03:02:38.000Z</time></trkpt>
      <trkpt lat="35.193521" lon="126.564718"><ele>403.0</ele><time>2022-09-25T03:03:08.000Z</time></trkpt>
      <trkpt lat="35.193424" lon="126.564770"><ele>396.0</ele><time>2022-09-25T03:03:55.000Z</time></trkpt>
      <trkpt lat="35.193327" lon="126.564791"><ele>395.0</ele><time>2022-09-25T03:04:12.000Z</time></trkpt>
      <trkpt lat="35.193238" lon="126.564803"><ele>397.0</ele><time>2022-09-25T03:04:24.000Z</time></trkpt>
      <trkpt lat="35.193151" lon="126.564761"><ele>396.0</ele><time>2022-09-25T03:04:36.000Z</time></trkpt>
      <trkpt lat="35.193075" lon="126.564722"><ele>395.0</ele><time>2022-09-25T03:04:44.000Z</time></trkpt>
      <trkpt lat="35.192989" lon="126.564701"><ele>395.0</ele><time>2022-09-25T03:04:52.000Z</time></trkpt>
      <trkpt lat="35.192903" lon="126.564674"><ele>395.0</ele><time>2022-09-25T03:05:00.000Z</time></trkpt>
      <trkpt lat="35.192786" lon="126.564637"><ele>396.0</ele><time>2022-09-25T03:05:11.000Z</time></trkpt>
      <trkpt lat="35.192706" lon="126.564650"><ele>397.0</ele><time>2022-09-25T03:05:21.000Z</time></trkpt>
      <trkpt lat="35.192627" lon="126.564673"><ele>395.0</ele><time>2022-09-25T03:05:31.000Z</time></trkpt>
      <trkpt lat="35.192568" lon="126.564725"><ele>397.0</ele><time>2022-09-25T03:05:38.000Z</time></trkpt>
      <trkpt lat="35.192494" lon="126.564797"><ele>400.0</ele><time>2022-09-25T03:05:51.000Z</time></trkpt>
      <trkpt lat="35.192419" lon="126.564813"><ele>403.0</ele><time>2022-09-25T03:06:05.000Z</time></trkpt>
      <trkpt lat="35.192337" lon="126.564847"><ele>406.0</ele><time>2022-09-25T03:06:18.000Z</time></trkpt>
      <trkpt lat="35.192252" lon="126.564862"><ele>408.0</ele><time>2022-09-25T03:06:31.000Z</time></trkpt>
      <trkpt lat="35.192164" lon="126.564850"><ele>409.0</ele><time>2022-09-25T03:06:44.000Z</time></trkpt>
      <trkpt lat="35.192076" lon="126.564821"><ele>411.0</ele><time>2022-09-25T03:06:55.000Z</time></trkpt>
      <trkpt lat="35.192003" lon="126.564777"><ele>413.0</ele><time>2022-09-25T03:07:07.000Z</time></trkpt>
      <trkpt lat="35.191917" lon="126.564723"><ele>413.0</ele><time>2022-09-25T03:07:20.000Z</time></trkpt>
      <trkpt lat="35.191827" lon="126.564654"><ele>412.0</ele><time>2022-09-25T03:07:33.000Z</time></trkpt>
      <trkpt lat="35.191751" lon="126.564566"><ele>413.0</ele><time>2022-09-25T03:07:46.000Z</time></trkpt>
      <trkpt lat="35.191683" lon="126.564526"><ele>416.0</ele><time>2022-09-25T03:07:56.000Z</time></trkpt>
      <trkpt lat="35.191617" lon="126.564576"><ele>421.0</ele><time>2022-09-25T03:08:18.000Z</time></trkpt>
      <trkpt lat="35.191574" lon="126.564653"><ele>425.0</ele><time>2022-09-25T03:08:35.000Z</time></trkpt>
      <trkpt lat="35.191505" lon="126.564673"><ele>430.0</ele><time>2022-09-25T03:08:51.000Z</time></trkpt>
      <trkpt lat="35.191409" lon="126.564683"><ele>434.0</ele><time>2022-09-25T03:09:08.000Z</time></trkpt>
      <trkpt lat="35.191334" lon="126.564712"><ele>439.0</ele><time>2022-09-25T03:09:37.000Z</time></trkpt>
      <trkpt lat="35.191246" lon="126.564710"><ele>441.0</ele><time>2022-09-25T03:09:53.000Z</time></trkpt>
      <trkpt lat="35.191181" lon="126.564750"><ele>446.0</ele><time>2022-09-25T03:10:18.000Z</time></trkpt>
      <trkpt lat="35.191121" lon="126.564795"><ele>448.0</ele><time>2022-09-25T03:10:39.000Z</time></trkpt>
      <trkpt lat="35.191057" lon="126.564853"><ele>452.0</ele><time>2022-09-25T03:11:04.000Z</time></trkpt>
      <trkpt lat="35.190995" lon="126.564896"><ele>457.0</ele><time>2022-09-25T03:11:22.000Z</time></trkpt>
      <trkpt lat="35.190911" lon="126.564935"><ele>460.0</ele><time>2022-09-25T03:11:43.000Z</time></trkpt>
      <trkpt lat="35.190802" lon="126.564963"><ele>467.0</ele><time>2022-09-25T03:12:53.000Z</time></trkpt>
      <trkpt lat="35.190733" lon="126.565001"><ele>473.0</ele><time>2022-09-25T03:13:27.000Z</time></trkpt>
      <trkpt lat="35.190657" lon="126.565033"><ele>473.0</ele><time>2022-09-25T03:14:56.000Z</time></trkpt>
      <trkpt lat="35.190610" lon="126.564978"><ele>472.0</ele><time>2022-09-25T03:15:05.000Z</time></trkpt>
      <trkpt lat="35.190651" lon="126.564902"><ele>472.0</ele><time>2022-09-25T03:15:14.000Z</time></trkpt>
      <trkpt lat="35.190651" lon="126.564902"><ele>471.0</ele><time>2022-09-25T03:18:15.000Z</time></trkpt>
      <trkpt lat="35.190621" lon="126.564959"><ele>472.0</ele><time>2022-09-25T03:27:50.000Z</time></trkpt>
      <trkpt lat="35.190586" lon="126.565047"><ele>472.0</ele><time>2022-09-25T03:28:16.000Z</time></trkpt>
      <trkpt lat="35.190517" lon="126.565072"><ele>470.0</ele><time>2022-09-25T03:28:48.000Z</time></trkpt>
      <trkpt lat="35.190621" lon="126.565033"><ele>473.0</ele><time>2022-09-25T03:30:08.000Z</time></trkpt>
      <trkpt lat="35.190650" lon="126.564939"><ele>472.0</ele><time>2022-09-25T03:30:23.000Z</time></trkpt>
      <trkpt lat="35.190717" lon="126.564902"><ele>470.0</ele><time>2022-09-25T03:30:35.000Z</time></trkpt>
      <trkpt lat="35.190781" lon="126.564847"><ele>465.0</ele><time>2022-09-25T03:30:55.000Z</time></trkpt>
      <trkpt lat="35.190732" lon="126.564770"><ele>461.0</ele><time>2022-09-25T03:31:37.000Z</time></trkpt>
      <trkpt lat="35.190658" lon="126.564705"><ele>460.0</ele><time>2022-09-25T03:31:47.000Z</time></trkpt>
      <trkpt lat="35.190673" lon="126.564604"><ele>457.0</ele><time>2022-09-25T03:32:27.000Z</time></trkpt>
      <trkpt lat="35.190647" lon="126.564491"><ele>453.0</ele><time>2022-09-25T03:32:52.000Z</time></trkpt>
      <trkpt lat="35.190629" lon="126.564367"><ele>452.0</ele><time>2022-09-25T03:34:10.000Z</time></trkpt>
      <trkpt lat="35.190642" lon="126.564250"><ele>454.0</ele><time>2022-09-25T03:34:26.000Z</time></trkpt>
      <trkpt lat="35.190647" lon="126.564151"><ele>451.0</ele><time>2022-09-25T03:34:42.000Z</time></trkpt>
      <trkpt lat="35.190552" lon="126.564080"><ele>449.0</ele><time>2022-09-25T03:34:55.000Z</time></trkpt>
      <trkpt lat="35.190612" lon="126.563974"><ele>447.0</ele><time>2022-09-25T03:36:00.000Z</time></trkpt>
      <trkpt lat="35.190590" lon="126.563869"><ele>445.0</ele><time>2022-09-25T03:36:08.000Z</time></trkpt>
      <trkpt lat="35.190501" lon="126.563795"><ele>434.0</ele><time>2022-09-25T03:36:20.000Z</time></trkpt>
      <trkpt lat="35.190440" lon="126.563707"><ele>444.0</ele><time>2022-09-25T03:36:30.000Z</time></trkpt>
      <trkpt lat="35.190418" lon="126.563610"><ele>444.0</ele><time>2022-09-25T03:36:38.000Z</time></trkpt>
      <trkpt lat="35.190407" lon="126.563521"><ele>443.0</ele><time>2022-09-25T03:36:45.000Z</time></trkpt>
      <trkpt lat="35.190426" lon="126.563403"><ele>443.0</ele><time>2022-09-25T03:36:54.000Z</time></trkpt>
      <trkpt lat="35.190431" lon="126.563296"><ele>440.0</ele><time>2022-09-25T03:37:04.000Z</time></trkpt>
      <trkpt lat="35.190417" lon="126.563201"><ele>434.0</ele><time>2022-09-25T03:37:26.000Z</time></trkpt>
      <trkpt lat="35.190483" lon="126.563145"><ele>432.0</ele><time>2022-09-25T03:37:39.000Z</time></trkpt>
      <trkpt lat="35.190524" lon="126.563062"><ele>428.0</ele><time>2022-09-25T03:37:58.000Z</time></trkpt>
      <trkpt lat="35.190433" lon="126.563050"><ele>427.0</ele><time>2022-09-25T03:38:07.000Z</time></trkpt>
      <trkpt lat="35.190344" lon="126.563030"><ele>425.0</ele><time>2022-09-25T03:38:21.000Z</time></trkpt>
      <trkpt lat="35.190256" lon="126.563010"><ele>423.0</ele><time>2022-09-25T03:38:32.000Z</time></trkpt>
      <trkpt lat="35.190173" lon="126.563001"><ele>420.0</ele><time>2022-09-25T03:38:44.000Z</time></trkpt>
      <trkpt lat="35.190095" lon="126.563010"><ele>417.0</ele><time>2022-09-25T03:38:56.000Z</time></trkpt>
      <trkpt lat="35.189996" lon="126.563015"><ele>415.0</ele><time>2022-09-25T03:39:08.000Z</time></trkpt>
      <trkpt lat="35.189903" lon="126.563026"><ele>414.0</ele><time>2022-09-25T03:39:17.000Z</time></trkpt>
      <trkpt lat="35.189827" lon="126.563009"><ele>411.0</ele><time>2022-09-25T03:39:30.000Z</time></trkpt>
      <trkpt lat="35.189821" lon="126.562919"><ele>407.0</ele><time>2022-09-25T03:39:43.000Z</time></trkpt>
      <trkpt lat="35.189741" lon="126.562899"><ele>406.0</ele><time>2022-09-25T03:39:51.000Z</time></trkpt>
      <trkpt lat="35.189668" lon="126.562871"><ele>404.0</ele><time>2022-09-25T03:39:59.000Z</time></trkpt>
      <trkpt lat="35.189597" lon="126.562838"><ele>403.0</ele><time>2022-09-25T03:40:07.000Z</time></trkpt>
      <trkpt lat="35.189530" lon="126.562815"><ele>403.0</ele><time>2022-09-25T03:40:16.000Z</time></trkpt>
      <trkpt lat="35.189461" lon="126.562724"><ele>399.0</ele><time>2022-09-25T03:40:52.000Z</time></trkpt>
      <trkpt lat="35.189420" lon="126.562644"><ele>394.0</ele><time>2022-09-25T03:41:12.000Z</time></trkpt>
      <trkpt lat="35.189337" lon="126.562649"><ele>390.0</ele><time>2022-09-25T03:41:25.000Z</time></trkpt>
      <trkpt lat="35.189276" lon="126.562594"><ele>384.0</ele><time>2022-09-25T03:41:46.000Z</time></trkpt>
      <trkpt lat="35.189214" lon="126.562510"><ele>380.0</ele><time>2022-09-25T03:42:03.000Z</time></trkpt>
      <trkpt lat="35.189183" lon="126.562414"><ele>376.0</ele><time>2022-09-25T03:42:39.000Z</time></trkpt>
      <trkpt lat="35.189225" lon="126.562336"><ele>373.0</ele><time>2022-09-25T03:42:55.000Z</time></trkpt>
      <trkpt lat="35.189183" lon="126.562236"><ele>368.0</ele><time>2022-09-25T03:43:15.000Z</time></trkpt>
      <trkpt lat="35.189115" lon="126.562166"><ele>366.0</ele><time>2022-09-25T03:43:43.000Z</time></trkpt>
      <trkpt lat="35.189044" lon="126.562128"><ele>364.0</ele><time>2022-09-25T03:43:52.000Z</time></trkpt>
      <trkpt lat="35.188971" lon="126.562077"><ele>361.0</ele><time>2022-09-25T03:44:12.000Z</time></trkpt>
      <trkpt lat="35.188879" lon="126.562052"><ele>359.0</ele><time>2022-09-25T03:44:24.000Z</time></trkpt>
      <trkpt lat="35.188850" lon="126.561973"><ele>361.0</ele><time>2022-09-25T03:44:36.000Z</time></trkpt>
      <trkpt lat="35.188873" lon="126.561884"><ele>353.0</ele><time>2022-09-25T03:45:47.000Z</time></trkpt>
      <trkpt lat="35.188862" lon="126.561799"><ele>349.0</ele><time>2022-09-25T03:46:00.000Z</time></trkpt>
      <trkpt lat="35.188797" lon="126.561725"><ele>345.0</ele><time>2022-09-25T03:46:12.000Z</time></trkpt>
      <trkpt lat="35.188721" lon="126.561686"><ele>346.0</ele><time>2022-09-25T03:46:24.000Z</time></trkpt>
      <trkpt lat="35.188644" lon="126.561711"><ele>348.0</ele><time>2022-09-25T03:46:36.000Z</time></trkpt>
      <trkpt lat="35.188571" lon="126.561699"><ele>349.0</ele><time>2022-09-25T03:46:45.000Z</time></trkpt>
      <trkpt lat="35.188498" lon="126.561677"><ele>349.0</ele><time>2022-09-25T03:46:54.000Z</time></trkpt>
      <trkpt lat="35.188453" lon="126.561604"><ele>348.0</ele><time>2022-09-25T03:47:02.000Z</time></trkpt>
      <trkpt lat="35.188400" lon="126.561507"><ele>348.0</ele><time>2022-09-25T03:47:11.000Z</time></trkpt>
      <trkpt lat="35.188366" lon="126.561418"><ele>348.0</ele><time>2022-09-25T03:47:19.000Z</time></trkpt>
      <trkpt lat="35.188308" lon="126.561349"><ele>347.0</ele><time>2022-09-25T03:47:23.000Z</time></trkpt>
      <trkpt lat="35.188259" lon="126.561286"><ele>345.0</ele><time>2022-09-25T03:47:31.000Z</time></trkpt>
      <trkpt lat="35.188227" lon="126.561193"><ele>342.0</ele><time>2022-09-25T03:47:47.000Z</time></trkpt>
      <trkpt lat="35.188153" lon="126.561109"><ele>341.0</ele><time>2022-09-25T03:47:57.000Z</time></trkpt>
      <trkpt lat="35.188081" lon="126.561057"><ele>341.0</ele><time>2022-09-25T03:48:04.000Z</time></trkpt>
      <trkpt lat="35.187994" lon="126.561032"><ele>340.0</ele><time>2022-09-25T03:48:12.000Z</time></trkpt>
      <trkpt lat="35.187994" lon="126.560943"><ele>337.0</ele><time>2022-09-25T03:48:25.000Z</time></trkpt>
      <trkpt lat="35.188018" lon="126.560838"><ele>332.0</ele><time>2022-09-25T03:48:45.000Z</time></trkpt>
      <trkpt lat="35.187966" lon="126.560765"><ele>328.0</ele><time>2022-09-25T03:48:58.000Z</time></trkpt>
      <trkpt lat="35.187929" lon="126.560607"><ele>324.0</ele><time>2022-09-25T03:49:11.000Z</time></trkpt>
      <trkpt lat="35.187921" lon="126.560467"><ele>321.0</ele><time>2022-09-25T03:49:22.000Z</time></trkpt>
      <trkpt lat="35.187952" lon="126.560385"><ele>320.0</ele><time>2022-09-25T03:49:34.000Z</time></trkpt>
      <trkpt lat="35.187987" lon="126.560283"><ele>314.0</ele><time>2022-09-25T03:49:52.000Z</time></trkpt>
      <trkpt lat="35.187951" lon="126.560150"><ele>313.0</ele><time>2022-09-25T03:50:08.000Z</time></trkpt>
      <trkpt lat="35.187854" lon="126.560055"><ele>310.0</ele><time>2022-09-25T03:50:16.000Z</time></trkpt>
      <trkpt lat="35.187832" lon="126.559948"><ele>308.0</ele><time>2022-09-25T03:50:25.000Z</time></trkpt>
      <trkpt lat="35.187836" lon="126.559856"><ele>307.0</ele><time>2022-09-25T03:50:32.000Z</time></trkpt>
      <trkpt lat="35.187858" lon="126.559700"><ele>305.0</ele><time>2022-09-25T03:50:42.000Z</time></trkpt>
      <trkpt lat="35.187848" lon="126.559569"><ele>301.0</ele><time>2022-09-25T03:50:54.000Z</time></trkpt>
      <trkpt lat="35.187806" lon="126.559461"><ele>299.0</ele><time>2022-09-25T03:51:03.000Z</time></trkpt>
      <trkpt lat="35.187807" lon="126.559373"><ele>297.0</ele><time>2022-09-25T03:51:10.000Z</time></trkpt>
      <trkpt lat="35.187834" lon="126.559288"><ele>297.0</ele><time>2022-09-25T03:51:17.000Z</time></trkpt>
      <trkpt lat="35.187835" lon="126.559204"><ele>295.0</ele><time>2022-09-25T03:51:26.000Z</time></trkpt>
      <trkpt lat="35.187865" lon="126.559090"><ele>292.0</ele><time>2022-09-25T03:51:39.000Z</time></trkpt>
      <trkpt lat="35.187785" lon="126.558991"><ele>290.0</ele><time>2022-09-25T03:51:47.000Z</time></trkpt>
      <trkpt lat="35.187778" lon="126.558889"><ele>287.0</ele><time>2022-09-25T03:51:55.000Z</time></trkpt>
      <trkpt lat="35.187753" lon="126.558782"><ele>285.0</ele><time>2022-09-25T03:52:04.000Z</time></trkpt>
      <trkpt lat="35.187717" lon="126.558705"><ele>283.0</ele><time>2022-09-25T03:52:11.000Z</time></trkpt>
      <trkpt lat="35.187723" lon="126.558580"><ele>281.0</ele><time>2022-09-25T03:52:20.000Z</time></trkpt>
      <trkpt lat="35.187708" lon="126.558466"><ele>280.0</ele><time>2022-09-25T03:52:29.000Z</time></trkpt>
      <trkpt lat="35.187742" lon="126.558361"><ele>278.0</ele><time>2022-09-25T03:52:36.000Z</time></trkpt>
      <trkpt lat="35.187712" lon="126.558282"><ele>274.0</ele><time>2022-09-25T03:52:49.000Z</time></trkpt>
      <trkpt lat="35.187695" lon="126.558192"><ele>272.0</ele><time>2022-09-25T03:52:58.000Z</time></trkpt>
      <trkpt lat="35.187711" lon="126.558059"><ele>269.0</ele><time>2022-09-25T03:53:09.000Z</time></trkpt>
      <trkpt lat="35.187705" lon="126.557938"><ele>267.0</ele><time>2022-09-25T03:53:19.000Z</time></trkpt>
      <trkpt lat="35.187728" lon="126.557823"><ele>264.0</ele><time>2022-09-25T03:53:30.000Z</time></trkpt>
      <trkpt lat="35.187743" lon="126.557731"><ele>262.0</ele><time>2022-09-25T03:53:38.000Z</time></trkpt>
      <trkpt lat="35.187736" lon="126.557637"><ele>260.0</ele><time>2022-09-25T03:53:48.000Z</time></trkpt>
      <trkpt lat="35.187731" lon="126.557531"><ele>256.0</ele><time>2022-09-25T03:53:59.000Z</time></trkpt>
      <trkpt lat="35.187764" lon="126.557456"><ele>253.0</ele><time>2022-09-25T03:54:07.000Z</time></trkpt>
      <trkpt lat="35.187811" lon="126.557344"><ele>251.0</ele><time>2022-09-25T03:54:20.000Z</time></trkpt>
      <trkpt lat="35.187803" lon="126.557253"><ele>248.0</ele><time>2022-09-25T03:54:31.000Z</time></trkpt>
      <trkpt lat="35.187751" lon="126.557148"><ele>245.0</ele><time>2022-09-25T03:54:45.000Z</time></trkpt>
      <trkpt lat="35.187747" lon="126.557059"><ele>243.0</ele><time>2022-09-25T03:54:52.000Z</time></trkpt>
      <trkpt lat="35.187759" lon="126.556960"><ele>241.0</ele><time>2022-09-25T03:55:05.000Z</time></trkpt>
      <trkpt lat="35.187807" lon="126.556842"><ele>237.0</ele><time>2022-09-25T03:55:18.000Z</time></trkpt>
      <trkpt lat="35.187767" lon="126.556729"><ele>234.0</ele><time>2022-09-25T03:55:30.000Z</time></trkpt>
      <trkpt lat="35.187744" lon="126.556644"><ele>232.0</ele><time>2022-09-25T03:55:38.000Z</time></trkpt>
      <trkpt lat="35.187744" lon="126.556526"><ele>230.0</ele><time>2022-09-25T03:55:47.000Z</time></trkpt>
      <trkpt lat="35.187725" lon="126.556434"><ele>228.0</ele><time>2022-09-25T03:55:55.000Z</time></trkpt>
      <trkpt lat="35.187706" lon="126.556335"><ele>226.0</ele><time>2022-09-25T03:56:03.000Z</time></trkpt>
      <trkpt lat="35.187663" lon="126.556199"><ele>224.0</ele><time>2022-09-25T03:56:13.000Z</time></trkpt>
      <trkpt lat="35.187611" lon="126.556062"><ele>222.0</ele><time>2022-09-25T03:56:25.000Z</time></trkpt>
      <trkpt lat="35.187552" lon="126.555918"><ele>220.0</ele><time>2022-09-25T03:56:36.000Z</time></trkpt>
      <trkpt lat="35.187478" lon="126.555853"><ele>219.0</ele><time>2022-09-25T03:56:45.000Z</time></trkpt>
      <trkpt lat="35.187422" lon="126.555745"><ele>218.0</ele><time>2022-09-25T03:56:54.000Z</time></trkpt>
      <trkpt lat="35.187358" lon="126.555682"><ele>217.0</ele><time>2022-09-25T03:57:31.000Z</time></trkpt>
      <trkpt lat="35.187310" lon="126.555572"><ele>217.0</ele><time>2022-09-25T03:57:41.000Z</time></trkpt>
      <trkpt lat="35.187263" lon="126.555484"><ele>215.0</ele><time>2022-09-25T03:57:58.000Z</time></trkpt>
      <trkpt lat="35.187204" lon="126.555402"><ele>215.0</ele><time>2022-09-25T03:58:15.000Z</time></trkpt>
      <trkpt lat="35.187148" lon="126.555338"><ele>215.0</ele><time>2022-09-25T03:58:23.000Z</time></trkpt>
      <trkpt lat="35.187077" lon="126.555287"><ele>215.0</ele><time>2022-09-25T03:58:32.000Z</time></trkpt>
      <trkpt lat="35.186989" lon="126.555238"><ele>215.0</ele><time>2022-09-25T03:58:43.000Z</time></trkpt>
      <trkpt lat="35.186914" lon="126.555192"><ele>214.0</ele><time>2022-09-25T03:58:52.000Z</time></trkpt>
      <trkpt lat="35.186843" lon="126.555133"><ele>214.0</ele><time>2022-09-25T03:59:01.000Z</time></trkpt>
      <trkpt lat="35.186777" lon="126.555058"><ele>215.0</ele><time>2022-09-25T03:59:13.000Z</time></trkpt>
      <trkpt lat="35.186719" lon="126.554987"><ele>215.0</ele><time>2022-09-25T03:59:22.000Z</time></trkpt>
      <trkpt lat="35.186648" lon="126.554897"><ele>216.0</ele><time>2022-09-25T03:59:34.000Z</time></trkpt>
      <trkpt lat="35.186605" lon="126.554820"><ele>216.0</ele><time>2022-09-25T03:59:42.000Z</time></trkpt>
      <trkpt lat="35.186547" lon="126.554712"><ele>217.0</ele><time>2022-09-25T03:59:55.000Z</time></trkpt>
      <trkpt lat="35.186483" lon="126.554641"><ele>218.0</ele><time>2022-09-25T04:00:06.000Z</time></trkpt>
      <trkpt lat="35.186436" lon="126.554526"><ele>218.0</ele><time>2022-09-25T04:00:20.000Z</time></trkpt>
      <trkpt lat="35.186381" lon="126.554435"><ele>217.0</ele><time>2022-09-25T04:00:33.000Z</time></trkpt>
      <trkpt lat="35.186353" lon="126.554352"><ele>213.0</ele><time>2022-09-25T04:01:01.000Z</time></trkpt>
      <trkpt lat="35.186276" lon="126.554269"><ele>211.0</ele><time>2022-09-25T04:01:14.000Z</time></trkpt>
      <trkpt lat="35.186219" lon="126.554176"><ele>209.0</ele><time>2022-09-25T04:01:25.000Z</time></trkpt>
      <trkpt lat="35.186181" lon="126.554079"><ele>207.0</ele><time>2022-09-25T04:01:35.000Z</time></trkpt>
      <trkpt lat="35.186159" lon="126.553949"><ele>205.0</ele><time>2022-09-25T04:01:46.000Z</time></trkpt>
      <trkpt lat="35.186130" lon="126.553852"><ele>203.0</ele><time>2022-09-25T04:01:54.000Z</time></trkpt>
      <trkpt lat="35.186149" lon="126.553730"><ele>201.0</ele><time>2022-09-25T04:02:03.000Z</time></trkpt>
      <trkpt lat="35.186162" lon="126.553637"><ele>200.0</ele><time>2022-09-25T04:02:10.000Z</time></trkpt>
      <trkpt lat="35.186134" lon="126.553553"><ele>200.0</ele><time>2022-09-25T04:02:16.000Z</time></trkpt>
      <trkpt lat="35.186151" lon="126.553425"><ele>198.0</ele><time>2022-09-25T04:02:24.000Z</time></trkpt>
      <trkpt lat="35.186151" lon="126.553327"><ele>197.0</ele><time>2022-09-25T04:02:31.000Z</time></trkpt>
      <trkpt lat="35.186120" lon="126.553244"><ele>196.0</ele><time>2022-09-25T04:02:37.000Z</time></trkpt>
      <trkpt lat="35.186130" lon="126.553139"><ele>194.0</ele><time>2022-09-25T04:02:45.000Z</time></trkpt>
      <trkpt lat="35.186105" lon="126.553034"><ele>179.0</ele><time>2022-09-25T04:02:52.000Z</time></trkpt>
      <trkpt lat="35.186087" lon="126.552935"><ele>191.0</ele><time>2022-09-25T04:03:13.000Z</time></trkpt>
      <trkpt lat="35.186058" lon="126.552845"><ele>188.0</ele><time>2022-09-25T04:03:33.000Z</time></trkpt>
      <trkpt lat="35.186069" lon="126.552745"><ele>186.0</ele><time>2022-09-25T04:03:46.000Z</time></trkpt>
      <trkpt lat="35.186060" lon="126.552627"><ele>184.0</ele><time>2022-09-25T04:04:07.000Z</time></trkpt>
      <trkpt lat="35.186010" lon="126.552554"><ele>182.0</ele><time>2022-09-25T04:04:23.000Z</time></trkpt>
      <trkpt lat="35.185994" lon="126.552464"><ele>181.0</ele><time>2022-09-25T04:04:40.000Z</time></trkpt>
      <trkpt lat="35.186023" lon="126.552333"><ele>180.0</ele><time>2022-09-25T04:05:00.000Z</time></trkpt>
      <trkpt lat="35.186082" lon="126.552384"><ele>180.0</ele><time>2022-09-25T04:05:45.000Z</time></trkpt>
      <trkpt lat="35.186161" lon="126.552337"><ele>180.0</ele><time>2022-09-25T04:05:54.000Z</time></trkpt>
      <trkpt lat="35.186227" lon="126.552371"><ele>176.0</ele><time>2022-09-25T04:06:05.000Z</time></trkpt>
      <trkpt lat="35.186301" lon="126.552408"><ele>174.0</ele><time>2022-09-25T04:06:24.000Z</time></trkpt>
      <trkpt lat="35.186395" lon="126.552442"><ele>167.0</ele><time>2022-09-25T04:06:31.000Z</time></trkpt>
      <trkpt lat="35.186481" lon="126.552439"><ele>169.0</ele><time>2022-09-25T04:06:39.000Z</time></trkpt>
      <trkpt lat="35.186562" lon="126.552443"><ele>182.0</ele><time>2022-09-25T04:07:00.000Z</time></trkpt>
      <trkpt lat="35.186641" lon="126.552488"><ele>164.0</ele><time>2022-09-25T04:07:08.000Z</time></trkpt>
      <trkpt lat="35.186733" lon="126.552531"><ele>163.0</ele><time>2022-09-25T04:07:17.000Z</time></trkpt>
      <trkpt lat="35.186818" lon="126.552610"><ele>162.0</ele><time>2022-09-25T04:07:26.000Z</time></trkpt>
      <trkpt lat="35.186898" lon="126.552690"><ele>160.0</ele><time>2022-09-25T04:07:37.000Z</time></trkpt>
      <trkpt lat="35.186964" lon="126.552746"><ele>158.0</ele><time>2022-09-25T04:07:45.000Z</time></trkpt>
      <trkpt lat="35.187050" lon="126.552825"><ele>156.0</ele><time>2022-09-25T04:07:56.000Z</time></trkpt>
      <trkpt lat="35.187128" lon="126.552918"><ele>155.0</ele><time>2022-09-25T04:08:28.000Z</time></trkpt>
      <trkpt lat="35.187182" lon="126.553003"><ele>152.0</ele><time>2022-09-25T04:08:36.000Z</time></trkpt>
      <trkpt lat="35.187269" lon="126.553130"><ele>152.0</ele><time>2022-09-25T04:08:49.000Z</time></trkpt>
      <trkpt lat="35.187311" lon="126.553202"><ele>151.0</ele><time>2022-09-25T04:08:56.000Z</time></trkpt>
      <trkpt lat="35.187406" lon="126.553248"><ele>149.0</ele><time>2022-09-25T04:09:08.000Z</time></trkpt>
      <trkpt lat="35.187505" lon="126.553282"><ele>146.0</ele><time>2022-09-25T04:09:21.000Z</time></trkpt>
      <trkpt lat="35.187588" lon="126.553353"><ele>145.0</ele><time>2022-09-25T04:09:30.000Z</time></trkpt>
      <trkpt lat="35.187690" lon="126.553395"><ele>144.0</ele><time>2022-09-25T04:09:38.000Z</time></trkpt>
      <trkpt lat="35.187803" lon="126.553427"><ele>143.0</ele><time>2022-09-25T04:09:50.000Z</time></trkpt>
      <trkpt lat="35.187876" lon="126.553496"><ele>142.0</ele><time>2022-09-25T04:09:58.000Z</time></trkpt>
      <trkpt lat="35.187964" lon="126.553554"><ele>142.0</ele><time>2022-09-25T04:10:05.000Z</time></trkpt>
      <trkpt lat="35.188061" lon="126.553602"><ele>142.0</ele><time>2022-09-25T04:10:14.000Z</time></trkpt>
      <trkpt lat="35.188147" lon="126.553634"><ele>141.0</ele><time>2022-09-25T04:10:22.000Z</time></trkpt>
      <trkpt lat="35.188232" lon="126.553691"><ele>141.0</ele><time>2022-09-25T04:10:31.000Z</time></trkpt>
      <trkpt lat="35.188309" lon="126.553749"><ele>140.0</ele><time>2022-09-25T04:10:39.000Z</time></trkpt>
      <trkpt lat="35.188370" lon="126.553814"><ele>139.0</ele><time>2022-09-25T04:10:47.000Z</time></trkpt>
      <trkpt lat="35.188474" lon="126.553848"><ele>137.0</ele><time>2022-09-25T04:11:00.000Z</time></trkpt>
      <trkpt lat="35.188556" lon="126.553843"><ele>135.0</ele><time>2022-09-25T04:11:08.000Z</time></trkpt>
      <trkpt lat="35.188666" lon="126.553877"><ele>132.0</ele><time>2022-09-25T04:11:21.000Z</time></trkpt>
      <trkpt lat="35.188783" lon="126.553908"><ele>131.0</ele><time>2022-09-25T04:11:33.000Z</time></trkpt>
      <trkpt lat="35.188856" lon="126.553972"><ele>130.0</ele><time>2022-09-25T04:11:41.000Z</time></trkpt>
      <trkpt lat="35.188930" lon="126.554045"><ele>129.0</ele><time>2022-09-25T04:11:49.000Z</time></trkpt>
      <trkpt lat="35.189013" lon="126.554096"><ele>129.0</ele><time>2022-09-25T04:11:58.000Z</time></trkpt>
      <trkpt lat="35.189073" lon="126.554177"><ele>129.0</ele><time>2022-09-25T04:12:05.000Z</time></trkpt>
      <trkpt lat="35.189146" lon="126.554219"><ele>127.0</ele><time>2022-09-25T04:12:14.000Z</time></trkpt>
      <trkpt lat="35.189215" lon="126.554263"><ele>127.0</ele><time>2022-09-25T04:12:23.000Z</time></trkpt>
      <trkpt lat="35.189308" lon="126.554325"><ele>126.0</ele><time>2022-09-25T04:12:35.000Z</time></trkpt>
      <trkpt lat="35.189384" lon="126.554362"><ele>124.0</ele><time>2022-09-25T04:12:43.000Z</time></trkpt>
      <trkpt lat="35.189449" lon="126.554445"><ele>124.0</ele><time>2022-09-25T04:12:52.000Z</time></trkpt>
      <trkpt lat="35.189557" lon="126.554479"><ele>122.0</ele><time>2022-09-25T04:13:06.000Z</time></trkpt>
      <trkpt lat="35.189646" lon="126.554442"><ele>119.0</ele><time>2022-09-25T04:13:15.000Z</time></trkpt>
      <trkpt lat="35.189740" lon="126.554477"><ele>118.0</ele><time>2022-09-25T04:13:29.000Z</time></trkpt>
      <trkpt lat="35.189837" lon="126.554514"><ele>117.0</ele><time>2022-09-25T04:13:38.000Z</time></trkpt>
      <trkpt lat="35.189940" lon="126.554522"><ele>116.0</ele><time>2022-09-25T04:13:49.000Z</time></trkpt>
      <trkpt lat="35.190013" lon="126.554497"><ele>116.0</ele><time>2022-09-25T04:13:58.000Z</time></trkpt>
      <trkpt lat="35.190084" lon="126.554516"><ele>115.0</ele><time>2022-09-25T04:14:06.000Z</time></trkpt>
      <trkpt lat="35.190158" lon="126.554522"><ele>115.0</ele><time>2022-09-25T04:14:14.000Z</time></trkpt>
      <trkpt lat="35.190285" lon="126.554489"><ele>115.0</ele><time>2022-09-25T04:14:28.000Z</time></trkpt>
      <trkpt lat="35.190373" lon="126.554489"><ele>115.0</ele><time>2022-09-25T04:14:40.000Z</time></trkpt>
      <trkpt lat="35.190460" lon="126.554471"><ele>113.0</ele><time>2022-09-25T04:14:51.000Z</time></trkpt>
      <trkpt lat="35.190542" lon="126.554467"><ele>113.0</ele><time>2022-09-25T04:15:01.000Z</time></trkpt>
      <trkpt lat="35.190625" lon="126.554489"><ele>112.0</ele><time>2022-09-25T04:15:12.000Z</time></trkpt>
      <trkpt lat="35.190713" lon="126.554461"><ele>110.0</ele><time>2022-09-25T04:15:24.000Z</time></trkpt>
      <trkpt lat="35.190817" lon="126.554416"><ele>108.0</ele><time>2022-09-25T04:15:37.000Z</time></trkpt>
      <trkpt lat="35.190891" lon="126.554521"><ele>108.0</ele><time>2022-09-25T04:15:45.000Z</time></trkpt>
      <trkpt lat="35.190963" lon="126.554617"><ele>107.0</ele><time>2022-09-25T04:15:53.000Z</time></trkpt>
      <trkpt lat="35.191031" lon="126.554737"><ele>107.0</ele><time>2022-09-25T04:16:02.000Z</time></trkpt>
      <trkpt lat="35.191099" lon="126.554819"><ele>106.0</ele><time>2022-09-25T04:16:10.000Z</time></trkpt>
      <trkpt lat="35.191177" lon="126.554916"><ele>106.0</ele><time>2022-09-25T04:16:18.000Z</time></trkpt>
      <trkpt lat="35.191238" lon="126.554991"><ele>107.0</ele><time>2022-09-25T04:16:25.000Z</time></trkpt>
      <trkpt lat="35.191309" lon="126.555053"><ele>107.0</ele><time>2022-09-25T04:16:32.000Z</time></trkpt>
      <trkpt lat="35.191408" lon="126.555039"><ele>104.0</ele><time>2022-09-25T04:16:44.000Z</time></trkpt>
      <trkpt lat="35.191491" lon="126.555047"><ele>103.0</ele><time>2022-09-25T04:16:52.000Z</time></trkpt>
      <trkpt lat="35.191570" lon="126.555040"><ele>101.0</ele><time>2022-09-25T04:17:00.000Z</time></trkpt>
      <trkpt lat="35.191656" lon="126.555031"><ele>100.0</ele><time>2022-09-25T04:17:08.000Z</time></trkpt>
      <trkpt lat="35.191735" lon="126.555036"><ele>99.0</ele><time>2022-09-25T04:17:16.000Z</time></trkpt>
      <trkpt lat="35.191816" lon="126.555032"><ele>97.0</ele><time>2022-09-25T04:17:24.000Z</time></trkpt>
      <trkpt lat="35.191910" lon="126.555013"><ele>95.0</ele><time>2022-09-25T04:17:33.000Z</time></trkpt>
      <trkpt lat="35.192052" lon="126.555001"><ele>94.0</ele><time>2022-09-25T04:17:45.000Z</time></trkpt>
      <trkpt lat="35.192140" lon="126.554983"><ele>93.0</ele><time>2022-09-25T04:17:53.000Z</time></trkpt>
      <trkpt lat="35.192235" lon="126.554945"><ele>92.0</ele><time>2022-09-25T04:18:01.000Z</time></trkpt>
      <trkpt lat="35.192364" lon="126.554925"><ele>91.0</ele><time>2022-09-25T04:18:11.000Z</time></trkpt>
      <trkpt lat="35.192441" lon="126.554913"><ele>90.0</ele><time>2022-09-25T04:18:18.000Z</time></trkpt>
      <trkpt lat="35.192522" lon="126.554896"><ele>89.0</ele><time>2022-09-25T04:18:22.000Z</time></trkpt>
      <trkpt lat="35.192622" lon="126.554882"><ele>89.0</ele><time>2022-09-25T04:18:31.000Z</time></trkpt>
      <trkpt lat="35.192727" lon="126.554856"><ele>88.0</ele><time>2022-09-25T04:18:47.000Z</time></trkpt>
      <trkpt lat="35.192812" lon="126.554843"><ele>88.0</ele><time>2022-09-25T04:18:55.000Z</time></trkpt>
      <trkpt lat="35.192912" lon="126.554837"><ele>88.0</ele><time>2022-09-25T04:19:04.000Z</time></trkpt>
      <trkpt lat="35.192992" lon="126.554822"><ele>88.0</ele><time>2022-09-25T04:19:11.000Z</time></trkpt>
      <trkpt lat="35.193093" lon="126.554792"><ele>87.0</ele><time>2022-09-25T04:19:20.000Z</time></trkpt>
      <trkpt lat="35.193178" lon="126.554722"><ele>86.0</ele><time>2022-09-25T04:19:29.000Z</time></trkpt>
      <trkpt lat="35.193282" lon="126.554670"><ele>85.0</ele><time>2022-09-25T04:19:38.000Z</time></trkpt>
      <trkpt lat="35.193406" lon="126.554654"><ele>84.0</ele><time>2022-09-25T04:19:49.000Z</time></trkpt>
      <trkpt lat="35.193500" lon="126.554634"><ele>83.0</ele><time>2022-09-25T04:19:57.000Z</time></trkpt>
      <trkpt lat="35.193597" lon="126.554650"><ele>82.0</ele><time>2022-09-25T04:20:05.000Z</time></trkpt>
      <trkpt lat="35.193678" lon="126.554670"><ele>82.0</ele><time>2022-09-25T04:20:11.000Z</time></trkpt>
      <trkpt lat="35.193752" lon="126.554646"><ele>82.0</ele><time>2022-09-25T04:20:17.000Z</time></trkpt>
      <trkpt lat="35.193837" lon="126.554583"><ele>81.0</ele><time>2022-09-25T04:20:26.000Z</time></trkpt>
      <trkpt lat="35.193937" lon="126.554576"><ele>80.0</ele><time>2022-09-25T04:20:35.000Z</time></trkpt>
      <trkpt lat="35.194019" lon="126.554584"><ele>80.0</ele><time>2022-09-25T04:20:43.000Z</time></trkpt>
      <trkpt lat="35.194134" lon="126.554535"><ele>80.0</ele><time>2022-09-25T04:20:52.000Z</time></trkpt>
      <trkpt lat="35.194207" lon="126.554481"><ele>79.0</ele><time>2022-09-25T04:21:01.000Z</time></trkpt>
      <trkpt lat="35.194238" lon="126.554330"><ele>79.0</ele><time>2022-09-25T04:21:13.000Z</time></trkpt>
      <trkpt lat="35.194297" lon="126.554245"><ele>79.0</ele><time>2022-09-25T04:21:23.000Z</time></trkpt>
      <trkpt lat="35.194391" lon="126.554173"><ele>79.0</ele><time>2022-09-25T04:21:33.000Z</time></trkpt>
      <trkpt lat="35.194464" lon="126.554106"><ele>79.0</ele><time>2022-09-25T04:21:42.000Z</time></trkpt>
      <trkpt lat="35.194515" lon="126.554035"><ele>78.0</ele><time>2022-09-25T04:21:49.000Z</time></trkpt>
      <trkpt lat="35.194598" lon="126.553976"><ele>77.0</ele><time>2022-09-25T04:21:57.000Z</time></trkpt>
      <trkpt lat="35.194699" lon="126.553934"><ele>76.0</ele><time>2022-09-25T04:22:06.000Z</time></trkpt>
      <trkpt lat="35.194801" lon="126.553931"><ele>75.0</ele><time>2022-09-25T04:22:15.000Z</time></trkpt>
      <trkpt lat="35.194879" lon="126.553942"><ele>73.0</ele><time>2022-09-25T04:22:22.000Z</time></trkpt>
      <trkpt lat="35.194960" lon="126.553879"><ele>71.0</ele><time>2022-09-25T04:22:30.000Z</time></trkpt>
      <trkpt lat="35.195033" lon="126.553797"><ele>69.0</ele><time>2022-09-25T04:22:39.000Z</time></trkpt>
      <trkpt lat="35.195122" lon="126.553773"><ele>68.0</ele><time>2022-09-25T04:22:47.000Z</time></trkpt>
      <trkpt lat="35.195221" lon="126.553736"><ele>67.0</ele><time>2022-09-25T04:22:56.000Z</time></trkpt>
      <trkpt lat="35.195324" lon="126.553723"><ele>65.0</ele><time>2022-09-25T04:23:05.000Z</time></trkpt>
      <trkpt lat="35.195399" lon="126.553691"><ele>64.0</ele><time>2022-09-25T04:23:12.000Z</time></trkpt>
      <trkpt lat="35.195465" lon="126.553647"><ele>64.0</ele><time>2022-09-25T04:23:17.000Z</time></trkpt>
      <trkpt lat="35.195562" lon="126.553585"><ele>63.0</ele><time>2022-09-25T04:23:25.000Z</time></trkpt>
      <trkpt lat="35.195665" lon="126.553539"><ele>63.0</ele><time>2022-09-25T04:23:33.000Z</time></trkpt>
      <trkpt lat="35.195765" lon="126.553528"><ele>63.0</ele><time>2022-09-25T04:23:41.000Z</time></trkpt>
      <trkpt lat="35.195843" lon="126.553518"><ele>63.0</ele><time>2022-09-25T04:23:49.000Z</time></trkpt>
      <trkpt lat="35.195933" lon="126.553500"><ele>62.0</ele><time>2022-09-25T04:23:57.000Z</time></trkpt>
      <trkpt lat="35.196044" lon="126.553477"><ele>62.0</ele><time>2022-09-25T04:24:06.000Z</time></trkpt>
      <trkpt lat="35.196128" lon="126.553446"><ele>61.0</ele><time>2022-09-25T04:24:13.000Z</time></trkpt>
      <trkpt lat="35.196234" lon="126.553394"><ele>61.0</ele><time>2022-09-25T04:24:22.000Z</time></trkpt>
      <trkpt lat="35.196326" lon="126.553333"><ele>62.0</ele><time>2022-09-25T04:24:30.000Z</time></trkpt>
      <trkpt lat="35.196429" lon="126.553286"><ele>60.0</ele><time>2022-09-25T04:24:39.000Z</time></trkpt>
      <trkpt lat="35.196506" lon="126.553209"><ele>58.0</ele><time>2022-09-25T04:24:47.000Z</time></trkpt>
      <trkpt lat="35.196571" lon="126.553127"><ele>58.0</ele><time>2022-09-25T04:24:54.000Z</time></trkpt>
      <trkpt lat="35.196622" lon="126.553058"><ele>57.0</ele><time>2022-09-25T04:25:00.000Z</time></trkpt>
      <trkpt lat="35.196711" lon="126.553002"><ele>55.0</ele><time>2022-09-25T04:25:08.000Z</time></trkpt>
      <trkpt lat="35.196788" lon="126.552930"><ele>55.0</ele><time>2022-09-25T04:25:16.000Z</time></trkpt>
      <trkpt lat="35.196860" lon="126.552859"><ele>54.0</ele><time>2022-09-25T04:25:23.000Z</time></trkpt>
      <trkpt lat="35.196939" lon="126.552719"><ele>53.0</ele><time>2022-09-25T04:25:33.000Z</time></trkpt>
      <trkpt lat="35.197008" lon="126.552656"><ele>53.0</ele><time>2022-09-25T04:25:40.000Z</time></trkpt>
      <trkpt lat="35.197110" lon="126.552570"><ele>52.0</ele><time>2022-09-25T04:25:50.000Z</time></trkpt>
      <trkpt lat="35.197170" lon="126.552512"><ele>51.0</ele><time>2022-09-25T04:25:57.000Z</time></trkpt>
      <trkpt lat="35.197217" lon="126.552419"><ele>50.0</ele><time>2022-09-25T04:26:05.000Z</time></trkpt>
      <trkpt lat="35.197290" lon="126.552322"><ele>49.0</ele><time>2022-09-25T04:26:14.000Z</time></trkpt>
      <trkpt lat="35.197339" lon="126.552227"><ele>46.0</ele><time>2022-09-25T04:26:22.000Z</time></trkpt>
      <trkpt lat="35.197391" lon="126.552120"><ele>45.0</ele><time>2022-09-25T04:26:30.000Z</time></trkpt>
      <trkpt lat="35.197450" lon="126.552023"><ele>44.0</ele><time>2022-09-25T04:26:38.000Z</time></trkpt>
      <trkpt lat="35.197542" lon="126.551937"><ele>44.0</ele><time>2022-09-25T04:26:47.000Z</time></trkpt>
      <trkpt lat="35.197596" lon="126.551869"><ele>43.0</ele><time>2022-09-25T04:26:54.000Z</time></trkpt>
      <trkpt lat="35.197673" lon="126.551738"><ele>43.0</ele><time>2022-09-25T04:27:05.000Z</time></trkpt>
      <trkpt lat="35.197735" lon="126.551671"><ele>44.0</ele><time>2022-09-25T04:27:12.000Z</time></trkpt>
      <trkpt lat="35.197804" lon="126.551614"><ele>43.0</ele><time>2022-09-25T04:27:20.000Z</time></trkpt>
      <trkpt lat="35.197870" lon="126.551543"><ele>44.0</ele><time>2022-09-25T04:27:28.000Z</time></trkpt>
      <trkpt lat="35.197946" lon="126.551529"><ele>44.0</ele><time>2022-09-25T04:27:36.000Z</time></trkpt>
      <trkpt lat="35.198018" lon="126.551474"><ele>44.0</ele><time>2022-09-25T04:27:53.000Z</time></trkpt>
      <trkpt lat="35.198126" lon="126.551434"><ele>44.0</ele><time>2022-09-25T04:28:07.000Z</time></trkpt>
      <trkpt lat="35.198213" lon="126.551392"><ele>44.0</ele><time>2022-09-25T04:28:15.000Z</time></trkpt>
      <trkpt lat="35.198326" lon="126.551340"><ele>44.0</ele><time>2022-09-25T04:28:26.000Z</time></trkpt>
      <trkpt lat="35.198438" lon="126.551288"><ele>44.0</ele><time>2022-09-25T04:28:37.000Z</time></trkpt>
      <trkpt lat="35.198538" lon="126.551258"><ele>44.0</ele><time>2022-09-25T04:28:43.000Z</time></trkpt>
      <trkpt lat="35.198614" lon="126.551214"><ele>44.0</ele><time>2022-09-25T04:28:51.000Z</time></trkpt>
      <trkpt lat="35.198689" lon="126.551174"><ele>44.0</ele><time>2022-09-25T04:29:00.000Z</time></trkpt>
      <trkpt lat="35.198744" lon="126.551112"><ele>44.0</ele><time>2022-09-25T04:29:09.000Z</time></trkpt>
      <trkpt lat="35.198833" lon="126.551047"><ele>44.0</ele><time>2022-09-25T04:30:19.000Z</time></trkpt>
      <trkpt lat="35.198916" lon="126.551024"><ele>45.0</ele><time>2022-09-25T04:30:26.000Z</time></trkpt>
      <trkpt lat="35.199021" lon="126.550998"><ele>44.0</ele><time>2022-09-25T04:30:35.000Z</time></trkpt>
      <trkpt lat="35.199110" lon="126.550975"><ele>44.0</ele><time>2022-09-25T04:30:42.000Z</time></trkpt>
      <trkpt lat="35.199208" lon="126.550959"><ele>45.0</ele><time>2022-09-25T04:30:50.000Z</time></trkpt>
      <trkpt lat="35.199331" lon="126.550928"><ele>45.0</ele><time>2022-09-25T04:31:00.000Z</time></trkpt>
      <trkpt lat="35.199419" lon="126.550888"><ele>45.0</ele><time>2022-09-25T04:31:08.000Z</time></trkpt>
      <trkpt lat="35.199492" lon="126.550837"><ele>45.0</ele><time>2022-09-25T04:31:16.000Z</time></trkpt>
      <trkpt lat="35.199570" lon="126.550773"><ele>45.0</ele><time>2022-09-25T04:31:24.000Z</time></trkpt>
      <trkpt lat="35.199646" lon="126.550711"><ele>45.0</ele><time>2022-09-25T04:31:36.000Z</time></trkpt>
      <trkpt lat="35.199734" lon="126.550668"><ele>45.0</ele><time>2022-09-25T04:31:44.000Z</time></trkpt>
      <trkpt lat="35.199814" lon="126.550622"><ele>45.0</ele><time>2022-09-25T04:31:53.000Z</time></trkpt>
      <trkpt lat="35.199880" lon="126.550567"><ele>44.0</ele><time>2022-09-25T04:32:01.000Z</time></trkpt>
      <trkpt lat="35.199930" lon="126.550468"><ele>43.0</ele><time>2022-09-25T04:32:15.000Z</time></trkpt>
      <trkpt lat="35.199964" lon="126.550367"><ele>43.0</ele><time>2022-09-25T04:32:26.000Z</time></trkpt>
      <trkpt lat="35.200004" lon="126.550265"><ele>41.0</ele><time>2022-09-25T04:32:54.000Z</time></trkpt>
      <trkpt lat="35.200069" lon="126.550124"><ele>41.0</ele><time>2022-09-25T04:33:12.000Z</time></trkpt>
      <trkpt lat="35.200091" lon="126.550038"><ele>40.0</ele><time>2022-09-25T04:33:19.000Z</time></trkpt>
      <trkpt lat="35.200120" lon="126.549913"><ele>39.0</ele><time>2022-09-25T04:33:28.000Z</time></trkpt>
      <trkpt lat="35.200104" lon="126.549778"><ele>39.0</ele><time>2022-09-25T04:33:38.000Z</time></trkpt>
      <trkpt lat="35.200141" lon="126.549693"><ele>39.0</ele><time>2022-09-25T04:33:50.000Z</time></trkpt>
      <trkpt lat="35.200220" lon="126.549686"><ele>41.0</ele><time>2022-09-25T04:34:08.000Z</time></trkpt>
      <trkpt lat="35.200306" lon="126.549682"><ele>43.0</ele><time>2022-09-25T04:34:22.000Z</time></trkpt>
      <trkpt lat="35.200381" lon="126.549669"><ele>43.0</ele><time>2022-09-25T04:34:34.000Z</time></trkpt>
      <trkpt lat="35.200436" lon="126.549612"><ele>43.0</ele><time>2022-09-25T04:34:42.000Z</time></trkpt>
      <trkpt lat="35.200492" lon="126.549555"><ele>44.0</ele><time>2022-09-25T04:34:50.000Z</time></trkpt>
      <trkpt lat="35.200575" lon="126.549520"><ele>43.0</ele><time>2022-09-25T04:34:59.000Z</time></trkpt>
      <trkpt lat="35.200643" lon="126.549470"><ele>43.0</ele><time>2022-09-25T04:35:08.000Z</time></trkpt>
      <trkpt lat="35.200697" lon="126.549384"><ele>43.0</ele><time>2022-09-25T04:35:21.000Z</time></trkpt>
      <trkpt lat="35.200787" lon="126.549401"><ele>43.0</ele><time>2022-09-25T04:35:31.000Z</time></trkpt>
      <trkpt lat="35.200814" lon="126.549499"><ele>43.0</ele><time>2022-09-25T04:35:41.000Z</time></trkpt>
      <trkpt lat="35.200817" lon="126.549596"><ele>44.0</ele><time>2022-09-25T04:35:48.000Z</time></trkpt>
      <trkpt lat="35.200836" lon="126.549709"><ele>45.0</ele><time>2022-09-25T04:35:57.000Z</time></trkpt>
      <trkpt lat="35.200772" lon="126.549775"><ele>45.0</ele><time>2022-09-25T04:36:05.000Z</time></trkpt>
      <trkpt lat="35.200688" lon="126.549799"><ele>45.0</ele><time>2022-09-25T04:36:14.000Z</time></trkpt>
      <trkpt lat="35.200785" lon="126.549733"><ele>44.0</ele><time>2022-09-25T04:36:38.000Z</time></trkpt>
      <trkpt lat="35.200789" lon="126.549626"><ele>43.0</ele><time>2022-09-25T04:37:49.000Z</time></trkpt>
      <trkpt lat="35.200789" lon="126.549626"><ele>43.0</ele><time>2022-09-25T04:38:01.000Z</time></trkpt>
    </trkseg>
  </trk>
</gpx>