<?xml version="1.0" encoding="UTF-8"?>
<gpx version="1.1" creator="gajago-nav" xmlns="http://www.topografix.com/GPX/1/1">
  <metadata><name>병풍산_20211023</name></metadata>
  <wpt lat="35.313590" lon="126.876188">
    <name>들머리 (주차장)</name>
    <ele>329</ele>
  </wpt>
  <wpt lat="35.320633" lon="126.880357">
    <name>갈림길</name>
  </wpt>
  <wpt lat="35.321781" lon="126.880930">
    <name>갈림길</name>
  </wpt>
  <wpt lat="35.324720" lon="126.885700">
    <name>병풍산</name>
    <ele>822</ele>
  </wpt>
  <wpt lat="35.315940" lon="126.881785">
    <name>갈림길</name>
  </wpt>
  <wpt lat="35.315850" lon="126.881650">
    <name>만남재</name>
  </wpt>
  <wpt lat="35.313023" lon="126.875734">
    <name>갈림길</name>
  </wpt>
  <wpt lat="35.312777" lon="126.875489">
    <name>날머리 (원점회귀)</name>
    <ele>312</ele>
  </wpt>
  <trk>
    <name>병풍산_20211023</name>
    <trkseg>
      <trkpt lat="35.313590" lon="126.876188"><ele>328.6</ele><time>2021-10-23T01:53:38.000Z</time></trkpt>
      <trkpt lat="35.313665" lon="126.876254"><ele>326.4</ele><time>2021-10-23T01:53:59.000Z</time></trkpt>
      <trkpt lat="35.313706" lon="126.876348"><ele>329.5</ele><time>2021-10-23T01:54:09.000Z</time></trkpt>
      <trkpt lat="35.313740" lon="126.876448"><ele>334.7</ele><time>2021-10-23T01:54:22.000Z</time></trkpt>
      <trkpt lat="35.313788" lon="126.876549"><ele>338.6</ele><time>2021-10-23T01:54:36.000Z</time></trkpt>
      <trkpt lat="35.313842" lon="126.876640"><ele>340.2</ele><time>2021-10-23T01:54:48.000Z</time></trkpt>
      <trkpt lat="35.313909" lon="126.876722"><ele>342.2</ele><time>2021-10-23T01:54:59.000Z</time></trkpt>
      <trkpt lat="35.313973" lon="126.876829"><ele>343.0</ele><time>2021-10-23T01:55:12.000Z</time></trkpt>
      <trkpt lat="35.314019" lon="126.876936"><ele>347.0</ele><time>2021-10-23T01:55:23.000Z</time></trkpt>
      <trkpt lat="35.314084" lon="126.877015"><ele>351.7</ele><time>2021-10-23T01:55:38.000Z</time></trkpt>
      <trkpt lat="35.314152" lon="126.877086"><ele>355.0</ele><time>2021-10-23T01:55:55.000Z</time></trkpt>
      <trkpt lat="35.314237" lon="126.877134"><ele>358.3</ele><time>2021-10-23T01:56:07.000Z</time></trkpt>
      <trkpt lat="35.314332" lon="126.877201"><ele>357.4</ele><time>2021-10-23T01:56:19.000Z</time></trkpt>
      <trkpt lat="35.314406" lon="126.877263"><ele>355.7</ele><time>2021-10-23T01:56:31.000Z</time></trkpt>
      <trkpt lat="35.314482" lon="126.877319"><ele>357.4</ele><time>2021-10-23T01:56:42.000Z</time></trkpt>
      <trkpt lat="35.314559" lon="126.877402"><ele>361.8</ele><time>2021-10-23T01:56:56.000Z</time></trkpt>
      <trkpt lat="35.314626" lon="126.877459"><ele>366.3</ele><time>2021-10-23T01:57:08.000Z</time></trkpt>
      <trkpt lat="35.314694" lon="126.877538"><ele>369.3</ele><time>2021-10-23T01:57:23.000Z</time></trkpt>
      <trkpt lat="35.314779" lon="126.877606"><ele>370.6</ele><time>2021-10-23T01:57:38.000Z</time></trkpt>
      <trkpt lat="35.314846" lon="126.877699"><ele>373.8</ele><time>2021-10-23T01:57:50.000Z</time></trkpt>
      <trkpt lat="35.314923" lon="126.877759"><ele>378.9</ele><time>2021-10-23T01:58:04.000Z</time></trkpt>
      <trkpt lat="35.314974" lon="126.877848"><ele>381.2</ele><time>2021-10-23T01:58:15.000Z</time></trkpt>
      <trkpt lat="35.315025" lon="126.877941"><ele>384.8</ele><time>2021-10-23T01:58:31.000Z</time></trkpt>
      <trkpt lat="35.315077" lon="126.878049"><ele>384.2</ele><time>2021-10-23T01:58:40.000Z</time></trkpt>
      <trkpt lat="35.315084" lon="126.878173"><ele>379.5</ele><time>2021-10-23T01:58:48.000Z</time></trkpt>
      <trkpt lat="35.315111" lon="126.878287"><ele>378.5</ele><time>2021-10-23T01:59:01.000Z</time></trkpt>
      <trkpt lat="35.315150" lon="126.878371"><ele>384.7</ele><time>2021-10-23T01:59:12.000Z</time></trkpt>
      <trkpt lat="35.315196" lon="126.878464"><ele>386.8</ele><time>2021-10-23T01:59:25.000Z</time></trkpt>
      <trkpt lat="35.315255" lon="126.878541"><ele>391.8</ele><time>2021-10-23T01:59:43.000Z</time></trkpt>
      <trkpt lat="35.315300" lon="126.878638"><ele>392.7</ele><time>2021-10-23T01:59:56.000Z</time></trkpt>
      <trkpt lat="35.315344" lon="126.878756"><ele>395.0</ele><time>2021-10-23T02:00:10.000Z</time></trkpt>
      <trkpt lat="35.315390" lon="126.878833"><ele>400.4</ele><time>2021-10-23T02:00:22.000Z</time></trkpt>
      <trkpt lat="35.315440" lon="126.878925"><ele>405.6</ele><time>2021-10-23T02:00:38.000Z</time></trkpt>
      <trkpt lat="35.315510" lon="126.878998"><ele>407.9</ele><time>2021-10-23T02:00:53.000Z</time></trkpt>
      <trkpt lat="35.315585" lon="126.879084"><ele>409.7</ele><time>2021-10-23T02:01:03.000Z</time></trkpt>
      <trkpt lat="35.315608" lon="126.879188"><ele>406.4</ele><time>2021-10-23T02:01:27.000Z</time></trkpt>
      <trkpt lat="35.315677" lon="126.879222"><ele>412.9</ele><time>2021-10-23T02:01:47.000Z</time></trkpt>
      <trkpt lat="35.315757" lon="126.879259"><ele>417.5</ele><time>2021-10-23T02:02:01.000Z</time></trkpt>
      <trkpt lat="35.315808" lon="126.879350"><ele>417.6</ele><time>2021-10-23T02:02:14.000Z</time></trkpt>
      <trkpt lat="35.315860" lon="126.879414"><ele>423.7</ele><time>2021-10-23T02:02:32.000Z</time></trkpt>
      <trkpt lat="35.315877" lon="126.879528"><ele>423.7</ele><time>2021-10-23T02:02:40.000Z</time></trkpt>
      <trkpt lat="35.315910" lon="126.879641"><ele>424.4</ele><time>2021-10-23T02:02:52.000Z</time></trkpt>
      <trkpt lat="35.315844" lon="126.879736"><ele>426.4</ele><time>2021-10-23T02:03:03.000Z</time></trkpt>
      <trkpt lat="35.315789" lon="126.879831"><ele>428.9</ele><time>2021-10-23T02:03:13.000Z</time></trkpt>
      <trkpt lat="35.315792" lon="126.879922"><ele>435.8</ele><time>2021-10-23T02:03:28.000Z</time></trkpt>
      <trkpt lat="35.315787" lon="126.880010"><ele>442.0</ele><time>2021-10-23T02:03:43.000Z</time></trkpt>
      <trkpt lat="35.315784" lon="126.880127"><ele>444.8</ele><time>2021-10-23T02:04:03.000Z</time></trkpt>
      <trkpt lat="35.315788" lon="126.880240"><ele>446.7</ele><time>2021-10-23T02:04:21.000Z</time></trkpt>
      <trkpt lat="35.315763" lon="126.880353"><ele>449.4</ele><time>2021-10-23T02:04:35.000Z</time></trkpt>
      <trkpt lat="35.315750" lon="126.880452"><ele>453.8</ele><time>2021-10-23T02:04:52.000Z</time></trkpt>
      <trkpt lat="35.315787" lon="126.880549"><ele>456.5</ele><time>2021-10-23T02:06:20.000Z</time></trkpt>
      <trkpt lat="35.315835" lon="126.880630"><ele>461.0</ele><time>2021-10-23T02:06:39.000Z</time></trkpt>
      <trkpt lat="35.315874" lon="126.880727"><ele>463.2</ele><time>2021-10-23T02:06:53.000Z</time></trkpt>
      <trkpt lat="35.315911" lon="126.880840"><ele>463.2</ele><time>2021-10-23T02:07:14.000Z</time></trkpt>
      <trkpt lat="35.315931" lon="126.880966"><ele>465.9</ele><time>2021-10-23T02:07:30.000Z</time></trkpt>
      <trkpt lat="35.315950" lon="126.881079"><ele>464.4</ele><time>2021-10-23T02:07:43.000Z</time></trkpt>
      <trkpt lat="35.315922" lon="126.881176"><ele>469.5</ele><time>2021-10-23T02:07:54.000Z</time></trkpt>
      <trkpt lat="35.315937" lon="126.881307"><ele>470.4</ele><time>2021-10-23T02:08:12.000Z</time></trkpt>
      <trkpt lat="35.315932" lon="126.881465"><ele>474.9</ele><time>2021-10-23T02:08:27.000Z</time></trkpt>
      <trkpt lat="35.315909" lon="126.881578"><ele>474.4</ele><time>2021-10-23T02:08:36.000Z</time></trkpt>
      <trkpt lat="35.315924" lon="126.881712"><ele>473.5</ele><time>2021-10-23T02:08:46.000Z</time></trkpt>
      <trkpt lat="35.316013" lon="126.881733"><ele>476.3</ele><time>2021-10-23T02:09:01.000Z</time></trkpt>
      <trkpt lat="35.316122" lon="126.881715"><ele>477.9</ele><time>2021-10-23T02:09:19.000Z</time></trkpt>
      <trkpt lat="35.316218" lon="126.881697"><ele>480.0</ele><time>2021-10-23T02:09:33.000Z</time></trkpt>
      <trkpt lat="35.316317" lon="126.881679"><ele>479.5</ele><time>2021-10-23T02:09:54.000Z</time></trkpt>
      <trkpt lat="35.316414" lon="126.881673"><ele>482.8</ele><time>2021-10-23T02:10:14.000Z</time></trkpt>
      <trkpt lat="35.316501" lon="126.881690"><ele>486.6</ele><time>2021-10-23T02:10:30.000Z</time></trkpt>
      <trkpt lat="35.316588" lon="126.881714"><ele>488.7</ele><time>2021-10-23T02:10:44.000Z</time></trkpt>
      <trkpt lat="35.316666" lon="126.881713"><ele>495.4</ele><time>2021-10-23T02:11:03.000Z</time></trkpt>
      <trkpt lat="35.316758" lon="126.881687"><ele>500.7</ele><time>2021-10-23T02:11:35.000Z</time></trkpt>
      <trkpt lat="35.316831" lon="126.881638"><ele>505.9</ele><time>2021-10-23T02:12:01.000Z</time></trkpt>
      <trkpt lat="35.316904" lon="126.881571"><ele>509.6</ele><time>2021-10-23T02:12:19.000Z</time></trkpt>
      <trkpt lat="35.316997" lon="126.881585"><ele>510.5</ele><time>2021-10-23T02:12:34.000Z</time></trkpt>
      <trkpt lat="35.317069" lon="126.881519"><ele>514.3</ele><time>2021-10-23T02:12:53.000Z</time></trkpt>
      <trkpt lat="35.317102" lon="126.881428"><ele>520.2</ele><time>2021-10-23T02:13:20.000Z</time></trkpt>
      <trkpt lat="35.317177" lon="126.881388"><ele>526.3</ele><time>2021-10-23T02:14:13.000Z</time></trkpt>
      <trkpt lat="35.317244" lon="126.881427"><ele>532.3</ele><time>2021-10-23T02:14:31.000Z</time></trkpt>
      <trkpt lat="35.317312" lon="126.881430"><ele>538.9</ele><time>2021-10-23T02:15:01.000Z</time></trkpt>
      <trkpt lat="35.317378" lon="126.881352"><ele>540.0</ele><time>2021-10-23T02:15:19.000Z</time></trkpt>
      <trkpt lat="35.317425" lon="126.881296"><ele>547.6</ele><time>2021-10-23T02:15:56.000Z</time></trkpt>
      <trkpt lat="35.317503" lon="126.881250"><ele>551.3</ele><time>2021-10-23T02:16:31.000Z</time></trkpt>
      <trkpt lat="35.317583" lon="126.881203"><ele>556.7</ele><time>2021-10-23T02:17:03.000Z</time></trkpt>
      <trkpt lat="35.317644" lon="126.881275"><ele>560.3</ele><time>2021-10-23T02:17:22.000Z</time></trkpt>
      <trkpt lat="35.317684" lon="126.881336"><ele>568.4</ele><time>2021-10-23T02:17:42.000Z</time></trkpt>
      <trkpt lat="35.317773" lon="126.881316"><ele>573.4</ele><time>2021-10-23T02:18:30.000Z</time></trkpt>
      <trkpt lat="35.317851" lon="126.881285"><ele>578.8</ele><time>2021-10-23T02:19:02.000Z</time></trkpt>
      <trkpt lat="35.317913" lon="126.881209"><ele>581.5</ele><time>2021-10-23T02:19:36.000Z</time></trkpt>
      <trkpt lat="35.317971" lon="126.881174"><ele>593.4</ele><time>2021-10-23T02:20:23.000Z</time></trkpt>
      <trkpt lat="35.318058" lon="126.881155"><ele>595.4</ele><time>2021-10-23T02:22:40.000Z</time></trkpt>
      <trkpt lat="35.318131" lon="126.881117"><ele>601.8</ele><time>2021-10-23T02:24:40.000Z</time></trkpt>
      <trkpt lat="35.318194" lon="126.881139"><ele>608.6</ele><time>2021-10-23T02:25:08.000Z</time></trkpt>
      <trkpt lat="35.318248" lon="126.881193"><ele>615.1</ele><time>2021-10-23T02:25:26.000Z</time></trkpt>
      <trkpt lat="35.318330" lon="126.881208"><ele>619.6</ele><time>2021-10-23T02:25:59.000Z</time></trkpt>
      <trkpt lat="35.318397" lon="126.881187"><ele>626.4</ele><time>2021-10-23T02:26:31.000Z</time></trkpt>
      <trkpt lat="35.318485" lon="126.881167"><ele>629.7</ele><time>2021-10-23T02:26:58.000Z</time></trkpt>
      <trkpt lat="35.318559" lon="126.881117"><ele>634.4</ele><time>2021-10-23T02:27:31.000Z</time></trkpt>
      <trkpt lat="35.318644" lon="126.881078"><ele>639.2</ele><time>2021-10-23T02:28:33.000Z</time></trkpt>
      <trkpt lat="35.318716" lon="126.881070"><ele>645.6</ele><time>2021-10-23T02:29:14.000Z</time></trkpt>
      <trkpt lat="35.318771" lon="126.880977"><ele>647.9</ele><time>2021-10-23T02:29:53.000Z</time></trkpt>
      <trkpt lat="35.318845" lon="126.881011"><ele>654.1</ele><time>2021-10-23T02:30:32.000Z</time></trkpt>
      <trkpt lat="35.318926" lon="126.880977"><ele>659.8</ele><time>2021-10-23T02:31:15.000Z</time></trkpt>
      <trkpt lat="35.319000" lon="126.880976"><ele>666.3</ele><time>2021-10-23T02:31:42.000Z</time></trkpt>
      <trkpt lat="35.319075" lon="126.880930"><ele>670.0</ele><time>2021-10-23T02:32:20.000Z</time></trkpt>
      <trkpt lat="35.319150" lon="126.880918"><ele>677.4</ele><time>2021-10-23T02:32:59.000Z</time></trkpt>
      <trkpt lat="35.319262" lon="126.880897"><ele>678.0</ele><time>2021-10-23T02:33:29.000Z</time></trkpt>
      <trkpt lat="35.319319" lon="126.880951"><ele>685.0</ele><time>2021-10-23T02:33:59.000Z</time></trkpt>
      <trkpt lat="35.319406" lon="126.880943"><ele>689.5</ele><time>2021-10-23T02:34:49.000Z</time></trkpt>
      <trkpt lat="35.319492" lon="126.880883"><ele>694.1</ele><time>2021-10-23T02:35:20.000Z</time></trkpt>
      <trkpt lat="35.319517" lon="126.880776"><ele>696.4</ele><time>2021-10-23T02:35:46.000Z</time></trkpt>
      <trkpt lat="35.319594" lon="126.880771"><ele>701.5</ele><time>2021-10-23T02:36:05.000Z</time></trkpt>
      <trkpt lat="35.319666" lon="126.880705"><ele>704.0</ele><time>2021-10-23T02:38:20.000Z</time></trkpt>
      <trkpt lat="35.319740" lon="126.880640"><ele>707.2</ele><time>2021-10-23T02:38:37.000Z</time></trkpt>
      <trkpt lat="35.319840" lon="126.880630"><ele>708.7</ele><time>2021-10-23T02:38:53.000Z</time></trkpt>
      <trkpt lat="35.319925" lon="126.880571"><ele>711.4</ele><time>2021-10-23T02:39:18.000Z</time></trkpt>
      <trkpt lat="35.320006" lon="126.880567"><ele>716.0</ele><time>2021-10-23T02:39:35.000Z</time></trkpt>
      <trkpt lat="35.320085" lon="126.880517"><ele>719.4</ele><time>2021-10-23T02:39:53.000Z</time></trkpt>
      <trkpt lat="35.320177" lon="126.880505"><ele>722.6</ele><time>2021-10-23T02:40:20.000Z</time></trkpt>
      <trkpt lat="35.320259" lon="126.880475"><ele>726.0</ele><time>2021-10-23T02:40:55.000Z</time></trkpt>
      <trkpt lat="35.320347" lon="126.880461"><ele>730.3</ele><time>2021-10-23T02:41:47.000Z</time></trkpt>
      <trkpt lat="35.320415" lon="126.880423"><ele>735.8</ele><time>2021-10-23T02:42:27.000Z</time></trkpt>
      <trkpt lat="35.320499" lon="126.880417"><ele>739.8</ele><time>2021-10-23T02:42:55.000Z</time></trkpt>
      <trkpt lat="35.320575" lon="126.880372"><ele>744.6</ele><time>2021-10-23T02:43:21.000Z</time></trkpt>
      <trkpt lat="35.320584" lon="126.880361"><ele>743.5</ele><time>2021-10-23T02:47:26.000Z</time></trkpt>
      <trkpt lat="35.320758" lon="126.880445"><ele>744.1</ele><time>2021-10-23T02:55:38.000Z</time></trkpt>
      <trkpt lat="35.320851" lon="126.880482"><ele>744.7</ele><time>2021-10-23T02:55:47.000Z</time></trkpt>
      <trkpt lat="35.320924" lon="126.880569"><ele>745.1</ele><time>2021-10-23T02:56:04.000Z</time></trkpt>
      <trkpt lat="35.320989" lon="126.880668"><ele>744.8</ele><time>2021-10-23T02:56:13.000Z</time></trkpt>
      <trkpt lat="35.321072" lon="126.880721"><ele>742.6</ele><time>2021-10-23T02:56:23.000Z</time></trkpt>
      <trkpt lat="35.321154" lon="126.880763"><ele>739.8</ele><time>2021-10-23T02:57:10.000Z</time></trkpt>
      <trkpt lat="35.321226" lon="126.880836"><ele>738.3</ele><time>2021-10-23T02:57:20.000Z</time></trkpt>
      <trkpt lat="35.321299" lon="126.880889"><ele>735.0</ele><time>2021-10-23T02:57:41.000Z</time></trkpt>
      <trkpt lat="35.321395" lon="126.880871"><ele>734.2</ele><time>2021-10-23T02:58:20.000Z</time></trkpt>
      <trkpt lat="35.321491" lon="126.880870"><ele>737.5</ele><time>2021-10-23T02:58:36.000Z</time></trkpt>
      <trkpt lat="35.321585" lon="126.880861"><ele>740.8</ele><time>2021-10-23T02:59:08.000Z</time></trkpt>
      <trkpt lat="35.321685" lon="126.880856"><ele>743.0</ele><time>2021-10-23T02:59:23.000Z</time></trkpt>
      <trkpt lat="35.321758" lon="126.880939"><ele>741.1</ele><time>2021-10-23T02:59:35.000Z</time></trkpt>
      <trkpt lat="35.321820" lon="126.881019"><ele>738.5</ele><time>2021-10-23T02:59:44.000Z</time></trkpt>
      <trkpt lat="35.321869" lon="126.881129"><ele>738.6</ele><time>2021-10-23T03:00:30.000Z</time></trkpt>
      <trkpt lat="35.321942" lon="126.881214"><ele>740.2</ele><time>2021-10-23T03:00:51.000Z</time></trkpt>
      <trkpt lat="35.321963" lon="126.881313"><ele>744.7</ele><time>2021-10-23T03:01:09.000Z</time></trkpt>
      <trkpt lat="35.321975" lon="126.881417"><ele>748.3</ele><time>2021-10-23T03:01:22.000Z</time></trkpt>
      <trkpt lat="35.321954" lon="126.881525"><ele>750.3</ele><time>2021-10-23T03:01:35.000Z</time></trkpt>
      <trkpt lat="35.321963" lon="126.881634"><ele>752.1</ele><time>2021-10-23T03:01:50.000Z</time></trkpt>
      <trkpt lat="35.321987" lon="126.881744"><ele>753.3</ele><time>2021-10-23T03:02:25.000Z</time></trkpt>
      <trkpt lat="35.322080" lon="126.881808"><ele>751.9</ele><time>2021-10-23T03:03:44.000Z</time></trkpt>
      <trkpt lat="35.322160" lon="126.881863"><ele>753.6</ele><time>2021-10-23T03:04:00.000Z</time></trkpt>
      <trkpt lat="35.322241" lon="126.881950"><ele>756.7</ele><time>2021-10-23T03:04:11.000Z</time></trkpt>
      <trkpt lat="35.322299" lon="126.882039"><ele>761.2</ele><time>2021-10-23T03:04:25.000Z</time></trkpt>
      <trkpt lat="35.322316" lon="126.882148"><ele>762.7</ele><time>2021-10-23T03:04:34.000Z</time></trkpt>
      <trkpt lat="35.322366" lon="126.882239"><ele>765.9</ele><time>2021-10-23T03:04:51.000Z</time></trkpt>
      <trkpt lat="35.322379" lon="126.882341"><ele>770.2</ele><time>2021-10-23T03:05:10.000Z</time></trkpt>
      <trkpt lat="35.322403" lon="126.882451"><ele>772.0</ele><time>2021-10-23T03:05:32.000Z</time></trkpt>
      <trkpt lat="35.322438" lon="126.882554"><ele>774.8</ele><time>2021-10-23T03:05:50.000Z</time></trkpt>
      <trkpt lat="35.322517" lon="126.882626"><ele>776.4</ele><time>2021-10-23T03:06:42.000Z</time></trkpt>
      <trkpt lat="35.322605" lon="126.882694"><ele>778.3</ele><time>2021-10-23T03:06:59.000Z</time></trkpt>
      <trkpt lat="35.322678" lon="126.882759"><ele>781.0</ele><time>2021-10-23T03:07:14.000Z</time></trkpt>
      <trkpt lat="35.322758" lon="126.882805"><ele>783.6</ele><time>2021-10-23T03:07:37.000Z</time></trkpt>
      <trkpt lat="35.322764" lon="126.882919"><ele>784.9</ele><time>2021-10-23T03:08:29.000Z</time></trkpt>
      <trkpt lat="35.322782" lon="126.883049"><ele>789.9</ele><time>2021-10-23T03:08:56.000Z</time></trkpt>
      <trkpt lat="35.322806" lon="126.883152"><ele>792.7</ele><time>2021-10-23T03:09:08.000Z</time></trkpt>
      <trkpt lat="35.322779" lon="126.883250"><ele>798.0</ele><time>2021-10-23T03:09:29.000Z</time></trkpt>
      <trkpt lat="35.322776" lon="126.883329"><ele>805.3</ele><time>2021-10-23T03:10:23.000Z</time></trkpt>
      <trkpt lat="35.322855" lon="126.883369"><ele>809.6</ele><time>2021-10-23T03:11:54.000Z</time></trkpt>
      <trkpt lat="35.322937" lon="126.883343"><ele>814.2</ele><time>2021-10-23T03:12:33.000Z</time></trkpt>
      <trkpt lat="35.322989" lon="126.883435"><ele>815.4</ele><time>2021-10-23T03:13:16.000Z</time></trkpt>
      <trkpt lat="35.323065" lon="126.883474"><ele>819.6</ele><time>2021-10-23T03:13:46.000Z</time></trkpt>
      <trkpt lat="35.323129" lon="126.883547"><ele>823.6</ele><time>2021-10-23T03:14:05.000Z</time></trkpt>
      <trkpt lat="35.323228" lon="126.883540"><ele>827.1</ele><time>2021-10-23T03:14:26.000Z</time></trkpt>
      <trkpt lat="35.323271" lon="126.883661"><ele>825.9</ele><time>2021-10-23T03:14:40.000Z</time></trkpt>
      <trkpt lat="35.323322" lon="126.883752"><ele>827.2</ele><time>2021-10-23T03:14:54.000Z</time></trkpt>
      <trkpt lat="35.323398" lon="126.883825"><ele>826.5</ele><time>2021-10-23T03:15:07.000Z</time></trkpt>
      <trkpt lat="35.323474" lon="126.883902"><ele>825.8</ele><time>2021-10-23T03:15:19.000Z</time></trkpt>
      <trkpt lat="35.323540" lon="126.883988"><ele>822.6</ele><time>2021-10-23T03:15:30.000Z</time></trkpt>
      <trkpt lat="35.323596" lon="126.884075"><ele>818.5</ele><time>2021-10-23T03:15:46.000Z</time></trkpt>
      <trkpt lat="35.323683" lon="126.884135"><ele>817.3</ele><time>2021-10-23T03:16:01.000Z</time></trkpt>
      <trkpt lat="35.323740" lon="126.884215"><ele>813.3</ele><time>2021-10-23T03:16:23.000Z</time></trkpt>
      <trkpt lat="35.323821" lon="126.884274"><ele>815.1</ele><time>2021-10-23T03:16:42.000Z</time></trkpt>
      <trkpt lat="35.323888" lon="126.884349"><ele>817.6</ele><time>2021-10-23T03:16:57.000Z</time></trkpt>
      <trkpt lat="35.323962" lon="126.884426"><ele>820.5</ele><time>2021-10-23T03:17:13.000Z</time></trkpt>
      <trkpt lat="35.324014" lon="126.884518"><ele>822.6</ele><time>2021-10-23T03:17:24.000Z</time></trkpt>
      <trkpt lat="35.324084" lon="126.884597"><ele>823.9</ele><time>2021-10-23T03:17:42.000Z</time></trkpt>
      <trkpt lat="35.324119" lon="126.884697"><ele>827.7</ele><time>2021-10-23T03:18:00.000Z</time></trkpt>
      <trkpt lat="35.324134" lon="126.884798"><ele>832.2</ele><time>2021-10-23T03:19:07.000Z</time></trkpt>
      <trkpt lat="35.324216" lon="126.884860"><ele>833.4</ele><time>2021-10-23T03:19:45.000Z</time></trkpt>
      <trkpt lat="35.324309" lon="126.884894"><ele>830.9</ele><time>2021-10-23T03:20:00.000Z</time></trkpt>
      <trkpt lat="35.324396" lon="126.884954"><ele>830.5</ele><time>2021-10-23T03:20:10.000Z</time></trkpt>
      <trkpt lat="35.324462" lon="126.885055"><ele>831.8</ele><time>2021-10-23T03:20:23.000Z</time></trkpt>
      <trkpt lat="35.324508" lon="126.885169"><ele>830.6</ele><time>2021-10-23T03:20:34.000Z</time></trkpt>
      <trkpt lat="35.324580" lon="126.885244"><ele>834.1</ele><time>2021-10-23T03:20:49.000Z</time></trkpt>
      <trkpt lat="35.324535" lon="126.885364"><ele>835.7</ele><time>2021-10-23T03:21:09.000Z</time></trkpt>
      <trkpt lat="35.324560" lon="126.885465"><ele>841.0</ele><time>2021-10-23T03:21:35.000Z</time></trkpt>
      <trkpt lat="35.324598" lon="126.885552"><ele>845.9</ele><time>2021-10-23T03:21:59.000Z</time></trkpt>
      <trkpt lat="35.324638" lon="126.885648"><ele>848.2</ele><time>2021-10-23T03:22:22.000Z</time></trkpt>
      <trkpt lat="35.324722" lon="126.885671"><ele>845.0</ele><time>2021-10-23T03:24:14.000Z</time></trkpt>
      <trkpt lat="35.324630" lon="126.885638"><ele>846.2</ele><time>2021-10-23T03:25:35.000Z</time></trkpt>
      <trkpt lat="35.324632" lon="126.885641"><ele>846.7</ele><time>2021-10-23T03:26:34.000Z</time></trkpt>
      <trkpt lat="35.324558" lon="126.885436"><ele>842.2</ele><time>2021-10-23T03:30:08.000Z</time></trkpt>
      <trkpt lat="35.324546" lon="126.885338"><ele>836.3</ele><time>2021-10-23T03:30:29.000Z</time></trkpt>
      <trkpt lat="35.324528" lon="126.885232"><ele>834.1</ele><time>2021-10-23T03:30:50.000Z</time></trkpt>
      <trkpt lat="35.324456" lon="126.885145"><ele>828.0</ele><time>2021-10-23T03:31:08.000Z</time></trkpt>
      <trkpt lat="35.324407" lon="126.885052"><ele>828.5</ele><time>2021-10-23T03:31:17.000Z</time></trkpt>
      <trkpt lat="35.324335" lon="126.884977"><ele>828.3</ele><time>2021-10-23T03:31:30.000Z</time></trkpt>
      <trkpt lat="35.324250" lon="126.885023"><ele>830.1</ele><time>2021-10-23T03:32:02.000Z</time></trkpt>
      <trkpt lat="35.324226" lon="126.885032"><ele>830.3</ele><time>2021-10-23T03:36:16.000Z</time></trkpt>
      <trkpt lat="35.324138" lon="126.884821"><ele>829.5</ele><time>2021-10-23T04:09:15.000Z</time></trkpt>
      <trkpt lat="35.324097" lon="126.884712"><ele>827.1</ele><time>2021-10-23T04:09:36.000Z</time></trkpt>
      <trkpt lat="35.324051" lon="126.884622"><ele>824.0</ele><time>2021-10-23T04:09:56.000Z</time></trkpt>
      <trkpt lat="35.323986" lon="126.884539"><ele>819.8</ele><time>2021-10-23T04:10:10.000Z</time></trkpt>
      <trkpt lat="35.323917" lon="126.884454"><ele>816.9</ele><time>2021-10-23T04:10:23.000Z</time></trkpt>
      <trkpt lat="35.323842" lon="126.884357"><ele>814.8</ele><time>2021-10-23T04:10:40.000Z</time></trkpt>
      <trkpt lat="35.323771" lon="126.884282"><ele>813.0</ele><time>2021-10-23T04:10:54.000Z</time></trkpt>
      <trkpt lat="35.323693" lon="126.884227"><ele>815.9</ele><time>2021-10-23T04:11:06.000Z</time></trkpt>
      <trkpt lat="35.323624" lon="126.884134"><ele>819.0</ele><time>2021-10-23T04:11:20.000Z</time></trkpt>
      <trkpt lat="35.323565" lon="126.884059"><ele>822.9</ele><time>2021-10-23T04:11:33.000Z</time></trkpt>
      <trkpt lat="35.323498" lon="126.883980"><ele>823.4</ele><time>2021-10-23T04:11:44.000Z</time></trkpt>
      <trkpt lat="35.323413" lon="126.883885"><ele>824.8</ele><time>2021-10-23T04:11:59.000Z</time></trkpt>
      <trkpt lat="35.323318" lon="126.883787"><ele>824.6</ele><time>2021-10-23T04:12:11.000Z</time></trkpt>
      <trkpt lat="35.323259" lon="126.883674"><ele>823.5</ele><time>2021-10-23T04:12:21.000Z</time></trkpt>
      <trkpt lat="35.323213" lon="126.883577"><ele>823.3</ele><time>2021-10-23T04:12:32.000Z</time></trkpt>
      <trkpt lat="35.323120" lon="126.883593"><ele>819.1</ele><time>2021-10-23T04:12:44.000Z</time></trkpt>
      <trkpt lat="35.323053" lon="126.883508"><ele>818.4</ele><time>2021-10-23T04:12:55.000Z</time></trkpt>
      <trkpt lat="35.322961" lon="126.883475"><ele>817.6</ele><time>2021-10-23T04:13:14.000Z</time></trkpt>
      <trkpt lat="35.322946" lon="126.883365"><ele>814.5</ele><time>2021-10-23T04:13:37.000Z</time></trkpt>
      <trkpt lat="35.322867" lon="126.883378"><ele>809.3</ele><time>2021-10-23T04:13:56.000Z</time></trkpt>
      <trkpt lat="35.322787" lon="126.883338"><ele>805.2</ele><time>2021-10-23T04:14:21.000Z</time></trkpt>
      <trkpt lat="35.322710" lon="126.883297"><ele>799.6</ele><time>2021-10-23T04:14:44.000Z</time></trkpt>
      <trkpt lat="35.322780" lon="126.883214"><ele>797.0</ele><time>2021-10-23T04:14:58.000Z</time></trkpt>
      <trkpt lat="35.322784" lon="126.883113"><ele>792.1</ele><time>2021-10-23T04:15:25.000Z</time></trkpt>
      <trkpt lat="35.322754" lon="126.883020"><ele>785.7</ele><time>2021-10-23T04:16:11.000Z</time></trkpt>
      <trkpt lat="35.322753" lon="126.882906"><ele>783.2</ele><time>2021-10-23T04:16:28.000Z</time></trkpt>
      <trkpt lat="35.322708" lon="126.882797"><ele>781.0</ele><time>2021-10-23T04:16:44.000Z</time></trkpt>
      <trkpt lat="35.322632" lon="126.882729"><ele>777.0</ele><time>2021-10-23T04:17:00.000Z</time></trkpt>
      <trkpt lat="35.322528" lon="126.882660"><ele>774.3</ele><time>2021-10-23T04:17:14.000Z</time></trkpt>
      <trkpt lat="35.322480" lon="126.882566"><ele>772.3</ele><time>2021-10-23T04:17:24.000Z</time></trkpt>
      <trkpt lat="35.322409" lon="126.882491"><ele>771.4</ele><time>2021-10-23T04:17:33.000Z</time></trkpt>
      <trkpt lat="35.322375" lon="126.882383"><ele>768.9</ele><time>2021-10-23T04:17:45.000Z</time></trkpt>
      <trkpt lat="35.322340" lon="126.882290"><ele>763.5</ele><time>2021-10-23T04:18:07.000Z</time></trkpt>
      <trkpt lat="35.322281" lon="126.882204"><ele>757.8</ele><time>2021-10-23T04:18:24.000Z</time></trkpt>
      <trkpt lat="35.322264" lon="126.882086"><ele>756.0</ele><time>2021-10-23T04:18:41.000Z</time></trkpt>
      <trkpt lat="35.322228" lon="126.881982"><ele>753.5</ele><time>2021-10-23T04:18:52.000Z</time></trkpt>
      <trkpt lat="35.322165" lon="126.881902"><ele>749.1</ele><time>2021-10-23T04:19:05.000Z</time></trkpt>
      <trkpt lat="35.322081" lon="126.881834"><ele>748.0</ele><time>2021-10-23T04:19:19.000Z</time></trkpt>
      <trkpt lat="35.322026" lon="126.881738"><ele>747.7</ele><time>2021-10-23T04:19:32.000Z</time></trkpt>
      <trkpt lat="35.321956" lon="126.881644"><ele>748.1</ele><time>2021-10-23T04:19:41.000Z</time></trkpt>
      <trkpt lat="35.321938" lon="126.881527"><ele>745.2</ele><time>2021-10-23T04:19:54.000Z</time></trkpt>
      <trkpt lat="35.321958" lon="126.881403"><ele>743.9</ele><time>2021-10-23T04:20:09.000Z</time></trkpt>
      <trkpt lat="35.321940" lon="126.881295"><ele>740.4</ele><time>2021-10-23T04:20:33.000Z</time></trkpt>
      <trkpt lat="35.321911" lon="126.881201"><ele>736.2</ele><time>2021-10-23T04:20:51.000Z</time></trkpt>
      <trkpt lat="35.321857" lon="126.881104"><ele>734.0</ele><time>2021-10-23T04:21:03.000Z</time></trkpt>
      <trkpt lat="35.321776" lon="126.881161"><ele>730.5</ele><time>2021-10-23T04:21:19.000Z</time></trkpt>
      <trkpt lat="35.321694" lon="126.881236"><ele>728.9</ele><time>2021-10-23T04:21:36.000Z</time></trkpt>
      <trkpt lat="35.321611" lon="126.881282"><ele>724.3</ele><time>2021-10-23T04:22:00.000Z</time></trkpt>
      <trkpt lat="35.321520" lon="126.881302"><ele>724.8</ele><time>2021-10-23T04:22:19.000Z</time></trkpt>
      <trkpt lat="35.321463" lon="126.881350"><ele>717.2</ele><time>2021-10-23T04:22:45.000Z</time></trkpt>
      <trkpt lat="35.321432" lon="126.881430"><ele>710.2</ele><time>2021-10-23T04:23:05.000Z</time></trkpt>
      <trkpt lat="35.321410" lon="126.881546"><ele>707.7</ele><time>2021-10-23T04:23:21.000Z</time></trkpt>
      <trkpt lat="35.321364" lon="126.881615"><ele>699.7</ele><time>2021-10-23T04:23:47.000Z</time></trkpt>
      <trkpt lat="35.321286" lon="126.881672"><ele>699.3</ele><time>2021-10-23T04:24:06.000Z</time></trkpt>
      <trkpt lat="35.321199" lon="126.881690"><ele>696.6</ele><time>2021-10-23T04:24:28.000Z</time></trkpt>
      <trkpt lat="35.321179" lon="126.881786"><ele>690.7</ele><time>2021-10-23T04:24:46.000Z</time></trkpt>
      <trkpt lat="35.321154" lon="126.881873"><ele>684.9</ele><time>2021-10-23T04:25:00.000Z</time></trkpt>
      <trkpt lat="35.321080" lon="126.881921"><ele>679.7</ele><time>2021-10-23T04:25:21.000Z</time></trkpt>
      <trkpt lat="35.321027" lon="126.881990"><ele>674.4</ele><time>2021-10-23T04:25:42.000Z</time></trkpt>
      <trkpt lat="35.320971" lon="126.882086"><ele>672.7</ele><time>2021-10-23T04:26:03.000Z</time></trkpt>
      <trkpt lat="35.320892" lon="126.882124"><ele>665.7</ele><time>2021-10-23T04:26:20.000Z</time></trkpt>
      <trkpt lat="35.320799" lon="126.882128"><ele>662.6</ele><time>2021-10-23T04:26:42.000Z</time></trkpt>
      <trkpt lat="35.320762" lon="126.882201"><ele>649.6</ele><time>2021-10-23T04:27:08.000Z</time></trkpt>
      <trkpt lat="35.320699" lon="126.882250"><ele>644.0</ele><time>2021-10-23T04:27:27.000Z</time></trkpt>
      <trkpt lat="35.320632" lon="126.882330"><ele>644.5</ele><time>2021-10-23T04:27:45.000Z</time></trkpt>
      <trkpt lat="35.320553" lon="126.882332"><ele>639.4</ele><time>2021-10-23T04:28:05.000Z</time></trkpt>
      <trkpt lat="35.320510" lon="126.882427"><ele>633.8</ele><time>2021-10-23T04:28:30.000Z</time></trkpt>
      <trkpt lat="35.320462" lon="126.882512"><ele>630.1</ele><time>2021-10-23T04:28:51.000Z</time></trkpt>
      <trkpt lat="35.320401" lon="126.882551"><ele>621.7</ele><time>2021-10-23T04:29:23.000Z</time></trkpt>
      <trkpt lat="35.320355" lon="126.882628"><ele>616.6</ele><time>2021-10-23T04:29:46.000Z</time></trkpt>
      <trkpt lat="35.320310" lon="126.882723"><ele>611.0</ele><time>2021-10-23T04:30:18.000Z</time></trkpt>
      <trkpt lat="35.320278" lon="126.882815"><ele>605.4</ele><time>2021-10-23T04:30:32.000Z</time></trkpt>
      <trkpt lat="35.320240" lon="126.882927"><ele>599.9</ele><time>2021-10-23T04:30:46.000Z</time></trkpt>
      <trkpt lat="35.320209" lon="126.883019"><ele>595.5</ele><time>2021-10-23T04:30:57.000Z</time></trkpt>
      <trkpt lat="35.320136" lon="126.883083"><ele>597.3</ele><time>2021-10-23T04:31:11.000Z</time></trkpt>
      <trkpt lat="35.320064" lon="126.883126"><ele>591.3</ele><time>2021-10-23T04:31:36.000Z</time></trkpt>
      <trkpt lat="35.319975" lon="126.883156"><ele>592.0</ele><time>2021-10-23T04:32:03.000Z</time></trkpt>
      <trkpt lat="35.319914" lon="126.883185"><ele>581.4</ele><time>2021-10-23T04:32:24.000Z</time></trkpt>
      <trkpt lat="35.319869" lon="126.883258"><ele>575.1</ele><time>2021-10-23T04:32:40.000Z</time></trkpt>
      <trkpt lat="35.319800" lon="126.883335"><ele>575.9</ele><time>2021-10-23T04:32:58.000Z</time></trkpt>
      <trkpt lat="35.319739" lon="126.883384"><ele>568.9</ele><time>2021-10-23T04:33:11.000Z</time></trkpt>
      <trkpt lat="35.319660" lon="126.883430"><ele>566.5</ele><time>2021-10-23T04:33:25.000Z</time></trkpt>
      <trkpt lat="35.319595" lon="126.883406"><ele>558.7</ele><time>2021-10-23T04:33:54.000Z</time></trkpt>
      <trkpt lat="35.319495" lon="126.883443"><ele>554.7</ele><time>2021-10-23T04:34:15.000Z</time></trkpt>
      <trkpt lat="35.319416" lon="126.883391"><ele>548.8</ele><time>2021-10-23T04:34:34.000Z</time></trkpt>
      <trkpt lat="35.319335" lon="126.883396"><ele>544.2</ele><time>2021-10-23T04:34:50.000Z</time></trkpt>
      <trkpt lat="35.319240" lon="126.883409"><ele>541.7</ele><time>2021-10-23T04:35:01.000Z</time></trkpt>
      <trkpt lat="35.319120" lon="126.883425"><ele>537.9</ele><time>2021-10-23T04:35:14.000Z</time></trkpt>
      <trkpt lat="35.318994" lon="126.883441"><ele>536.3</ele><time>2021-10-23T04:35:22.000Z</time></trkpt>
      <trkpt lat="35.318895" lon="126.883429"><ele>537.0</ele><time>2021-10-23T04:35:33.000Z</time></trkpt>
      <trkpt lat="35.318805" lon="126.883416"><ele>536.1</ele><time>2021-10-23T04:35:44.000Z</time></trkpt>
      <trkpt lat="35.318686" lon="126.883370"><ele>533.0</ele><time>2021-10-23T04:35:54.000Z</time></trkpt>
      <trkpt lat="35.318578" lon="126.883370"><ele>533.1</ele><time>2021-10-23T04:36:04.000Z</time></trkpt>
      <trkpt lat="35.318488" lon="126.883359"><ele>531.3</ele><time>2021-10-23T04:36:10.000Z</time></trkpt>
      <trkpt lat="35.318394" lon="126.883327"><ele>529.8</ele><time>2021-10-23T04:36:19.000Z</time></trkpt>
      <trkpt lat="35.318285" lon="126.883300"><ele>528.3</ele><time>2021-10-23T04:36:29.000Z</time></trkpt>
      <trkpt lat="35.318187" lon="126.883242"><ele>527.8</ele><time>2021-10-23T04:36:37.000Z</time></trkpt>
      <trkpt lat="35.318100" lon="126.883199"><ele>527.1</ele><time>2021-10-23T04:36:43.000Z</time></trkpt>
      <trkpt lat="35.318009" lon="126.883135"><ele>526.6</ele><time>2021-10-23T04:36:51.000Z</time></trkpt>
      <trkpt lat="35.317948" lon="126.883040"><ele>524.6</ele><time>2021-10-23T04:36:58.000Z</time></trkpt>
      <trkpt lat="35.317859" lon="126.883021"><ele>524.5</ele><time>2021-10-23T04:37:09.000Z</time></trkpt>
      <trkpt lat="35.317768" lon="126.882987"><ele>521.7</ele><time>2021-10-23T04:37:21.000Z</time></trkpt>
      <trkpt lat="35.317669" lon="126.882969"><ele>518.0</ele><time>2021-10-23T04:37:33.000Z</time></trkpt>
      <trkpt lat="35.317582" lon="126.882932"><ele>514.6</ele><time>2021-10-23T04:37:44.000Z</time></trkpt>
      <trkpt lat="35.317494" lon="126.882871"><ele>510.4</ele><time>2021-10-23T04:37:52.000Z</time></trkpt>
      <trkpt lat="35.317409" lon="126.882796"><ele>509.1</ele><time>2021-10-23T04:38:00.000Z</time></trkpt>
      <trkpt lat="35.317334" lon="126.882726"><ele>506.3</ele><time>2021-10-23T04:38:09.000Z</time></trkpt>
      <trkpt lat="35.317287" lon="126.882632"><ele>504.0</ele><time>2021-10-23T04:38:23.000Z</time></trkpt>
      <trkpt lat="35.317197" lon="126.882582"><ele>498.4</ele><time>2021-10-23T04:39:07.000Z</time></trkpt>
      <trkpt lat="35.317097" lon="126.882521"><ele>497.2</ele><time>2021-10-23T04:39:15.000Z</time></trkpt>
      <trkpt lat="35.317027" lon="126.882414"><ele>493.8</ele><time>2021-10-23T04:39:26.000Z</time></trkpt>
      <trkpt lat="35.316921" lon="126.882407"><ele>495.0</ele><time>2021-10-23T04:39:40.000Z</time></trkpt>
      <trkpt lat="35.316824" lon="126.882380"><ele>493.3</ele><time>2021-10-23T04:39:50.000Z</time></trkpt>
      <trkpt lat="35.316725" lon="126.882359"><ele>490.5</ele><time>2021-10-23T04:39:59.000Z</time></trkpt>
      <trkpt lat="35.316612" lon="126.882315"><ele>486.6</ele><time>2021-10-23T04:40:10.000Z</time></trkpt>
      <trkpt lat="35.316528" lon="126.882241"><ele>484.7</ele><time>2021-10-23T04:40:18.000Z</time></trkpt>
      <trkpt lat="35.316451" lon="126.882182"><ele>484.5</ele><time>2021-10-23T04:40:27.000Z</time></trkpt>
      <trkpt lat="35.316365" lon="126.882140"><ele>483.5</ele><time>2021-10-23T04:40:37.000Z</time></trkpt>
      <trkpt lat="35.316294" lon="126.882077"><ele>479.7</ele><time>2021-10-23T04:40:45.000Z</time></trkpt>
      <trkpt lat="35.316208" lon="126.882039"><ele>476.8</ele><time>2021-10-23T04:40:53.000Z</time></trkpt>
      <trkpt lat="35.316120" lon="126.881999"><ele>476.7</ele><time>2021-10-23T04:41:02.000Z</time></trkpt>
      <trkpt lat="35.316026" lon="126.881910"><ele>472.4</ele><time>2021-10-23T04:41:12.000Z</time></trkpt>
      <trkpt lat="35.315945" lon="126.881862"><ele>474.0</ele><time>2021-10-23T04:41:19.000Z</time></trkpt>
      <trkpt lat="35.315883" lon="126.881765"><ele>472.7</ele><time>2021-10-23T04:41:27.000Z</time></trkpt>
      <trkpt lat="35.315856" lon="126.881635"><ele>473.5</ele><time>2021-10-23T04:41:38.000Z</time></trkpt>
      <trkpt lat="35.315864" lon="126.881511"><ele>474.7</ele><time>2021-10-23T04:41:49.000Z</time></trkpt>
      <trkpt lat="35.315878" lon="126.881392"><ele>473.8</ele><time>2021-10-23T04:42:02.000Z</time></trkpt>
      <trkpt lat="35.315847" lon="126.881278"><ele>472.0</ele><time>2021-10-23T04:42:23.000Z</time></trkpt>
      <trkpt lat="35.315789" lon="126.881160"><ele>467.1</ele><time>2021-10-23T04:42:45.000Z</time></trkpt>
      <trkpt lat="35.315851" lon="126.881080"><ele>465.5</ele><time>2021-10-23T04:42:55.000Z</time></trkpt>
      <trkpt lat="35.315854" lon="126.880966"><ele>466.1</ele><time>2021-10-23T04:43:13.000Z</time></trkpt>
      <trkpt lat="35.315806" lon="126.880866"><ele>463.4</ele><time>2021-10-23T04:43:34.000Z</time></trkpt>
      <trkpt lat="35.315788" lon="126.880785"><ele>455.4</ele><time>2021-10-23T04:43:52.000Z</time></trkpt>
      <trkpt lat="35.315740" lon="126.880695"><ele>452.0</ele><time>2021-10-23T04:44:08.000Z</time></trkpt>
      <trkpt lat="35.315693" lon="126.880598"><ele>450.8</ele><time>2021-10-23T04:44:28.000Z</time></trkpt>
      <trkpt lat="35.315670" lon="126.880488"><ele>447.9</ele><time>2021-10-23T04:44:40.000Z</time></trkpt>
      <trkpt lat="35.315688" lon="126.880373"><ele>444.5</ele><time>2021-10-23T04:44:51.000Z</time></trkpt>
      <trkpt lat="35.315687" lon="126.880255"><ele>443.4</ele><time>2021-10-23T04:45:08.000Z</time></trkpt>
      <trkpt lat="35.315668" lon="126.880142"><ele>441.0</ele><time>2021-10-23T04:45:22.000Z</time></trkpt>
      <trkpt lat="35.315660" lon="126.880031"><ele>433.2</ele><time>2021-10-23T04:45:34.000Z</time></trkpt>
      <trkpt lat="35.315691" lon="126.879926"><ele>430.2</ele><time>2021-10-23T04:45:44.000Z</time></trkpt>
      <trkpt lat="35.315721" lon="126.879816"><ele>427.8</ele><time>2021-10-23T04:45:57.000Z</time></trkpt>
      <trkpt lat="35.315801" lon="126.879710"><ele>424.3</ele><time>2021-10-23T04:46:07.000Z</time></trkpt>
      <trkpt lat="35.315831" lon="126.879618"><ele>419.5</ele><time>2021-10-23T04:46:21.000Z</time></trkpt>
      <trkpt lat="35.315799" lon="126.879503"><ele>418.7</ele><time>2021-10-23T04:46:38.000Z</time></trkpt>
      <trkpt lat="35.315776" lon="126.879393"><ele>415.3</ele><time>2021-10-23T04:46:49.000Z</time></trkpt>
      <trkpt lat="35.315696" lon="126.879349"><ele>412.9</ele><time>2021-10-23T04:47:12.000Z</time></trkpt>
      <trkpt lat="35.315612" lon="126.879351"><ele>407.8</ele><time>2021-10-23T04:47:26.000Z</time></trkpt>
      <trkpt lat="35.315545" lon="126.879284"><ele>402.7</ele><time>2021-10-23T04:47:35.000Z</time></trkpt>
      <trkpt lat="35.315528" lon="126.879168"><ele>401.0</ele><time>2021-10-23T04:47:53.000Z</time></trkpt>
      <trkpt lat="35.315463" lon="126.879082"><ele>400.8</ele><time>2021-10-23T04:48:07.000Z</time></trkpt>
      <trkpt lat="35.315392" lon="126.879018"><ele>393.9</ele><time>2021-10-23T04:48:21.000Z</time></trkpt>
      <trkpt lat="35.315328" lon="126.878933"><ele>393.5</ele><time>2021-10-23T04:48:32.000Z</time></trkpt>
      <trkpt lat="35.315257" lon="126.878842"><ele>395.6</ele><time>2021-10-23T04:48:44.000Z</time></trkpt>
      <trkpt lat="35.315210" lon="126.878736"><ele>395.6</ele><time>2021-10-23T04:48:55.000Z</time></trkpt>
      <trkpt lat="35.315176" lon="126.878617"><ele>393.5</ele><time>2021-10-23T04:49:10.000Z</time></trkpt>
      <trkpt lat="35.315099" lon="126.878538"><ele>392.3</ele><time>2021-10-23T04:49:22.000Z</time></trkpt>
      <trkpt lat="35.315041" lon="126.878452"><ele>392.9</ele><time>2021-10-23T04:49:36.000Z</time></trkpt>
      <trkpt lat="35.315030" lon="126.878327"><ele>380.5</ele><time>2021-10-23T04:49:44.000Z</time></trkpt>
      <trkpt lat="35.314996" lon="126.878214"><ele>383.3</ele><time>2021-10-23T04:49:56.000Z</time></trkpt>
      <trkpt lat="35.314958" lon="126.878100"><ele>383.6</ele><time>2021-10-23T04:50:06.000Z</time></trkpt>
      <trkpt lat="35.314906" lon="126.877995"><ele>384.3</ele><time>2021-10-23T04:50:16.000Z</time></trkpt>
      <trkpt lat="35.314844" lon="126.877908"><ele>382.5</ele><time>2021-10-23T04:50:30.000Z</time></trkpt>
      <trkpt lat="35.314770" lon="126.877822"><ele>381.9</ele><time>2021-10-23T04:50:42.000Z</time></trkpt>
      <trkpt lat="35.314716" lon="126.877748"><ele>375.6</ele><time>2021-10-23T04:50:59.000Z</time></trkpt>
      <trkpt lat="35.314649" lon="126.877676"><ele>371.9</ele><time>2021-10-23T04:51:09.000Z</time></trkpt>
      <trkpt lat="35.314584" lon="126.877597"><ele>366.9</ele><time>2021-10-23T04:51:16.000Z</time></trkpt>
      <trkpt lat="35.314502" lon="126.877542"><ele>360.8</ele><time>2021-10-23T04:51:24.000Z</time></trkpt>
      <trkpt lat="35.314428" lon="126.877477"><ele>357.1</ele><time>2021-10-23T04:51:35.000Z</time></trkpt>
      <trkpt lat="35.314352" lon="126.877417"><ele>355.4</ele><time>2021-10-23T04:51:44.000Z</time></trkpt>
      <trkpt lat="35.314280" lon="126.877351"><ele>353.9</ele><time>2021-10-23T04:51:55.000Z</time></trkpt>
      <trkpt lat="35.314226" lon="126.877271"><ele>348.5</ele><time>2021-10-23T04:52:04.000Z</time></trkpt>
      <trkpt lat="35.314141" lon="126.877212"><ele>343.7</ele><time>2021-10-23T04:52:18.000Z</time></trkpt>
      <trkpt lat="35.314071" lon="126.877106"><ele>343.4</ele><time>2021-10-23T04:52:27.000Z</time></trkpt>
      <trkpt lat="35.314001" lon="126.877025"><ele>344.4</ele><time>2021-10-23T04:52:40.000Z</time></trkpt>
      <trkpt lat="35.313980" lon="126.876919"><ele>340.9</ele><time>2021-10-23T04:52:48.000Z</time></trkpt>
      <trkpt lat="35.313945" lon="126.876811"><ele>338.8</ele><time>2021-10-23T04:52:59.000Z</time></trkpt>
      <trkpt lat="35.313857" lon="126.876777"><ele>338.0</ele><time>2021-10-23T04:53:12.000Z</time></trkpt>
      <trkpt lat="35.313792" lon="126.876675"><ele>334.6</ele><time>2021-10-23T04:53:21.000Z</time></trkpt>
      <trkpt lat="35.313723" lon="126.876557"><ele>332.8</ele><time>2021-10-23T04:53:34.000Z</time></trkpt>
      <trkpt lat="35.313667" lon="126.876467"><ele>332.2</ele><time>2021-10-23T04:53:47.000Z</time></trkpt>
      <trkpt lat="35.313628" lon="126.876363"><ele>330.2</ele><time>2021-10-23T04:53:59.000Z</time></trkpt>
      <trkpt lat="35.313589" lon="126.876254"><ele>328.0</ele><time>2021-10-23T04:54:13.000Z</time></trkpt>
      <trkpt lat="35.313528" lon="126.876173"><ele>322.5</ele><time>2021-10-23T04:54:27.000Z</time></trkpt>
      <trkpt lat="35.313501" lon="126.876066"><ele>320.8</ele><time>2021-10-23T04:54:36.000Z</time></trkpt>
      <trkpt lat="35.313428" lon="126.875994"><ele>321.0</ele><time>2021-10-23T04:54:52.000Z</time></trkpt>
      <trkpt lat="35.313358" lon="126.875919"><ele>319.7</ele><time>2021-10-23T04:55:01.000Z</time></trkpt>
      <trkpt lat="35.313265" lon="126.875847"><ele>317.5</ele><time>2021-10-23T04:55:16.000Z</time></trkpt>
      <trkpt lat="35.313174" lon="126.875808"><ele>313.9</ele><time>2021-10-23T04:55:28.000Z</time></trkpt>
      <trkpt lat="35.313079" lon="126.875747"><ele>311.1</ele><time>2021-10-23T04:55:37.000Z</time></trkpt>
      <trkpt lat="35.312994" lon="126.875678"><ele>308.6</ele><time>2021-10-23T04:55:49.000Z</time></trkpt>
      <trkpt lat="35.312905" lon="126.875626"><ele>305.8</ele><time>2021-10-23T04:56:03.000Z</time></trkpt>
      <trkpt lat="35.312853" lon="126.875730"><ele>304.1</ele><time>2021-10-23T04:56:15.000Z</time></trkpt>
      <trkpt lat="35.312800" lon="126.875644"><ele>306.8</ele><time>2021-10-23T04:56:54.000Z</time></trkpt>
      <trkpt lat="35.312842" lon="126.875546"><ele>307.2</ele><time>2021-10-23T04:57:07.000Z</time></trkpt>
      <trkpt lat="35.312777" lon="126.875489"><ele>311.8</ele><time>2021-10-23T05:00:16.000Z</time></trkpt>
    </trkseg>
  </trk>
</gpx>