<?xml version="1.0" encoding="UTF-8"?>
<gpx version="1.1" creator="gajago (https://hjwpro1971.github.io/gaja)" xmlns="http://www.topografix.com/GPX/1/1" xmlns:xsi="http://www.w3.org/2001/XMLSchema-instance" xsi:schemaLocation="http://www.topografix.com/GPX/1/1 http://www.topografix.com/GPX/1/1/gpx.xsd">
  <metadata>
    <name>보쉬전장_코스</name>
    <time>2026-09-09T14:08:27.340Z</time>
  </metadata>
  <trk>
    <name>보쉬전장_코스</name>
    <trkseg>
      <trkpt lat="36.496683" lon="127.367300">
        <time>2026-09-09T14:08:27.331Z</time>
      </trkpt>
      <trkpt lat="36.496558" lon="127.367554">
        <time>2026-09-09T14:09:05.331Z</time>
      </trkpt>
      <trkpt lat="36.496663" lon="127.367621">
        <time>2026-09-09T14:09:24.331Z</time>
      </trkpt>
      <trkpt lat="36.496743" lon="127.367705">
        <time>2026-09-09T14:09:41.331Z</time>
      </trkpt>
      <trkpt lat="36.496603" lon="127.367664">
        <time>2026-09-09T14:10:04.331Z</time>
      </trkpt>
      <trkpt lat="36.496454" lon="127.367830">
        <time>2026-09-09T14:10:36.331Z</time>
      </trkpt>
      <trkpt lat="36.496543" lon="127.367646">
        <time>2026-09-09T14:11:04.331Z</time>
      </trkpt>
      <trkpt lat="36.496683" lon="127.367301">
        <time>2026-09-09T14:11:54.331Z</time>
      </trkpt>
    </trkseg>
  </trk>
</gpx>