<?xml version="1.0" encoding="UTF-8"?>
<gpx version="1.1" creator="gajago-nav" xmlns="http://www.topografix.com/GPX/1/1">
  <metadata><name>설악산_울산바위</name><extensions><gajago:roundtrip xmlns:gajago="https://hjwpro1971.github.io/gaja">true</gajago:roundtrip></extensions></metadata>
  <wpt lat="38.172751" lon="128.493772">
    <name>들머리 (소공원)</name>
    <ele>203</ele>
  </wpt>
  <wpt lat="38.174109" lon="128.486480">
    <name>갈림길</name>
  </wpt>
  <wpt lat="38.175380" lon="128.484700">
    <name>신흥사</name>
    <ele>243</ele>
  </wpt>
  <wpt lat="38.177880" lon="128.483440">
    <name>신흥교</name>
    <ele>252</ele>
  </wpt>
  <wpt lat="38.190020" lon="128.474960">
    <name>계조암</name>
  </wpt>
  <wpt lat="38.194340" lon="128.474281">
    <name>울산바위</name>
  </wpt>
  <trk>
    <name>설악산_울산바위</name>
    <trkseg>
      <trkpt lat="38.172751" lon="128.493772"><ele>203.0</ele><time>2026-10-04T10:45:45.385Z</time></trkpt>
      <trkpt lat="38.172768" lon="128.493719"><ele>205.9</ele><time>2026-10-04T10:45:52.584Z</time></trkpt>
      <trkpt lat="38.172781" lon="128.493664"><ele>204.9</ele><time>2026-10-04T10:45:59.784Z</time></trkpt>
      <trkpt lat="38.172799" lon="128.493612"><ele>207.8</ele><time>2026-10-04T10:46:06.981Z</time></trkpt>
      <trkpt lat="38.172797" lon="128.493555"><ele>207.8</ele><time>2026-10-04T10:46:14.174Z</time></trkpt>
      <trkpt lat="38.172814" lon="128.493503"><ele>207.9</ele><time>2026-10-04T10:46:21.374Z</time></trkpt>
      <trkpt lat="38.172833" lon="128.493450"><ele>205.2</ele><time>2026-10-04T10:46:28.574Z</time></trkpt>
      <trkpt lat="38.172851" lon="128.493398"><ele>205.8</ele><time>2026-10-04T10:46:35.772Z</time></trkpt>
      <trkpt lat="38.172857" lon="128.493341"><ele>206.8</ele><time>2026-10-04T10:46:42.972Z</time></trkpt>
      <trkpt lat="38.172863" lon="128.493285"><ele>208.2</ele><time>2026-10-04T10:46:50.133Z</time></trkpt>
      <trkpt lat="38.172892" lon="128.493242"><ele>211.5</ele><time>2026-10-04T10:46:57.308Z</time></trkpt>
      <trkpt lat="38.172905" lon="128.493187"><ele>215.0</ele><time>2026-10-04T10:47:04.506Z</time></trkpt>
      <trkpt lat="38.172912" lon="128.493130"><ele>216.3</ele><time>2026-10-04T10:47:11.706Z</time></trkpt>
      <trkpt lat="38.172920" lon="128.493074"><ele>214.3</ele><time>2026-10-04T10:47:18.906Z</time></trkpt>
      <trkpt lat="38.172929" lon="128.493018"><ele>210.8</ele><time>2026-10-04T10:47:26.097Z</time></trkpt>
      <trkpt lat="38.172928" lon="128.492961"><ele>209.0</ele><time>2026-10-04T10:47:33.296Z</time></trkpt>
      <trkpt lat="38.172933" lon="128.492905"><ele>209.3</ele><time>2026-10-04T10:47:40.405Z</time></trkpt>
      <trkpt lat="38.172958" lon="128.492858"><ele>209.7</ele><time>2026-10-04T10:47:47.600Z</time></trkpt>
      <trkpt lat="38.172979" lon="128.492807"><ele>211.7</ele><time>2026-10-04T10:47:54.799Z</time></trkpt>
      <trkpt lat="38.172998" lon="128.492755"><ele>213.4</ele><time>2026-10-04T10:48:01.995Z</time></trkpt>
      <trkpt lat="38.173021" lon="128.492706"><ele>212.5</ele><time>2026-10-04T10:48:09.195Z</time></trkpt>
      <trkpt lat="38.173043" lon="128.492656"><ele>210.3</ele><time>2026-10-04T10:48:16.393Z</time></trkpt>
      <trkpt lat="38.173061" lon="128.492603"><ele>208.5</ele><time>2026-10-04T10:48:23.591Z</time></trkpt>
      <trkpt lat="38.173077" lon="128.492550"><ele>206.6</ele><time>2026-10-04T10:48:30.789Z</time></trkpt>
      <trkpt lat="38.173096" lon="128.492498"><ele>204.5</ele><time>2026-10-04T10:48:37.989Z</time></trkpt>
      <trkpt lat="38.173116" lon="128.492447"><ele>203.1</ele><time>2026-10-04T10:48:45.183Z</time></trkpt>
      <trkpt lat="38.173131" lon="128.492393"><ele>202.8</ele><time>2026-10-04T10:48:52.382Z</time></trkpt>
      <trkpt lat="38.173143" lon="128.492338"><ele>203.2</ele><time>2026-10-04T10:48:59.580Z</time></trkpt>
      <trkpt lat="38.173153" lon="128.492282"><ele>205.2</ele><time>2026-10-04T10:49:06.779Z</time></trkpt>
      <trkpt lat="38.173165" lon="128.492227"><ele>208.9</ele><time>2026-10-04T10:49:13.979Z</time></trkpt>
      <trkpt lat="38.173178" lon="128.492172"><ele>211.8</ele><time>2026-10-04T10:49:21.177Z</time></trkpt>
      <trkpt lat="38.173194" lon="128.492119"><ele>213.1</ele><time>2026-10-04T10:49:28.375Z</time></trkpt>
      <trkpt lat="38.173210" lon="128.492066"><ele>213.0</ele><time>2026-10-04T10:49:35.523Z</time></trkpt>
      <trkpt lat="38.173212" lon="128.492009"><ele>211.3</ele><time>2026-10-04T10:49:42.716Z</time></trkpt>
      <trkpt lat="38.173210" lon="128.491952"><ele>208.8</ele><time>2026-10-04T10:49:49.909Z</time></trkpt>
      <trkpt lat="38.173208" lon="128.491895"><ele>208.1</ele><time>2026-10-04T10:49:57.077Z</time></trkpt>
      <trkpt lat="38.173205" lon="128.491838"><ele>208.3</ele><time>2026-10-04T10:50:04.218Z</time></trkpt>
      <trkpt lat="38.173209" lon="128.491781"><ele>209.0</ele><time>2026-10-04T10:50:11.417Z</time></trkpt>
      <trkpt lat="38.173212" lon="128.491724"><ele>211.4</ele><time>2026-10-04T10:50:18.614Z</time></trkpt>
      <trkpt lat="38.173215" lon="128.491667"><ele>213.2</ele><time>2026-10-04T10:50:25.794Z</time></trkpt>
      <trkpt lat="38.173224" lon="128.491612"><ele>213.3</ele><time>2026-10-04T10:50:32.987Z</time></trkpt>
      <trkpt lat="38.173232" lon="128.491556"><ele>214.0</ele><time>2026-10-04T10:50:40.143Z</time></trkpt>
      <trkpt lat="38.173235" lon="128.491499"><ele>215.9</ele><time>2026-10-04T10:50:47.337Z</time></trkpt>
      <trkpt lat="38.173251" lon="128.491448"><ele>217.3</ele><time>2026-10-04T10:50:54.183Z</time></trkpt>
      <trkpt lat="38.173279" lon="128.491403"><ele>218.4</ele><time>2026-10-04T10:51:01.353Z</time></trkpt>
      <trkpt lat="38.173296" lon="128.491352"><ele>220.1</ele><time>2026-10-04T10:51:08.441Z</time></trkpt>
      <trkpt lat="38.173291" lon="128.491298"><ele>221.2</ele><time>2026-10-04T10:51:15.201Z</time></trkpt>
      <trkpt lat="38.173289" lon="128.491247"><ele>221.7</ele><time>2026-10-04T10:51:21.666Z</time></trkpt>
      <trkpt lat="38.173297" lon="128.491192"><ele>222.1</ele><time>2026-10-04T10:51:28.683Z</time></trkpt>
      <trkpt lat="38.173295" lon="128.491135"><ele>221.0</ele><time>2026-10-04T10:51:35.882Z</time></trkpt>
      <trkpt lat="38.173295" lon="128.491078"><ele>218.2</ele><time>2026-10-04T10:51:43.062Z</time></trkpt>
      <trkpt lat="38.173309" lon="128.491025"><ele>214.9</ele><time>2026-10-04T10:51:50.063Z</time></trkpt>
      <trkpt lat="38.173337" lon="128.490982"><ele>212.3</ele><time>2026-10-04T10:51:57.194Z</time></trkpt>
      <trkpt lat="38.173350" lon="128.490933"><ele>211.9</ele><time>2026-10-04T10:52:03.617Z</time></trkpt>
      <trkpt lat="38.173340" lon="128.490877"><ele>213.4</ele><time>2026-10-04T10:52:10.790Z</time></trkpt>
      <trkpt lat="38.173329" lon="128.490822"><ele>215.5</ele><time>2026-10-04T10:52:17.988Z</time></trkpt>
      <trkpt lat="38.173325" lon="128.490766"><ele>218.4</ele><time>2026-10-04T10:52:25.112Z</time></trkpt>
      <trkpt lat="38.173330" lon="128.490709"><ele>221.7</ele><time>2026-10-04T10:52:32.307Z</time></trkpt>
      <trkpt lat="38.173337" lon="128.490653"><ele>223.5</ele><time>2026-10-04T10:52:39.502Z</time></trkpt>
      <trkpt lat="38.173346" lon="128.490596"><ele>223.6</ele><time>2026-10-04T10:52:46.701Z</time></trkpt>
      <trkpt lat="38.173357" lon="128.490541"><ele>223.5</ele><time>2026-10-04T10:52:53.888Z</time></trkpt>
      <trkpt lat="38.173370" lon="128.490486"><ele>223.5</ele><time>2026-10-04T10:53:01.088Z</time></trkpt>
      <trkpt lat="38.173381" lon="128.490431"><ele>223.5</ele><time>2026-10-04T10:53:08.281Z</time></trkpt>
      <trkpt lat="38.173391" lon="128.490375"><ele>223.6</ele><time>2026-10-04T10:53:15.478Z</time></trkpt>
      <trkpt lat="38.173405" lon="128.490321"><ele>223.7</ele><time>2026-10-04T10:53:22.671Z</time></trkpt>
      <trkpt lat="38.173421" lon="128.490268"><ele>223.7</ele><time>2026-10-04T10:53:29.869Z</time></trkpt>
      <trkpt lat="38.173443" lon="128.490218"><ele>223.5</ele><time>2026-10-04T10:53:37.037Z</time></trkpt>
      <trkpt lat="38.173468" lon="128.490170"><ele>223.8</ele><time>2026-10-04T10:53:44.237Z</time></trkpt>
      <trkpt lat="38.173460" lon="128.490121"><ele>224.6</ele><time>2026-10-04T10:53:50.516Z</time></trkpt>
      <trkpt lat="38.173471" lon="128.490070"><ele>224.7</ele><time>2026-10-04T10:53:57.143Z</time></trkpt>
      <trkpt lat="38.173499" lon="128.490026"><ele>224.4</ele><time>2026-10-04T10:54:04.302Z</time></trkpt>
      <trkpt lat="38.173535" lon="128.489991"><ele>224.6</ele><time>2026-10-04T10:54:11.480Z</time></trkpt>
      <trkpt lat="38.173533" lon="128.489935"><ele>224.4</ele><time>2026-10-04T10:54:18.469Z</time></trkpt>
      <trkpt lat="38.173547" lon="128.489884"><ele>223.8</ele><time>2026-10-04T10:54:25.256Z</time></trkpt>
      <trkpt lat="38.173587" lon="128.489862"><ele>223.4</ele><time>2026-10-04T10:54:32.207Z</time></trkpt>
      <trkpt lat="38.173607" lon="128.489811"><ele>222.9</ele><time>2026-10-04T10:54:39.387Z</time></trkpt>
      <trkpt lat="38.173621" lon="128.489757"><ele>221.3</ele><time>2026-10-04T10:54:46.587Z</time></trkpt>
      <trkpt lat="38.173629" lon="128.489702"><ele>220.2</ele><time>2026-10-04T10:54:53.662Z</time></trkpt>
      <trkpt lat="38.173632" lon="128.489649"><ele>217.9</ele><time>2026-10-04T10:55:00.283Z</time></trkpt>
      <trkpt lat="38.173655" lon="128.489604"><ele>217.1</ele><time>2026-10-04T10:55:07.025Z</time></trkpt>
      <trkpt lat="38.173660" lon="128.489548"><ele>216.9</ele><time>2026-10-04T10:55:14.135Z</time></trkpt>
      <trkpt lat="38.173681" lon="128.489498"><ele>216.6</ele><time>2026-10-04T10:55:21.221Z</time></trkpt>
      <trkpt lat="38.173704" lon="128.489451"><ele>215.6</ele><time>2026-10-04T10:55:28.223Z</time></trkpt>
      <trkpt lat="38.173705" lon="128.489396"><ele>216.0</ele><time>2026-10-04T10:55:35.179Z</time></trkpt>
      <trkpt lat="38.173706" lon="128.489341"><ele>217.6</ele><time>2026-10-04T10:55:42.011Z</time></trkpt>
      <trkpt lat="38.173723" lon="128.489289"><ele>218.1</ele><time>2026-10-04T10:55:49.208Z</time></trkpt>
      <trkpt lat="38.173736" lon="128.489234"><ele>219.6</ele><time>2026-10-04T10:55:56.368Z</time></trkpt>
      <trkpt lat="38.173743" lon="128.489178"><ele>222.0</ele><time>2026-10-04T10:56:03.559Z</time></trkpt>
      <trkpt lat="38.173748" lon="128.489121"><ele>224.0</ele><time>2026-10-04T10:56:10.759Z</time></trkpt>
      <trkpt lat="38.173753" lon="128.489064"><ele>224.5</ele><time>2026-10-04T10:56:17.959Z</time></trkpt>
      <trkpt lat="38.173761" lon="128.489008"><ele>224.2</ele><time>2026-10-04T10:56:25.150Z</time></trkpt>
      <trkpt lat="38.173772" lon="128.488952"><ele>223.5</ele><time>2026-10-04T10:56:32.348Z</time></trkpt>
      <trkpt lat="38.173782" lon="128.488897"><ele>222.4</ele><time>2026-10-04T10:56:39.547Z</time></trkpt>
      <trkpt lat="38.173786" lon="128.488840"><ele>221.4</ele><time>2026-10-04T10:56:46.692Z</time></trkpt>
      <trkpt lat="38.173788" lon="128.488783"><ele>220.5</ele><time>2026-10-04T10:56:53.867Z</time></trkpt>
      <trkpt lat="38.173797" lon="128.488727"><ele>219.9</ele><time>2026-10-04T10:57:01.058Z</time></trkpt>
      <trkpt lat="38.173806" lon="128.488671"><ele>219.6</ele><time>2026-10-04T10:57:08.255Z</time></trkpt>
      <trkpt lat="38.173813" lon="128.488615"><ele>219.5</ele><time>2026-10-04T10:57:15.452Z</time></trkpt>
      <trkpt lat="38.173818" lon="128.488558"><ele>218.0</ele><time>2026-10-04T10:57:22.652Z</time></trkpt>
      <trkpt lat="38.173823" lon="128.488501"><ele>213.6</ele><time>2026-10-04T10:57:29.849Z</time></trkpt>
      <trkpt lat="38.173823" lon="128.488444"><ele>210.2</ele><time>2026-10-04T10:57:37.035Z</time></trkpt>
      <trkpt lat="38.173826" lon="128.488387"><ele>209.7</ele><time>2026-10-04T10:57:44.210Z</time></trkpt>
      <trkpt lat="38.173833" lon="128.488331"><ele>209.6</ele><time>2026-10-04T10:57:51.406Z</time></trkpt>
      <trkpt lat="38.173837" lon="128.488274"><ele>209.9</ele><time>2026-10-04T10:57:58.580Z</time></trkpt>
      <trkpt lat="38.173836" lon="128.488217"><ele>213.1</ele><time>2026-10-04T10:58:05.775Z</time></trkpt>
      <trkpt lat="38.173828" lon="128.488161"><ele>217.4</ele><time>2026-10-04T10:58:12.933Z</time></trkpt>
      <trkpt lat="38.173819" lon="128.488105"><ele>219.3</ele><time>2026-10-04T10:58:20.112Z</time></trkpt>
      <trkpt lat="38.173821" lon="128.488048"><ele>219.8</ele><time>2026-10-04T10:58:27.247Z</time></trkpt>
      <trkpt lat="38.173826" lon="128.487991"><ele>219.5</ele><time>2026-10-04T10:58:34.441Z</time></trkpt>
      <trkpt lat="38.173833" lon="128.487935"><ele>217.2</ele><time>2026-10-04T10:58:41.626Z</time></trkpt>
      <trkpt lat="38.173851" lon="128.487883"><ele>212.1</ele><time>2026-10-04T10:58:48.732Z</time></trkpt>
      <trkpt lat="38.173873" lon="128.487833"><ele>206.9</ele><time>2026-10-04T10:58:55.929Z</time></trkpt>
      <trkpt lat="38.173881" lon="128.487778"><ele>199.8</ele><time>2026-10-04T10:59:02.957Z</time></trkpt>
      <trkpt lat="38.173878" lon="128.487721"><ele>195.8</ele><time>2026-10-04T10:59:10.145Z</time></trkpt>
      <trkpt lat="38.173880" lon="128.487665"><ele>197.1</ele><time>2026-10-04T10:59:17.314Z</time></trkpt>
      <trkpt lat="38.173890" lon="128.487609"><ele>200.9</ele><time>2026-10-04T10:59:24.493Z</time></trkpt>
      <trkpt lat="38.173903" lon="128.487554"><ele>205.7</ele><time>2026-10-04T10:59:31.692Z</time></trkpt>
      <trkpt lat="38.173918" lon="128.487500"><ele>215.2</ele><time>2026-10-04T10:59:38.889Z</time></trkpt>
      <trkpt lat="38.173935" lon="128.487448"><ele>222.1</ele><time>2026-10-04T10:59:46.088Z</time></trkpt>
      <trkpt lat="38.173950" lon="128.487394"><ele>224.1</ele><time>2026-10-04T10:59:53.281Z</time></trkpt>
      <trkpt lat="38.173960" lon="128.487338"><ele>224.7</ele><time>2026-10-04T11:00:00.473Z</time></trkpt>
      <trkpt lat="38.173969" lon="128.487282"><ele>225.4</ele><time>2026-10-04T11:00:07.673Z</time></trkpt>
      <trkpt lat="38.173976" lon="128.487225"><ele>226.0</ele><time>2026-10-04T11:00:14.873Z</time></trkpt>
      <trkpt lat="38.173982" lon="128.487169"><ele>226.7</ele><time>2026-10-04T11:00:22.071Z</time></trkpt>
      <trkpt lat="38.173986" lon="128.487112"><ele>227.6</ele><time>2026-10-04T11:00:29.268Z</time></trkpt>
      <trkpt lat="38.173989" lon="128.487055"><ele>229.1</ele><time>2026-10-04T11:00:36.468Z</time></trkpt>
      <trkpt lat="38.173992" lon="128.486998"><ele>230.6</ele><time>2026-10-04T11:00:43.668Z</time></trkpt>
      <trkpt lat="38.174003" lon="128.486943"><ele>231.8</ele><time>2026-10-04T11:00:50.811Z</time></trkpt>
      <trkpt lat="38.174018" lon="128.486889"><ele>233.0</ele><time>2026-10-04T11:00:58.011Z</time></trkpt>
      <trkpt lat="38.174026" lon="128.486833"><ele>233.9</ele><time>2026-10-04T11:01:05.187Z</time></trkpt>
      <trkpt lat="38.174041" lon="128.486779"><ele>233.7</ele><time>2026-10-04T11:01:12.327Z</time></trkpt>
      <trkpt lat="38.174064" lon="128.486730"><ele>233.2</ele><time>2026-10-04T11:01:19.512Z</time></trkpt>
      <trkpt lat="38.174090" lon="128.486684"><ele>232.9</ele><time>2026-10-04T11:01:26.709Z</time></trkpt>
      <trkpt lat="38.174121" lon="128.486643"><ele>232.5</ele><time>2026-10-04T11:01:33.889Z</time></trkpt>
      <trkpt lat="38.174156" lon="128.486606"><ele>231.2</ele><time>2026-10-04T11:01:41.083Z</time></trkpt>
      <trkpt lat="38.174192" lon="128.486572"><ele>228.1</ele><time>2026-10-04T11:01:48.282Z</time></trkpt>
      <trkpt lat="38.174232" lon="128.486546"><ele>225.4</ele><time>2026-10-04T11:01:55.447Z</time></trkpt>
      <trkpt lat="38.174271" lon="128.486519"><ele>225.7</ele><time>2026-10-04T11:02:02.641Z</time></trkpt>
      <trkpt lat="38.174311" lon="128.486492"><ele>225.1</ele><time>2026-10-04T11:02:09.841Z</time></trkpt>
      <trkpt lat="38.174350" lon="128.486463"><ele>223.8</ele><time>2026-10-04T11:02:17.040Z</time></trkpt>
      <trkpt lat="38.174392" lon="128.486444"><ele>223.6</ele><time>2026-10-04T11:02:24.204Z</time></trkpt>
      <trkpt lat="38.174436" lon="128.486443"><ele>223.7</ele><time>2026-10-04T11:02:31.309Z</time></trkpt>
      <trkpt lat="38.174480" lon="128.486434"><ele>218.6</ele><time>2026-10-04T11:02:38.444Z</time></trkpt>
      <trkpt lat="38.174525" lon="128.486432"><ele>214.9</ele><time>2026-10-04T11:02:45.595Z</time></trkpt>
      <trkpt lat="38.174570" lon="128.486436"><ele>214.4</ele><time>2026-10-04T11:02:52.794Z</time></trkpt>
      <trkpt lat="38.174614" lon="128.486428"><ele>218.4</ele><time>2026-10-04T11:02:59.940Z</time></trkpt>
      <trkpt lat="38.174658" lon="128.486422"><ele>223.5</ele><time>2026-10-04T11:03:07.126Z</time></trkpt>
      <trkpt lat="38.174701" lon="128.486406"><ele>226.9</ele><time>2026-10-04T11:03:14.276Z</time></trkpt>
      <trkpt lat="38.174743" lon="128.486384"><ele>229.3</ele><time>2026-10-04T11:03:21.472Z</time></trkpt>
      <trkpt lat="38.174785" lon="128.486363"><ele>229.9</ele><time>2026-10-04T11:03:28.668Z</time></trkpt>
      <trkpt lat="38.174827" lon="128.486345"><ele>228.8</ele><time>2026-10-04T11:03:35.867Z</time></trkpt>
      <trkpt lat="38.174870" lon="128.486327"><ele>227.3</ele><time>2026-10-04T11:03:43.067Z</time></trkpt>
      <trkpt lat="38.174912" lon="128.486307"><ele>224.9</ele><time>2026-10-04T11:03:50.265Z</time></trkpt>
      <trkpt lat="38.174954" lon="128.486285"><ele>223.9</ele><time>2026-10-04T11:03:57.465Z</time></trkpt>
      <trkpt lat="38.174998" lon="128.486277"><ele>225.6</ele><time>2026-10-04T11:04:04.593Z</time></trkpt>
      <trkpt lat="38.175043" lon="128.486280"><ele>228.4</ele><time>2026-10-04T11:04:11.781Z</time></trkpt>
      <trkpt lat="38.175073" lon="128.486241"><ele>227.3</ele><time>2026-10-04T11:04:18.580Z</time></trkpt>
      <trkpt lat="38.175115" lon="128.486229"><ele>226.4</ele><time>2026-10-04T11:04:25.584Z</time></trkpt>
      <trkpt lat="38.175159" lon="128.486216"><ele>225.5</ele><time>2026-10-04T11:04:32.781Z</time></trkpt>
      <trkpt lat="38.175202" lon="128.486199"><ele>225.7</ele><time>2026-10-04T11:04:39.981Z</time></trkpt>
      <trkpt lat="38.175246" lon="128.486192"><ele>224.8</ele><time>2026-10-04T11:04:47.179Z</time></trkpt>
      <trkpt lat="38.175284" lon="128.486161"><ele>223.7</ele><time>2026-10-04T11:04:54.347Z</time></trkpt>
      <trkpt lat="38.175313" lon="128.486117"><ele>225.0</ele><time>2026-10-04T11:05:01.541Z</time></trkpt>
      <trkpt lat="38.175336" lon="128.486068"><ele>227.3</ele><time>2026-10-04T11:05:08.737Z</time></trkpt>
      <trkpt lat="38.175355" lon="128.486016"><ele>228.7</ele><time>2026-10-04T11:05:15.927Z</time></trkpt>
      <trkpt lat="38.175381" lon="128.485970"><ele>229.1</ele><time>2026-10-04T11:05:23.126Z</time></trkpt>
      <trkpt lat="38.175408" lon="128.485924"><ele>230.0</ele><time>2026-10-04T11:05:30.325Z</time></trkpt>
      <trkpt lat="38.175434" lon="128.485877"><ele>230.6</ele><time>2026-10-04T11:05:37.525Z</time></trkpt>
      <trkpt lat="38.175460" lon="128.485831"><ele>229.9</ele><time>2026-10-04T11:05:44.722Z</time></trkpt>
      <trkpt lat="38.175491" lon="128.485789"><ele>227.9</ele><time>2026-10-04T11:05:51.890Z</time></trkpt>
      <trkpt lat="38.175530" lon="128.485761"><ele>226.8</ele><time>2026-10-04T11:05:59.085Z</time></trkpt>
      <trkpt lat="38.175571" lon="128.485737"><ele>227.0</ele><time>2026-10-04T11:06:06.273Z</time></trkpt>
      <trkpt lat="38.175607" lon="128.485705"><ele>227.4</ele><time>2026-10-04T11:06:13.466Z</time></trkpt>
      <trkpt lat="38.175640" lon="128.485666"><ele>227.9</ele><time>2026-10-04T11:06:20.657Z</time></trkpt>
      <trkpt lat="38.175667" lon="128.485621"><ele>228.4</ele><time>2026-10-04T11:06:27.796Z</time></trkpt>
      <trkpt lat="38.175680" lon="128.485566"><ele>229.0</ele><time>2026-10-04T11:06:34.990Z</time></trkpt>
      <trkpt lat="38.175688" lon="128.485510"><ele>229.5</ele><time>2026-10-04T11:06:42.188Z</time></trkpt>
      <trkpt lat="38.175694" lon="128.485453"><ele>230.1</ele><time>2026-10-04T11:06:49.384Z</time></trkpt>
      <trkpt lat="38.175696" lon="128.485396"><ele>231.7</ele><time>2026-10-04T11:06:56.584Z</time></trkpt>
      <trkpt lat="38.175700" lon="128.485339"><ele>235.7</ele><time>2026-10-04T11:07:03.757Z</time></trkpt>
      <trkpt lat="38.175714" lon="128.485284"><ele>237.5</ele><time>2026-10-04T11:07:10.953Z</time></trkpt>
      <trkpt lat="38.175735" lon="128.485238"><ele>239.0</ele><time>2026-10-04T11:07:17.688Z</time></trkpt>
      <trkpt lat="38.175772" lon="128.485213"><ele>243.4</ele><time>2026-10-04T11:07:24.385Z</time></trkpt>
      <trkpt lat="38.175803" lon="128.485180"><ele>245.2</ele><time>2026-10-04T11:07:30.815Z</time></trkpt>
      <trkpt lat="38.175846" lon="128.485170"><ele>247.7</ele><time>2026-10-04T11:07:37.869Z</time></trkpt>
      <trkpt lat="38.175887" lon="128.485147"><ele>247.2</ele><time>2026-10-04T11:07:45.058Z</time></trkpt>
      <trkpt lat="38.175930" lon="128.485133"><ele>247.3</ele><time>2026-10-04T11:07:52.211Z</time></trkpt>
      <trkpt lat="38.175973" lon="128.485119"><ele>248.5</ele><time>2026-10-04T11:07:59.274Z</time></trkpt>
      <trkpt lat="38.176013" lon="128.485093"><ele>250.0</ele><time>2026-10-04T11:08:06.464Z</time></trkpt>
      <trkpt lat="38.176055" lon="128.485076"><ele>250.1</ele><time>2026-10-04T11:08:13.598Z</time></trkpt>
      <trkpt lat="38.176100" lon="128.485068"><ele>250.6</ele><time>2026-10-04T11:08:20.796Z</time></trkpt>
      <trkpt lat="38.176144" lon="128.485056"><ele>252.0</ele><time>2026-10-04T11:08:27.978Z</time></trkpt>
      <trkpt lat="38.176185" lon="128.485033"><ele>251.5</ele><time>2026-10-04T11:08:35.125Z</time></trkpt>
      <trkpt lat="38.176219" lon="128.484997"><ele>250.1</ele><time>2026-10-04T11:08:42.247Z</time></trkpt>
      <trkpt lat="38.176256" lon="128.484980"><ele>248.8</ele><time>2026-10-04T11:08:48.545Z</time></trkpt>
      <trkpt lat="38.176300" lon="128.484987"><ele>247.1</ele><time>2026-10-04T11:08:55.745Z</time></trkpt>
      <trkpt lat="38.176345" lon="128.484990"><ele>244.9</ele><time>2026-10-04T11:09:02.931Z</time></trkpt>
      <trkpt lat="38.176390" lon="128.484986"><ele>242.9</ele><time>2026-10-04T11:09:10.115Z</time></trkpt>
      <trkpt lat="38.176433" lon="128.484971"><ele>241.4</ele><time>2026-10-04T11:09:17.274Z</time></trkpt>
      <trkpt lat="38.176476" lon="128.484953"><ele>240.1</ele><time>2026-10-04T11:09:24.471Z</time></trkpt>
      <trkpt lat="38.176518" lon="128.484934"><ele>239.8</ele><time>2026-10-04T11:09:31.661Z</time></trkpt>
      <trkpt lat="38.176557" lon="128.484906"><ele>240.0</ele><time>2026-10-04T11:09:38.815Z</time></trkpt>
      <trkpt lat="38.176596" lon="128.484877"><ele>240.3</ele><time>2026-10-04T11:09:45.981Z</time></trkpt>
      <trkpt lat="38.176638" lon="128.484856"><ele>240.6</ele><time>2026-10-04T11:09:53.171Z</time></trkpt>
      <trkpt lat="38.176679" lon="128.484833"><ele>240.9</ele><time>2026-10-04T11:10:00.342Z</time></trkpt>
      <trkpt lat="38.176716" lon="128.484802"><ele>241.4</ele><time>2026-10-04T11:10:07.519Z</time></trkpt>
      <trkpt lat="38.176750" lon="128.484764"><ele>242.5</ele><time>2026-10-04T11:10:14.712Z</time></trkpt>
      <trkpt lat="38.176786" lon="128.484730"><ele>243.7</ele><time>2026-10-04T11:10:21.873Z</time></trkpt>
      <trkpt lat="38.176824" lon="128.484701"><ele>244.6</ele><time>2026-10-04T11:10:29.072Z</time></trkpt>
      <trkpt lat="38.176857" lon="128.484663"><ele>245.4</ele><time>2026-10-04T11:10:36.164Z</time></trkpt>
      <trkpt lat="38.176888" lon="128.484622"><ele>246.1</ele><time>2026-10-04T11:10:43.345Z</time></trkpt>
      <trkpt lat="38.176920" lon="128.484582"><ele>246.7</ele><time>2026-10-04T11:10:50.542Z</time></trkpt>
      <trkpt lat="38.176955" lon="128.484545"><ele>247.2</ele><time>2026-10-04T11:10:57.719Z</time></trkpt>
      <trkpt lat="38.176989" lon="128.484509"><ele>247.8</ele><time>2026-10-04T11:11:04.915Z</time></trkpt>
      <trkpt lat="38.177024" lon="128.484472"><ele>248.5</ele><time>2026-10-04T11:11:12.115Z</time></trkpt>
      <trkpt lat="38.177058" lon="128.484435"><ele>248.9</ele><time>2026-10-04T11:11:19.315Z</time></trkpt>
      <trkpt lat="38.177097" lon="128.484407"><ele>249.4</ele><time>2026-10-04T11:11:26.454Z</time></trkpt>
      <trkpt lat="38.177127" lon="128.484367"><ele>249.8</ele><time>2026-10-04T11:11:33.418Z</time></trkpt>
      <trkpt lat="38.177156" lon="128.484324"><ele>250.2</ele><time>2026-10-04T11:11:40.607Z</time></trkpt>
      <trkpt lat="38.177189" lon="128.484285"><ele>250.6</ele><time>2026-10-04T11:11:47.799Z</time></trkpt>
      <trkpt lat="38.177226" lon="128.484252"><ele>251.4</ele><time>2026-10-04T11:11:54.994Z</time></trkpt>
      <trkpt lat="38.177259" lon="128.484214"><ele>252.2</ele><time>2026-10-04T11:12:02.185Z</time></trkpt>
      <trkpt lat="38.177287" lon="128.484169"><ele>252.8</ele><time>2026-10-04T11:12:09.372Z</time></trkpt>
      <trkpt lat="38.177319" lon="128.484130"><ele>253.7</ele><time>2026-10-04T11:12:16.558Z</time></trkpt>
      <trkpt lat="38.177344" lon="128.484082"><ele>254.3</ele><time>2026-10-04T11:12:23.726Z</time></trkpt>
      <trkpt lat="38.177362" lon="128.484030"><ele>255.2</ele><time>2026-10-04T11:12:30.916Z</time></trkpt>
      <trkpt lat="38.177387" lon="128.483982"><ele>256.0</ele><time>2026-10-04T11:12:38.098Z</time></trkpt>
      <trkpt lat="38.177405" lon="128.483930"><ele>257.0</ele><time>2026-10-04T11:12:45.283Z</time></trkpt>
      <trkpt lat="38.177409" lon="128.483873"><ele>258.5</ele><time>2026-10-04T11:12:52.443Z</time></trkpt>
      <trkpt lat="38.177410" lon="128.483816"><ele>259.6</ele><time>2026-10-04T11:12:59.643Z</time></trkpt>
      <trkpt lat="38.177416" lon="128.483760"><ele>260.9</ele><time>2026-10-04T11:13:06.836Z</time></trkpt>
      <trkpt lat="38.177429" lon="128.483705"><ele>262.5</ele><time>2026-10-04T11:13:14.031Z</time></trkpt>
      <trkpt lat="38.177453" lon="128.483657"><ele>263.7</ele><time>2026-10-04T11:13:21.204Z</time></trkpt>
      <trkpt lat="38.177483" lon="128.483615"><ele>264.8</ele><time>2026-10-04T11:13:28.397Z</time></trkpt>
      <trkpt lat="38.177514" lon="128.483573"><ele>266.0</ele><time>2026-10-04T11:13:35.597Z</time></trkpt>
      <trkpt lat="38.177532" lon="128.483520"><ele>268.0</ele><time>2026-10-04T11:13:42.764Z</time></trkpt>
      <trkpt lat="38.177561" lon="128.483478"><ele>268.7</ele><time>2026-10-04T11:13:49.934Z</time></trkpt>
      <trkpt lat="38.177599" lon="128.483446"><ele>268.9</ele><time>2026-10-04T11:13:57.123Z</time></trkpt>
      <trkpt lat="38.177641" lon="128.483428"><ele>268.7</ele><time>2026-10-04T11:14:04.311Z</time></trkpt>
      <trkpt lat="38.177685" lon="128.483418"><ele>267.1</ele><time>2026-10-04T11:14:11.508Z</time></trkpt>
      <trkpt lat="38.177730" lon="128.483406"><ele>265.4</ele><time>2026-10-04T11:14:18.708Z</time></trkpt>
      <trkpt lat="38.177774" lon="128.483396"><ele>263.8</ele><time>2026-10-04T11:14:25.908Z</time></trkpt>
      <trkpt lat="38.177818" lon="128.483401"><ele>262.2</ele><time>2026-10-04T11:14:33.096Z</time></trkpt>
      <trkpt lat="38.177861" lon="128.483418"><ele>260.8</ele><time>2026-10-04T11:14:40.289Z</time></trkpt>
      <trkpt lat="38.177906" lon="128.483426"><ele>259.9</ele><time>2026-10-04T11:14:47.484Z</time></trkpt>
      <trkpt lat="38.177951" lon="128.483431"><ele>259.4</ele><time>2026-10-04T11:14:54.684Z</time></trkpt>
      <trkpt lat="38.177991" lon="128.483456"><ele>258.5</ele><time>2026-10-04T11:15:01.863Z</time></trkpt>
      <trkpt lat="38.178032" lon="128.483480"><ele>257.8</ele><time>2026-10-04T11:15:09.063Z</time></trkpt>
      <trkpt lat="38.178074" lon="128.483499"><ele>257.3</ele><time>2026-10-04T11:15:16.262Z</time></trkpt>
      <trkpt lat="38.178115" lon="128.483522"><ele>257.1</ele><time>2026-10-04T11:15:23.461Z</time></trkpt>
      <trkpt lat="38.178158" lon="128.483505"><ele>257.1</ele><time>2026-10-04T11:15:30.591Z</time></trkpt>
      <trkpt lat="38.178195" lon="128.483473"><ele>257.4</ele><time>2026-10-04T11:15:37.783Z</time></trkpt>
      <trkpt lat="38.178232" lon="128.483440"><ele>257.8</ele><time>2026-10-04T11:15:44.983Z</time></trkpt>
      <trkpt lat="38.178266" lon="128.483403"><ele>258.5</ele><time>2026-10-04T11:15:52.182Z</time></trkpt>
      <trkpt lat="38.178292" lon="128.483356"><ele>259.3</ele><time>2026-10-04T11:15:59.375Z</time></trkpt>
      <trkpt lat="38.178310" lon="128.483304"><ele>259.9</ele><time>2026-10-04T11:16:06.571Z</time></trkpt>
      <trkpt lat="38.178333" lon="128.483255"><ele>260.5</ele><time>2026-10-04T11:16:13.769Z</time></trkpt>
      <trkpt lat="38.178360" lon="128.483209"><ele>261.3</ele><time>2026-10-04T11:16:20.968Z</time></trkpt>
      <trkpt lat="38.178380" lon="128.483158"><ele>261.7</ele><time>2026-10-04T11:16:28.168Z</time></trkpt>
      <trkpt lat="38.178402" lon="128.483108"><ele>262.2</ele><time>2026-10-04T11:16:35.352Z</time></trkpt>
      <trkpt lat="38.178414" lon="128.483053"><ele>262.8</ele><time>2026-10-04T11:16:42.545Z</time></trkpt>
      <trkpt lat="38.178432" lon="128.483000"><ele>263.3</ele><time>2026-10-04T11:16:49.744Z</time></trkpt>
      <trkpt lat="38.178447" lon="128.482946"><ele>263.7</ele><time>2026-10-04T11:16:56.927Z</time></trkpt>
      <trkpt lat="38.178452" lon="128.482890"><ele>264.1</ele><time>2026-10-04T11:17:04.119Z</time></trkpt>
      <trkpt lat="38.178464" lon="128.482835"><ele>264.2</ele><time>2026-10-04T11:17:11.318Z</time></trkpt>
      <trkpt lat="38.178477" lon="128.482780"><ele>264.2</ele><time>2026-10-04T11:17:18.496Z</time></trkpt>
      <trkpt lat="38.178482" lon="128.482723"><ele>264.3</ele><time>2026-10-04T11:17:25.696Z</time></trkpt>
      <trkpt lat="38.178486" lon="128.482666"><ele>264.4</ele><time>2026-10-04T11:17:32.895Z</time></trkpt>
      <trkpt lat="38.178494" lon="128.482610"><ele>264.5</ele><time>2026-10-04T11:17:40.069Z</time></trkpt>
      <trkpt lat="38.178511" lon="128.482557"><ele>264.8</ele><time>2026-10-04T11:17:47.269Z</time></trkpt>
      <trkpt lat="38.178527" lon="128.482504"><ele>265.1</ele><time>2026-10-04T11:17:54.462Z</time></trkpt>
      <trkpt lat="38.178537" lon="128.482448"><ele>265.2</ele><time>2026-10-04T11:18:01.609Z</time></trkpt>
      <trkpt lat="38.178535" lon="128.482391"><ele>265.1</ele><time>2026-10-04T11:18:08.803Z</time></trkpt>
      <trkpt lat="38.178542" lon="128.482336"><ele>265.1</ele><time>2026-10-04T11:18:15.883Z</time></trkpt>
      <trkpt lat="38.178563" lon="128.482285"><ele>264.8</ele><time>2026-10-04T11:18:23.061Z</time></trkpt>
      <trkpt lat="38.178579" lon="128.482232"><ele>264.4</ele><time>2026-10-04T11:18:30.240Z</time></trkpt>
      <trkpt lat="38.178601" lon="128.482182"><ele>263.8</ele><time>2026-10-04T11:18:37.440Z</time></trkpt>
      <trkpt lat="38.178622" lon="128.482132"><ele>263.2</ele><time>2026-10-04T11:18:44.633Z</time></trkpt>
      <trkpt lat="38.178646" lon="128.482083"><ele>262.8</ele><time>2026-10-04T11:18:51.816Z</time></trkpt>
      <trkpt lat="38.178664" lon="128.482031"><ele>263.4</ele><time>2026-10-04T11:18:59.015Z</time></trkpt>
      <trkpt lat="38.178682" lon="128.481978"><ele>266.8</ele><time>2026-10-04T11:19:06.176Z</time></trkpt>
      <trkpt lat="38.178691" lon="128.481922"><ele>267.4</ele><time>2026-10-04T11:19:13.375Z</time></trkpt>
      <trkpt lat="38.178698" lon="128.481866"><ele>267.5</ele><time>2026-10-04T11:19:20.575Z</time></trkpt>
      <trkpt lat="38.178706" lon="128.481810"><ele>267.4</ele><time>2026-10-04T11:19:27.773Z</time></trkpt>
      <trkpt lat="38.178712" lon="128.481753"><ele>266.3</ele><time>2026-10-04T11:19:34.970Z</time></trkpt>
      <trkpt lat="38.178720" lon="128.481697"><ele>266.1</ele><time>2026-10-04T11:19:42.168Z</time></trkpt>
      <trkpt lat="38.178722" lon="128.481640"><ele>268.7</ele><time>2026-10-04T11:19:49.302Z</time></trkpt>
      <trkpt lat="38.178711" lon="128.481585"><ele>269.6</ele><time>2026-10-04T11:19:56.460Z</time></trkpt>
      <trkpt lat="38.178698" lon="128.481532"><ele>270.3</ele><time>2026-10-04T11:20:03.480Z</time></trkpt>
      <trkpt lat="38.178705" lon="128.481476"><ele>272.1</ele><time>2026-10-04T11:20:10.621Z</time></trkpt>
      <trkpt lat="38.178720" lon="128.481422"><ele>274.0</ele><time>2026-10-04T11:20:17.818Z</time></trkpt>
      <trkpt lat="38.178734" lon="128.481368"><ele>271.2</ele><time>2026-10-04T11:20:25.018Z</time></trkpt>
      <trkpt lat="38.178746" lon="128.481313"><ele>271.2</ele><time>2026-10-04T11:20:32.207Z</time></trkpt>
      <trkpt lat="38.178751" lon="128.481256"><ele>272.9</ele><time>2026-10-04T11:20:39.363Z</time></trkpt>
      <trkpt lat="38.178752" lon="128.481200"><ele>275.7</ele><time>2026-10-04T11:20:46.488Z</time></trkpt>
      <trkpt lat="38.178768" lon="128.481147"><ele>273.3</ele><time>2026-10-04T11:20:53.618Z</time></trkpt>
      <trkpt lat="38.178792" lon="128.481098"><ele>274.0</ele><time>2026-10-04T11:21:00.817Z</time></trkpt>
      <trkpt lat="38.178817" lon="128.481051"><ele>275.4</ele><time>2026-10-04T11:21:07.981Z</time></trkpt>
      <trkpt lat="38.178848" lon="128.481009"><ele>275.6</ele><time>2026-10-04T11:21:15.176Z</time></trkpt>
      <trkpt lat="38.178876" lon="128.480965"><ele>273.5</ele><time>2026-10-04T11:21:22.376Z</time></trkpt>
      <trkpt lat="38.178902" lon="128.480918"><ele>274.0</ele><time>2026-10-04T11:21:29.538Z</time></trkpt>
      <trkpt lat="38.178923" lon="128.480868"><ele>274.6</ele><time>2026-10-04T11:21:36.706Z</time></trkpt>
      <trkpt lat="38.178947" lon="128.480821"><ele>275.0</ele><time>2026-10-04T11:21:43.806Z</time></trkpt>
      <trkpt lat="38.178959" lon="128.480766"><ele>274.9</ele><time>2026-10-04T11:21:51.005Z</time></trkpt>
      <trkpt lat="38.178973" lon="128.480712"><ele>275.2</ele><time>2026-10-04T11:21:58.160Z</time></trkpt>
      <trkpt lat="38.178994" lon="128.480661"><ele>275.7</ele><time>2026-10-04T11:22:05.354Z</time></trkpt>
      <trkpt lat="38.179010" lon="128.480608"><ele>276.3</ele><time>2026-10-04T11:22:12.538Z</time></trkpt>
      <trkpt lat="38.179030" lon="128.480561"><ele>276.7</ele><time>2026-10-04T11:22:19.270Z</time></trkpt>
      <trkpt lat="38.179064" lon="128.480527"><ele>277.3</ele><time>2026-10-04T11:22:26.239Z</time></trkpt>
      <trkpt lat="38.179084" lon="128.480475"><ele>277.9</ele><time>2026-10-04T11:22:33.405Z</time></trkpt>
      <trkpt lat="38.179103" lon="128.480425"><ele>278.4</ele><time>2026-10-04T11:22:40.470Z</time></trkpt>
      <trkpt lat="38.179132" lon="128.480381"><ele>278.7</ele><time>2026-10-04T11:22:47.669Z</time></trkpt>
      <trkpt lat="38.179166" lon="128.480345"><ele>278.9</ele><time>2026-10-04T11:22:54.759Z</time></trkpt>
      <trkpt lat="38.179207" lon="128.480323"><ele>278.9</ele><time>2026-10-04T11:23:01.911Z</time></trkpt>
      <trkpt lat="38.179250" lon="128.480309"><ele>278.9</ele><time>2026-10-04T11:23:09.111Z</time></trkpt>
      <trkpt lat="38.179292" lon="128.480289"><ele>278.9</ele><time>2026-10-04T11:23:16.244Z</time></trkpt>
      <trkpt lat="38.179330" lon="128.480259"><ele>279.6</ele><time>2026-10-04T11:23:23.430Z</time></trkpt>
      <trkpt lat="38.179366" lon="128.480224"><ele>281.7</ele><time>2026-10-04T11:23:30.626Z</time></trkpt>
      <trkpt lat="38.179401" lon="128.480189"><ele>283.5</ele><time>2026-10-04T11:23:37.819Z</time></trkpt>
      <trkpt lat="38.179438" lon="128.480155"><ele>283.9</ele><time>2026-10-04T11:23:45.018Z</time></trkpt>
      <trkpt lat="38.179473" lon="128.480120"><ele>284.7</ele><time>2026-10-04T11:23:52.218Z</time></trkpt>
      <trkpt lat="38.179508" lon="128.480085"><ele>286.1</ele><time>2026-10-04T11:23:59.416Z</time></trkpt>
      <trkpt lat="38.179544" lon="128.480049"><ele>286.6</ele><time>2026-10-04T11:24:06.612Z</time></trkpt>
      <trkpt lat="38.179580" lon="128.480016"><ele>288.8</ele><time>2026-10-04T11:24:13.812Z</time></trkpt>
      <trkpt lat="38.179616" lon="128.479982"><ele>293.3</ele><time>2026-10-04T11:24:21.004Z</time></trkpt>
      <trkpt lat="38.179650" lon="128.479945"><ele>294.5</ele><time>2026-10-04T11:24:28.203Z</time></trkpt>
      <trkpt lat="38.179680" lon="128.479902"><ele>292.7</ele><time>2026-10-04T11:24:35.332Z</time></trkpt>
      <trkpt lat="38.179704" lon="128.479854"><ele>291.2</ele><time>2026-10-04T11:24:42.531Z</time></trkpt>
      <trkpt lat="38.179729" lon="128.479807"><ele>288.5</ele><time>2026-10-04T11:24:49.721Z</time></trkpt>
      <trkpt lat="38.179760" lon="128.479765"><ele>285.2</ele><time>2026-10-04T11:24:56.890Z</time></trkpt>
      <trkpt lat="38.179794" lon="128.479728"><ele>283.8</ele><time>2026-10-04T11:25:04.087Z</time></trkpt>
      <trkpt lat="38.179827" lon="128.479689"><ele>284.0</ele><time>2026-10-04T11:25:11.254Z</time></trkpt>
      <trkpt lat="38.179858" lon="128.479648"><ele>284.5</ele><time>2026-10-04T11:25:18.441Z</time></trkpt>
      <trkpt lat="38.179894" lon="128.479613"><ele>285.3</ele><time>2026-10-04T11:25:25.615Z</time></trkpt>
      <trkpt lat="38.179930" lon="128.479581"><ele>286.3</ele><time>2026-10-04T11:25:32.811Z</time></trkpt>
      <trkpt lat="38.179968" lon="128.479549"><ele>287.4</ele><time>2026-10-04T11:25:40.000Z</time></trkpt>
      <trkpt lat="38.180004" lon="128.479516"><ele>288.8</ele><time>2026-10-04T11:25:47.175Z</time></trkpt>
      <trkpt lat="38.180040" lon="128.479481"><ele>290.0</ele><time>2026-10-04T11:25:54.372Z</time></trkpt>
      <trkpt lat="38.180081" lon="128.479471"><ele>290.8</ele><time>2026-10-04T11:26:01.078Z</time></trkpt>
      <trkpt lat="38.180123" lon="128.479458"><ele>291.8</ele><time>2026-10-04T11:26:07.963Z</time></trkpt>
      <trkpt lat="38.180165" lon="128.479439"><ele>292.4</ele><time>2026-10-04T11:26:15.119Z</time></trkpt>
      <trkpt lat="38.180209" lon="128.479433"><ele>292.9</ele><time>2026-10-04T11:26:22.265Z</time></trkpt>
      <trkpt lat="38.180254" lon="128.479427"><ele>293.3</ele><time>2026-10-04T11:26:29.448Z</time></trkpt>
      <trkpt lat="38.180298" lon="128.479432"><ele>293.7</ele><time>2026-10-04T11:26:36.520Z</time></trkpt>
      <trkpt lat="38.180342" lon="128.479442"><ele>293.9</ele><time>2026-10-04T11:26:43.713Z</time></trkpt>
      <trkpt lat="38.180387" lon="128.479447"><ele>294.0</ele><time>2026-10-04T11:26:50.903Z</time></trkpt>
      <trkpt lat="38.180431" lon="128.479453"><ele>294.4</ele><time>2026-10-04T11:26:58.090Z</time></trkpt>
      <trkpt lat="38.180475" lon="128.479466"><ele>295.0</ele><time>2026-10-04T11:27:05.282Z</time></trkpt>
      <trkpt lat="38.180517" lon="128.479485"><ele>295.0</ele><time>2026-10-04T11:27:12.466Z</time></trkpt>
      <trkpt lat="38.180560" lon="128.479502"><ele>295.0</ele><time>2026-10-04T11:27:19.644Z</time></trkpt>
      <trkpt lat="38.180605" lon="128.479509"><ele>294.8</ele><time>2026-10-04T11:27:26.818Z</time></trkpt>
      <trkpt lat="38.180649" lon="128.479515"><ele>294.0</ele><time>2026-10-04T11:27:34.009Z</time></trkpt>
      <trkpt lat="38.180693" lon="128.479506"><ele>293.3</ele><time>2026-10-04T11:27:41.027Z</time></trkpt>
      <trkpt lat="38.180737" lon="128.479495"><ele>293.5</ele><time>2026-10-04T11:27:48.197Z</time></trkpt>
      <trkpt lat="38.180781" lon="128.479489"><ele>295.0</ele><time>2026-10-04T11:27:55.397Z</time></trkpt>
      <trkpt lat="38.180826" lon="128.479479"><ele>296.0</ele><time>2026-10-04T11:28:02.591Z</time></trkpt>
      <trkpt lat="38.180869" lon="128.479466"><ele>296.2</ele><time>2026-10-04T11:28:09.790Z</time></trkpt>
      <trkpt lat="38.180913" lon="128.479472"><ele>296.2</ele><time>2026-10-04T11:28:16.839Z</time></trkpt>
      <trkpt lat="38.180957" lon="128.479484"><ele>295.3</ele><time>2026-10-04T11:28:24.038Z</time></trkpt>
      <trkpt lat="38.181002" lon="128.479493"><ele>293.4</ele><time>2026-10-04T11:28:31.236Z</time></trkpt>
      <trkpt lat="38.181046" lon="128.479502"><ele>294.8</ele><time>2026-10-04T11:28:38.435Z</time></trkpt>
      <trkpt lat="38.181090" lon="128.479510"><ele>296.1</ele><time>2026-10-04T11:28:45.633Z</time></trkpt>
      <trkpt lat="38.181135" lon="128.479512"><ele>296.2</ele><time>2026-10-04T11:28:52.824Z</time></trkpt>
      <trkpt lat="38.181180" lon="128.479504"><ele>296.3</ele><time>2026-10-04T11:28:59.991Z</time></trkpt>
      <trkpt lat="38.181224" lon="128.479494"><ele>295.8</ele><time>2026-10-04T11:29:07.189Z</time></trkpt>
      <trkpt lat="38.181268" lon="128.479484"><ele>294.2</ele><time>2026-10-04T11:29:14.388Z</time></trkpt>
      <trkpt lat="38.181307" lon="128.479457"><ele>295.4</ele><time>2026-10-04T11:29:21.473Z</time></trkpt>
      <trkpt lat="38.181343" lon="128.479422"><ele>297.4</ele><time>2026-10-04T11:29:28.671Z</time></trkpt>
      <trkpt lat="38.181379" lon="128.479389"><ele>298.6</ele><time>2026-10-04T11:29:35.870Z</time></trkpt>
      <trkpt lat="38.181414" lon="128.479353"><ele>299.5</ele><time>2026-10-04T11:29:43.069Z</time></trkpt>
      <trkpt lat="38.181444" lon="128.479311"><ele>299.7</ele><time>2026-10-04T11:29:50.236Z</time></trkpt>
      <trkpt lat="38.181465" lon="128.479260"><ele>298.8</ele><time>2026-10-04T11:29:57.399Z</time></trkpt>
      <trkpt lat="38.181474" lon="128.479205"><ele>298.4</ele><time>2026-10-04T11:30:04.555Z</time></trkpt>
      <trkpt lat="38.181479" lon="128.479148"><ele>298.9</ele><time>2026-10-04T11:30:11.754Z</time></trkpt>
      <trkpt lat="38.181486" lon="128.479091"><ele>299.5</ele><time>2026-10-04T11:30:18.954Z</time></trkpt>
      <trkpt lat="38.181498" lon="128.479036"><ele>300.0</ele><time>2026-10-04T11:30:26.141Z</time></trkpt>
      <trkpt lat="38.181520" lon="128.478986"><ele>300.5</ele><time>2026-10-04T11:30:33.307Z</time></trkpt>
      <trkpt lat="38.181549" lon="128.478943"><ele>300.9</ele><time>2026-10-04T11:30:40.485Z</time></trkpt>
      <trkpt lat="38.181580" lon="128.478902"><ele>301.1</ele><time>2026-10-04T11:30:47.685Z</time></trkpt>
      <trkpt lat="38.181613" lon="128.478863"><ele>301.2</ele><time>2026-10-04T11:30:54.883Z</time></trkpt>
      <trkpt lat="38.181650" lon="128.478831"><ele>301.3</ele><time>2026-10-04T11:31:02.062Z</time></trkpt>
      <trkpt lat="38.181684" lon="128.478794"><ele>301.3</ele><time>2026-10-04T11:31:09.236Z</time></trkpt>
      <trkpt lat="38.181712" lon="128.478749"><ele>303.1</ele><time>2026-10-04T11:31:16.425Z</time></trkpt>
      <trkpt lat="38.181742" lon="128.478706"><ele>305.4</ele><time>2026-10-04T11:31:23.621Z</time></trkpt>
      <trkpt lat="38.181769" lon="128.478660"><ele>307.6</ele><time>2026-10-04T11:31:30.813Z</time></trkpt>
      <trkpt lat="38.181808" lon="128.478636"><ele>309.1</ele><time>2026-10-04T11:31:37.873Z</time></trkpt>
      <trkpt lat="38.181848" lon="128.478610"><ele>309.3</ele><time>2026-10-04T11:31:45.005Z</time></trkpt>
      <trkpt lat="38.181876" lon="128.478565"><ele>308.3</ele><time>2026-10-04T11:31:52.205Z</time></trkpt>
      <trkpt lat="38.181905" lon="128.478521"><ele>306.7</ele><time>2026-10-04T11:31:59.400Z</time></trkpt>
      <trkpt lat="38.181937" lon="128.478482"><ele>304.9</ele><time>2026-10-04T11:32:06.599Z</time></trkpt>
      <trkpt lat="38.181971" lon="128.478444"><ele>303.5</ele><time>2026-10-04T11:32:13.786Z</time></trkpt>
      <trkpt lat="38.181999" lon="128.478400"><ele>303.2</ele><time>2026-10-04T11:32:20.985Z</time></trkpt>
      <trkpt lat="38.182030" lon="128.478359"><ele>303.4</ele><time>2026-10-04T11:32:28.162Z</time></trkpt>
      <trkpt lat="38.182067" lon="128.478325"><ele>303.6</ele><time>2026-10-04T11:32:35.322Z</time></trkpt>
      <trkpt lat="38.182095" lon="128.478281"><ele>303.9</ele><time>2026-10-04T11:32:42.514Z</time></trkpt>
      <trkpt lat="38.182126" lon="128.478240"><ele>304.4</ele><time>2026-10-04T11:32:49.692Z</time></trkpt>
      <trkpt lat="38.182152" lon="128.478193"><ele>305.6</ele><time>2026-10-04T11:32:56.872Z</time></trkpt>
      <trkpt lat="38.182185" lon="128.478156"><ele>309.6</ele><time>2026-10-04T11:33:03.966Z</time></trkpt>
      <trkpt lat="38.182227" lon="128.478137"><ele>310.2</ele><time>2026-10-04T11:33:11.138Z</time></trkpt>
      <trkpt lat="38.182265" lon="128.478107"><ele>310.8</ele><time>2026-10-04T11:33:18.326Z</time></trkpt>
      <trkpt lat="38.182301" lon="128.478072"><ele>311.9</ele><time>2026-10-04T11:33:25.495Z</time></trkpt>
      <trkpt lat="38.182341" lon="128.478047"><ele>314.2</ele><time>2026-10-04T11:33:32.695Z</time></trkpt>
      <trkpt lat="38.182381" lon="128.478021"><ele>313.0</ele><time>2026-10-04T11:33:39.890Z</time></trkpt>
      <trkpt lat="38.182419" lon="128.477990"><ele>316.2</ele><time>2026-10-04T11:33:47.077Z</time></trkpt>
      <trkpt lat="38.182453" lon="128.477953"><ele>316.5</ele><time>2026-10-04T11:33:54.271Z</time></trkpt>
      <trkpt lat="38.182489" lon="128.477918"><ele>316.4</ele><time>2026-10-04T11:34:01.446Z</time></trkpt>
      <trkpt lat="38.182519" lon="128.477876"><ele>315.2</ele><time>2026-10-04T11:34:08.644Z</time></trkpt>
      <trkpt lat="38.182551" lon="128.477836"><ele>316.6</ele><time>2026-10-04T11:34:15.842Z</time></trkpt>
      <trkpt lat="38.182586" lon="128.477801"><ele>314.8</ele><time>2026-10-04T11:34:23.016Z</time></trkpt>
      <trkpt lat="38.182624" lon="128.477771"><ele>315.5</ele><time>2026-10-04T11:34:30.089Z</time></trkpt>
      <trkpt lat="38.182648" lon="128.477723"><ele>316.3</ele><time>2026-10-04T11:34:37.286Z</time></trkpt>
      <trkpt lat="38.182671" lon="128.477673"><ele>315.9</ele><time>2026-10-04T11:34:44.484Z</time></trkpt>
      <trkpt lat="38.182694" lon="128.477624"><ele>314.2</ele><time>2026-10-04T11:34:51.672Z</time></trkpt>
      <trkpt lat="38.182714" lon="128.477573"><ele>314.8</ele><time>2026-10-04T11:34:58.852Z</time></trkpt>
      <trkpt lat="38.182739" lon="128.477526"><ele>315.6</ele><time>2026-10-04T11:35:06.052Z</time></trkpt>
      <trkpt lat="38.182763" lon="128.477477"><ele>316.1</ele><time>2026-10-04T11:35:13.248Z</time></trkpt>
      <trkpt lat="38.182787" lon="128.477431"><ele>316.5</ele><time>2026-10-04T11:35:20.323Z</time></trkpt>
      <trkpt lat="38.182824" lon="128.477397"><ele>316.8</ele><time>2026-10-04T11:35:27.523Z</time></trkpt>
      <trkpt lat="38.182861" lon="128.477364"><ele>317.0</ele><time>2026-10-04T11:35:34.723Z</time></trkpt>
      <trkpt lat="38.182897" lon="128.477331"><ele>317.1</ele><time>2026-10-04T11:35:41.920Z</time></trkpt>
      <trkpt lat="38.182937" lon="128.477307"><ele>317.2</ele><time>2026-10-04T11:35:48.962Z</time></trkpt>
      <trkpt lat="38.182982" lon="128.477300"><ele>317.3</ele><time>2026-10-04T11:35:56.139Z</time></trkpt>
      <trkpt lat="38.183025" lon="128.477284"><ele>317.5</ele><time>2026-10-04T11:36:03.337Z</time></trkpt>
      <trkpt lat="38.183067" lon="128.477265"><ele>317.7</ele><time>2026-10-04T11:36:10.526Z</time></trkpt>
      <trkpt lat="38.183108" lon="128.477242"><ele>317.9</ele><time>2026-10-04T11:36:17.717Z</time></trkpt>
      <trkpt lat="38.183149" lon="128.477219"><ele>318.0</ele><time>2026-10-04T11:36:24.858Z</time></trkpt>
      <trkpt lat="38.183185" lon="128.477185"><ele>318.0</ele><time>2026-10-04T11:36:32.057Z</time></trkpt>
      <trkpt lat="38.183221" lon="128.477150"><ele>318.1</ele><time>2026-10-04T11:36:39.257Z</time></trkpt>
      <trkpt lat="38.183256" lon="128.477114"><ele>318.3</ele><time>2026-10-04T11:36:46.454Z</time></trkpt>
      <trkpt lat="38.183289" lon="128.477075"><ele>318.6</ele><time>2026-10-04T11:36:53.645Z</time></trkpt>
      <trkpt lat="38.183321" lon="128.477036"><ele>318.9</ele><time>2026-10-04T11:37:00.812Z</time></trkpt>
      <trkpt lat="38.183358" lon="128.477004"><ele>319.3</ele><time>2026-10-04T11:37:07.996Z</time></trkpt>
      <trkpt lat="38.183398" lon="128.476977"><ele>319.7</ele><time>2026-10-04T11:37:15.190Z</time></trkpt>
      <trkpt lat="38.183435" lon="128.476945"><ele>320.1</ele><time>2026-10-04T11:37:22.381Z</time></trkpt>
      <trkpt lat="38.183471" lon="128.476910"><ele>320.3</ele><time>2026-10-04T11:37:29.576Z</time></trkpt>
      <trkpt lat="38.183509" lon="128.476882"><ele>320.3</ele><time>2026-10-04T11:37:36.732Z</time></trkpt>
      <trkpt lat="38.183552" lon="128.476868"><ele>320.2</ele><time>2026-10-04T11:37:43.836Z</time></trkpt>
      <trkpt lat="38.183597" lon="128.476864"><ele>320.1</ele><time>2026-10-04T11:37:51.010Z</time></trkpt>
      <trkpt lat="38.183637" lon="128.476843"><ele>320.0</ele><time>2026-10-04T11:37:57.993Z</time></trkpt>
      <trkpt lat="38.183671" lon="128.476805"><ele>319.9</ele><time>2026-10-04T11:38:05.184Z</time></trkpt>
      <trkpt lat="38.183702" lon="128.476764"><ele>320.0</ele><time>2026-10-04T11:38:12.384Z</time></trkpt>
      <trkpt lat="38.183737" lon="128.476727"><ele>320.4</ele><time>2026-10-04T11:38:19.546Z</time></trkpt>
      <trkpt lat="38.183776" lon="128.476701"><ele>320.9</ele><time>2026-10-04T11:38:26.703Z</time></trkpt>
      <trkpt lat="38.183813" lon="128.476671"><ele>321.5</ele><time>2026-10-04T11:38:33.677Z</time></trkpt>
      <trkpt lat="38.183844" lon="128.476630"><ele>322.3</ele><time>2026-10-04T11:38:40.872Z</time></trkpt>
      <trkpt lat="38.183878" lon="128.476593"><ele>323.1</ele><time>2026-10-04T11:38:48.047Z</time></trkpt>
      <trkpt lat="38.183913" lon="128.476558"><ele>324.8</ele><time>2026-10-04T11:38:55.239Z</time></trkpt>
      <trkpt lat="38.183943" lon="128.476516"><ele>327.3</ele><time>2026-10-04T11:39:02.387Z</time></trkpt>
      <trkpt lat="38.183965" lon="128.476466"><ele>329.1</ele><time>2026-10-04T11:39:09.548Z</time></trkpt>
      <trkpt lat="38.183990" lon="128.476420"><ele>329.8</ele><time>2026-10-04T11:39:16.634Z</time></trkpt>
      <trkpt lat="38.184028" lon="128.476390"><ele>330.3</ele><time>2026-10-04T11:39:23.686Z</time></trkpt>
      <trkpt lat="38.184071" lon="128.476374"><ele>329.5</ele><time>2026-10-04T11:39:30.857Z</time></trkpt>
      <trkpt lat="38.184112" lon="128.476355"><ele>328.3</ele><time>2026-10-04T11:39:38.001Z</time></trkpt>
      <trkpt lat="38.184152" lon="128.476328"><ele>328.0</ele><time>2026-10-04T11:39:45.200Z</time></trkpt>
      <trkpt lat="38.184191" lon="128.476298"><ele>328.5</ele><time>2026-10-04T11:39:52.392Z</time></trkpt>
      <trkpt lat="38.184224" lon="128.476261"><ele>328.9</ele><time>2026-10-04T11:39:59.555Z</time></trkpt>
      <trkpt lat="38.184258" lon="128.476224"><ele>329.3</ele><time>2026-10-04T11:40:06.741Z</time></trkpt>
      <trkpt lat="38.184299" lon="128.476201"><ele>332.0</ele><time>2026-10-04T11:40:13.821Z</time></trkpt>
      <trkpt lat="38.184331" lon="128.476165"><ele>335.5</ele><time>2026-10-04T11:40:20.649Z</time></trkpt>
      <trkpt lat="38.184352" lon="128.476115"><ele>338.2</ele><time>2026-10-04T11:40:27.833Z</time></trkpt>
      <trkpt lat="38.184390" lon="128.476102"><ele>339.9</ele><time>2026-10-04T11:40:34.048Z</time></trkpt>
      <trkpt lat="38.184433" lon="128.476118"><ele>340.8</ele><time>2026-10-04T11:40:41.199Z</time></trkpt>
      <trkpt lat="38.184474" lon="128.476141"><ele>341.0</ele><time>2026-10-04T11:40:48.394Z</time></trkpt>
      <trkpt lat="38.184518" lon="128.476141"><ele>338.7</ele><time>2026-10-04T11:40:55.421Z</time></trkpt>
      <trkpt lat="38.184553" lon="128.476108"><ele>334.0</ele><time>2026-10-04T11:41:02.367Z</time></trkpt>
      <trkpt lat="38.184588" lon="128.476072"><ele>332.5</ele><time>2026-10-04T11:41:09.559Z</time></trkpt>
      <trkpt lat="38.184618" lon="128.476030"><ele>332.6</ele><time>2026-10-04T11:41:16.731Z</time></trkpt>
      <trkpt lat="38.184644" lon="128.475983"><ele>333.4</ele><time>2026-10-04T11:41:23.926Z</time></trkpt>
      <trkpt lat="38.184680" lon="128.475952"><ele>338.6</ele><time>2026-10-04T11:41:31.002Z</time></trkpt>
      <trkpt lat="38.184718" lon="128.475922"><ele>340.1</ele><time>2026-10-04T11:41:38.200Z</time></trkpt>
      <trkpt lat="38.184740" lon="128.475873"><ele>343.4</ele><time>2026-10-04T11:41:45.204Z</time></trkpt>
      <trkpt lat="38.184764" lon="128.475825"><ele>346.8</ele><time>2026-10-04T11:41:52.384Z</time></trkpt>
      <trkpt lat="38.184803" lon="128.475799"><ele>349.6</ele><time>2026-10-04T11:41:59.419Z</time></trkpt>
      <trkpt lat="38.184847" lon="128.475787"><ele>350.0</ele><time>2026-10-04T11:42:06.601Z</time></trkpt>
      <trkpt lat="38.184891" lon="128.475791"><ele>348.6</ele><time>2026-10-04T11:42:13.757Z</time></trkpt>
      <trkpt lat="38.184936" lon="128.475786"><ele>347.0</ele><time>2026-10-04T11:42:20.934Z</time></trkpt>
      <trkpt lat="38.184975" lon="128.475758"><ele>344.7</ele><time>2026-10-04T11:42:28.066Z</time></trkpt>
      <trkpt lat="38.185012" lon="128.475726"><ele>344.2</ele><time>2026-10-04T11:42:35.266Z</time></trkpt>
      <trkpt lat="38.185043" lon="128.475685"><ele>344.1</ele><time>2026-10-04T11:42:42.456Z</time></trkpt>
      <trkpt lat="38.185079" lon="128.475650"><ele>346.7</ele><time>2026-10-04T11:42:49.650Z</time></trkpt>
      <trkpt lat="38.185117" lon="128.475619"><ele>349.4</ele><time>2026-10-04T11:42:56.847Z</time></trkpt>
      <trkpt lat="38.185152" lon="128.475584"><ele>352.6</ele><time>2026-10-04T11:43:04.043Z</time></trkpt>
      <trkpt lat="38.185181" lon="128.475540"><ele>355.8</ele><time>2026-10-04T11:43:11.234Z</time></trkpt>
      <trkpt lat="38.185206" lon="128.475493"><ele>358.4</ele><time>2026-10-04T11:43:18.431Z</time></trkpt>
      <trkpt lat="38.185219" lon="128.475438"><ele>357.3</ele><time>2026-10-04T11:43:25.621Z</time></trkpt>
      <trkpt lat="38.185239" lon="128.475386"><ele>355.4</ele><time>2026-10-04T11:43:32.819Z</time></trkpt>
      <trkpt lat="38.185261" lon="128.475337"><ele>351.5</ele><time>2026-10-04T11:43:40.018Z</time></trkpt>
      <trkpt lat="38.185290" lon="128.475293"><ele>349.1</ele><time>2026-10-04T11:43:47.216Z</time></trkpt>
      <trkpt lat="38.185325" lon="128.475257"><ele>347.1</ele><time>2026-10-04T11:43:54.413Z</time></trkpt>
      <trkpt lat="38.185364" lon="128.475230"><ele>346.6</ele><time>2026-10-04T11:44:01.611Z</time></trkpt>
      <trkpt lat="38.185405" lon="128.475205"><ele>348.3</ele><time>2026-10-04T11:44:08.811Z</time></trkpt>
      <trkpt lat="38.185432" lon="128.475160"><ele>350.2</ele><time>2026-10-04T11:44:15.991Z</time></trkpt>
      <trkpt lat="38.185468" lon="128.475125"><ele>351.7</ele><time>2026-10-04T11:44:23.140Z</time></trkpt>
      <trkpt lat="38.185510" lon="128.475106"><ele>353.1</ele><time>2026-10-04T11:44:30.333Z</time></trkpt>
      <trkpt lat="38.185551" lon="128.475083"><ele>354.0</ele><time>2026-10-04T11:44:37.483Z</time></trkpt>
      <trkpt lat="38.185592" lon="128.475085"><ele>354.2</ele><time>2026-10-04T11:44:44.139Z</time></trkpt>
      <trkpt lat="38.185621" lon="128.475124"><ele>353.8</ele><time>2026-10-04T11:44:50.854Z</time></trkpt>
      <trkpt lat="38.185666" lon="128.475118"><ele>354.0</ele><time>2026-10-04T11:44:58.007Z</time></trkpt>
      <trkpt lat="38.185708" lon="128.475100"><ele>354.0</ele><time>2026-10-04T11:45:05.193Z</time></trkpt>
      <trkpt lat="38.185752" lon="128.475094"><ele>354.2</ele><time>2026-10-04T11:45:12.309Z</time></trkpt>
      <trkpt lat="38.185797" lon="128.475105"><ele>354.8</ele><time>2026-10-04T11:45:19.503Z</time></trkpt>
      <trkpt lat="38.185841" lon="128.475108"><ele>355.6</ele><time>2026-10-04T11:45:26.673Z</time></trkpt>
      <trkpt lat="38.185885" lon="128.475097"><ele>356.5</ele><time>2026-10-04T11:45:33.798Z</time></trkpt>
      <trkpt lat="38.185925" lon="128.475071"><ele>357.4</ele><time>2026-10-04T11:45:40.994Z</time></trkpt>
      <trkpt lat="38.185967" lon="128.475052"><ele>358.1</ele><time>2026-10-04T11:45:48.168Z</time></trkpt>
      <trkpt lat="38.186011" lon="128.475042"><ele>359.1</ele><time>2026-10-04T11:45:55.364Z</time></trkpt>
      <trkpt lat="38.186056" lon="128.475036"><ele>361.3</ele><time>2026-10-04T11:46:02.563Z</time></trkpt>
      <trkpt lat="38.186101" lon="128.475029"><ele>365.1</ele><time>2026-10-04T11:46:09.763Z</time></trkpt>
      <trkpt lat="38.186145" lon="128.475022"><ele>367.8</ele><time>2026-10-04T11:46:16.957Z</time></trkpt>
      <trkpt lat="38.186189" lon="128.475008"><ele>371.2</ele><time>2026-10-04T11:46:24.128Z</time></trkpt>
      <trkpt lat="38.186231" lon="128.474987"><ele>372.4</ele><time>2026-10-04T11:46:31.305Z</time></trkpt>
      <trkpt lat="38.186275" lon="128.474976"><ele>372.2</ele><time>2026-10-04T11:46:38.500Z</time></trkpt>
      <trkpt lat="38.186319" lon="128.474971"><ele>370.6</ele><time>2026-10-04T11:46:45.671Z</time></trkpt>
      <trkpt lat="38.186364" lon="128.474974"><ele>369.1</ele><time>2026-10-04T11:46:52.866Z</time></trkpt>
      <trkpt lat="38.186409" lon="128.474970"><ele>369.0</ele><time>2026-10-04T11:47:00.028Z</time></trkpt>
      <trkpt lat="38.186453" lon="128.474961"><ele>370.9</ele><time>2026-10-04T11:47:07.160Z</time></trkpt>
      <trkpt lat="38.186497" lon="128.474968"><ele>373.6</ele><time>2026-10-04T11:47:14.340Z</time></trkpt>
      <trkpt lat="38.186541" lon="128.474981"><ele>374.8</ele><time>2026-10-04T11:47:21.540Z</time></trkpt>
      <trkpt lat="38.186584" lon="128.474998"><ele>375.3</ele><time>2026-10-04T11:47:28.699Z</time></trkpt>
      <trkpt lat="38.186624" lon="128.475023"><ele>374.9</ele><time>2026-10-04T11:47:35.899Z</time></trkpt>
      <trkpt lat="38.186665" lon="128.475047"><ele>372.6</ele><time>2026-10-04T11:47:43.095Z</time></trkpt>
      <trkpt lat="38.186706" lon="128.475070"><ele>370.7</ele><time>2026-10-04T11:47:50.293Z</time></trkpt>
      <trkpt lat="38.186746" lon="128.475095"><ele>370.8</ele><time>2026-10-04T11:47:57.487Z</time></trkpt>
      <trkpt lat="38.186785" lon="128.475125"><ele>371.1</ele><time>2026-10-04T11:48:04.679Z</time></trkpt>
      <trkpt lat="38.186823" lon="128.475155"><ele>371.4</ele><time>2026-10-04T11:48:11.846Z</time></trkpt>
      <trkpt lat="38.186865" lon="128.475171"><ele>371.9</ele><time>2026-10-04T11:48:18.941Z</time></trkpt>
      <trkpt lat="38.186910" lon="128.475175"><ele>372.5</ele><time>2026-10-04T11:48:26.141Z</time></trkpt>
      <trkpt lat="38.186955" lon="128.475179"><ele>373.1</ele><time>2026-10-04T11:48:33.338Z</time></trkpt>
      <trkpt lat="38.187000" lon="128.475185"><ele>373.7</ele><time>2026-10-04T11:48:40.538Z</time></trkpt>
      <trkpt lat="38.187044" lon="128.475193"><ele>374.4</ele><time>2026-10-04T11:48:47.733Z</time></trkpt>
      <trkpt lat="38.187089" lon="128.475202"><ele>375.1</ele><time>2026-10-04T11:48:54.925Z</time></trkpt>
      <trkpt lat="38.187133" lon="128.475205"><ele>375.8</ele><time>2026-10-04T11:49:02.117Z</time></trkpt>
      <trkpt lat="38.187178" lon="128.475205"><ele>377.0</ele><time>2026-10-04T11:49:09.314Z</time></trkpt>
      <trkpt lat="38.187223" lon="128.475209"><ele>379.9</ele><time>2026-10-04T11:49:16.513Z</time></trkpt>
      <trkpt lat="38.187268" lon="128.475210"><ele>383.5</ele><time>2026-10-04T11:49:23.690Z</time></trkpt>
      <trkpt lat="38.187313" lon="128.475203"><ele>385.6</ele><time>2026-10-04T11:49:30.880Z</time></trkpt>
      <trkpt lat="38.187357" lon="128.475194"><ele>386.5</ele><time>2026-10-04T11:49:38.078Z</time></trkpt>
      <trkpt lat="38.187402" lon="128.475189"><ele>386.7</ele><time>2026-10-04T11:49:45.258Z</time></trkpt>
      <trkpt lat="38.187447" lon="128.475190"><ele>385.4</ele><time>2026-10-04T11:49:52.458Z</time></trkpt>
      <trkpt lat="38.187492" lon="128.475191"><ele>383.6</ele><time>2026-10-04T11:49:59.652Z</time></trkpt>
      <trkpt lat="38.187536" lon="128.475186"><ele>383.5</ele><time>2026-10-04T11:50:06.847Z</time></trkpt>
      <trkpt lat="38.187581" lon="128.475181"><ele>384.3</ele><time>2026-10-04T11:50:14.043Z</time></trkpt>
      <trkpt lat="38.187626" lon="128.475182"><ele>385.0</ele><time>2026-10-04T11:50:21.216Z</time></trkpt>
      <trkpt lat="38.187669" lon="128.475195"><ele>385.6</ele><time>2026-10-04T11:50:28.359Z</time></trkpt>
      <trkpt lat="38.187711" lon="128.475217"><ele>385.9</ele><time>2026-10-04T11:50:35.559Z</time></trkpt>
      <trkpt lat="38.187753" lon="128.475237"><ele>386.1</ele><time>2026-10-04T11:50:42.756Z</time></trkpt>
      <trkpt lat="38.187793" lon="128.475261"><ele>387.3</ele><time>2026-10-04T11:50:49.899Z</time></trkpt>
      <trkpt lat="38.187830" lon="128.475294"><ele>391.7</ele><time>2026-10-04T11:50:57.098Z</time></trkpt>
      <trkpt lat="38.187870" lon="128.475319"><ele>396.1</ele><time>2026-10-04T11:51:04.186Z</time></trkpt>
      <trkpt lat="38.187913" lon="128.475336"><ele>397.3</ele><time>2026-10-04T11:51:11.374Z</time></trkpt>
      <trkpt lat="38.187952" lon="128.475363"><ele>397.4</ele><time>2026-10-04T11:51:18.523Z</time></trkpt>
      <trkpt lat="38.187986" lon="128.475400"><ele>396.4</ele><time>2026-10-04T11:51:25.680Z</time></trkpt>
      <trkpt lat="38.188018" lon="128.475440"><ele>392.9</ele><time>2026-10-04T11:51:32.863Z</time></trkpt>
      <trkpt lat="38.188050" lon="128.475480"><ele>389.9</ele><time>2026-10-04T11:51:40.025Z</time></trkpt>
      <trkpt lat="38.188076" lon="128.475527"><ele>390.1</ele><time>2026-10-04T11:51:47.216Z</time></trkpt>
      <trkpt lat="38.188107" lon="128.475565"><ele>393.2</ele><time>2026-10-04T11:51:54.216Z</time></trkpt>
      <trkpt lat="38.188140" lon="128.475603"><ele>397.2</ele><time>2026-10-04T11:52:01.265Z</time></trkpt>
      <trkpt lat="38.188171" lon="128.475643"><ele>399.3</ele><time>2026-10-04T11:52:08.396Z</time></trkpt>
      <trkpt lat="38.188206" lon="128.475680"><ele>400.6</ele><time>2026-10-04T11:52:15.591Z</time></trkpt>
      <trkpt lat="38.188240" lon="128.475718"><ele>403.0</ele><time>2026-10-04T11:52:22.790Z</time></trkpt>
      <trkpt lat="38.188274" lon="128.475755"><ele>405.1</ele><time>2026-10-04T11:52:29.990Z</time></trkpt>
      <trkpt lat="38.188306" lon="128.475794"><ele>407.1</ele><time>2026-10-04T11:52:37.187Z</time></trkpt>
      <trkpt lat="38.188337" lon="128.475836"><ele>413.1</ele><time>2026-10-04T11:52:44.383Z</time></trkpt>
      <trkpt lat="38.188367" lon="128.475879"><ele>419.2</ele><time>2026-10-04T11:52:51.583Z</time></trkpt>
      <trkpt lat="38.188395" lon="128.475923"><ele>422.3</ele><time>2026-10-04T11:52:58.782Z</time></trkpt>
      <trkpt lat="38.188423" lon="128.475968"><ele>423.9</ele><time>2026-10-04T11:53:05.982Z</time></trkpt>
      <trkpt lat="38.188460" lon="128.475985"><ele>428.7</ele><time>2026-10-04T11:53:12.295Z</time></trkpt>
      <trkpt lat="38.188500" lon="128.476004"><ele>432.2</ele><time>2026-10-04T11:53:19.065Z</time></trkpt>
      <trkpt lat="38.188541" lon="128.476024"><ele>433.4</ele><time>2026-10-04T11:53:26.133Z</time></trkpt>
      <trkpt lat="38.188584" lon="128.476013"><ele>433.8</ele><time>2026-10-04T11:53:33.140Z</time></trkpt>
      <trkpt lat="38.188628" lon="128.476020"><ele>433.3</ele><time>2026-10-04T11:53:40.183Z</time></trkpt>
      <trkpt lat="38.188669" lon="128.476043"><ele>433.2</ele><time>2026-10-04T11:53:47.361Z</time></trkpt>
      <trkpt lat="38.188707" lon="128.476074"><ele>434.1</ele><time>2026-10-04T11:53:54.550Z</time></trkpt>
      <trkpt lat="38.188748" lon="128.476097"><ele>434.8</ele><time>2026-10-04T11:54:01.728Z</time></trkpt>
      <trkpt lat="38.188792" lon="128.476103"><ele>434.8</ele><time>2026-10-04T11:54:08.895Z</time></trkpt>
      <trkpt lat="38.188836" lon="128.476113"><ele>434.5</ele><time>2026-10-04T11:54:16.091Z</time></trkpt>
      <trkpt lat="38.188881" lon="128.476116"><ele>433.0</ele><time>2026-10-04T11:54:23.282Z</time></trkpt>
      <trkpt lat="38.188923" lon="128.476097"><ele>430.2</ele><time>2026-10-04T11:54:30.431Z</time></trkpt>
      <trkpt lat="38.188956" lon="128.476058"><ele>427.5</ele><time>2026-10-04T11:54:37.595Z</time></trkpt>
      <trkpt lat="38.188993" lon="128.476026"><ele>428.2</ele><time>2026-10-04T11:54:44.788Z</time></trkpt>
      <trkpt lat="38.189034" lon="128.476003"><ele>430.2</ele><time>2026-10-04T11:54:51.985Z</time></trkpt>
      <trkpt lat="38.189075" lon="128.475980"><ele>434.7</ele><time>2026-10-04T11:54:59.185Z</time></trkpt>
      <trkpt lat="38.189114" lon="128.475950"><ele>438.6</ele><time>2026-10-04T11:55:06.384Z</time></trkpt>
      <trkpt lat="38.189149" lon="128.475915"><ele>439.8</ele><time>2026-10-04T11:55:13.583Z</time></trkpt>
      <trkpt lat="38.189180" lon="128.475873"><ele>440.4</ele><time>2026-10-04T11:55:20.781Z</time></trkpt>
      <trkpt lat="38.189207" lon="128.475827"><ele>440.9</ele><time>2026-10-04T11:55:27.981Z</time></trkpt>
      <trkpt lat="38.189239" lon="128.475788"><ele>440.0</ele><time>2026-10-04T11:55:35.180Z</time></trkpt>
      <trkpt lat="38.189273" lon="128.475750"><ele>440.9</ele><time>2026-10-04T11:55:42.380Z</time></trkpt>
      <trkpt lat="38.189303" lon="128.475707"><ele>444.1</ele><time>2026-10-04T11:55:49.580Z</time></trkpt>
      <trkpt lat="38.189332" lon="128.475664"><ele>447.6</ele><time>2026-10-04T11:55:56.780Z</time></trkpt>
      <trkpt lat="38.189360" lon="128.475619"><ele>451.1</ele><time>2026-10-04T11:56:03.980Z</time></trkpt>
      <trkpt lat="38.189388" lon="128.475574"><ele>454.8</ele><time>2026-10-04T11:56:11.180Z</time></trkpt>
      <trkpt lat="38.189418" lon="128.475532"><ele>456.3</ele><time>2026-10-04T11:56:18.380Z</time></trkpt>
      <trkpt lat="38.189451" lon="128.475493"><ele>456.7</ele><time>2026-10-04T11:56:25.580Z</time></trkpt>
      <trkpt lat="38.189485" lon="128.475456"><ele>455.9</ele><time>2026-10-04T11:56:32.780Z</time></trkpt>
      <trkpt lat="38.189521" lon="128.475420"><ele>453.8</ele><time>2026-10-04T11:56:39.977Z</time></trkpt>
      <trkpt lat="38.189548" lon="128.475375"><ele>450.9</ele><time>2026-10-04T11:56:47.174Z</time></trkpt>
      <trkpt lat="38.189582" lon="128.475338"><ele>446.6</ele><time>2026-10-04T11:56:54.369Z</time></trkpt>
      <trkpt lat="38.189619" lon="128.475306"><ele>442.8</ele><time>2026-10-04T11:57:01.467Z</time></trkpt>
      <trkpt lat="38.189632" lon="128.475253"><ele>440.8</ele><time>2026-10-04T11:57:08.514Z</time></trkpt>
      <trkpt lat="38.189671" lon="128.475227"><ele>440.5</ele><time>2026-10-04T11:57:15.686Z</time></trkpt>
      <trkpt lat="38.189714" lon="128.475211"><ele>437.6</ele><time>2026-10-04T11:57:22.722Z</time></trkpt>
      <trkpt lat="38.189742" lon="128.475166"><ele>437.2</ele><time>2026-10-04T11:57:29.917Z</time></trkpt>
      <trkpt lat="38.189766" lon="128.475118"><ele>437.6</ele><time>2026-10-04T11:57:37.114Z</time></trkpt>
      <trkpt lat="38.189792" lon="128.475072"><ele>437.3</ele><time>2026-10-04T11:57:44.264Z</time></trkpt>
      <trkpt lat="38.189805" lon="128.475017"><ele>438.1</ele><time>2026-10-04T11:57:51.460Z</time></trkpt>
      <trkpt lat="38.189815" lon="128.474961"><ele>439.5</ele><time>2026-10-04T11:57:58.660Z</time></trkpt>
      <trkpt lat="38.189823" lon="128.474905"><ele>441.7</ele><time>2026-10-04T11:58:05.840Z</time></trkpt>
      <trkpt lat="38.189824" lon="128.474848"><ele>442.1</ele><time>2026-10-04T11:58:13.037Z</time></trkpt>
      <trkpt lat="38.189822" lon="128.474791"><ele>443.4</ele><time>2026-10-04T11:58:20.226Z</time></trkpt>
      <trkpt lat="38.189826" lon="128.474734"><ele>446.5</ele><time>2026-10-04T11:58:27.424Z</time></trkpt>
      <trkpt lat="38.189832" lon="128.474677"><ele>448.7</ele><time>2026-10-04T11:58:34.621Z</time></trkpt>
      <trkpt lat="38.189837" lon="128.474621"><ele>448.4</ele><time>2026-10-04T11:58:41.758Z</time></trkpt>
      <trkpt lat="38.189856" lon="128.474569"><ele>449.4</ele><time>2026-10-04T11:58:48.952Z</time></trkpt>
      <trkpt lat="38.189877" lon="128.474519"><ele>450.3</ele><time>2026-10-04T11:58:56.151Z</time></trkpt>
      <trkpt lat="38.189898" lon="128.474468"><ele>449.4</ele><time>2026-10-04T11:59:03.349Z</time></trkpt>
      <trkpt lat="38.189913" lon="128.474417"><ele>447.3</ele><time>2026-10-04T11:59:10.246Z</time></trkpt>
      <trkpt lat="38.189900" lon="128.474363"><ele>447.7</ele><time>2026-10-04T11:59:17.341Z</time></trkpt>
      <trkpt lat="38.189885" lon="128.474311"><ele>450.9</ele><time>2026-10-04T11:59:24.276Z</time></trkpt>
      <trkpt lat="38.189901" lon="128.474262"><ele>456.5</ele><time>2026-10-04T11:59:30.903Z</time></trkpt>
      <trkpt lat="38.189940" lon="128.474240"><ele>459.5</ele><time>2026-10-04T11:59:37.741Z</time></trkpt>
      <trkpt lat="38.189985" lon="128.474238"><ele>461.8</ele><time>2026-10-04T11:59:44.931Z</time></trkpt>
      <trkpt lat="38.190030" lon="128.474240"><ele>463.3</ele><time>2026-10-04T11:59:52.130Z</time></trkpt>
      <trkpt lat="38.190075" lon="128.474238"><ele>461.4</ele><time>2026-10-04T11:59:59.319Z</time></trkpt>
      <trkpt lat="38.190120" lon="128.474234"><ele>458.1</ele><time>2026-10-04T12:00:06.519Z</time></trkpt>
      <trkpt lat="38.190164" lon="128.474226"><ele>455.9</ele><time>2026-10-04T12:00:13.710Z</time></trkpt>
      <trkpt lat="38.190207" lon="128.474212"><ele>454.8</ele><time>2026-10-04T12:00:20.893Z</time></trkpt>
      <trkpt lat="38.190249" lon="128.474189"><ele>454.8</ele><time>2026-10-04T12:00:28.070Z</time></trkpt>
      <trkpt lat="38.190285" lon="128.474156"><ele>455.3</ele><time>2026-10-04T12:00:35.207Z</time></trkpt>
      <trkpt lat="38.190317" lon="128.474116"><ele>455.7</ele><time>2026-10-04T12:00:42.402Z</time></trkpt>
      <trkpt lat="38.190346" lon="128.474073"><ele>456.2</ele><time>2026-10-04T12:00:49.598Z</time></trkpt>
      <trkpt lat="38.190375" lon="128.474029"><ele>456.7</ele><time>2026-10-04T12:00:56.797Z</time></trkpt>
      <trkpt lat="38.190408" lon="128.473990"><ele>457.3</ele><time>2026-10-04T12:01:03.977Z</time></trkpt>
      <trkpt lat="38.190439" lon="128.473949"><ele>458.0</ele><time>2026-10-04T12:01:11.134Z</time></trkpt>
      <trkpt lat="38.190467" lon="128.473904"><ele>458.9</ele><time>2026-10-04T12:01:18.334Z</time></trkpt>
      <trkpt lat="38.190496" lon="128.473860"><ele>459.9</ele><time>2026-10-04T12:01:25.529Z</time></trkpt>
      <trkpt lat="38.190526" lon="128.473818"><ele>461.3</ele><time>2026-10-04T12:01:32.729Z</time></trkpt>
      <trkpt lat="38.190557" lon="128.473777"><ele>466.3</ele><time>2026-10-04T12:01:39.929Z</time></trkpt>
      <trkpt lat="38.190591" lon="128.473739"><ele>471.9</ele><time>2026-10-04T12:01:47.097Z</time></trkpt>
      <trkpt lat="38.190631" lon="128.473717"><ele>475.2</ele><time>2026-10-04T12:01:54.178Z</time></trkpt>
      <trkpt lat="38.190668" lon="128.473687"><ele>480.2</ele><time>2026-10-04T12:02:01.140Z</time></trkpt>
      <trkpt lat="38.190701" lon="128.473648"><ele>486.5</ele><time>2026-10-04T12:02:08.337Z</time></trkpt>
      <trkpt lat="38.190739" lon="128.473620"><ele>487.6</ele><time>2026-10-04T12:02:15.455Z</time></trkpt>
      <trkpt lat="38.190781" lon="128.473598"><ele>484.3</ele><time>2026-10-04T12:02:22.654Z</time></trkpt>
      <trkpt lat="38.190821" lon="128.473571"><ele>488.3</ele><time>2026-10-04T12:02:29.830Z</time></trkpt>
      <trkpt lat="38.190863" lon="128.473555"><ele>489.8</ele><time>2026-10-04T12:02:36.891Z</time></trkpt>
      <trkpt lat="38.190904" lon="128.473534"><ele>486.7</ele><time>2026-10-04T12:02:43.971Z</time></trkpt>
      <trkpt lat="38.190938" lon="128.473498"><ele>486.2</ele><time>2026-10-04T12:02:51.108Z</time></trkpt>
      <trkpt lat="38.190970" lon="128.473457"><ele>487.2</ele><time>2026-10-04T12:02:58.308Z</time></trkpt>
      <trkpt lat="38.191002" lon="128.473417"><ele>488.1</ele><time>2026-10-04T12:03:05.508Z</time></trkpt>
      <trkpt lat="38.191042" lon="128.473396"><ele>489.1</ele><time>2026-10-04T12:03:12.414Z</time></trkpt>
      <trkpt lat="38.191086" lon="128.473385"><ele>489.7</ele><time>2026-10-04T12:03:19.612Z</time></trkpt>
      <trkpt lat="38.191126" lon="128.473361"><ele>490.4</ele><time>2026-10-04T12:03:26.723Z</time></trkpt>
      <trkpt lat="38.191167" lon="128.473338"><ele>490.5</ele><time>2026-10-04T12:03:33.895Z</time></trkpt>
      <trkpt lat="38.191210" lon="128.473321"><ele>485.1</ele><time>2026-10-04T12:03:41.086Z</time></trkpt>
      <trkpt lat="38.191253" lon="128.473307"><ele>482.8</ele><time>2026-10-04T12:03:48.285Z</time></trkpt>
      <trkpt lat="38.191297" lon="128.473292"><ele>483.9</ele><time>2026-10-04T12:03:55.484Z</time></trkpt>
      <trkpt lat="38.191341" lon="128.473290"><ele>484.9</ele><time>2026-10-04T12:04:02.575Z</time></trkpt>
      <trkpt lat="38.191384" lon="128.473278"><ele>486.5</ele><time>2026-10-04T12:04:09.603Z</time></trkpt>
      <trkpt lat="38.191422" lon="128.473249"><ele>491.2</ele><time>2026-10-04T12:04:16.758Z</time></trkpt>
      <trkpt lat="38.191459" lon="128.473215"><ele>494.4</ele><time>2026-10-04T12:04:23.958Z</time></trkpt>
      <trkpt lat="38.191497" lon="128.473185"><ele>495.4</ele><time>2026-10-04T12:04:31.151Z</time></trkpt>
      <trkpt lat="38.191539" lon="128.473166"><ele>496.4</ele><time>2026-10-04T12:04:38.292Z</time></trkpt>
      <trkpt lat="38.191583" lon="128.473152"><ele>497.3</ele><time>2026-10-04T12:04:45.491Z</time></trkpt>
      <trkpt lat="38.191625" lon="128.473132"><ele>495.7</ele><time>2026-10-04T12:04:52.661Z</time></trkpt>
      <trkpt lat="38.191661" lon="128.473100"><ele>495.1</ele><time>2026-10-04T12:04:59.797Z</time></trkpt>
      <trkpt lat="38.191698" lon="128.473067"><ele>496.1</ele><time>2026-10-04T12:05:06.981Z</time></trkpt>
      <trkpt lat="38.191739" lon="128.473047"><ele>497.3</ele><time>2026-10-04T12:05:14.114Z</time></trkpt>
      <trkpt lat="38.191782" lon="128.473029"><ele>498.4</ele><time>2026-10-04T12:05:21.311Z</time></trkpt>
      <trkpt lat="38.191824" lon="128.473009"><ele>499.6</ele><time>2026-10-04T12:05:28.509Z</time></trkpt>
      <trkpt lat="38.191867" lon="128.472992"><ele>500.9</ele><time>2026-10-04T12:05:35.694Z</time></trkpt>
      <trkpt lat="38.191911" lon="128.472984"><ele>502.1</ele><time>2026-10-04T12:05:42.877Z</time></trkpt>
      <trkpt lat="38.191956" lon="128.472980"><ele>503.4</ele><time>2026-10-04T12:05:50.077Z</time></trkpt>
      <trkpt lat="38.192001" lon="128.472974"><ele>504.8</ele><time>2026-10-04T12:05:57.275Z</time></trkpt>
      <trkpt lat="38.192046" lon="128.472972"><ele>506.3</ele><time>2026-10-04T12:06:04.468Z</time></trkpt>
      <trkpt lat="38.192091" lon="128.472976"><ele>507.8</ele><time>2026-10-04T12:06:11.653Z</time></trkpt>
      <trkpt lat="38.192135" lon="128.472982"><ele>509.3</ele><time>2026-10-04T12:06:18.853Z</time></trkpt>
      <trkpt lat="38.192180" lon="128.472992"><ele>511.2</ele><time>2026-10-04T12:06:26.047Z</time></trkpt>
      <trkpt lat="38.192222" lon="128.473010"><ele>512.8</ele><time>2026-10-04T12:06:33.221Z</time></trkpt>
      <trkpt lat="38.192264" lon="128.473032"><ele>514.3</ele><time>2026-10-04T12:06:40.420Z</time></trkpt>
      <trkpt lat="38.192305" lon="128.473055"><ele>516.1</ele><time>2026-10-04T12:06:47.620Z</time></trkpt>
      <trkpt lat="38.192346" lon="128.473079"><ele>518.2</ele><time>2026-10-04T12:06:54.820Z</time></trkpt>
      <trkpt lat="38.192385" lon="128.473107"><ele>519.7</ele><time>2026-10-04T12:07:02.011Z</time></trkpt>
      <trkpt lat="38.192426" lon="128.473130"><ele>521.2</ele><time>2026-10-04T12:07:09.183Z</time></trkpt>
      <trkpt lat="38.192469" lon="128.473145"><ele>523.6</ele><time>2026-10-04T12:07:16.375Z</time></trkpt>
      <trkpt lat="38.192511" lon="128.473167"><ele>529.4</ele><time>2026-10-04T12:07:23.548Z</time></trkpt>
      <trkpt lat="38.192551" lon="128.473192"><ele>537.8</ele><time>2026-10-04T12:07:30.747Z</time></trkpt>
      <trkpt lat="38.192588" lon="128.473225"><ele>544.1</ele><time>2026-10-04T12:07:37.924Z</time></trkpt>
      <trkpt lat="38.192617" lon="128.473267"><ele>553.2</ele><time>2026-10-04T12:07:45.076Z</time></trkpt>
      <trkpt lat="38.192645" lon="128.473313"><ele>562.5</ele><time>2026-10-04T12:07:52.276Z</time></trkpt>
      <trkpt lat="38.192678" lon="128.473351"><ele>567.8</ele><time>2026-10-04T12:07:59.444Z</time></trkpt>
      <trkpt lat="38.192718" lon="128.473377"><ele>570.1</ele><time>2026-10-04T12:08:06.586Z</time></trkpt>
      <trkpt lat="38.192762" lon="128.473385"><ele>574.0</ele><time>2026-10-04T12:08:13.728Z</time></trkpt>
      <trkpt lat="38.192804" lon="128.473403"><ele>579.7</ele><time>2026-10-04T12:08:20.875Z</time></trkpt>
      <trkpt lat="38.192841" lon="128.473435"><ele>580.5</ele><time>2026-10-04T12:08:28.049Z</time></trkpt>
      <trkpt lat="38.192884" lon="128.473452"><ele>578.6</ele><time>2026-10-04T12:08:35.209Z</time></trkpt>
      <trkpt lat="38.192927" lon="128.473468"><ele>573.6</ele><time>2026-10-04T12:08:42.409Z</time></trkpt>
      <trkpt lat="38.192970" lon="128.473486"><ele>569.4</ele><time>2026-10-04T12:08:49.608Z</time></trkpt>
      <trkpt lat="38.193013" lon="128.473501"><ele>565.5</ele><time>2026-10-04T12:08:56.805Z</time></trkpt>
      <trkpt lat="38.193058" lon="128.473507"><ele>563.5</ele><time>2026-10-04T12:09:03.999Z</time></trkpt>
      <trkpt lat="38.193103" lon="128.473509"><ele>571.4</ele><time>2026-10-04T12:09:11.197Z</time></trkpt>
      <trkpt lat="38.193147" lon="128.473504"><ele>583.0</ele><time>2026-10-04T12:09:18.391Z</time></trkpt>
      <trkpt lat="38.193192" lon="128.473493"><ele>595.5</ele><time>2026-10-04T12:09:25.589Z</time></trkpt>
      <trkpt lat="38.193235" lon="128.473476"><ele>605.1</ele><time>2026-10-04T12:09:32.784Z</time></trkpt>
      <trkpt lat="38.193275" lon="128.473451"><ele>606.6</ele><time>2026-10-04T12:09:39.978Z</time></trkpt>
      <trkpt lat="38.193312" lon="128.473418"><ele>604.5</ele><time>2026-10-04T12:09:47.171Z</time></trkpt>
      <trkpt lat="38.193348" lon="128.473384"><ele>603.8</ele><time>2026-10-04T12:09:54.371Z</time></trkpt>
      <trkpt lat="38.193388" lon="128.473357"><ele>606.0</ele><time>2026-10-04T12:10:01.563Z</time></trkpt>
      <trkpt lat="38.193427" lon="128.473330"><ele>610.1</ele><time>2026-10-04T12:10:08.763Z</time></trkpt>
      <trkpt lat="38.193453" lon="128.473283"><ele>612.6</ele><time>2026-10-04T12:10:15.913Z</time></trkpt>
      <trkpt lat="38.193482" lon="128.473240"><ele>614.4</ele><time>2026-10-04T12:10:23.111Z</time></trkpt>
      <trkpt lat="38.193511" lon="128.473196"><ele>615.5</ele><time>2026-10-04T12:10:30.311Z</time></trkpt>
      <trkpt lat="38.193537" lon="128.473150"><ele>616.3</ele><time>2026-10-04T12:10:37.511Z</time></trkpt>
      <trkpt lat="38.193563" lon="128.473102"><ele>612.5</ele><time>2026-10-04T12:10:44.711Z</time></trkpt>
      <trkpt lat="38.193588" lon="128.473055"><ele>611.6</ele><time>2026-10-04T12:10:51.911Z</time></trkpt>
      <trkpt lat="38.193613" lon="128.473008"><ele>611.7</ele><time>2026-10-04T12:10:59.111Z</time></trkpt>
      <trkpt lat="38.193638" lon="128.472960"><ele>611.7</ele><time>2026-10-04T12:11:06.311Z</time></trkpt>
      <trkpt lat="38.193652" lon="128.472906"><ele>620.6</ele><time>2026-10-04T12:11:13.510Z</time></trkpt>
      <trkpt lat="38.193661" lon="128.472850"><ele>625.7</ele><time>2026-10-04T12:11:20.707Z</time></trkpt>
      <trkpt lat="38.193684" lon="128.472801"><ele>627.7</ele><time>2026-10-04T12:11:27.904Z</time></trkpt>
      <trkpt lat="38.193713" lon="128.472758"><ele>628.8</ele><time>2026-10-04T12:11:35.098Z</time></trkpt>
      <trkpt lat="38.193734" lon="128.472707"><ele>631.1</ele><time>2026-10-04T12:11:42.298Z</time></trkpt>
      <trkpt lat="38.193752" lon="128.472654"><ele>632.1</ele><time>2026-10-04T12:11:49.490Z</time></trkpt>
      <trkpt lat="38.193781" lon="128.472611"><ele>624.9</ele><time>2026-10-04T12:11:56.685Z</time></trkpt>
      <trkpt lat="38.193815" lon="128.472574"><ele>618.2</ele><time>2026-10-04T12:12:03.885Z</time></trkpt>
      <trkpt lat="38.193848" lon="128.472535"><ele>607.2</ele><time>2026-10-04T12:12:11.084Z</time></trkpt>
      <trkpt lat="38.193878" lon="128.472492"><ele>594.8</ele><time>2026-10-04T12:12:18.284Z</time></trkpt>
      <trkpt lat="38.193909" lon="128.472450"><ele>588.9</ele><time>2026-10-04T12:12:25.478Z</time></trkpt>
      <trkpt lat="38.193945" lon="128.472417"><ele>589.7</ele><time>2026-10-04T12:12:32.677Z</time></trkpt>
      <trkpt lat="38.193984" lon="128.472388"><ele>591.6</ele><time>2026-10-04T12:12:39.848Z</time></trkpt>
      <trkpt lat="38.194027" lon="128.472386"><ele>594.1</ele><time>2026-10-04T12:12:46.737Z</time></trkpt>
      <trkpt lat="38.194048" lon="128.472437"><ele>596.4</ele><time>2026-10-04T12:12:53.921Z</time></trkpt>
      <trkpt lat="38.194077" lon="128.472481"><ele>598.6</ele><time>2026-10-04T12:13:01.102Z</time></trkpt>
      <trkpt lat="38.194096" lon="128.472532"><ele>601.1</ele><time>2026-10-04T12:13:08.294Z</time></trkpt>
      <trkpt lat="38.194122" lon="128.472579"><ele>603.4</ele><time>2026-10-04T12:13:15.490Z</time></trkpt>
      <trkpt lat="38.194142" lon="128.472630"><ele>605.4</ele><time>2026-10-04T12:13:22.648Z</time></trkpt>
      <trkpt lat="38.194146" lon="128.472687"><ele>606.9</ele><time>2026-10-04T12:13:29.831Z</time></trkpt>
      <trkpt lat="38.194140" lon="128.472743"><ele>608.2</ele><time>2026-10-04T12:13:36.997Z</time></trkpt>
      <trkpt lat="38.194148" lon="128.472799"><ele>609.3</ele><time>2026-10-04T12:13:44.195Z</time></trkpt>
      <trkpt lat="38.194151" lon="128.472856"><ele>610.8</ele><time>2026-10-04T12:13:51.386Z</time></trkpt>
      <trkpt lat="38.194150" lon="128.472913"><ele>612.8</ele><time>2026-10-04T12:13:58.491Z</time></trkpt>
      <trkpt lat="38.194169" lon="128.472965"><ele>615.3</ele><time>2026-10-04T12:14:05.689Z</time></trkpt>
      <trkpt lat="38.194191" lon="128.473015"><ele>618.7</ele><time>2026-10-04T12:14:12.889Z</time></trkpt>
      <trkpt lat="38.194212" lon="128.473065"><ele>622.3</ele><time>2026-10-04T12:14:20.076Z</time></trkpt>
      <trkpt lat="38.194240" lon="128.473111"><ele>626.0</ele><time>2026-10-04T12:14:27.276Z</time></trkpt>
      <trkpt lat="38.194265" lon="128.473157"><ele>629.6</ele><time>2026-10-04T12:14:34.442Z</time></trkpt>
      <trkpt lat="38.194276" lon="128.473212"><ele>633.3</ele><time>2026-10-04T12:14:41.536Z</time></trkpt>
      <trkpt lat="38.194284" lon="128.473267"><ele>636.5</ele><time>2026-10-04T12:14:48.532Z</time></trkpt>
      <trkpt lat="38.194293" lon="128.473320"><ele>639.1</ele><time>2026-10-04T12:14:55.446Z</time></trkpt>
      <trkpt lat="38.194288" lon="128.473377"><ele>641.0</ele><time>2026-10-04T12:15:02.646Z</time></trkpt>
      <trkpt lat="38.194291" lon="128.473433"><ele>645.6</ele><time>2026-10-04T12:15:09.715Z</time></trkpt>
      <trkpt lat="38.194312" lon="128.473482"><ele>649.2</ele><time>2026-10-04T12:15:16.744Z</time></trkpt>
      <trkpt lat="38.194338" lon="128.473529"><ele>653.1</ele><time>2026-10-04T12:15:23.890Z</time></trkpt>
      <trkpt lat="38.194342" lon="128.473581"><ele>656.0</ele><time>2026-10-04T12:15:30.475Z</time></trkpt>
      <trkpt lat="38.194327" lon="128.473635"><ele>658.3</ele><time>2026-10-04T12:15:37.674Z</time></trkpt>
      <trkpt lat="38.194334" lon="128.473689"><ele>660.5</ele><time>2026-10-04T12:15:44.629Z</time></trkpt>
      <trkpt lat="38.194335" lon="128.473746"><ele>662.2</ele><time>2026-10-04T12:15:51.754Z</time></trkpt>
      <trkpt lat="38.194309" lon="128.473789"><ele>662.7</ele><time>2026-10-04T12:15:58.622Z</time></trkpt>
      <trkpt lat="38.194287" lon="128.473839"><ele>663.2</ele><time>2026-10-04T12:16:05.756Z</time></trkpt>
      <trkpt lat="38.194288" lon="128.473876"><ele>663.0</ele><time>2026-10-04T12:16:10.425Z</time></trkpt>
      <trkpt lat="38.194259" lon="128.473920"><ele>660.9</ele><time>2026-10-04T12:16:17.625Z</time></trkpt>
      <trkpt lat="38.194227" lon="128.473960"><ele>658.5</ele><time>2026-10-04T12:16:24.777Z</time></trkpt>
      <trkpt lat="38.194195" lon="128.473999"><ele>656.1</ele><time>2026-10-04T12:16:31.929Z</time></trkpt>
      <trkpt lat="38.194169" lon="128.474045"><ele>654.0</ele><time>2026-10-04T12:16:39.118Z</time></trkpt>
      <trkpt lat="38.194145" lon="128.474094"><ele>652.1</ele><time>2026-10-04T12:16:46.316Z</time></trkpt>
      <trkpt lat="38.194118" lon="128.474140"><ele>650.0</ele><time>2026-10-04T12:16:53.486Z</time></trkpt>
      <trkpt lat="38.194091" lon="128.474185"><ele>648.0</ele><time>2026-10-04T12:17:00.681Z</time></trkpt>
      <trkpt lat="38.194072" lon="128.474236"><ele>646.8</ele><time>2026-10-04T12:17:07.809Z</time></trkpt>
      <trkpt lat="38.194064" lon="128.474292"><ele>646.8</ele><time>2026-10-04T12:17:14.952Z</time></trkpt>
      <trkpt lat="38.194062" lon="128.474349"><ele>647.5</ele><time>2026-10-04T12:17:22.151Z</time></trkpt>
      <trkpt lat="38.194057" lon="128.474406"><ele>648.5</ele><time>2026-10-04T12:17:29.340Z</time></trkpt>
      <trkpt lat="38.194085" lon="128.474420"><ele>653.4</ele><time>2026-10-04T12:17:34.094Z</time></trkpt>
      <trkpt lat="38.194126" lon="128.474419"><ele>657.5</ele><time>2026-10-04T12:17:40.642Z</time></trkpt>
      <trkpt lat="38.194107" lon="128.474467"><ele>656.9</ele><time>2026-10-04T12:17:47.337Z</time></trkpt>
      <trkpt lat="38.194079" lon="128.474512"><ele>653.8</ele><time>2026-10-04T12:17:54.532Z</time></trkpt>
      <trkpt lat="38.194041" lon="128.474542"><ele>650.7</ele><time>2026-10-04T12:18:01.703Z</time></trkpt>
      <trkpt lat="38.194026" lon="128.474594"><ele>648.5</ele><time>2026-10-04T12:18:08.685Z</time></trkpt>
      <trkpt lat="38.194029" lon="128.474649"><ele>648.5</ele><time>2026-10-04T12:18:15.665Z</time></trkpt>
      <trkpt lat="38.194008" lon="128.474699"><ele>650.4</ele><time>2026-10-04T12:18:22.736Z</time></trkpt>
      <trkpt lat="38.194001" lon="128.474755"><ele>649.4</ele><time>2026-10-04T12:18:29.936Z</time></trkpt>
      <trkpt lat="38.193989" lon="128.474808"><ele>647.8</ele><time>2026-10-04T12:18:36.913Z</time></trkpt>
      <trkpt lat="38.193960" lon="128.474852"><ele>644.6</ele><time>2026-10-04T12:18:44.045Z</time></trkpt>
      <trkpt lat="38.193943" lon="128.474904"><ele>642.6</ele><time>2026-10-04T12:18:51.231Z</time></trkpt>
      <trkpt lat="38.193928" lon="128.474958"><ele>641.5</ele><time>2026-10-04T12:18:58.419Z</time></trkpt>
      <trkpt lat="38.193923" lon="128.475006"><ele>641.9</ele><time>2026-10-04T12:19:04.471Z</time></trkpt>
      <trkpt lat="38.193943" lon="128.474979"><ele>643.7</ele><time>2026-10-04T12:19:09.105Z</time></trkpt>
      <trkpt lat="38.193953" lon="128.474924"><ele>644.5</ele><time>2026-10-04T12:19:16.301Z</time></trkpt>
      <trkpt lat="38.193963" lon="128.474868"><ele>645.1</ele><time>2026-10-04T12:19:23.501Z</time></trkpt>
      <trkpt lat="38.193980" lon="128.474815"><ele>646.0</ele><time>2026-10-04T12:19:30.663Z</time></trkpt>
      <trkpt lat="38.193997" lon="128.474762"><ele>647.4</ele><time>2026-10-04T12:19:37.856Z</time></trkpt>
      <trkpt lat="38.194013" lon="128.474709"><ele>649.0</ele><time>2026-10-04T12:19:45.054Z</time></trkpt>
      <trkpt lat="38.194031" lon="128.474657"><ele>651.0</ele><time>2026-10-04T12:19:52.254Z</time></trkpt>
      <trkpt lat="38.194041" lon="128.474601"><ele>652.1</ele><time>2026-10-04T12:19:59.399Z</time></trkpt>
      <trkpt lat="38.194053" lon="128.474546"><ele>653.1</ele><time>2026-10-04T12:20:06.576Z</time></trkpt>
      <trkpt lat="38.194082" lon="128.474506"><ele>656.1</ele><time>2026-10-04T12:20:13.523Z</time></trkpt>
      <trkpt lat="38.194124" lon="128.474485"><ele>660.7</ele><time>2026-10-04T12:20:20.637Z</time></trkpt>
      <trkpt lat="38.194166" lon="128.474465"><ele>665.8</ele><time>2026-10-04T12:20:27.831Z</time></trkpt>
      <trkpt lat="38.194208" lon="128.474445"><ele>670.9</ele><time>2026-10-04T12:20:35.030Z</time></trkpt>
      <trkpt lat="38.194243" lon="128.474410"><ele>674.7</ele><time>2026-10-04T12:20:42.147Z</time></trkpt>
      <trkpt lat="38.194258" lon="128.474357"><ele>676.7</ele><time>2026-10-04T12:20:49.206Z</time></trkpt>
      <trkpt lat="38.194279" lon="128.474307"><ele>677.8</ele><time>2026-10-04T12:20:56.380Z</time></trkpt>
      <trkpt lat="38.194300" lon="128.474257"><ele>678.5</ele><time>2026-10-04T12:21:03.580Z</time></trkpt>
      <trkpt lat="38.194315" lon="128.474234"><ele>679.1</ele><time>2026-10-04T12:21:07.335Z</time></trkpt>
    </trkseg>
  </trk>
</gpx>