<?xml version="1.0" encoding="UTF-8"?>
<gpx version="1.1" creator="gajago-nav" xmlns="http://www.topografix.com/GPX/1/1">
  <metadata><name>수목원</name></metadata>
  <wpt lat="36.358564" lon="127.374492">
    <name>들머리 (청사서로 - 원점회귀)</name>
    <ele>459</ele>
  </wpt>
  <wpt lat="36.358068" lon="127.377457">
    <name>갈림길</name>
  </wpt>
  <wpt lat="36.357990" lon="127.379203">
    <name>갈림길</name>
  </wpt>
  <wpt lat="36.359639" lon="127.378616">
    <name>디저트</name>
  </wpt>
  <wpt lat="36.360030" lon="127.379734">
    <name>갈림길</name>
  </wpt>
  <wpt lat="36.364620" lon="127.379793">
    <name>갈림길</name>
  </wpt>
  <wpt lat="36.364989" lon="127.379803">
    <name>갈림길</name>
  </wpt>
  <wpt lat="36.365676" lon="127.382909">
    <name>갈림길</name>
  </wpt>
  <wpt lat="36.367295" lon="127.382903">
    <name>갈림길</name>
  </wpt>
  <wpt lat="36.367282" lon="127.387549">
    <name>갈림길</name>
  </wpt>
  <wpt lat="36.369810" lon="127.392380">
    <name>Observation Platform</name>
  </wpt>
  <wpt lat="36.365788" lon="127.387522">
    <name>갈림길</name>
  </wpt>
  <wpt lat="36.365032" lon="127.382748">
    <name>갈림길</name>
  </wpt>
  <wpt lat="36.365092" lon="127.379245">
    <name>갈림길</name>
  </wpt>
  <wpt lat="36.362976" lon="127.379272">
    <name>갈림길</name>
  </wpt>
  <wpt lat="36.362103" lon="127.379175">
    <name>갈림길</name>
  </wpt>
  <wpt lat="36.362129" lon="127.376825">
    <name>갈림길</name>
  </wpt>
  <wpt lat="36.361680" lon="127.376777">
    <name>갈림길</name>
  </wpt>
  <wpt lat="36.359982" lon="127.376493">
    <name>갈림길</name>
  </wpt>
  <wpt lat="36.358785" lon="127.376536">
    <name>갈림길</name>
  </wpt>
  <wpt lat="36.358106" lon="127.374718">
    <name>날머리 (원점회귀)</name>
    <ele>458</ele>
  </wpt>
  <trk>
    <name>수목원</name>
    <trkseg>
      <trkpt lat="36.358564" lon="127.374492"><ele>459.2</ele><time>2022-03-15T10:59:23.000Z</time></trkpt>
      <trkpt lat="36.358754" lon="127.374519"><ele>459.2</ele><time>2022-03-15T10:59:29.000Z</time></trkpt>
      <trkpt lat="36.359007" lon="127.374594"><ele>459.2</ele><time>2022-03-15T10:59:31.000Z</time></trkpt>
      <trkpt lat="36.359188" lon="127.374575"><ele>459.0</ele><time>2022-03-15T10:59:36.000Z</time></trkpt>
      <trkpt lat="36.359205" lon="127.374571"><ele>458.8</ele><time>2022-03-15T10:59:37.000Z</time></trkpt>
      <trkpt lat="36.359243" lon="127.374569"><ele>458.2</ele><time>2022-03-15T10:59:39.000Z</time></trkpt>
      <trkpt lat="36.359243" lon="127.374536"><ele>457.8</ele><time>2022-03-15T10:59:41.000Z</time></trkpt>
      <trkpt lat="36.359237" lon="127.374539"><ele>457.4</ele><time>2022-03-15T10:59:42.000Z</time></trkpt>
      <trkpt lat="36.359237" lon="127.374540"><ele>457.4</ele><time>2022-03-15T10:59:43.000Z</time></trkpt>
      <trkpt lat="36.359063" lon="127.374485"><ele>457.4</ele><time>2022-03-15T10:59:54.000Z</time></trkpt>
      <trkpt lat="36.358897" lon="127.374532"><ele>458.4</ele><time>2022-03-15T11:00:06.000Z</time></trkpt>
      <trkpt lat="36.358887" lon="127.374533"><ele>458.2</ele><time>2022-03-15T11:00:07.000Z</time></trkpt>
      <trkpt lat="36.358759" lon="127.374538"><ele>459.2</ele><time>2022-03-15T11:00:15.000Z</time></trkpt>
      <trkpt lat="36.358745" lon="127.374544"><ele>459.2</ele><time>2022-03-15T11:00:17.000Z</time></trkpt>
      <trkpt lat="36.358720" lon="127.374515"><ele>459.0</ele><time>2022-03-15T11:00:19.000Z</time></trkpt>
      <trkpt lat="36.358530" lon="127.374471"><ele>459.0</ele><time>2022-03-15T11:00:29.000Z</time></trkpt>
      <trkpt lat="36.358443" lon="127.374498"><ele>458.8</ele><time>2022-03-15T11:00:33.000Z</time></trkpt>
      <trkpt lat="36.358415" lon="127.374497"><ele>458.8</ele><time>2022-03-15T11:00:34.000Z</time></trkpt>
      <trkpt lat="36.358392" lon="127.374501"><ele>458.8</ele><time>2022-03-15T11:00:35.000Z</time></trkpt>
      <trkpt lat="36.358374" lon="127.374508"><ele>458.8</ele><time>2022-03-15T11:00:36.000Z</time></trkpt>
      <trkpt lat="36.358197" lon="127.374578"><ele>458.8</ele><time>2022-03-15T11:00:46.000Z</time></trkpt>
      <trkpt lat="36.358177" lon="127.374598"><ele>458.8</ele><time>2022-03-15T11:00:48.000Z</time></trkpt>
      <trkpt lat="36.358140" lon="127.374706"><ele>459.2</ele><time>2022-03-15T11:00:57.000Z</time></trkpt>
      <trkpt lat="36.358118" lon="127.374803"><ele>459.2</ele><time>2022-03-15T11:01:04.000Z</time></trkpt>
      <trkpt lat="36.358124" lon="127.374830"><ele>459.2</ele><time>2022-03-15T11:01:06.000Z</time></trkpt>
      <trkpt lat="36.358132" lon="127.374891"><ele>459.4</ele><time>2022-03-15T11:01:10.000Z</time></trkpt>
      <trkpt lat="36.358131" lon="127.374903"><ele>459.4</ele><time>2022-03-15T11:01:11.000Z</time></trkpt>
      <trkpt lat="36.358168" lon="127.375120"><ele>459.4</ele><time>2022-03-15T11:01:23.000Z</time></trkpt>
      <trkpt lat="36.358188" lon="127.375265"><ele>459.2</ele><time>2022-03-15T11:01:31.000Z</time></trkpt>
      <trkpt lat="36.358187" lon="127.375283"><ele>459.2</ele><time>2022-03-15T11:01:32.000Z</time></trkpt>
      <trkpt lat="36.358203" lon="127.375415"><ele>459.0</ele><time>2022-03-15T11:01:39.000Z</time></trkpt>
      <trkpt lat="36.358201" lon="127.375523"><ele>459.0</ele><time>2022-03-15T11:01:46.000Z</time></trkpt>
      <trkpt lat="36.358204" lon="127.375555"><ele>459.0</ele><time>2022-03-15T11:01:48.000Z</time></trkpt>
      <trkpt lat="36.358210" lon="127.375637"><ele>459.2</ele><time>2022-03-15T11:01:53.000Z</time></trkpt>
      <trkpt lat="36.358209" lon="127.375669"><ele>459.2</ele><time>2022-03-15T11:01:55.000Z</time></trkpt>
      <trkpt lat="36.358196" lon="127.375782"><ele>459.0</ele><time>2022-03-15T11:02:02.000Z</time></trkpt>
      <trkpt lat="36.358178" lon="127.375904"><ele>458.8</ele><time>2022-03-15T11:02:10.000Z</time></trkpt>
      <trkpt lat="36.358176" lon="127.375919"><ele>458.8</ele><time>2022-03-15T11:02:11.000Z</time></trkpt>
      <trkpt lat="36.358164" lon="127.376020"><ele>459.0</ele><time>2022-03-15T11:02:19.000Z</time></trkpt>
      <trkpt lat="36.358153" lon="127.376116"><ele>458.6</ele><time>2022-03-15T11:02:26.000Z</time></trkpt>
      <trkpt lat="36.358164" lon="127.376233"><ele>459.0</ele><time>2022-03-15T11:02:33.000Z</time></trkpt>
      <trkpt lat="36.358170" lon="127.376335"><ele>459.0</ele><time>2022-03-15T11:02:39.000Z</time></trkpt>
      <trkpt lat="36.358171" lon="127.376351"><ele>458.8</ele><time>2022-03-15T11:02:40.000Z</time></trkpt>
      <trkpt lat="36.358171" lon="127.376368"><ele>459.0</ele><time>2022-03-15T11:02:41.000Z</time></trkpt>
      <trkpt lat="36.358175" lon="127.376479"><ele>459.0</ele><time>2022-03-15T11:02:48.000Z</time></trkpt>
      <trkpt lat="36.358178" lon="127.376510"><ele>459.0</ele><time>2022-03-15T11:02:50.000Z</time></trkpt>
      <trkpt lat="36.358179" lon="127.376522"><ele>459.0</ele><time>2022-03-15T11:02:51.000Z</time></trkpt>
      <trkpt lat="36.358184" lon="127.376543"><ele>458.8</ele><time>2022-03-15T11:02:53.000Z</time></trkpt>
      <trkpt lat="36.358185" lon="127.376578"><ele>458.8</ele><time>2022-03-15T11:02:56.000Z</time></trkpt>
      <trkpt lat="36.358180" lon="127.376696"><ele>459.0</ele><time>2022-03-15T11:03:03.000Z</time></trkpt>
      <trkpt lat="36.358154" lon="127.376793"><ele>459.0</ele><time>2022-03-15T11:03:09.000Z</time></trkpt>
      <trkpt lat="36.358130" lon="127.376826"><ele>459.0</ele><time>2022-03-15T11:03:12.000Z</time></trkpt>
      <trkpt lat="36.358120" lon="127.376856"><ele>459.0</ele><time>2022-03-15T11:03:14.000Z</time></trkpt>
      <trkpt lat="36.358117" lon="127.376870"><ele>459.0</ele><time>2022-03-15T11:03:15.000Z</time></trkpt>
      <trkpt lat="36.358092" lon="127.376964"><ele>459.0</ele><time>2022-03-15T11:03:21.000Z</time></trkpt>
      <trkpt lat="36.358091" lon="127.377106"><ele>459.0</ele><time>2022-03-15T11:03:28.000Z</time></trkpt>
      <trkpt lat="36.358087" lon="127.377122"><ele>459.0</ele><time>2022-03-15T11:03:29.000Z</time></trkpt>
      <trkpt lat="36.358063" lon="127.377198"><ele>459.0</ele><time>2022-03-15T11:03:35.000Z</time></trkpt>
      <trkpt lat="36.358055" lon="127.377230"><ele>459.0</ele><time>2022-03-15T11:03:37.000Z</time></trkpt>
      <trkpt lat="36.358058" lon="127.377294"><ele>459.0</ele><time>2022-03-15T11:03:41.000Z</time></trkpt>
      <trkpt lat="36.358073" lon="127.377456"><ele>458.8</ele><time>2022-03-15T11:03:50.000Z</time></trkpt>
      <trkpt lat="36.358106" lon="127.377585"><ele>458.6</ele><time>2022-03-15T11:03:57.000Z</time></trkpt>
      <trkpt lat="36.358162" lon="127.377696"><ele>458.6</ele><time>2022-03-15T11:04:04.000Z</time></trkpt>
      <trkpt lat="36.358192" lon="127.377852"><ele>458.6</ele><time>2022-03-15T11:04:14.000Z</time></trkpt>
      <trkpt lat="36.358179" lon="127.378010"><ele>458.4</ele><time>2022-03-15T11:04:23.000Z</time></trkpt>
      <trkpt lat="36.358154" lon="127.378141"><ele>458.6</ele><time>2022-03-15T11:04:30.000Z</time></trkpt>
      <trkpt lat="36.358101" lon="127.378251"><ele>458.8</ele><time>2022-03-15T11:04:38.000Z</time></trkpt>
      <trkpt lat="36.358085" lon="127.378271"><ele>458.6</ele><time>2022-03-15T11:04:40.000Z</time></trkpt>
      <trkpt lat="36.358067" lon="127.378337"><ele>458.8</ele><time>2022-03-15T11:04:46.000Z</time></trkpt>
      <trkpt lat="36.358077" lon="127.378463"><ele>458.2</ele><time>2022-03-15T11:04:53.000Z</time></trkpt>
      <trkpt lat="36.358077" lon="127.378463"><ele>458.2</ele><time>2022-03-15T11:04:54.000Z</time></trkpt>
      <trkpt lat="36.358087" lon="127.378586"><ele>457.8</ele><time>2022-03-15T11:05:01.000Z</time></trkpt>
      <trkpt lat="36.358010" lon="127.378677"><ele>457.6</ele><time>2022-03-15T11:05:09.000Z</time></trkpt>
      <trkpt lat="36.357981" lon="127.378728"><ele>457.6</ele><time>2022-03-15T11:05:16.000Z</time></trkpt>
      <trkpt lat="36.357967" lon="127.378764"><ele>457.6</ele><time>2022-03-15T11:05:20.000Z</time></trkpt>
      <trkpt lat="36.357965" lon="127.378787"><ele>457.6</ele><time>2022-03-15T11:05:21.000Z</time></trkpt>
      <trkpt lat="36.357973" lon="127.378828"><ele>457.6</ele><time>2022-03-15T11:05:23.000Z</time></trkpt>
      <trkpt lat="36.357974" lon="127.378936"><ele>457.8</ele><time>2022-03-15T11:05:29.000Z</time></trkpt>
      <trkpt lat="36.358000" lon="127.379097"><ele>457.4</ele><time>2022-03-15T11:05:38.000Z</time></trkpt>
      <trkpt lat="36.358009" lon="127.379110"><ele>457.6</ele><time>2022-03-15T11:05:39.000Z</time></trkpt>
      <trkpt lat="36.358026" lon="127.379134"><ele>457.6</ele><time>2022-03-15T11:05:41.000Z</time></trkpt>
      <trkpt lat="36.358053" lon="127.379173"><ele>457.6</ele><time>2022-03-15T11:05:45.000Z</time></trkpt>
      <trkpt lat="36.358081" lon="127.379178"><ele>457.4</ele><time>2022-03-15T11:05:49.000Z</time></trkpt>
      <trkpt lat="36.358101" lon="127.379180"><ele>457.4</ele><time>2022-03-15T11:05:51.000Z</time></trkpt>
      <trkpt lat="36.358120" lon="127.379174"><ele>457.4</ele><time>2022-03-15T11:05:53.000Z</time></trkpt>
      <trkpt lat="36.358131" lon="127.379172"><ele>457.4</ele><time>2022-03-15T11:05:54.000Z</time></trkpt>
      <trkpt lat="36.358136" lon="127.379169"><ele>457.4</ele><time>2022-03-15T11:05:55.000Z</time></trkpt>
      <trkpt lat="36.358179" lon="127.379162"><ele>457.2</ele><time>2022-03-15T11:06:00.000Z</time></trkpt>
      <trkpt lat="36.358210" lon="127.379167"><ele>457.2</ele><time>2022-03-15T11:06:03.000Z</time></trkpt>
      <trkpt lat="36.358238" lon="127.379175"><ele>457.2</ele><time>2022-03-15T11:06:05.000Z</time></trkpt>
      <trkpt lat="36.358262" lon="127.379180"><ele>457.2</ele><time>2022-03-15T11:06:07.000Z</time></trkpt>
      <trkpt lat="36.358376" lon="127.379236"><ele>456.6</ele><time>2022-03-15T11:06:17.000Z</time></trkpt>
      <trkpt lat="36.358385" lon="127.379235"><ele>456.6</ele><time>2022-03-15T11:06:18.000Z</time></trkpt>
      <trkpt lat="36.358430" lon="127.379222"><ele>456.6</ele><time>2022-03-15T11:06:25.000Z</time></trkpt>
      <trkpt lat="36.358459" lon="127.379237"><ele>456.6</ele><time>2022-03-15T11:06:27.000Z</time></trkpt>
      <trkpt lat="36.358500" lon="127.379235"><ele>456.8</ele><time>2022-03-15T11:06:30.000Z</time></trkpt>
      <trkpt lat="36.358516" lon="127.379200"><ele>456.8</ele><time>2022-03-15T11:06:33.000Z</time></trkpt>
      <trkpt lat="36.358539" lon="127.379171"><ele>456.6</ele><time>2022-03-15T11:06:36.000Z</time></trkpt>
      <trkpt lat="36.358565" lon="127.379152"><ele>456.6</ele><time>2022-03-15T11:06:38.000Z</time></trkpt>
      <trkpt lat="36.358596" lon="127.379131"><ele>456.6</ele><time>2022-03-15T11:06:41.000Z</time></trkpt>
      <trkpt lat="36.358618" lon="127.379119"><ele>456.4</ele><time>2022-03-15T11:06:43.000Z</time></trkpt>
      <trkpt lat="36.358641" lon="127.379122"><ele>456.4</ele><time>2022-03-15T11:06:45.000Z</time></trkpt>
      <trkpt lat="36.358678" lon="127.379132"><ele>456.4</ele><time>2022-03-15T11:06:48.000Z</time></trkpt>
      <trkpt lat="36.358819" lon="127.379193"><ele>456.4</ele><time>2022-03-15T11:06:58.000Z</time></trkpt>
      <trkpt lat="36.358887" lon="127.379178"><ele>456.4</ele><time>2022-03-15T11:07:02.000Z</time></trkpt>
      <trkpt lat="36.359011" lon="127.379207"><ele>456.2</ele><time>2022-03-15T11:07:09.000Z</time></trkpt>
      <trkpt lat="36.359026" lon="127.379221"><ele>456.2</ele><time>2022-03-15T11:07:10.000Z</time></trkpt>
      <trkpt lat="36.359048" lon="127.379251"><ele>456.4</ele><time>2022-03-15T11:07:12.000Z</time></trkpt>
      <trkpt lat="36.359067" lon="127.379284"><ele>456.4</ele><time>2022-03-15T11:07:14.000Z</time></trkpt>
      <trkpt lat="36.359107" lon="127.379332"><ele>456.4</ele><time>2022-03-15T11:07:17.000Z</time></trkpt>
      <trkpt lat="36.359151" lon="127.379358"><ele>456.4</ele><time>2022-03-15T11:07:20.000Z</time></trkpt>
      <trkpt lat="36.359165" lon="127.379365"><ele>456.4</ele><time>2022-03-15T11:07:21.000Z</time></trkpt>
      <trkpt lat="36.359236" lon="127.379399"><ele>456.4</ele><time>2022-03-15T11:07:27.000Z</time></trkpt>
      <trkpt lat="36.359301" lon="127.379436"><ele>456.2</ele><time>2022-03-15T11:07:33.000Z</time></trkpt>
      <trkpt lat="36.359308" lon="127.379441"><ele>456.0</ele><time>2022-03-15T11:07:34.000Z</time></trkpt>
      <trkpt lat="36.359319" lon="127.379448"><ele>456.0</ele><time>2022-03-15T11:07:35.000Z</time></trkpt>
      <trkpt lat="36.359332" lon="127.379453"><ele>455.8</ele><time>2022-03-15T11:07:36.000Z</time></trkpt>
      <trkpt lat="36.359367" lon="127.379439"><ele>455.6</ele><time>2022-03-15T11:07:39.000Z</time></trkpt>
      <trkpt lat="36.359401" lon="127.379375"><ele>455.6</ele><time>2022-03-15T11:07:42.000Z</time></trkpt>
      <trkpt lat="36.359405" lon="127.379359"><ele>455.6</ele><time>2022-03-15T11:07:43.000Z</time></trkpt>
      <trkpt lat="36.359422" lon="127.379315"><ele>455.4</ele><time>2022-03-15T11:07:45.000Z</time></trkpt>
      <trkpt lat="36.359432" lon="127.379305"><ele>455.4</ele><time>2022-03-15T11:07:46.000Z</time></trkpt>
      <trkpt lat="36.359447" lon="127.379260"><ele>455.4</ele><time>2022-03-15T11:07:48.000Z</time></trkpt>
      <trkpt lat="36.359453" lon="127.379229"><ele>455.4</ele><time>2022-03-15T11:07:49.000Z</time></trkpt>
      <trkpt lat="36.359468" lon="127.379151"><ele>455.6</ele><time>2022-03-15T11:07:52.000Z</time></trkpt>
      <trkpt lat="36.359478" lon="127.379104"><ele>455.8</ele><time>2022-03-15T11:07:54.000Z</time></trkpt>
      <trkpt lat="36.359490" lon="127.379064"><ele>455.8</ele><time>2022-03-15T11:07:56.000Z</time></trkpt>
      <trkpt lat="36.359502" lon="127.378986"><ele>456.2</ele><time>2022-03-15T11:08:00.000Z</time></trkpt>
      <trkpt lat="36.359499" lon="127.378951"><ele>456.2</ele><time>2022-03-15T11:08:02.000Z</time></trkpt>
      <trkpt lat="36.359492" lon="127.378897"><ele>456.0</ele><time>2022-03-15T11:08:05.000Z</time></trkpt>
      <trkpt lat="36.359494" lon="127.378832"><ele>455.8</ele><time>2022-03-15T11:08:08.000Z</time></trkpt>
      <trkpt lat="36.359513" lon="127.378726"><ele>455.8</ele><time>2022-03-15T11:08:14.000Z</time></trkpt>
      <trkpt lat="36.359517" lon="127.378698"><ele>455.6</ele><time>2022-03-15T11:08:16.000Z</time></trkpt>
      <trkpt lat="36.359528" lon="127.378668"><ele>455.4</ele><time>2022-03-15T11:08:18.000Z</time></trkpt>
      <trkpt lat="36.359545" lon="127.378614"><ele>455.4</ele><time>2022-03-15T11:08:21.000Z</time></trkpt>
      <trkpt lat="36.359579" lon="127.378567"><ele>455.8</ele><time>2022-03-15T11:08:26.000Z</time></trkpt>
      <trkpt lat="36.359587" lon="127.378583"><ele>455.8</ele><time>2022-03-15T11:08:28.000Z</time></trkpt>
      <trkpt lat="36.359602" lon="127.378607"><ele>456.0</ele><time>2022-03-15T11:08:30.000Z</time></trkpt>
      <trkpt lat="36.359610" lon="127.378634"><ele>456.0</ele><time>2022-03-15T11:08:32.000Z</time></trkpt>
      <trkpt lat="36.359626" lon="127.378699"><ele>456.0</ele><time>2022-03-15T11:08:36.000Z</time></trkpt>
      <trkpt lat="36.359664" lon="127.378815"><ele>455.8</ele><time>2022-03-15T11:08:43.000Z</time></trkpt>
      <trkpt lat="36.359722" lon="127.378952"><ele>455.8</ele><time>2022-03-15T11:08:52.000Z</time></trkpt>
      <trkpt lat="36.359722" lon="127.378969"><ele>455.8</ele><time>2022-03-15T11:08:53.000Z</time></trkpt>
      <trkpt lat="36.359730" lon="127.379059"><ele>456.0</ele><time>2022-03-15T11:08:59.000Z</time></trkpt>
      <trkpt lat="36.359702" lon="127.379132"><ele>456.2</ele><time>2022-03-15T11:09:04.000Z</time></trkpt>
      <trkpt lat="36.359707" lon="127.379168"><ele>456.4</ele><time>2022-03-15T11:09:07.000Z</time></trkpt>
      <trkpt lat="36.359702" lon="127.379298"><ele>456.2</ele><time>2022-03-15T11:09:15.000Z</time></trkpt>
      <trkpt lat="36.359724" lon="127.379398"><ele>456.0</ele><time>2022-03-15T11:09:21.000Z</time></trkpt>
      <trkpt lat="36.359729" lon="127.379412"><ele>456.0</ele><time>2022-03-15T11:09:22.000Z</time></trkpt>
      <trkpt lat="36.359784" lon="127.379537"><ele>456.4</ele><time>2022-03-15T11:09:30.000Z</time></trkpt>
      <trkpt lat="36.359827" lon="127.379657"><ele>456.2</ele><time>2022-03-15T11:09:38.000Z</time></trkpt>
      <trkpt lat="36.359868" lon="127.379711"><ele>456.4</ele><time>2022-03-15T11:09:43.000Z</time></trkpt>
      <trkpt lat="36.359892" lon="127.379726"><ele>456.4</ele><time>2022-03-15T11:09:46.000Z</time></trkpt>
      <trkpt lat="36.359893" lon="127.379729"><ele>456.4</ele><time>2022-03-15T11:09:47.000Z</time></trkpt>
      <trkpt lat="36.359872" lon="127.379738"><ele>456.8</ele><time>2022-03-15T11:09:52.000Z</time></trkpt>
      <trkpt lat="36.359866" lon="127.379740"><ele>456.4</ele><time>2022-03-15T11:09:54.000Z</time></trkpt>
      <trkpt lat="36.359877" lon="127.379725"><ele>456.2</ele><time>2022-03-15T11:09:57.000Z</time></trkpt>
      <trkpt lat="36.359899" lon="127.379708"><ele>456.4</ele><time>2022-03-15T11:10:00.000Z</time></trkpt>
      <trkpt lat="36.359931" lon="127.379699"><ele>456.4</ele><time>2022-03-15T11:10:04.000Z</time></trkpt>
      <trkpt lat="36.359945" lon="127.379690"><ele>456.4</ele><time>2022-03-15T11:10:07.000Z</time></trkpt>
      <trkpt lat="36.359967" lon="127.379680"><ele>456.2</ele><time>2022-03-15T11:10:11.000Z</time></trkpt>
      <trkpt lat="36.359990" lon="127.379658"><ele>456.2</ele><time>2022-03-15T11:10:15.000Z</time></trkpt>
      <trkpt lat="36.360001" lon="127.379635"><ele>456.0</ele><time>2022-03-15T11:10:18.000Z</time></trkpt>
      <trkpt lat="36.360024" lon="127.379604"><ele>456.4</ele><time>2022-03-15T11:10:23.000Z</time></trkpt>
      <trkpt lat="36.360043" lon="127.379581"><ele>456.4</ele><time>2022-03-15T11:10:26.000Z</time></trkpt>
      <trkpt lat="36.360083" lon="127.379567"><ele>457.0</ele><time>2022-03-15T11:10:31.000Z</time></trkpt>
      <trkpt lat="36.360096" lon="127.379567"><ele>457.0</ele><time>2022-03-15T11:10:33.000Z</time></trkpt>
      <trkpt lat="36.360104" lon="127.379575"><ele>457.2</ele><time>2022-03-15T11:10:34.000Z</time></trkpt>
      <trkpt lat="36.360104" lon="127.379575"><ele>457.2</ele><time>2022-03-15T11:10:35.000Z</time></trkpt>
      <trkpt lat="36.360108" lon="127.379587"><ele>457.4</ele><time>2022-03-15T11:10:37.000Z</time></trkpt>
      <trkpt lat="36.360129" lon="127.379597"><ele>457.4</ele><time>2022-03-15T11:10:40.000Z</time></trkpt>
      <trkpt lat="36.360170" lon="127.379574"><ele>456.6</ele><time>2022-03-15T11:10:47.000Z</time></trkpt>
      <trkpt lat="36.360177" lon="127.379570"><ele>456.6</ele><time>2022-03-15T11:10:48.000Z</time></trkpt>
      <trkpt lat="36.360185" lon="127.379568"><ele>456.6</ele><time>2022-03-15T11:10:49.000Z</time></trkpt>
      <trkpt lat="36.360215" lon="127.379545"><ele>456.8</ele><time>2022-03-15T11:10:53.000Z</time></trkpt>
      <trkpt lat="36.360264" lon="127.379530"><ele>456.8</ele><time>2022-03-15T11:10:57.000Z</time></trkpt>
      <trkpt lat="36.360273" lon="127.379528"><ele>456.8</ele><time>2022-03-15T11:10:58.000Z</time></trkpt>
      <trkpt lat="36.360343" lon="127.379575"><ele>457.0</ele><time>2022-03-15T11:11:01.000Z</time></trkpt>
      <trkpt lat="36.360362" lon="127.379572"><ele>457.0</ele><time>2022-03-15T11:11:03.000Z</time></trkpt>
      <trkpt lat="36.360458" lon="127.379620"><ele>457.0</ele><time>2022-03-15T11:11:08.000Z</time></trkpt>
      <trkpt lat="36.360650" lon="127.379669"><ele>456.4</ele><time>2022-03-15T11:11:18.000Z</time></trkpt>
      <trkpt lat="36.360661" lon="127.379670"><ele>456.4</ele><time>2022-03-15T11:11:19.000Z</time></trkpt>
      <trkpt lat="36.360686" lon="127.379666"><ele>456.2</ele><time>2022-03-15T11:11:21.000Z</time></trkpt>
      <trkpt lat="36.360739" lon="127.379662"><ele>456.6</ele><time>2022-03-15T11:11:25.000Z</time></trkpt>
      <trkpt lat="36.360817" lon="127.379665"><ele>456.8</ele><time>2022-03-15T11:11:30.000Z</time></trkpt>
      <trkpt lat="36.360831" lon="127.379667"><ele>456.8</ele><time>2022-03-15T11:11:31.000Z</time></trkpt>
      <trkpt lat="36.360911" lon="127.379649"><ele>456.6</ele><time>2022-03-15T11:11:37.000Z</time></trkpt>
      <trkpt lat="36.360922" lon="127.379645"><ele>456.6</ele><time>2022-03-15T11:11:38.000Z</time></trkpt>
      <trkpt lat="36.361006" lon="127.379619"><ele>456.8</ele><time>2022-03-15T11:11:45.000Z</time></trkpt>
      <trkpt lat="36.361078" lon="127.379612"><ele>456.2</ele><time>2022-03-15T11:11:52.000Z</time></trkpt>
      <trkpt lat="36.361092" lon="127.379607"><ele>456.2</ele><time>2022-03-15T11:11:53.000Z</time></trkpt>
      <trkpt lat="36.361142" lon="127.379585"><ele>456.0</ele><time>2022-03-15T11:11:57.000Z</time></trkpt>
      <trkpt lat="36.361173" lon="127.379568"><ele>456.0</ele><time>2022-03-15T11:11:59.000Z</time></trkpt>
      <trkpt lat="36.361225" lon="127.379532"><ele>455.8</ele><time>2022-03-15T11:12:03.000Z</time></trkpt>
      <trkpt lat="36.361256" lon="127.379514"><ele>455.8</ele><time>2022-03-15T11:12:05.000Z</time></trkpt>
      <trkpt lat="36.361297" lon="127.379504"><ele>455.8</ele><time>2022-03-15T11:12:08.000Z</time></trkpt>
      <trkpt lat="36.361347" lon="127.379504"><ele>455.8</ele><time>2022-03-15T11:12:11.000Z</time></trkpt>
      <trkpt lat="36.361364" lon="127.379506"><ele>455.8</ele><time>2022-03-15T11:12:12.000Z</time></trkpt>
      <trkpt lat="36.361417" lon="127.379503"><ele>455.6</ele><time>2022-03-15T11:12:15.000Z</time></trkpt>
      <trkpt lat="36.361458" lon="127.379493"><ele>455.6</ele><time>2022-03-15T11:12:18.000Z</time></trkpt>
      <trkpt lat="36.361508" lon="127.379502"><ele>455.6</ele><time>2022-03-15T11:12:23.000Z</time></trkpt>
      <trkpt lat="36.361534" lon="127.379501"><ele>455.6</ele><time>2022-03-15T11:12:25.000Z</time></trkpt>
      <trkpt lat="36.361557" lon="127.379505"><ele>455.4</ele><time>2022-03-15T11:12:27.000Z</time></trkpt>
      <trkpt lat="36.361601" lon="127.379507"><ele>455.0</ele><time>2022-03-15T11:12:30.000Z</time></trkpt>
      <trkpt lat="36.361629" lon="127.379522"><ele>455.0</ele><time>2022-03-15T11:12:31.000Z</time></trkpt>
      <trkpt lat="36.361771" lon="127.379561"><ele>455.4</ele><time>2022-03-15T11:12:40.000Z</time></trkpt>
      <trkpt lat="36.361928" lon="127.379549"><ele>455.0</ele><time>2022-03-15T11:12:51.000Z</time></trkpt>
      <trkpt lat="36.362086" lon="127.379549"><ele>454.8</ele><time>2022-03-15T11:12:58.000Z</time></trkpt>
      <trkpt lat="36.362114" lon="127.379545"><ele>455.0</ele><time>2022-03-15T11:13:00.000Z</time></trkpt>
      <trkpt lat="36.362140" lon="127.379539"><ele>454.8</ele><time>2022-03-15T11:13:02.000Z</time></trkpt>
      <trkpt lat="36.362154" lon="127.379537"><ele>454.6</ele><time>2022-03-15T11:13:03.000Z</time></trkpt>
      <trkpt lat="36.362169" lon="127.379534"><ele>454.6</ele><time>2022-03-15T11:13:04.000Z</time></trkpt>
      <trkpt lat="36.362185" lon="127.379534"><ele>454.4</ele><time>2022-03-15T11:13:05.000Z</time></trkpt>
      <trkpt lat="36.362196" lon="127.379534"><ele>454.4</ele><time>2022-03-15T11:13:06.000Z</time></trkpt>
      <trkpt lat="36.362230" lon="127.379528"><ele>454.4</ele><time>2022-03-15T11:13:09.000Z</time></trkpt>
      <trkpt lat="36.362283" lon="127.379517"><ele>454.6</ele><time>2022-03-15T11:13:13.000Z</time></trkpt>
      <trkpt lat="36.362363" lon="127.379503"><ele>455.0</ele><time>2022-03-15T11:13:20.000Z</time></trkpt>
      <trkpt lat="36.362372" lon="127.379499"><ele>455.0</ele><time>2022-03-15T11:13:22.000Z</time></trkpt>
      <trkpt lat="36.362393" lon="127.379490"><ele>454.6</ele><time>2022-03-15T11:13:25.000Z</time></trkpt>
      <trkpt lat="36.362403" lon="127.379487"><ele>454.4</ele><time>2022-03-15T11:13:26.000Z</time></trkpt>
      <trkpt lat="36.362433" lon="127.379479"><ele>454.2</ele><time>2022-03-15T11:13:29.000Z</time></trkpt>
      <trkpt lat="36.362496" lon="127.379477"><ele>454.2</ele><time>2022-03-15T11:13:34.000Z</time></trkpt>
      <trkpt lat="36.362515" lon="127.379478"><ele>454.0</ele><time>2022-03-15T11:13:35.000Z</time></trkpt>
      <trkpt lat="36.362704" lon="127.379528"><ele>454.0</ele><time>2022-03-15T11:13:41.000Z</time></trkpt>
      <trkpt lat="36.362731" lon="127.379523"><ele>454.2</ele><time>2022-03-15T11:13:43.000Z</time></trkpt>
      <trkpt lat="36.362866" lon="127.379534"><ele>453.8</ele><time>2022-03-15T11:13:49.000Z</time></trkpt>
      <trkpt lat="36.363048" lon="127.379514"><ele>453.2</ele><time>2022-03-15T11:13:57.000Z</time></trkpt>
      <trkpt lat="36.363070" lon="127.379511"><ele>453.4</ele><time>2022-03-15T11:13:58.000Z</time></trkpt>
      <trkpt lat="36.363087" lon="127.379509"><ele>453.4</ele><time>2022-03-15T11:13:59.000Z</time></trkpt>
      <trkpt lat="36.363111" lon="127.379503"><ele>453.6</ele><time>2022-03-15T11:14:01.000Z</time></trkpt>
      <trkpt lat="36.363128" lon="127.379496"><ele>453.8</ele><time>2022-03-15T11:14:03.000Z</time></trkpt>
      <trkpt lat="36.363136" lon="127.379492"><ele>454.0</ele><time>2022-03-15T11:14:04.000Z</time></trkpt>
      <trkpt lat="36.363153" lon="127.379484"><ele>454.0</ele><time>2022-03-15T11:14:06.000Z</time></trkpt>
      <trkpt lat="36.363220" lon="127.379471"><ele>453.4</ele><time>2022-03-15T11:14:12.000Z</time></trkpt>
      <trkpt lat="36.363352" lon="127.379537"><ele>453.4</ele><time>2022-03-15T11:14:17.000Z</time></trkpt>
      <trkpt lat="36.363366" lon="127.379537"><ele>453.4</ele><time>2022-03-15T11:14:18.000Z</time></trkpt>
      <trkpt lat="36.363466" lon="127.379587"><ele>453.4</ele><time>2022-03-15T11:14:20.000Z</time></trkpt>
      <trkpt lat="36.363500" lon="127.379591"><ele>453.6</ele><time>2022-03-15T11:14:22.000Z</time></trkpt>
      <trkpt lat="36.363515" lon="127.379594"><ele>453.6</ele><time>2022-03-15T11:14:23.000Z</time></trkpt>
      <trkpt lat="36.363619" lon="127.379633"><ele>453.8</ele><time>2022-03-15T11:14:27.000Z</time></trkpt>
      <trkpt lat="36.363665" lon="127.379634"><ele>453.8</ele><time>2022-03-15T11:14:30.000Z</time></trkpt>
      <trkpt lat="36.363741" lon="127.379644"><ele>453.0</ele><time>2022-03-15T11:14:35.000Z</time></trkpt>
      <trkpt lat="36.363752" lon="127.379645"><ele>453.0</ele><time>2022-03-15T11:14:36.000Z</time></trkpt>
      <trkpt lat="36.363815" lon="127.379648"><ele>452.8</ele><time>2022-03-15T11:14:41.000Z</time></trkpt>
      <trkpt lat="36.363905" lon="127.379651"><ele>452.8</ele><time>2022-03-15T11:14:49.000Z</time></trkpt>
      <trkpt lat="36.363981" lon="127.379685"><ele>452.8</ele><time>2022-03-15T11:14:51.000Z</time></trkpt>
      <trkpt lat="36.364125" lon="127.379709"><ele>452.8</ele><time>2022-03-15T11:14:56.000Z</time></trkpt>
      <trkpt lat="36.364165" lon="127.379705"><ele>452.8</ele><time>2022-03-15T11:14:58.000Z</time></trkpt>
      <trkpt lat="36.364250" lon="127.379704"><ele>452.8</ele><time>2022-03-15T11:15:03.000Z</time></trkpt>
      <trkpt lat="36.364301" lon="127.379699"><ele>452.6</ele><time>2022-03-15T11:15:07.000Z</time></trkpt>
      <trkpt lat="36.364322" lon="127.379695"><ele>452.4</ele><time>2022-03-15T11:15:09.000Z</time></trkpt>
      <trkpt lat="36.364379" lon="127.379694"><ele>452.4</ele><time>2022-03-15T11:15:13.000Z</time></trkpt>
      <trkpt lat="36.364421" lon="127.379684"><ele>452.2</ele><time>2022-03-15T11:15:17.000Z</time></trkpt>
      <trkpt lat="36.364476" lon="127.379689"><ele>451.8</ele><time>2022-03-15T11:15:21.000Z</time></trkpt>
      <trkpt lat="36.364531" lon="127.379710"><ele>451.8</ele><time>2022-03-15T11:15:24.000Z</time></trkpt>
      <trkpt lat="36.364602" lon="127.379771"><ele>451.6</ele><time>2022-03-15T11:15:29.000Z</time></trkpt>
      <trkpt lat="36.364614" lon="127.379779"><ele>451.6</ele><time>2022-03-15T11:15:30.000Z</time></trkpt>
      <trkpt lat="36.364615" lon="127.379781"><ele>451.4</ele><time>2022-03-15T11:15:32.000Z</time></trkpt>
      <trkpt lat="36.364624" lon="127.379774"><ele>451.2</ele><time>2022-03-15T11:15:34.000Z</time></trkpt>
      <trkpt lat="36.364648" lon="127.379761"><ele>451.2</ele><time>2022-03-15T11:15:37.000Z</time></trkpt>
      <trkpt lat="36.364664" lon="127.379756"><ele>451.2</ele><time>2022-03-15T11:15:39.000Z</time></trkpt>
      <trkpt lat="36.364674" lon="127.379753"><ele>451.0</ele><time>2022-03-15T11:15:40.000Z</time></trkpt>
      <trkpt lat="36.364700" lon="127.379755"><ele>451.0</ele><time>2022-03-15T11:15:42.000Z</time></trkpt>
      <trkpt lat="36.364799" lon="127.379766"><ele>451.0</ele><time>2022-03-15T11:15:49.000Z</time></trkpt>
      <trkpt lat="36.364977" lon="127.379788"><ele>451.2</ele><time>2022-03-15T11:16:00.000Z</time></trkpt>
      <trkpt lat="36.365007" lon="127.379820"><ele>451.2</ele><time>2022-03-15T11:16:03.000Z</time></trkpt>
      <trkpt lat="36.365005" lon="127.379844"><ele>451.4</ele><time>2022-03-15T11:16:05.000Z</time></trkpt>
      <trkpt lat="36.364945" lon="127.379819"><ele>451.4</ele><time>2022-03-15T11:16:06.000Z</time></trkpt>
      <trkpt lat="36.364923" lon="127.379843"><ele>451.4</ele><time>2022-03-15T11:16:08.000Z</time></trkpt>
      <trkpt lat="36.364923" lon="127.379862"><ele>451.4</ele><time>2022-03-15T11:16:09.000Z</time></trkpt>
      <trkpt lat="36.364955" lon="127.379965"><ele>451.4</ele><time>2022-03-15T11:16:15.000Z</time></trkpt>
      <trkpt lat="36.364953" lon="127.379990"><ele>451.4</ele><time>2022-03-15T11:16:17.000Z</time></trkpt>
      <trkpt lat="36.364952" lon="127.380082"><ele>451.2</ele><time>2022-03-15T11:16:23.000Z</time></trkpt>
      <trkpt lat="36.364959" lon="127.380130"><ele>451.0</ele><time>2022-03-15T11:16:25.000Z</time></trkpt>
      <trkpt lat="36.364968" lon="127.380229"><ele>451.2</ele><time>2022-03-15T11:16:30.000Z</time></trkpt>
      <trkpt lat="36.364971" lon="127.380248"><ele>451.2</ele><time>2022-03-15T11:16:31.000Z</time></trkpt>
      <trkpt lat="36.364979" lon="127.380322"><ele>451.2</ele><time>2022-03-15T11:16:34.000Z</time></trkpt>
      <trkpt lat="36.364982" lon="127.380381"><ele>451.2</ele><time>2022-03-15T11:16:38.000Z</time></trkpt>
      <trkpt lat="36.364981" lon="127.380444"><ele>451.4</ele><time>2022-03-15T11:16:41.000Z</time></trkpt>
      <trkpt lat="36.364982" lon="127.380462"><ele>451.4</ele><time>2022-03-15T11:16:42.000Z</time></trkpt>
      <trkpt lat="36.364998" lon="127.380537"><ele>451.4</ele><time>2022-03-15T11:16:46.000Z</time></trkpt>
      <trkpt lat="36.365002" lon="127.380564"><ele>451.6</ele><time>2022-03-15T11:16:49.000Z</time></trkpt>
      <trkpt lat="36.365012" lon="127.380595"><ele>451.4</ele><time>2022-03-15T11:16:51.000Z</time></trkpt>
      <trkpt lat="36.365014" lon="127.380618"><ele>451.4</ele><time>2022-03-15T11:16:52.000Z</time></trkpt>
      <trkpt lat="36.365026" lon="127.380686"><ele>451.0</ele><time>2022-03-15T11:16:55.000Z</time></trkpt>
      <trkpt lat="36.365042" lon="127.380728"><ele>450.8</ele><time>2022-03-15T11:16:57.000Z</time></trkpt>
      <trkpt lat="36.365049" lon="127.380849"><ele>450.6</ele><time>2022-03-15T11:17:02.000Z</time></trkpt>
      <trkpt lat="36.365049" lon="127.380872"><ele>450.6</ele><time>2022-03-15T11:17:03.000Z</time></trkpt>
      <trkpt lat="36.365070" lon="127.381027"><ele>451.2</ele><time>2022-03-15T11:17:10.000Z</time></trkpt>
      <trkpt lat="36.365069" lon="127.381070"><ele>451.4</ele><time>2022-03-15T11:17:12.000Z</time></trkpt>
      <trkpt lat="36.365070" lon="127.381161"><ele>451.4</ele><time>2022-03-15T11:17:17.000Z</time></trkpt>
      <trkpt lat="36.365063" lon="127.381196"><ele>451.4</ele><time>2022-03-15T11:17:20.000Z</time></trkpt>
      <trkpt lat="36.365021" lon="127.381366"><ele>451.0</ele><time>2022-03-15T11:17:31.000Z</time></trkpt>
      <trkpt lat="36.365031" lon="127.381455"><ele>451.0</ele><time>2022-03-15T11:17:36.000Z</time></trkpt>
      <trkpt lat="36.365030" lon="127.381508"><ele>451.0</ele><time>2022-03-15T11:17:38.000Z</time></trkpt>
      <trkpt lat="36.365030" lon="127.381531"><ele>451.2</ele><time>2022-03-15T11:17:39.000Z</time></trkpt>
      <trkpt lat="36.365031" lon="127.381610"><ele>451.6</ele><time>2022-03-15T11:17:43.000Z</time></trkpt>
      <trkpt lat="36.365027" lon="127.381669"><ele>451.8</ele><time>2022-03-15T11:17:46.000Z</time></trkpt>
      <trkpt lat="36.365032" lon="127.381686"><ele>451.8</ele><time>2022-03-15T11:17:47.000Z</time></trkpt>
      <trkpt lat="36.365040" lon="127.381743"><ele>452.0</ele><time>2022-03-15T11:17:50.000Z</time></trkpt>
      <trkpt lat="36.365055" lon="127.381814"><ele>452.0</ele><time>2022-03-15T11:17:54.000Z</time></trkpt>
      <trkpt lat="36.365056" lon="127.381831"><ele>451.8</ele><time>2022-03-15T11:17:55.000Z</time></trkpt>
      <trkpt lat="36.365073" lon="127.381949"><ele>451.4</ele><time>2022-03-15T11:18:02.000Z</time></trkpt>
      <trkpt lat="36.365104" lon="127.382069"><ele>451.0</ele><time>2022-03-15T11:18:08.000Z</time></trkpt>
      <trkpt lat="36.365112" lon="127.382166"><ele>451.2</ele><time>2022-03-15T11:18:12.000Z</time></trkpt>
      <trkpt lat="36.365117" lon="127.382229"><ele>451.2</ele><time>2022-03-15T11:18:15.000Z</time></trkpt>
      <trkpt lat="36.365123" lon="127.382379"><ele>451.0</ele><time>2022-03-15T11:18:22.000Z</time></trkpt>
      <trkpt lat="36.365125" lon="127.382471"><ele>451.0</ele><time>2022-03-15T11:18:27.000Z</time></trkpt>
      <trkpt lat="36.365121" lon="127.382487"><ele>451.0</ele><time>2022-03-15T11:18:28.000Z</time></trkpt>
      <trkpt lat="36.365114" lon="127.382597"><ele>451.0</ele><time>2022-03-15T11:18:35.000Z</time></trkpt>
      <trkpt lat="36.365105" lon="127.382660"><ele>451.0</ele><time>2022-03-15T11:18:39.000Z</time></trkpt>
      <trkpt lat="36.365109" lon="127.382684"><ele>451.2</ele><time>2022-03-15T11:18:41.000Z</time></trkpt>
      <trkpt lat="36.365142" lon="127.382818"><ele>450.8</ele><time>2022-03-15T11:18:48.000Z</time></trkpt>
      <trkpt lat="36.365160" lon="127.382879"><ele>450.8</ele><time>2022-03-15T11:18:53.000Z</time></trkpt>
      <trkpt lat="36.365170" lon="127.382886"><ele>450.8</ele><time>2022-03-15T11:18:54.000Z</time></trkpt>
      <trkpt lat="36.365180" lon="127.382889"><ele>451.0</ele><time>2022-03-15T11:18:55.000Z</time></trkpt>
      <trkpt lat="36.365216" lon="127.382879"><ele>451.4</ele><time>2022-03-15T11:18:59.000Z</time></trkpt>
      <trkpt lat="36.365246" lon="127.382885"><ele>451.8</ele><time>2022-03-15T11:19:02.000Z</time></trkpt>
      <trkpt lat="36.365255" lon="127.382881"><ele>452.0</ele><time>2022-03-15T11:19:03.000Z</time></trkpt>
      <trkpt lat="36.365268" lon="127.382876"><ele>452.0</ele><time>2022-03-15T11:19:05.000Z</time></trkpt>
      <trkpt lat="36.365284" lon="127.382877"><ele>452.0</ele><time>2022-03-15T11:19:08.000Z</time></trkpt>
      <trkpt lat="36.365303" lon="127.382880"><ele>451.8</ele><time>2022-03-15T11:19:11.000Z</time></trkpt>
      <trkpt lat="36.365310" lon="127.382883"><ele>451.8</ele><time>2022-03-15T11:19:12.000Z</time></trkpt>
      <trkpt lat="36.365325" lon="127.382878"><ele>451.8</ele><time>2022-03-15T11:19:13.000Z</time></trkpt>
      <trkpt lat="36.365352" lon="127.382860"><ele>452.4</ele><time>2022-03-15T11:19:17.000Z</time></trkpt>
      <trkpt lat="36.365400" lon="127.382844"><ele>452.6</ele><time>2022-03-15T11:19:20.000Z</time></trkpt>
      <trkpt lat="36.365467" lon="127.382849"><ele>452.6</ele><time>2022-03-15T11:19:24.000Z</time></trkpt>
      <trkpt lat="36.365478" lon="127.382848"><ele>452.6</ele><time>2022-03-15T11:19:25.000Z</time></trkpt>
      <trkpt lat="36.365522" lon="127.382833"><ele>452.6</ele><time>2022-03-15T11:19:28.000Z</time></trkpt>
      <trkpt lat="36.365536" lon="127.382830"><ele>452.6</ele><time>2022-03-15T11:19:29.000Z</time></trkpt>
      <trkpt lat="36.365567" lon="127.382824"><ele>452.8</ele><time>2022-03-15T11:19:31.000Z</time></trkpt>
      <trkpt lat="36.365653" lon="127.382840"><ele>453.2</ele><time>2022-03-15T11:19:36.000Z</time></trkpt>
      <trkpt lat="36.365699" lon="127.382844"><ele>453.0</ele><time>2022-03-15T11:19:39.000Z</time></trkpt>
      <trkpt lat="36.365727" lon="127.382838"><ele>452.8</ele><time>2022-03-15T11:19:41.000Z</time></trkpt>
      <trkpt lat="36.365743" lon="127.382834"><ele>452.8</ele><time>2022-03-15T11:19:42.000Z</time></trkpt>
      <trkpt lat="36.365761" lon="127.382832"><ele>452.8</ele><time>2022-03-15T11:19:43.000Z</time></trkpt>
      <trkpt lat="36.365835" lon="127.382824"><ele>452.8</ele><time>2022-03-15T11:19:49.000Z</time></trkpt>
      <trkpt lat="36.365902" lon="127.382873"><ele>452.6</ele><time>2022-03-15T11:19:55.000Z</time></trkpt>
      <trkpt lat="36.365932" lon="127.382863"><ele>452.6</ele><time>2022-03-15T11:19:58.000Z</time></trkpt>
      <trkpt lat="36.365962" lon="127.382853"><ele>452.6</ele><time>2022-03-15T11:20:02.000Z</time></trkpt>
      <trkpt lat="36.365985" lon="127.382851"><ele>452.2</ele><time>2022-03-15T11:20:04.000Z</time></trkpt>
      <trkpt lat="36.366014" lon="127.382824"><ele>451.8</ele><time>2022-03-15T11:20:09.000Z</time></trkpt>
      <trkpt lat="36.366025" lon="127.382808"><ele>451.8</ele><time>2022-03-15T11:20:11.000Z</time></trkpt>
      <trkpt lat="36.366102" lon="127.382808"><ele>452.0</ele><time>2022-03-15T11:20:16.000Z</time></trkpt>
      <trkpt lat="36.366119" lon="127.382814"><ele>452.0</ele><time>2022-03-15T11:20:17.000Z</time></trkpt>
      <trkpt lat="36.366199" lon="127.382838"><ele>452.0</ele><time>2022-03-15T11:20:23.000Z</time></trkpt>
      <trkpt lat="36.366210" lon="127.382846"><ele>452.0</ele><time>2022-03-15T11:20:24.000Z</time></trkpt>
      <trkpt lat="36.366254" lon="127.382876"><ele>452.0</ele><time>2022-03-15T11:20:27.000Z</time></trkpt>
      <trkpt lat="36.366296" lon="127.382886"><ele>452.0</ele><time>2022-03-15T11:20:30.000Z</time></trkpt>
      <trkpt lat="36.366310" lon="127.382886"><ele>451.8</ele><time>2022-03-15T11:20:31.000Z</time></trkpt>
      <trkpt lat="36.366344" lon="127.382898"><ele>451.4</ele><time>2022-03-15T11:20:33.000Z</time></trkpt>
      <trkpt lat="36.366417" lon="127.382902"><ele>451.8</ele><time>2022-03-15T11:20:36.000Z</time></trkpt>
      <trkpt lat="36.366468" lon="127.382898"><ele>452.2</ele><time>2022-03-15T11:20:38.000Z</time></trkpt>
      <trkpt lat="36.366514" lon="127.382902"><ele>452.4</ele><time>2022-03-15T11:20:40.000Z</time></trkpt>
      <trkpt lat="36.366581" lon="127.382908"><ele>452.2</ele><time>2022-03-15T11:20:43.000Z</time></trkpt>
      <trkpt lat="36.366608" lon="127.382913"><ele>452.0</ele><time>2022-03-15T11:20:44.000Z</time></trkpt>
      <trkpt lat="36.366675" lon="127.382917"><ele>452.6</ele><time>2022-03-15T11:20:48.000Z</time></trkpt>
      <trkpt lat="36.366692" lon="127.382918"><ele>452.8</ele><time>2022-03-15T11:20:49.000Z</time></trkpt>
      <trkpt lat="36.366718" lon="127.382919"><ele>453.2</ele><time>2022-03-15T11:20:51.000Z</time></trkpt>
      <trkpt lat="36.366815" lon="127.382906"><ele>453.8</ele><time>2022-03-15T11:20:56.000Z</time></trkpt>
      <trkpt lat="36.366897" lon="127.382877"><ele>453.8</ele><time>2022-03-15T11:21:02.000Z</time></trkpt>
      <trkpt lat="36.366955" lon="127.382856"><ele>453.6</ele><time>2022-03-15T11:21:06.000Z</time></trkpt>
      <trkpt lat="36.366975" lon="127.382832"><ele>453.6</ele><time>2022-03-15T11:21:08.000Z</time></trkpt>
      <trkpt lat="36.367030" lon="127.382805"><ele>453.8</ele><time>2022-03-15T11:21:14.000Z</time></trkpt>
      <trkpt lat="36.367038" lon="127.382807"><ele>453.8</ele><time>2022-03-15T11:21:15.000Z</time></trkpt>
      <trkpt lat="36.367100" lon="127.382845"><ele>453.8</ele><time>2022-03-15T11:21:19.000Z</time></trkpt>
      <trkpt lat="36.367126" lon="127.382856"><ele>453.8</ele><time>2022-03-15T11:21:20.000Z</time></trkpt>
      <trkpt lat="36.367278" lon="127.382962"><ele>453.2</ele><time>2022-03-15T11:21:26.000Z</time></trkpt>
      <trkpt lat="36.367393" lon="127.383060"><ele>453.2</ele><time>2022-03-15T11:21:32.000Z</time></trkpt>
      <trkpt lat="36.367403" lon="127.383078"><ele>453.0</ele><time>2022-03-15T11:21:33.000Z</time></trkpt>
      <trkpt lat="36.367398" lon="127.383130"><ele>453.0</ele><time>2022-03-15T11:21:36.000Z</time></trkpt>
      <trkpt lat="36.367393" lon="127.383170"><ele>452.8</ele><time>2022-03-15T11:21:38.000Z</time></trkpt>
      <trkpt lat="36.367357" lon="127.383272"><ele>452.8</ele><time>2022-03-15T11:21:44.000Z</time></trkpt>
      <trkpt lat="36.367344" lon="127.383385"><ele>453.0</ele><time>2022-03-15T11:21:50.000Z</time></trkpt>
      <trkpt lat="36.367352" lon="127.383519"><ele>453.0</ele><time>2022-03-15T11:21:56.000Z</time></trkpt>
      <trkpt lat="36.367379" lon="127.383632"><ele>452.6</ele><time>2022-03-15T11:22:02.000Z</time></trkpt>
      <trkpt lat="36.367384" lon="127.383769"><ele>452.6</ele><time>2022-03-15T11:22:10.000Z</time></trkpt>
      <trkpt lat="36.367377" lon="127.383899"><ele>452.8</ele><time>2022-03-15T11:22:18.000Z</time></trkpt>
      <trkpt lat="36.367344" lon="127.384000"><ele>452.8</ele><time>2022-03-15T11:22:25.000Z</time></trkpt>
      <trkpt lat="36.367326" lon="127.384006"><ele>452.8</ele><time>2022-03-15T11:22:26.000Z</time></trkpt>
      <trkpt lat="36.367309" lon="127.384059"><ele>452.4</ele><time>2022-03-15T11:22:30.000Z</time></trkpt>
      <trkpt lat="36.367305" lon="127.384072"><ele>452.2</ele><time>2022-03-15T11:22:31.000Z</time></trkpt>
      <trkpt lat="36.367303" lon="127.384102"><ele>452.0</ele><time>2022-03-15T11:22:33.000Z</time></trkpt>
      <trkpt lat="36.367297" lon="127.384137"><ele>451.8</ele><time>2022-03-15T11:22:34.000Z</time></trkpt>
      <trkpt lat="36.367294" lon="127.384189"><ele>451.8</ele><time>2022-03-15T11:22:38.000Z</time></trkpt>
      <trkpt lat="36.367271" lon="127.384340"><ele>452.4</ele><time>2022-03-15T11:22:45.000Z</time></trkpt>
      <trkpt lat="36.367273" lon="127.384363"><ele>452.4</ele><time>2022-03-15T11:22:46.000Z</time></trkpt>
      <trkpt lat="36.367283" lon="127.384472"><ele>452.2</ele><time>2022-03-15T11:22:51.000Z</time></trkpt>
      <trkpt lat="36.367300" lon="127.384569"><ele>452.4</ele><time>2022-03-15T11:22:56.000Z</time></trkpt>
      <trkpt lat="36.367307" lon="127.384609"><ele>452.6</ele><time>2022-03-15T11:22:58.000Z</time></trkpt>
      <trkpt lat="36.367306" lon="127.384626"><ele>452.6</ele><time>2022-03-15T11:22:59.000Z</time></trkpt>
      <trkpt lat="36.367309" lon="127.384782"><ele>451.8</ele><time>2022-03-15T11:23:06.000Z</time></trkpt>
      <trkpt lat="36.367293" lon="127.384944"><ele>451.8</ele><time>2022-03-15T11:23:14.000Z</time></trkpt>
      <trkpt lat="36.367312" lon="127.385008"><ele>452.0</ele><time>2022-03-15T11:23:17.000Z</time></trkpt>
      <trkpt lat="36.367328" lon="127.385053"><ele>452.0</ele><time>2022-03-15T11:23:19.000Z</time></trkpt>
      <trkpt lat="36.367346" lon="127.385122"><ele>452.0</ele><time>2022-03-15T11:23:23.000Z</time></trkpt>
      <trkpt lat="36.367377" lon="127.385221"><ele>452.2</ele><time>2022-03-15T11:23:28.000Z</time></trkpt>
      <trkpt lat="36.367379" lon="127.385241"><ele>452.2</ele><time>2022-03-15T11:23:29.000Z</time></trkpt>
      <trkpt lat="36.367402" lon="127.385323"><ele>452.8</ele><time>2022-03-15T11:23:33.000Z</time></trkpt>
      <trkpt lat="36.367391" lon="127.385388"><ele>453.0</ele><time>2022-03-15T11:23:36.000Z</time></trkpt>
      <trkpt lat="36.367382" lon="127.385527"><ele>452.2</ele><time>2022-03-15T11:23:44.000Z</time></trkpt>
      <trkpt lat="36.367378" lon="127.385592"><ele>452.2</ele><time>2022-03-15T11:23:48.000Z</time></trkpt>
      <trkpt lat="36.367379" lon="127.385623"><ele>452.4</ele><time>2022-03-15T11:23:50.000Z</time></trkpt>
      <trkpt lat="36.367378" lon="127.385693"><ele>452.2</ele><time>2022-03-15T11:23:53.000Z</time></trkpt>
      <trkpt lat="36.367364" lon="127.385779"><ele>452.2</ele><time>2022-03-15T11:23:57.000Z</time></trkpt>
      <trkpt lat="36.367329" lon="127.385880"><ele>452.0</ele><time>2022-03-15T11:24:03.000Z</time></trkpt>
      <trkpt lat="36.367328" lon="127.385901"><ele>452.0</ele><time>2022-03-15T11:24:04.000Z</time></trkpt>
      <trkpt lat="36.367323" lon="127.386007"><ele>451.8</ele><time>2022-03-15T11:24:10.000Z</time></trkpt>
      <trkpt lat="36.367329" lon="127.386059"><ele>451.4</ele><time>2022-03-15T11:24:13.000Z</time></trkpt>
      <trkpt lat="36.367335" lon="127.386122"><ele>451.2</ele><time>2022-03-15T11:24:17.000Z</time></trkpt>
      <trkpt lat="36.367336" lon="127.386179"><ele>451.2</ele><time>2022-03-15T11:24:20.000Z</time></trkpt>
      <trkpt lat="36.367335" lon="127.386222"><ele>451.4</ele><time>2022-03-15T11:24:22.000Z</time></trkpt>
      <trkpt lat="36.367335" lon="127.386287"><ele>451.4</ele><time>2022-03-15T11:24:25.000Z</time></trkpt>
      <trkpt lat="36.367323" lon="127.386345"><ele>451.4</ele><time>2022-03-15T11:24:28.000Z</time></trkpt>
      <trkpt lat="36.367325" lon="127.386400"><ele>451.6</ele><time>2022-03-15T11:24:31.000Z</time></trkpt>
      <trkpt lat="36.367332" lon="127.386494"><ele>451.6</ele><time>2022-03-15T11:24:36.000Z</time></trkpt>
      <trkpt lat="36.367330" lon="127.386547"><ele>451.2</ele><time>2022-03-15T11:24:39.000Z</time></trkpt>
      <trkpt lat="36.367331" lon="127.386562"><ele>451.2</ele><time>2022-03-15T11:24:40.000Z</time></trkpt>
      <trkpt lat="36.367325" lon="127.386675"><ele>451.0</ele><time>2022-03-15T11:24:46.000Z</time></trkpt>
      <trkpt lat="36.367309" lon="127.386839"><ele>451.2</ele><time>2022-03-15T11:24:53.000Z</time></trkpt>
      <trkpt lat="36.367311" lon="127.386879"><ele>451.2</ele><time>2022-03-15T11:24:55.000Z</time></trkpt>
      <trkpt lat="36.367298" lon="127.386970"><ele>451.2</ele><time>2022-03-15T11:25:00.000Z</time></trkpt>
      <trkpt lat="36.367285" lon="127.387076"><ele>450.6</ele><time>2022-03-15T11:25:07.000Z</time></trkpt>
      <trkpt lat="36.367280" lon="127.387111"><ele>450.4</ele><time>2022-03-15T11:25:09.000Z</time></trkpt>
      <trkpt lat="36.367268" lon="127.387327"><ele>450.6</ele><time>2022-03-15T11:25:20.000Z</time></trkpt>
      <trkpt lat="36.367291" lon="127.387439"><ele>450.8</ele><time>2022-03-15T11:25:27.000Z</time></trkpt>
      <trkpt lat="36.367289" lon="127.387494"><ele>450.8</ele><time>2022-03-15T11:25:31.000Z</time></trkpt>
      <trkpt lat="36.367281" lon="127.387526"><ele>450.8</ele><time>2022-03-15T11:25:33.000Z</time></trkpt>
      <trkpt lat="36.367276" lon="127.387543"><ele>450.8</ele><time>2022-03-15T11:25:34.000Z</time></trkpt>
      <trkpt lat="36.367261" lon="127.387562"><ele>451.0</ele><time>2022-03-15T11:25:36.000Z</time></trkpt>
      <trkpt lat="36.367250" lon="127.387568"><ele>451.0</ele><time>2022-03-15T11:25:37.000Z</time></trkpt>
      <trkpt lat="36.367228" lon="127.387568"><ele>451.0</ele><time>2022-03-15T11:25:39.000Z</time></trkpt>
      <trkpt lat="36.367201" lon="127.387576"><ele>450.8</ele><time>2022-03-15T11:25:42.000Z</time></trkpt>
      <trkpt lat="36.367185" lon="127.387585"><ele>450.4</ele><time>2022-03-15T11:25:44.000Z</time></trkpt>
      <trkpt lat="36.367172" lon="127.387590"><ele>450.4</ele><time>2022-03-15T11:25:46.000Z</time></trkpt>
      <trkpt lat="36.367163" lon="127.387588"><ele>450.4</ele><time>2022-03-15T11:25:47.000Z</time></trkpt>
      <trkpt lat="36.367035" lon="127.387612"><ele>450.8</ele><time>2022-03-15T11:25:56.000Z</time></trkpt>
      <trkpt lat="36.366972" lon="127.387650"><ele>451.0</ele><time>2022-03-15T11:26:01.000Z</time></trkpt>
      <trkpt lat="36.366930" lon="127.387675"><ele>451.2</ele><time>2022-03-15T11:26:06.000Z</time></trkpt>
      <trkpt lat="36.366920" lon="127.387675"><ele>450.8</ele><time>2022-03-15T11:26:07.000Z</time></trkpt>
      <trkpt lat="36.366887" lon="127.387683"><ele>450.4</ele><time>2022-03-15T11:26:10.000Z</time></trkpt>
      <trkpt lat="36.366822" lon="127.387699"><ele>450.6</ele><time>2022-03-15T11:26:16.000Z</time></trkpt>
      <trkpt lat="36.366782" lon="127.387713"><ele>450.8</ele><time>2022-03-15T11:26:19.000Z</time></trkpt>
      <trkpt lat="36.366615" lon="127.387723"><ele>451.4</ele><time>2022-03-15T11:26:31.000Z</time></trkpt>
      <trkpt lat="36.366493" lon="127.387785"><ele>450.4</ele><time>2022-03-15T11:26:41.000Z</time></trkpt>
      <trkpt lat="36.366480" lon="127.387793"><ele>450.4</ele><time>2022-03-15T11:26:42.000Z</time></trkpt>
      <trkpt lat="36.366291" lon="127.387785"><ele>451.6</ele><time>2022-03-15T11:26:52.000Z</time></trkpt>
      <trkpt lat="36.366160" lon="127.387740"><ele>451.8</ele><time>2022-03-15T11:26:57.000Z</time></trkpt>
      <trkpt lat="36.366094" lon="127.387737"><ele>451.4</ele><time>2022-03-15T11:27:01.000Z</time></trkpt>
      <trkpt lat="36.366065" lon="127.387740"><ele>451.0</ele><time>2022-03-15T11:27:03.000Z</time></trkpt>
      <trkpt lat="36.366001" lon="127.387739"><ele>450.8</ele><time>2022-03-15T11:27:07.000Z</time></trkpt>
      <trkpt lat="36.365986" lon="127.387737"><ele>450.8</ele><time>2022-03-15T11:27:08.000Z</time></trkpt>
      <trkpt lat="36.365969" lon="127.387735"><ele>450.8</ele><time>2022-03-15T11:27:09.000Z</time></trkpt>
      <trkpt lat="36.365920" lon="127.387723"><ele>450.8</ele><time>2022-03-15T11:27:12.000Z</time></trkpt>
      <trkpt lat="36.365904" lon="127.387690"><ele>450.8</ele><time>2022-03-15T11:27:14.000Z</time></trkpt>
      <trkpt lat="36.365832" lon="127.387571"><ele>451.0</ele><time>2022-03-15T11:27:20.000Z</time></trkpt>
      <trkpt lat="36.365797" lon="127.387505"><ele>451.2</ele><time>2022-03-15T11:27:22.000Z</time></trkpt>
      <trkpt lat="36.365779" lon="127.387344"><ele>452.0</ele><time>2022-03-15T11:27:30.000Z</time></trkpt>
      <trkpt lat="36.365769" lon="127.387212"><ele>452.2</ele><time>2022-03-15T11:27:36.000Z</time></trkpt>
      <trkpt lat="36.365764" lon="127.387042"><ele>451.8</ele><time>2022-03-15T11:27:43.000Z</time></trkpt>
      <trkpt lat="36.365764" lon="127.387016"><ele>452.0</ele><time>2022-03-15T11:27:44.000Z</time></trkpt>
      <trkpt lat="36.365764" lon="127.386992"><ele>452.0</ele><time>2022-03-15T11:27:45.000Z</time></trkpt>
      <trkpt lat="36.365763" lon="127.386968"><ele>452.0</ele><time>2022-03-15T11:27:46.000Z</time></trkpt>
      <trkpt lat="36.365762" lon="127.386946"><ele>452.2</ele><time>2022-03-15T11:27:47.000Z</time></trkpt>
      <trkpt lat="36.365756" lon="127.386903"><ele>452.0</ele><time>2022-03-15T11:27:49.000Z</time></trkpt>
      <trkpt lat="36.365755" lon="127.386861"><ele>452.0</ele><time>2022-03-15T11:27:51.000Z</time></trkpt>
      <trkpt lat="36.365760" lon="127.386794"><ele>451.8</ele><time>2022-03-15T11:27:54.000Z</time></trkpt>
      <trkpt lat="36.365760" lon="127.386773"><ele>451.8</ele><time>2022-03-15T11:27:55.000Z</time></trkpt>
      <trkpt lat="36.365769" lon="127.386628"><ele>451.8</ele><time>2022-03-15T11:28:01.000Z</time></trkpt>
      <trkpt lat="36.365770" lon="127.386581"><ele>451.8</ele><time>2022-03-15T11:28:03.000Z</time></trkpt>
      <trkpt lat="36.365764" lon="127.386464"><ele>451.8</ele><time>2022-03-15T11:28:08.000Z</time></trkpt>
      <trkpt lat="36.365764" lon="127.386308"><ele>451.6</ele><time>2022-03-15T11:28:15.000Z</time></trkpt>
      <trkpt lat="36.365769" lon="127.386186"><ele>451.4</ele><time>2022-03-15T11:28:20.000Z</time></trkpt>
      <trkpt lat="36.365778" lon="127.386120"><ele>451.4</ele><time>2022-03-15T11:28:23.000Z</time></trkpt>
      <trkpt lat="36.365785" lon="127.386030"><ele>451.2</ele><time>2022-03-15T11:28:27.000Z</time></trkpt>
      <trkpt lat="36.365781" lon="127.385965"><ele>451.2</ele><time>2022-03-15T11:28:30.000Z</time></trkpt>
      <trkpt lat="36.365772" lon="127.385863"><ele>451.4</ele><time>2022-03-15T11:28:35.000Z</time></trkpt>
      <trkpt lat="36.365770" lon="127.385796"><ele>451.2</ele><time>2022-03-15T11:28:38.000Z</time></trkpt>
      <trkpt lat="36.365767" lon="127.385704"><ele>450.8</ele><time>2022-03-15T11:28:42.000Z</time></trkpt>
      <trkpt lat="36.365764" lon="127.385635"><ele>450.8</ele><time>2022-03-15T11:28:45.000Z</time></trkpt>
      <trkpt lat="36.365769" lon="127.385483"><ele>450.8</ele><time>2022-03-15T11:28:52.000Z</time></trkpt>
      <trkpt lat="36.365774" lon="127.385331"><ele>451.0</ele><time>2022-03-15T11:28:59.000Z</time></trkpt>
      <trkpt lat="36.365775" lon="127.385223"><ele>450.8</ele><time>2022-03-15T11:29:04.000Z</time></trkpt>
      <trkpt lat="36.365775" lon="127.385200"><ele>450.6</ele><time>2022-03-15T11:29:05.000Z</time></trkpt>
      <trkpt lat="36.365775" lon="127.385179"><ele>450.6</ele><time>2022-03-15T11:29:06.000Z</time></trkpt>
      <trkpt lat="36.365782" lon="127.385020"><ele>450.4</ele><time>2022-03-15T11:29:13.000Z</time></trkpt>
      <trkpt lat="36.365791" lon="127.384857"><ele>450.6</ele><time>2022-03-15T11:29:20.000Z</time></trkpt>
      <trkpt lat="36.365793" lon="127.384727"><ele>450.8</ele><time>2022-03-15T11:29:27.000Z</time></trkpt>
      <trkpt lat="36.365790" lon="127.384662"><ele>450.6</ele><time>2022-03-15T11:29:31.000Z</time></trkpt>
      <trkpt lat="36.365781" lon="127.384619"><ele>450.6</ele><time>2022-03-15T11:29:34.000Z</time></trkpt>
      <trkpt lat="36.365768" lon="127.384559"><ele>450.4</ele><time>2022-03-15T11:29:38.000Z</time></trkpt>
      <trkpt lat="36.365761" lon="127.384513"><ele>450.4</ele><time>2022-03-15T11:29:41.000Z</time></trkpt>
      <trkpt lat="36.365763" lon="127.384488"><ele>450.6</ele><time>2022-03-15T11:29:43.000Z</time></trkpt>
      <trkpt lat="36.365759" lon="127.384428"><ele>450.6</ele><time>2022-03-15T11:29:47.000Z</time></trkpt>
      <trkpt lat="36.365750" lon="127.384342"><ele>450.2</ele><time>2022-03-15T11:29:53.000Z</time></trkpt>
      <trkpt lat="36.365749" lon="127.384324"><ele>450.2</ele><time>2022-03-15T11:29:54.000Z</time></trkpt>
      <trkpt lat="36.365738" lon="127.384211"><ele>450.8</ele><time>2022-03-15T11:30:00.000Z</time></trkpt>
      <trkpt lat="36.365730" lon="127.384112"><ele>450.8</ele><time>2022-03-15T11:30:05.000Z</time></trkpt>
      <trkpt lat="36.365729" lon="127.384074"><ele>450.4</ele><time>2022-03-15T11:30:07.000Z</time></trkpt>
      <trkpt lat="36.365731" lon="127.384055"><ele>450.4</ele><time>2022-03-15T11:30:08.000Z</time></trkpt>
      <trkpt lat="36.365723" lon="127.383945"><ele>451.6</ele><time>2022-03-15T11:30:14.000Z</time></trkpt>
      <trkpt lat="36.365724" lon="127.383907"><ele>451.8</ele><time>2022-03-15T11:30:16.000Z</time></trkpt>
      <trkpt lat="36.365735" lon="127.383796"><ele>452.8</ele><time>2022-03-15T11:30:22.000Z</time></trkpt>
      <trkpt lat="36.365736" lon="127.383775"><ele>452.8</ele><time>2022-03-15T11:30:23.000Z</time></trkpt>
      <trkpt lat="36.365735" lon="127.383656"><ele>452.6</ele><time>2022-03-15T11:30:30.000Z</time></trkpt>
      <trkpt lat="36.365729" lon="127.383624"><ele>452.8</ele><time>2022-03-15T11:30:32.000Z</time></trkpt>
      <trkpt lat="36.365721" lon="127.383494"><ele>453.6</ele><time>2022-03-15T11:30:39.000Z</time></trkpt>
      <trkpt lat="36.365723" lon="127.383444"><ele>453.6</ele><time>2022-03-15T11:30:42.000Z</time></trkpt>
      <trkpt lat="36.365727" lon="127.383397"><ele>453.6</ele><time>2022-03-15T11:30:46.000Z</time></trkpt>
      <trkpt lat="36.365726" lon="127.383378"><ele>453.6</ele><time>2022-03-15T11:30:47.000Z</time></trkpt>
      <trkpt lat="36.365728" lon="127.383359"><ele>453.6</ele><time>2022-03-15T11:30:48.000Z</time></trkpt>
      <trkpt lat="36.365728" lon="127.383347"><ele>453.6</ele><time>2022-03-15T11:30:49.000Z</time></trkpt>
      <trkpt lat="36.365728" lon="127.383194"><ele>453.6</ele><time>2022-03-15T11:30:57.000Z</time></trkpt>
      <trkpt lat="36.365709" lon="127.383144"><ele>453.6</ele><time>2022-03-15T11:31:01.000Z</time></trkpt>
      <trkpt lat="36.365686" lon="127.383084"><ele>453.6</ele><time>2022-03-15T11:31:05.000Z</time></trkpt>
      <trkpt lat="36.365586" lon="127.383024"><ele>453.0</ele><time>2022-03-15T11:31:14.000Z</time></trkpt>
      <trkpt lat="36.365534" lon="127.383017"><ele>453.2</ele><time>2022-03-15T11:31:18.000Z</time></trkpt>
      <trkpt lat="36.365459" lon="127.382969"><ele>453.8</ele><time>2022-03-15T11:31:23.000Z</time></trkpt>
      <trkpt lat="36.365454" lon="127.382955"><ele>454.0</ele><time>2022-03-15T11:31:24.000Z</time></trkpt>
      <trkpt lat="36.365450" lon="127.382943"><ele>454.2</ele><time>2022-03-15T11:31:26.000Z</time></trkpt>
      <trkpt lat="36.365448" lon="127.382943"><ele>454.2</ele><time>2022-03-15T11:31:27.000Z</time></trkpt>
      <trkpt lat="36.365445" lon="127.382945"><ele>454.4</ele><time>2022-03-15T11:31:28.000Z</time></trkpt>
      <trkpt lat="36.365423" lon="127.382930"><ele>454.4</ele><time>2022-03-15T11:31:30.000Z</time></trkpt>
      <trkpt lat="36.365346" lon="127.382910"><ele>454.6</ele><time>2022-03-15T11:31:35.000Z</time></trkpt>
      <trkpt lat="36.365306" lon="127.382904"><ele>454.6</ele><time>2022-03-15T11:31:38.000Z</time></trkpt>
      <trkpt lat="36.365276" lon="127.382896"><ele>454.4</ele><time>2022-03-15T11:31:41.000Z</time></trkpt>
      <trkpt lat="36.365199" lon="127.382906"><ele>453.6</ele><time>2022-03-15T11:31:48.000Z</time></trkpt>
      <trkpt lat="36.365178" lon="127.382906"><ele>453.6</ele><time>2022-03-15T11:31:50.000Z</time></trkpt>
      <trkpt lat="36.365113" lon="127.382887"><ele>453.6</ele><time>2022-03-15T11:31:55.000Z</time></trkpt>
      <trkpt lat="36.365084" lon="127.382867"><ele>453.4</ele><time>2022-03-15T11:31:57.000Z</time></trkpt>
      <trkpt lat="36.365072" lon="127.382845"><ele>453.4</ele><time>2022-03-15T11:31:59.000Z</time></trkpt>
      <trkpt lat="36.365062" lon="127.382797"><ele>453.2</ele><time>2022-03-15T11:32:02.000Z</time></trkpt>
      <trkpt lat="36.365054" lon="127.382697"><ele>453.4</ele><time>2022-03-15T11:32:08.000Z</time></trkpt>
      <trkpt lat="36.365050" lon="127.382596"><ele>453.6</ele><time>2022-03-15T11:32:14.000Z</time></trkpt>
      <trkpt lat="36.365070" lon="127.382470"><ele>453.6</ele><time>2022-03-15T11:32:21.000Z</time></trkpt>
      <trkpt lat="36.365076" lon="127.382380"><ele>453.8</ele><time>2022-03-15T11:32:26.000Z</time></trkpt>
      <trkpt lat="36.365083" lon="127.382330"><ele>454.0</ele><time>2022-03-15T11:32:30.000Z</time></trkpt>
      <trkpt lat="36.365086" lon="127.382322"><ele>454.0</ele><time>2022-03-15T11:32:31.000Z</time></trkpt>
      <trkpt lat="36.365093" lon="127.382262"><ele>454.0</ele><time>2022-03-15T11:32:34.000Z</time></trkpt>
      <trkpt lat="36.365076" lon="127.382190"><ele>454.2</ele><time>2022-03-15T11:32:39.000Z</time></trkpt>
      <trkpt lat="36.365066" lon="127.382149"><ele>454.4</ele><time>2022-03-15T11:32:42.000Z</time></trkpt>
      <trkpt lat="36.365052" lon="127.382102"><ele>454.4</ele><time>2022-03-15T11:32:45.000Z</time></trkpt>
      <trkpt lat="36.365056" lon="127.382035"><ele>454.4</ele><time>2022-03-15T11:32:49.000Z</time></trkpt>
      <trkpt lat="36.365057" lon="127.382022"><ele>454.2</ele><time>2022-03-15T11:32:50.000Z</time></trkpt>
      <trkpt lat="36.365055" lon="127.381977"><ele>454.2</ele><time>2022-03-15T11:32:53.000Z</time></trkpt>
      <trkpt lat="36.365052" lon="127.381965"><ele>454.2</ele><time>2022-03-15T11:32:54.000Z</time></trkpt>
      <trkpt lat="36.365064" lon="127.381866"><ele>454.2</ele><time>2022-03-15T11:32:59.000Z</time></trkpt>
      <trkpt lat="36.365066" lon="127.381786"><ele>454.2</ele><time>2022-03-15T11:33:04.000Z</time></trkpt>
      <trkpt lat="36.365060" lon="127.381731"><ele>454.2</ele><time>2022-03-15T11:33:06.000Z</time></trkpt>
      <trkpt lat="36.365056" lon="127.381697"><ele>454.2</ele><time>2022-03-15T11:33:09.000Z</time></trkpt>
      <trkpt lat="36.365055" lon="127.381614"><ele>454.2</ele><time>2022-03-15T11:33:14.000Z</time></trkpt>
      <trkpt lat="36.365035" lon="127.381501"><ele>454.4</ele><time>2022-03-15T11:33:21.000Z</time></trkpt>
      <trkpt lat="36.365042" lon="127.381450"><ele>454.6</ele><time>2022-03-15T11:33:24.000Z</time></trkpt>
      <trkpt lat="36.365038" lon="127.381358"><ele>454.4</ele><time>2022-03-15T11:33:28.000Z</time></trkpt>
      <trkpt lat="36.365041" lon="127.381239"><ele>454.4</ele><time>2022-03-15T11:33:35.000Z</time></trkpt>
      <trkpt lat="36.365049" lon="127.381138"><ele>454.4</ele><time>2022-03-15T11:33:40.000Z</time></trkpt>
      <trkpt lat="36.365043" lon="127.381076"><ele>454.4</ele><time>2022-03-15T11:33:43.000Z</time></trkpt>
      <trkpt lat="36.365054" lon="127.381004"><ele>454.6</ele><time>2022-03-15T11:33:47.000Z</time></trkpt>
      <trkpt lat="36.365054" lon="127.380988"><ele>454.6</ele><time>2022-03-15T11:33:48.000Z</time></trkpt>
      <trkpt lat="36.365053" lon="127.380936"><ele>454.8</ele><time>2022-03-15T11:33:51.000Z</time></trkpt>
      <trkpt lat="36.365053" lon="127.380919"><ele>454.8</ele><time>2022-03-15T11:33:52.000Z</time></trkpt>
      <trkpt lat="36.365063" lon="127.380833"><ele>454.6</ele><time>2022-03-15T11:33:57.000Z</time></trkpt>
      <trkpt lat="36.365078" lon="127.380789"><ele>454.6</ele><time>2022-03-15T11:34:00.000Z</time></trkpt>
      <trkpt lat="36.365088" lon="127.380711"><ele>454.4</ele><time>2022-03-15T11:34:05.000Z</time></trkpt>
      <trkpt lat="36.365080" lon="127.380667"><ele>454.4</ele><time>2022-03-15T11:34:08.000Z</time></trkpt>
      <trkpt lat="36.365065" lon="127.380598"><ele>454.6</ele><time>2022-03-15T11:34:13.000Z</time></trkpt>
      <trkpt lat="36.365057" lon="127.380586"><ele>454.6</ele><time>2022-03-15T11:34:14.000Z</time></trkpt>
      <trkpt lat="36.365035" lon="127.380457"><ele>454.2</ele><time>2022-03-15T11:34:21.000Z</time></trkpt>
      <trkpt lat="36.365036" lon="127.380344"><ele>454.0</ele><time>2022-03-15T11:34:28.000Z</time></trkpt>
      <trkpt lat="36.364984" lon="127.380230"><ele>453.8</ele><time>2022-03-15T11:34:35.000Z</time></trkpt>
      <trkpt lat="36.364997" lon="127.380122"><ele>453.6</ele><time>2022-03-15T11:34:41.000Z</time></trkpt>
      <trkpt lat="36.365024" lon="127.380029"><ele>453.8</ele><time>2022-03-15T11:34:45.000Z</time></trkpt>
      <trkpt lat="36.365062" lon="127.379955"><ele>453.8</ele><time>2022-03-15T11:34:48.000Z</time></trkpt>
      <trkpt lat="36.365072" lon="127.379941"><ele>453.8</ele><time>2022-03-15T11:34:49.000Z</time></trkpt>
      <trkpt lat="36.365097" lon="127.379897"><ele>453.6</ele><time>2022-03-15T11:34:52.000Z</time></trkpt>
      <trkpt lat="36.365098" lon="127.379879"><ele>453.6</ele><time>2022-03-15T11:34:53.000Z</time></trkpt>
      <trkpt lat="36.365102" lon="127.379864"><ele>453.6</ele><time>2022-03-15T11:34:54.000Z</time></trkpt>
      <trkpt lat="36.365112" lon="127.379796"><ele>453.4</ele><time>2022-03-15T11:34:58.000Z</time></trkpt>
      <trkpt lat="36.365108" lon="127.379680"><ele>453.2</ele><time>2022-03-15T11:35:04.000Z</time></trkpt>
      <trkpt lat="36.365091" lon="127.379646"><ele>453.2</ele><time>2022-03-15T11:35:06.000Z</time></trkpt>
      <trkpt lat="36.365075" lon="127.379574"><ele>453.4</ele><time>2022-03-15T11:35:10.000Z</time></trkpt>
      <trkpt lat="36.365073" lon="127.379559"><ele>453.4</ele><time>2022-03-15T11:35:11.000Z</time></trkpt>
      <trkpt lat="36.365070" lon="127.379525"><ele>453.6</ele><time>2022-03-15T11:35:13.000Z</time></trkpt>
      <trkpt lat="36.365074" lon="127.379414"><ele>453.0</ele><time>2022-03-15T11:35:20.000Z</time></trkpt>
      <trkpt lat="36.365074" lon="127.379407"><ele>452.8</ele><time>2022-03-15T11:35:21.000Z</time></trkpt>
      <trkpt lat="36.365081" lon="127.379404"><ele>452.4</ele><time>2022-03-15T11:35:24.000Z</time></trkpt>
      <trkpt lat="36.365085" lon="127.379403"><ele>452.0</ele><time>2022-03-15T11:35:26.000Z</time></trkpt>
      <trkpt lat="36.365100" lon="127.379397"><ele>451.8</ele><time>2022-03-15T11:35:30.000Z</time></trkpt>
      <trkpt lat="36.365112" lon="127.379391"><ele>451.8</ele><time>2022-03-15T11:35:31.000Z</time></trkpt>
      <trkpt lat="36.365124" lon="127.379383"><ele>451.6</ele><time>2022-03-15T11:35:38.000Z</time></trkpt>
      <trkpt lat="36.365132" lon="127.379383"><ele>451.6</ele><time>2022-03-15T11:35:39.000Z</time></trkpt>
      <trkpt lat="36.365115" lon="127.379386"><ele>451.4</ele><time>2022-03-15T11:35:48.000Z</time></trkpt>
      <trkpt lat="36.365100" lon="127.379393"><ele>451.4</ele><time>2022-03-15T11:35:49.000Z</time></trkpt>
      <trkpt lat="36.364995" lon="127.379370"><ele>451.8</ele><time>2022-03-15T11:35:55.000Z</time></trkpt>
      <trkpt lat="36.364890" lon="127.379367"><ele>452.0</ele><time>2022-03-15T11:36:01.000Z</time></trkpt>
      <trkpt lat="36.364875" lon="127.379365"><ele>452.0</ele><time>2022-03-15T11:36:02.000Z</time></trkpt>
      <trkpt lat="36.364773" lon="127.379396"><ele>452.4</ele><time>2022-03-15T11:36:08.000Z</time></trkpt>
      <trkpt lat="36.364747" lon="127.379409"><ele>452.4</ele><time>2022-03-15T11:36:10.000Z</time></trkpt>
      <trkpt lat="36.364711" lon="127.379423"><ele>452.2</ele><time>2022-03-15T11:36:13.000Z</time></trkpt>
      <trkpt lat="36.364616" lon="127.379443"><ele>451.6</ele><time>2022-03-15T11:36:22.000Z</time></trkpt>
      <trkpt lat="36.364606" lon="127.379445"><ele>451.4</ele><time>2022-03-15T11:36:23.000Z</time></trkpt>
      <trkpt lat="36.364496" lon="127.379458"><ele>451.8</ele><time>2022-03-15T11:36:31.000Z</time></trkpt>
      <trkpt lat="36.364441" lon="127.379459"><ele>452.0</ele><time>2022-03-15T11:36:34.000Z</time></trkpt>
      <trkpt lat="36.364416" lon="127.379453"><ele>452.0</ele><time>2022-03-15T11:36:37.000Z</time></trkpt>
      <trkpt lat="36.364353" lon="127.379441"><ele>452.2</ele><time>2022-03-15T11:36:42.000Z</time></trkpt>
      <trkpt lat="36.364313" lon="127.379439"><ele>452.4</ele><time>2022-03-15T11:36:45.000Z</time></trkpt>
      <trkpt lat="36.364206" lon="127.379436"><ele>452.4</ele><time>2022-03-15T11:36:53.000Z</time></trkpt>
      <trkpt lat="36.364108" lon="127.379409"><ele>452.6</ele><time>2022-03-15T11:37:01.000Z</time></trkpt>
      <trkpt lat="36.364059" lon="127.379404"><ele>452.8</ele><time>2022-03-15T11:37:05.000Z</time></trkpt>
      <trkpt lat="36.363994" lon="127.379393"><ele>453.0</ele><time>2022-03-15T11:37:09.000Z</time></trkpt>
      <trkpt lat="36.363873" lon="127.379358"><ele>453.0</ele><time>2022-03-15T11:37:17.000Z</time></trkpt>
      <trkpt lat="36.363860" lon="127.379357"><ele>453.0</ele><time>2022-03-15T11:37:18.000Z</time></trkpt>
      <trkpt lat="36.363824" lon="127.379352"><ele>453.0</ele><time>2022-03-15T11:37:21.000Z</time></trkpt>
      <trkpt lat="36.363777" lon="127.379340"><ele>452.8</ele><time>2022-03-15T11:37:25.000Z</time></trkpt>
      <trkpt lat="36.363667" lon="127.379369"><ele>452.6</ele><time>2022-03-15T11:37:32.000Z</time></trkpt>
      <trkpt lat="36.363559" lon="127.379347"><ele>453.0</ele><time>2022-03-15T11:37:40.000Z</time></trkpt>
      <trkpt lat="36.363462" lon="127.379316"><ele>453.4</ele><time>2022-03-15T11:37:47.000Z</time></trkpt>
      <trkpt lat="36.363341" lon="127.379298"><ele>454.0</ele><time>2022-03-15T11:37:55.000Z</time></trkpt>
      <trkpt lat="36.363232" lon="127.379297"><ele>454.0</ele><time>2022-03-15T11:38:04.000Z</time></trkpt>
      <trkpt lat="36.363188" lon="127.379297"><ele>453.8</ele><time>2022-03-15T11:38:07.000Z</time></trkpt>
      <trkpt lat="36.363147" lon="127.379293"><ele>453.6</ele><time>2022-03-15T11:38:10.000Z</time></trkpt>
      <trkpt lat="36.363121" lon="127.379303"><ele>453.4</ele><time>2022-03-15T11:38:12.000Z</time></trkpt>
      <trkpt lat="36.363064" lon="127.379311"><ele>453.6</ele><time>2022-03-15T11:38:16.000Z</time></trkpt>
      <trkpt lat="36.363024" lon="127.379318"><ele>453.8</ele><time>2022-03-15T11:38:19.000Z</time></trkpt>
      <trkpt lat="36.362910" lon="127.379310"><ele>453.8</ele><time>2022-03-15T11:38:26.000Z</time></trkpt>
      <trkpt lat="36.362886" lon="127.379316"><ele>453.8</ele><time>2022-03-15T11:38:28.000Z</time></trkpt>
      <trkpt lat="36.362853" lon="127.379323"><ele>453.8</ele><time>2022-03-15T11:38:31.000Z</time></trkpt>
      <trkpt lat="36.362838" lon="127.379325"><ele>453.8</ele><time>2022-03-15T11:38:32.000Z</time></trkpt>
      <trkpt lat="36.362791" lon="127.379343"><ele>454.0</ele><time>2022-03-15T11:38:36.000Z</time></trkpt>
      <trkpt lat="36.362768" lon="127.379346"><ele>454.2</ele><time>2022-03-15T11:38:38.000Z</time></trkpt>
      <trkpt lat="36.362698" lon="127.379328"><ele>454.2</ele><time>2022-03-15T11:38:43.000Z</time></trkpt>
      <trkpt lat="36.362656" lon="127.379304"><ele>454.2</ele><time>2022-03-15T11:38:46.000Z</time></trkpt>
      <trkpt lat="36.362592" lon="127.379265"><ele>454.2</ele><time>2022-03-15T11:38:50.000Z</time></trkpt>
      <trkpt lat="36.362576" lon="127.379256"><ele>454.0</ele><time>2022-03-15T11:38:51.000Z</time></trkpt>
      <trkpt lat="36.362526" lon="127.379240"><ele>454.0</ele><time>2022-03-15T11:38:55.000Z</time></trkpt>
      <trkpt lat="36.362497" lon="127.379232"><ele>454.0</ele><time>2022-03-15T11:38:58.000Z</time></trkpt>
      <trkpt lat="36.362446" lon="127.379237"><ele>454.0</ele><time>2022-03-15T11:39:03.000Z</time></trkpt>
      <trkpt lat="36.362406" lon="127.379229"><ele>453.6</ele><time>2022-03-15T11:39:07.000Z</time></trkpt>
      <trkpt lat="36.362396" lon="127.379231"><ele>453.6</ele><time>2022-03-15T11:39:08.000Z</time></trkpt>
      <trkpt lat="36.362284" lon="127.379282"><ele>454.0</ele><time>2022-03-15T11:39:15.000Z</time></trkpt>
      <trkpt lat="36.362269" lon="127.379279"><ele>454.0</ele><time>2022-03-15T11:39:16.000Z</time></trkpt>
      <trkpt lat="36.362159" lon="127.379223"><ele>454.2</ele><time>2022-03-15T11:39:23.000Z</time></trkpt>
      <trkpt lat="36.362132" lon="127.379162"><ele>454.0</ele><time>2022-03-15T11:39:28.000Z</time></trkpt>
      <trkpt lat="36.362129" lon="127.379119"><ele>454.2</ele><time>2022-03-15T11:39:31.000Z</time></trkpt>
      <trkpt lat="36.362124" lon="127.379067"><ele>454.4</ele><time>2022-03-15T11:39:35.000Z</time></trkpt>
      <trkpt lat="36.362125" lon="127.379055"><ele>454.4</ele><time>2022-03-15T11:39:36.000Z</time></trkpt>
      <trkpt lat="36.362120" lon="127.379006"><ele>454.2</ele><time>2022-03-15T11:39:39.000Z</time></trkpt>
      <trkpt lat="36.362120" lon="127.378972"><ele>454.2</ele><time>2022-03-15T11:39:41.000Z</time></trkpt>
      <trkpt lat="36.362120" lon="127.378867"><ele>454.4</ele><time>2022-03-15T11:39:48.000Z</time></trkpt>
      <trkpt lat="36.362125" lon="127.378850"><ele>454.2</ele><time>2022-03-15T11:39:50.000Z</time></trkpt>
      <trkpt lat="36.362130" lon="127.378826"><ele>454.2</ele><time>2022-03-15T11:39:52.000Z</time></trkpt>
      <trkpt lat="36.362140" lon="127.378788"><ele>454.2</ele><time>2022-03-15T11:39:54.000Z</time></trkpt>
      <trkpt lat="36.362178" lon="127.378775"><ele>454.2</ele><time>2022-03-15T11:39:55.000Z</time></trkpt>
      <trkpt lat="36.362194" lon="127.378754"><ele>454.2</ele><time>2022-03-15T11:39:56.000Z</time></trkpt>
      <trkpt lat="36.362229" lon="127.378706"><ele>454.0</ele><time>2022-03-15T11:40:00.000Z</time></trkpt>
      <trkpt lat="36.362233" lon="127.378686"><ele>454.0</ele><time>2022-03-15T11:40:02.000Z</time></trkpt>
      <trkpt lat="36.362231" lon="127.378674"><ele>454.0</ele><time>2022-03-15T11:40:03.000Z</time></trkpt>
      <trkpt lat="36.362277" lon="127.378620"><ele>454.0</ele><time>2022-03-15T11:40:08.000Z</time></trkpt>
      <trkpt lat="36.362289" lon="127.378602"><ele>454.0</ele><time>2022-03-15T11:40:10.000Z</time></trkpt>
      <trkpt lat="36.362297" lon="127.378561"><ele>454.2</ele><time>2022-03-15T11:40:15.000Z</time></trkpt>
      <trkpt lat="36.362255" lon="127.378453"><ele>454.8</ele><time>2022-03-15T11:40:23.000Z</time></trkpt>
      <trkpt lat="36.362141" lon="127.378327"><ele>454.8</ele><time>2022-03-15T11:40:28.000Z</time></trkpt>
      <trkpt lat="36.362115" lon="127.378210"><ele>454.8</ele><time>2022-03-15T11:40:34.000Z</time></trkpt>
      <trkpt lat="36.362121" lon="127.378178"><ele>454.8</ele><time>2022-03-15T11:40:37.000Z</time></trkpt>
      <trkpt lat="36.362126" lon="127.378161"><ele>454.6</ele><time>2022-03-15T11:40:38.000Z</time></trkpt>
      <trkpt lat="36.362170" lon="127.378035"><ele>454.6</ele><time>2022-03-15T11:40:48.000Z</time></trkpt>
      <trkpt lat="36.362175" lon="127.377861"><ele>454.6</ele><time>2022-03-15T11:41:00.000Z</time></trkpt>
      <trkpt lat="36.362137" lon="127.377742"><ele>454.0</ele><time>2022-03-15T11:41:06.000Z</time></trkpt>
      <trkpt lat="36.362133" lon="127.377710"><ele>454.0</ele><time>2022-03-15T11:41:08.000Z</time></trkpt>
      <trkpt lat="36.362140" lon="127.377689"><ele>454.0</ele><time>2022-03-15T11:41:09.000Z</time></trkpt>
      <trkpt lat="36.362147" lon="127.377654"><ele>453.8</ele><time>2022-03-15T11:41:11.000Z</time></trkpt>
      <trkpt lat="36.362165" lon="127.377585"><ele>453.8</ele><time>2022-03-15T11:41:15.000Z</time></trkpt>
      <trkpt lat="36.362163" lon="127.377505"><ele>453.8</ele><time>2022-03-15T11:41:19.000Z</time></trkpt>
      <trkpt lat="36.362154" lon="127.377335"><ele>454.0</ele><time>2022-03-15T11:41:29.000Z</time></trkpt>
      <trkpt lat="36.362155" lon="127.377324"><ele>454.0</ele><time>2022-03-15T11:41:30.000Z</time></trkpt>
      <trkpt lat="36.362156" lon="127.377311"><ele>454.0</ele><time>2022-03-15T11:41:31.000Z</time></trkpt>
      <trkpt lat="36.362164" lon="127.377270"><ele>454.0</ele><time>2022-03-15T11:41:35.000Z</time></trkpt>
      <trkpt lat="36.362171" lon="127.377251"><ele>454.0</ele><time>2022-03-15T11:41:37.000Z</time></trkpt>
      <trkpt lat="36.362177" lon="127.377225"><ele>454.2</ele><time>2022-03-15T11:41:39.000Z</time></trkpt>
      <trkpt lat="36.362206" lon="127.377175"><ele>454.0</ele><time>2022-03-15T11:41:43.000Z</time></trkpt>
      <trkpt lat="36.362215" lon="127.377160"><ele>454.2</ele><time>2022-03-15T11:41:44.000Z</time></trkpt>
      <trkpt lat="36.362232" lon="127.377132"><ele>454.2</ele><time>2022-03-15T11:41:46.000Z</time></trkpt>
      <trkpt lat="36.362138" lon="127.376985"><ele>454.6</ele><time>2022-03-15T11:41:53.000Z</time></trkpt>
      <trkpt lat="36.362081" lon="127.376932"><ele>454.6</ele><time>2022-03-15T11:41:55.000Z</time></trkpt>
      <trkpt lat="36.362022" lon="127.376879"><ele>454.6</ele><time>2022-03-15T11:41:58.000Z</time></trkpt>
      <trkpt lat="36.361963" lon="127.376846"><ele>454.8</ele><time>2022-03-15T11:42:02.000Z</time></trkpt>
      <trkpt lat="36.361943" lon="127.376831"><ele>454.8</ele><time>2022-03-15T11:42:04.000Z</time></trkpt>
      <trkpt lat="36.361933" lon="127.376822"><ele>455.0</ele><time>2022-03-15T11:42:05.000Z</time></trkpt>
      <trkpt lat="36.361922" lon="127.376814"><ele>455.2</ele><time>2022-03-15T11:42:06.000Z</time></trkpt>
      <trkpt lat="36.361847" lon="127.376754"><ele>455.4</ele><time>2022-03-15T11:42:12.000Z</time></trkpt>
      <trkpt lat="36.361772" lon="127.376698"><ele>455.2</ele><time>2022-03-15T11:42:17.000Z</time></trkpt>
      <trkpt lat="36.361717" lon="127.376642"><ele>455.4</ele><time>2022-03-15T11:42:20.000Z</time></trkpt>
      <trkpt lat="36.361697" lon="127.376626"><ele>455.4</ele><time>2022-03-15T11:42:22.000Z</time></trkpt>
      <trkpt lat="36.361690" lon="127.376597"><ele>455.4</ele><time>2022-03-15T11:42:23.000Z</time></trkpt>
      <trkpt lat="36.361694" lon="127.376563"><ele>455.0</ele><time>2022-03-15T11:42:26.000Z</time></trkpt>
      <trkpt lat="36.361701" lon="127.376564"><ele>454.8</ele><time>2022-03-15T11:42:29.000Z</time></trkpt>
      <trkpt lat="36.361707" lon="127.376561"><ele>454.8</ele><time>2022-03-15T11:42:30.000Z</time></trkpt>
      <trkpt lat="36.361711" lon="127.376559"><ele>454.8</ele><time>2022-03-15T11:42:31.000Z</time></trkpt>
      <trkpt lat="36.361713" lon="127.376544"><ele>454.6</ele><time>2022-03-15T11:42:35.000Z</time></trkpt>
      <trkpt lat="36.361710" lon="127.376539"><ele>454.4</ele><time>2022-03-15T11:42:38.000Z</time></trkpt>
      <trkpt lat="36.361709" lon="127.376527"><ele>454.2</ele><time>2022-03-15T11:42:40.000Z</time></trkpt>
      <trkpt lat="36.361697" lon="127.376508"><ele>454.0</ele><time>2022-03-15T11:42:43.000Z</time></trkpt>
      <trkpt lat="36.361675" lon="127.376461"><ele>454.0</ele><time>2022-03-15T11:42:45.000Z</time></trkpt>
      <trkpt lat="36.361651" lon="127.376434"><ele>454.0</ele><time>2022-03-15T11:42:47.000Z</time></trkpt>
      <trkpt lat="36.361605" lon="127.376433"><ele>453.8</ele><time>2022-03-15T11:42:51.000Z</time></trkpt>
      <trkpt lat="36.361540" lon="127.376421"><ele>453.6</ele><time>2022-03-15T11:42:57.000Z</time></trkpt>
      <trkpt lat="36.361527" lon="127.376420"><ele>453.6</ele><time>2022-03-15T11:42:58.000Z</time></trkpt>
      <trkpt lat="36.361478" lon="127.376410"><ele>453.6</ele><time>2022-03-15T11:43:03.000Z</time></trkpt>
      <trkpt lat="36.361457" lon="127.376400"><ele>453.6</ele><time>2022-03-15T11:43:05.000Z</time></trkpt>
      <trkpt lat="36.361427" lon="127.376419"><ele>453.6</ele><time>2022-03-15T11:43:07.000Z</time></trkpt>
      <trkpt lat="36.361386" lon="127.376440"><ele>453.6</ele><time>2022-03-15T11:43:09.000Z</time></trkpt>
      <trkpt lat="36.361327" lon="127.376459"><ele>453.8</ele><time>2022-03-15T11:43:12.000Z</time></trkpt>
      <trkpt lat="36.361304" lon="127.376511"><ele>453.8</ele><time>2022-03-15T11:43:14.000Z</time></trkpt>
      <trkpt lat="36.361288" lon="127.376521"><ele>453.8</ele><time>2022-03-15T11:43:15.000Z</time></trkpt>
      <trkpt lat="36.361218" lon="127.376539"><ele>453.8</ele><time>2022-03-15T11:43:19.000Z</time></trkpt>
      <trkpt lat="36.361186" lon="127.376534"><ele>454.0</ele><time>2022-03-15T11:43:21.000Z</time></trkpt>
      <trkpt lat="36.361132" lon="127.376556"><ele>454.0</ele><time>2022-03-15T11:43:25.000Z</time></trkpt>
      <trkpt lat="36.361116" lon="127.376578"><ele>454.2</ele><time>2022-03-15T11:43:27.000Z</time></trkpt>
      <trkpt lat="36.361080" lon="127.376619"><ele>453.8</ele><time>2022-03-15T11:43:32.000Z</time></trkpt>
      <trkpt lat="36.361118" lon="127.376733"><ele>453.8</ele><time>2022-03-15T11:43:35.000Z</time></trkpt>
      <trkpt lat="36.361100" lon="127.376726"><ele>454.0</ele><time>2022-03-15T11:43:37.000Z</time></trkpt>
      <trkpt lat="36.361099" lon="127.376724"><ele>454.0</ele><time>2022-03-15T11:43:39.000Z</time></trkpt>
      <trkpt lat="36.361054" lon="127.376700"><ele>454.0</ele><time>2022-03-15T11:43:43.000Z</time></trkpt>
      <trkpt lat="36.360999" lon="127.376684"><ele>454.2</ele><time>2022-03-15T11:43:49.000Z</time></trkpt>
      <trkpt lat="36.360966" lon="127.376688"><ele>454.4</ele><time>2022-03-15T11:43:52.000Z</time></trkpt>
      <trkpt lat="36.360881" lon="127.376658"><ele>454.6</ele><time>2022-03-15T11:43:57.000Z</time></trkpt>
      <trkpt lat="36.360813" lon="127.376621"><ele>454.6</ele><time>2022-03-15T11:44:01.000Z</time></trkpt>
      <trkpt lat="36.360794" lon="127.376605"><ele>454.6</ele><time>2022-03-15T11:44:02.000Z</time></trkpt>
      <trkpt lat="36.360674" lon="127.376652"><ele>454.8</ele><time>2022-03-15T11:44:09.000Z</time></trkpt>
      <trkpt lat="36.360640" lon="127.376650"><ele>454.6</ele><time>2022-03-15T11:44:11.000Z</time></trkpt>
      <trkpt lat="36.360569" lon="127.376653"><ele>454.4</ele><time>2022-03-15T11:44:15.000Z</time></trkpt>
      <trkpt lat="36.360508" lon="127.376649"><ele>454.4</ele><time>2022-03-15T11:44:19.000Z</time></trkpt>
      <trkpt lat="36.360474" lon="127.376649"><ele>454.6</ele><time>2022-03-15T11:44:21.000Z</time></trkpt>
      <trkpt lat="36.360406" lon="127.376649"><ele>454.6</ele><time>2022-03-15T11:44:24.000Z</time></trkpt>
      <trkpt lat="36.360338" lon="127.376633"><ele>454.8</ele><time>2022-03-15T11:44:27.000Z</time></trkpt>
      <trkpt lat="36.360283" lon="127.376620"><ele>454.8</ele><time>2022-03-15T11:44:30.000Z</time></trkpt>
      <trkpt lat="36.360232" lon="127.376597"><ele>454.8</ele><time>2022-03-15T11:44:33.000Z</time></trkpt>
      <trkpt lat="36.360158" lon="127.376572"><ele>454.8</ele><time>2022-03-15T11:44:36.000Z</time></trkpt>
      <trkpt lat="36.360138" lon="127.376557"><ele>454.6</ele><time>2022-03-15T11:44:37.000Z</time></trkpt>
      <trkpt lat="36.360115" lon="127.376533"><ele>454.6</ele><time>2022-03-15T11:44:40.000Z</time></trkpt>
      <trkpt lat="36.360109" lon="127.376532"><ele>454.4</ele><time>2022-03-15T11:44:41.000Z</time></trkpt>
      <trkpt lat="36.360107" lon="127.376554"><ele>454.2</ele><time>2022-03-15T11:44:45.000Z</time></trkpt>
      <trkpt lat="36.360118" lon="127.376583"><ele>454.0</ele><time>2022-03-15T11:44:47.000Z</time></trkpt>
      <trkpt lat="36.360121" lon="127.376596"><ele>454.0</ele><time>2022-03-15T11:44:48.000Z</time></trkpt>
      <trkpt lat="36.360128" lon="127.376604"><ele>454.2</ele><time>2022-03-15T11:44:49.000Z</time></trkpt>
      <trkpt lat="36.360134" lon="127.376620"><ele>454.2</ele><time>2022-03-15T11:44:53.000Z</time></trkpt>
      <trkpt lat="36.360132" lon="127.376626"><ele>454.2</ele><time>2022-03-15T11:44:54.000Z</time></trkpt>
      <trkpt lat="36.360130" lon="127.376639"><ele>454.0</ele><time>2022-03-15T11:44:56.000Z</time></trkpt>
      <trkpt lat="36.360130" lon="127.376645"><ele>454.0</ele><time>2022-03-15T11:44:57.000Z</time></trkpt>
      <trkpt lat="36.360111" lon="127.376680"><ele>454.2</ele><time>2022-03-15T11:45:02.000Z</time></trkpt>
      <trkpt lat="36.360107" lon="127.376683"><ele>454.2</ele><time>2022-03-15T11:45:03.000Z</time></trkpt>
      <trkpt lat="36.360067" lon="127.376720"><ele>453.6</ele><time>2022-03-15T11:45:08.000Z</time></trkpt>
      <trkpt lat="36.360034" lon="127.376737"><ele>453.6</ele><time>2022-03-15T11:45:10.000Z</time></trkpt>
      <trkpt lat="36.359991" lon="127.376730"><ele>453.4</ele><time>2022-03-15T11:45:13.000Z</time></trkpt>
      <trkpt lat="36.359957" lon="127.376788"><ele>453.0</ele><time>2022-03-15T11:45:16.000Z</time></trkpt>
      <trkpt lat="36.359934" lon="127.376801"><ele>453.0</ele><time>2022-03-15T11:45:17.000Z</time></trkpt>
      <trkpt lat="36.359764" lon="127.376799"><ele>453.8</ele><time>2022-03-15T11:45:23.000Z</time></trkpt>
      <trkpt lat="36.359688" lon="127.376789"><ele>453.6</ele><time>2022-03-15T11:45:28.000Z</time></trkpt>
      <trkpt lat="36.359677" lon="127.376787"><ele>453.6</ele><time>2022-03-15T11:45:29.000Z</time></trkpt>
      <trkpt lat="36.359649" lon="127.376785"><ele>453.6</ele><time>2022-03-15T11:45:33.000Z</time></trkpt>
      <trkpt lat="36.359630" lon="127.376767"><ele>453.4</ele><time>2022-03-15T11:45:37.000Z</time></trkpt>
      <trkpt lat="36.359632" lon="127.376766"><ele>453.4</ele><time>2022-03-15T11:45:38.000Z</time></trkpt>
      <trkpt lat="36.359614" lon="127.376726"><ele>453.4</ele><time>2022-03-15T11:45:45.000Z</time></trkpt>
      <trkpt lat="36.359610" lon="127.376704"><ele>453.8</ele><time>2022-03-15T11:45:47.000Z</time></trkpt>
      <trkpt lat="36.359610" lon="127.376695"><ele>454.2</ele><time>2022-03-15T11:45:48.000Z</time></trkpt>
      <trkpt lat="36.359580" lon="127.376623"><ele>454.2</ele><time>2022-03-15T11:45:54.000Z</time></trkpt>
      <trkpt lat="36.359553" lon="127.376615"><ele>454.2</ele><time>2022-03-15T11:45:57.000Z</time></trkpt>
      <trkpt lat="36.359488" lon="127.376581"><ele>455.2</ele><time>2022-03-15T11:46:00.000Z</time></trkpt>
      <trkpt lat="36.359438" lon="127.376550"><ele>455.8</ele><time>2022-03-15T11:46:03.000Z</time></trkpt>
      <trkpt lat="36.359414" lon="127.376544"><ele>456.4</ele><time>2022-03-15T11:46:05.000Z</time></trkpt>
      <trkpt lat="36.359370" lon="127.376533"><ele>456.8</ele><time>2022-03-15T11:46:10.000Z</time></trkpt>
      <trkpt lat="36.359299" lon="127.376562"><ele>457.0</ele><time>2022-03-15T11:46:17.000Z</time></trkpt>
      <trkpt lat="36.359291" lon="127.376566"><ele>457.0</ele><time>2022-03-15T11:46:18.000Z</time></trkpt>
      <trkpt lat="36.359230" lon="127.376592"><ele>457.2</ele><time>2022-03-15T11:46:22.000Z</time></trkpt>
      <trkpt lat="36.359220" lon="127.376598"><ele>457.4</ele><time>2022-03-15T11:46:23.000Z</time></trkpt>
      <trkpt lat="36.359211" lon="127.376606"><ele>457.4</ele><time>2022-03-15T11:46:24.000Z</time></trkpt>
      <trkpt lat="36.359170" lon="127.376637"><ele>458.0</ele><time>2022-03-15T11:46:28.000Z</time></trkpt>
      <trkpt lat="36.359118" lon="127.376616"><ele>458.2</ele><time>2022-03-15T11:46:30.000Z</time></trkpt>
      <trkpt lat="36.359096" lon="127.376643"><ele>458.6</ele><time>2022-03-15T11:46:32.000Z</time></trkpt>
      <trkpt lat="36.359082" lon="127.376650"><ele>458.6</ele><time>2022-03-15T11:46:33.000Z</time></trkpt>
      <trkpt lat="36.359049" lon="127.376662"><ele>458.6</ele><time>2022-03-15T11:46:34.000Z</time></trkpt>
      <trkpt lat="36.358983" lon="127.376612"><ele>458.8</ele><time>2022-03-15T11:46:38.000Z</time></trkpt>
      <trkpt lat="36.358859" lon="127.376569"><ele>459.2</ele><time>2022-03-15T11:46:44.000Z</time></trkpt>
      <trkpt lat="36.358787" lon="127.376540"><ele>459.4</ele><time>2022-03-15T11:46:50.000Z</time></trkpt>
      <trkpt lat="36.358777" lon="127.376526"><ele>459.6</ele><time>2022-03-15T11:46:52.000Z</time></trkpt>
      <trkpt lat="36.358760" lon="127.376473"><ele>459.6</ele><time>2022-03-15T11:46:57.000Z</time></trkpt>
      <trkpt lat="36.358758" lon="127.376464"><ele>459.8</ele><time>2022-03-15T11:46:59.000Z</time></trkpt>
      <trkpt lat="36.358759" lon="127.376459"><ele>459.8</ele><time>2022-03-15T11:47:00.000Z</time></trkpt>
      <trkpt lat="36.358747" lon="127.376454"><ele>459.6</ele><time>2022-03-15T11:47:02.000Z</time></trkpt>
      <trkpt lat="36.358736" lon="127.376455"><ele>459.4</ele><time>2022-03-15T11:47:04.000Z</time></trkpt>
      <trkpt lat="36.358742" lon="127.376438"><ele>459.4</ele><time>2022-03-15T11:47:06.000Z</time></trkpt>
      <trkpt lat="36.358727" lon="127.376400"><ele>459.2</ele><time>2022-03-15T11:47:14.000Z</time></trkpt>
      <trkpt lat="36.358723" lon="127.376395"><ele>459.2</ele><time>2022-03-15T11:47:15.000Z</time></trkpt>
      <trkpt lat="36.358793" lon="127.376418"><ele>459.2</ele><time>2022-03-15T11:47:17.000Z</time></trkpt>
      <trkpt lat="36.358827" lon="127.376423"><ele>459.0</ele><time>2022-03-15T11:47:19.000Z</time></trkpt>
      <trkpt lat="36.358828" lon="127.376427"><ele>458.8</ele><time>2022-03-15T11:47:22.000Z</time></trkpt>
      <trkpt lat="36.358840" lon="127.376442"><ele>458.8</ele><time>2022-03-15T11:47:25.000Z</time></trkpt>
      <trkpt lat="36.358838" lon="127.376478"><ele>459.0</ele><time>2022-03-15T11:47:32.000Z</time></trkpt>
      <trkpt lat="36.359000" lon="127.376598"><ele>458.8</ele><time>2022-03-15T11:47:36.000Z</time></trkpt>
      <trkpt lat="36.359015" lon="127.376727"><ele>458.8</ele><time>2022-03-15T11:47:40.000Z</time></trkpt>
      <trkpt lat="36.359014" lon="127.376730"><ele>458.8</ele><time>2022-03-15T11:47:41.000Z</time></trkpt>
      <trkpt lat="36.358963" lon="127.376753"><ele>458.6</ele><time>2022-03-15T11:47:48.000Z</time></trkpt>
      <trkpt lat="36.358976" lon="127.376770"><ele>458.6</ele><time>2022-03-15T11:47:53.000Z</time></trkpt>
      <trkpt lat="36.359148" lon="127.376856"><ele>458.4</ele><time>2022-03-15T11:47:59.000Z</time></trkpt>
      <trkpt lat="36.359124" lon="127.376809"><ele>458.4</ele><time>2022-03-15T11:48:00.000Z</time></trkpt>
      <trkpt lat="36.359239" lon="127.376837"><ele>458.2</ele><time>2022-03-15T11:48:10.000Z</time></trkpt>
      <trkpt lat="36.359273" lon="127.376844"><ele>458.2</ele><time>2022-03-15T11:48:12.000Z</time></trkpt>
      <trkpt lat="36.359308" lon="127.376837"><ele>458.4</ele><time>2022-03-15T11:48:16.000Z</time></trkpt>
      <trkpt lat="36.359271" lon="127.376479"><ele>458.2</ele><time>2022-03-15T11:48:22.000Z</time></trkpt>
      <trkpt lat="36.359188" lon="127.376114"><ele>458.0</ele><time>2022-03-15T11:48:25.000Z</time></trkpt>
      <trkpt lat="36.359183" lon="127.376062"><ele>458.0</ele><time>2022-03-15T11:48:26.000Z</time></trkpt>
      <trkpt lat="36.359227" lon="127.375907"><ele>458.0</ele><time>2022-03-15T11:48:31.000Z</time></trkpt>
      <trkpt lat="36.359212" lon="127.375675"><ele>458.4</ele><time>2022-03-15T11:48:41.000Z</time></trkpt>
      <trkpt lat="36.359129" lon="127.375504"><ele>457.8</ele><time>2022-03-15T11:48:53.000Z</time></trkpt>
      <trkpt lat="36.359113" lon="127.375474"><ele>457.8</ele><time>2022-03-15T11:48:56.000Z</time></trkpt>
      <trkpt lat="36.359021" lon="127.375403"><ele>458.0</ele><time>2022-03-15T11:49:06.000Z</time></trkpt>
      <trkpt lat="36.359011" lon="127.375393"><ele>458.2</ele><time>2022-03-15T11:49:07.000Z</time></trkpt>
      <trkpt lat="36.358982" lon="127.375375"><ele>458.6</ele><time>2022-03-15T11:49:10.000Z</time></trkpt>
      <trkpt lat="36.358902" lon="127.375343"><ele>458.8</ele><time>2022-03-15T11:49:16.000Z</time></trkpt>
      <trkpt lat="36.358810" lon="127.375308"><ele>458.4</ele><time>2022-03-15T11:49:22.000Z</time></trkpt>
      <trkpt lat="36.358793" lon="127.375292"><ele>458.2</ele><time>2022-03-15T11:49:24.000Z</time></trkpt>
      <trkpt lat="36.358637" lon="127.375212"><ele>458.2</ele><time>2022-03-15T11:49:33.000Z</time></trkpt>
      <trkpt lat="36.358602" lon="127.375185"><ele>458.2</ele><time>2022-03-15T11:49:35.000Z</time></trkpt>
      <trkpt lat="36.358578" lon="127.375170"><ele>458.2</ele><time>2022-03-15T11:49:36.000Z</time></trkpt>
      <trkpt lat="36.358544" lon="127.375135"><ele>457.8</ele><time>2022-03-15T11:49:39.000Z</time></trkpt>
      <trkpt lat="36.358529" lon="127.375124"><ele>457.8</ele><time>2022-03-15T11:49:40.000Z</time></trkpt>
      <trkpt lat="36.358482" lon="127.375066"><ele>457.4</ele><time>2022-03-15T11:49:46.000Z</time></trkpt>
      <trkpt lat="36.358458" lon="127.375040"><ele>457.2</ele><time>2022-03-15T11:49:49.000Z</time></trkpt>
      <trkpt lat="36.358449" lon="127.375024"><ele>457.2</ele><time>2022-03-15T11:49:51.000Z</time></trkpt>
      <trkpt lat="36.358414" lon="127.374914"><ele>457.2</ele><time>2022-03-15T11:50:04.000Z</time></trkpt>
      <trkpt lat="36.358403" lon="127.374913"><ele>457.2</ele><time>2022-03-15T11:50:06.000Z</time></trkpt>
      <trkpt lat="36.358417" lon="127.374875"><ele>457.0</ele><time>2022-03-15T11:50:15.000Z</time></trkpt>
      <trkpt lat="36.358437" lon="127.374847"><ele>457.0</ele><time>2022-03-15T11:50:18.000Z</time></trkpt>
      <trkpt lat="36.358433" lon="127.374822"><ele>456.8</ele><time>2022-03-15T11:50:23.000Z</time></trkpt>
      <trkpt lat="36.358394" lon="127.374784"><ele>456.8</ele><time>2022-03-15T11:50:31.000Z</time></trkpt>
      <trkpt lat="36.358393" lon="127.374782"><ele>456.8</ele><time>2022-03-15T11:50:32.000Z</time></trkpt>
      <trkpt lat="36.358390" lon="127.374768"><ele>458.0</ele><time>2022-03-15T11:50:33.000Z</time></trkpt>
      <trkpt lat="36.358098" lon="127.374726"><ele>458.0</ele><time>2022-03-15T11:54:15.000Z</time></trkpt>
      <trkpt lat="36.358106" lon="127.374718"><ele>458.0</ele><time>2022-03-15T11:54:17.000Z</time></trkpt>
    </trkseg>
  </trk>
</gpx>