<?xml version="1.0" encoding="UTF-8"?>
<gpx version="1.1" creator="gajago-nav" xmlns="http://www.topografix.com/GPX/1/1">
  <metadata><name>수목원point</name></metadata>
  <wpt lat="36.358212" lon="127.374621">
    <name>들머리 (청사서로 - 원점회귀)</name>
    <ele>623</ele>
  </wpt>
  <wpt lat="36.357926" lon="127.374482">
    <name>갈림길1</name>
  </wpt>
  <wpt lat="36.357920" lon="127.376462">
    <name>갈림길2</name>
  </wpt>
  <wpt lat="36.357980" lon="127.379197">
    <name>큰사거리</name>
  </wpt>
  <wpt lat="36.359626" lon="127.379192">
    <name>선사유적지사거리</name>
  </wpt>
  <wpt lat="36.360011" lon="127.379718">
    <name>갈림길3</name>
  </wpt>
  <wpt lat="36.364698" lon="127.379820">
    <name>만년네거리</name>
  </wpt>
  <wpt lat="36.365082" lon="127.382818">
    <name>갈림길4</name>
  </wpt>
  <wpt lat="36.367255" lon="127.382899">
    <name>갈림길5</name>
  </wpt>
  <wpt lat="36.367242" lon="127.387571">
    <name>엑스포광장</name>
  </wpt>
  <wpt lat="36.365817" lon="127.387550">
    <name>예술의전당</name>
  </wpt>
  <wpt lat="36.365696" lon="127.382920">
    <name>갈림길5</name>
  </wpt>
  <wpt lat="36.365018" lon="127.379256">
    <name>갈림길6</name>
  </wpt>
  <wpt lat="36.362335" lon="127.379229">
    <name>담가화로구이</name>
  </wpt>
  <wpt lat="36.362175" lon="127.377540">
    <name>갈림길7</name>
  </wpt>
  <wpt lat="36.361147" lon="127.377373">
    <name>닭갈비</name>
  </wpt>
  <wpt lat="36.358784" lon="127.376724">
    <name>무지개 앞</name>
  </wpt>
  <trk>
    <name>수목원point</name>
    <trkseg>
      <trkpt lat="36.358212" lon="127.374621"><ele>623.4</ele><time>2022-03-29T10:45:55.000Z</time></trkpt>
      <trkpt lat="36.358281" lon="127.374610"><ele>623.4</ele><time>2022-03-29T10:45:58.000Z</time></trkpt>
      <trkpt lat="36.358292" lon="127.374607"><ele>623.2</ele><time>2022-03-29T10:45:59.000Z</time></trkpt>
      <trkpt lat="36.358315" lon="127.374596"><ele>623.2</ele><time>2022-03-29T10:46:02.000Z</time></trkpt>
      <trkpt lat="36.358445" lon="127.374674"><ele>623.2</ele><time>2022-03-29T10:46:07.000Z</time></trkpt>
      <trkpt lat="36.358461" lon="127.374638"><ele>623.4</ele><time>2022-03-29T10:46:10.000Z</time></trkpt>
      <trkpt lat="36.358371" lon="127.374416"><ele>623.2</ele><time>2022-03-29T10:46:19.000Z</time></trkpt>
      <trkpt lat="36.358401" lon="127.374343"><ele>623.2</ele><time>2022-03-29T10:46:29.000Z</time></trkpt>
      <trkpt lat="36.358407" lon="127.374335"><ele>623.2</ele><time>2022-03-29T10:46:30.000Z</time></trkpt>
      <trkpt lat="36.358412" lon="127.374328"><ele>623.0</ele><time>2022-03-29T10:46:31.000Z</time></trkpt>
      <trkpt lat="36.358419" lon="127.374324"><ele>623.0</ele><time>2022-03-29T10:46:32.000Z</time></trkpt>
      <trkpt lat="36.358445" lon="127.374326"><ele>623.2</ele><time>2022-03-29T10:46:36.000Z</time></trkpt>
      <trkpt lat="36.358454" lon="127.374324"><ele>623.2</ele><time>2022-03-29T10:46:37.000Z</time></trkpt>
      <trkpt lat="36.358464" lon="127.374322"><ele>623.2</ele><time>2022-03-29T10:46:39.000Z</time></trkpt>
      <trkpt lat="36.358488" lon="127.374340"><ele>622.8</ele><time>2022-03-29T10:46:43.000Z</time></trkpt>
      <trkpt lat="36.358493" lon="127.374347"><ele>622.6</ele><time>2022-03-29T10:46:45.000Z</time></trkpt>
      <trkpt lat="36.358463" lon="127.374327"><ele>623.0</ele><time>2022-03-29T10:46:50.000Z</time></trkpt>
      <trkpt lat="36.358459" lon="127.374305"><ele>622.4</ele><time>2022-03-29T10:46:52.000Z</time></trkpt>
      <trkpt lat="36.358397" lon="127.374261"><ele>623.0</ele><time>2022-03-29T10:46:56.000Z</time></trkpt>
      <trkpt lat="36.358342" lon="127.374241"><ele>622.8</ele><time>2022-03-29T10:47:00.000Z</time></trkpt>
      <trkpt lat="36.358295" lon="127.374241"><ele>622.4</ele><time>2022-03-29T10:47:04.000Z</time></trkpt>
      <trkpt lat="36.358222" lon="127.374246"><ele>622.4</ele><time>2022-03-29T10:47:09.000Z</time></trkpt>
      <trkpt lat="36.358187" lon="127.374247"><ele>622.6</ele><time>2022-03-29T10:47:12.000Z</time></trkpt>
      <trkpt lat="36.358141" lon="127.374236"><ele>622.8</ele><time>2022-03-29T10:47:16.000Z</time></trkpt>
      <trkpt lat="36.358124" lon="127.374237"><ele>622.8</ele><time>2022-03-29T10:47:18.000Z</time></trkpt>
      <trkpt lat="36.358122" lon="127.374246"><ele>622.8</ele><time>2022-03-29T10:47:19.000Z</time></trkpt>
      <trkpt lat="36.358097" lon="127.374245"><ele>622.8</ele><time>2022-03-29T10:47:21.000Z</time></trkpt>
      <trkpt lat="36.358084" lon="127.374241"><ele>622.8</ele><time>2022-03-29T10:47:22.000Z</time></trkpt>
      <trkpt lat="36.358065" lon="127.374233"><ele>622.8</ele><time>2022-03-29T10:47:24.000Z</time></trkpt>
      <trkpt lat="36.358041" lon="127.374224"><ele>622.8</ele><time>2022-03-29T10:47:26.000Z</time></trkpt>
      <trkpt lat="36.357965" lon="127.374193"><ele>623.0</ele><time>2022-03-29T10:47:34.000Z</time></trkpt>
      <trkpt lat="36.357908" lon="127.374181"><ele>622.8</ele><time>2022-03-29T10:47:39.000Z</time></trkpt>
      <trkpt lat="36.357892" lon="127.374181"><ele>622.8</ele><time>2022-03-29T10:47:40.000Z</time></trkpt>
      <trkpt lat="36.357854" lon="127.374264"><ele>622.8</ele><time>2022-03-29T10:47:47.000Z</time></trkpt>
      <trkpt lat="36.357864" lon="127.374398"><ele>623.8</ele><time>2022-03-29T10:47:52.000Z</time></trkpt>
      <trkpt lat="36.357863" lon="127.374423"><ele>623.8</ele><time>2022-03-29T10:47:53.000Z</time></trkpt>
      <trkpt lat="36.357867" lon="127.374483"><ele>624.0</ele><time>2022-03-29T10:47:56.000Z</time></trkpt>
      <trkpt lat="36.357867" lon="127.374541"><ele>624.0</ele><time>2022-03-29T10:47:59.000Z</time></trkpt>
      <trkpt lat="36.357865" lon="127.374566"><ele>623.8</ele><time>2022-03-29T10:48:01.000Z</time></trkpt>
      <trkpt lat="36.357866" lon="127.374583"><ele>623.8</ele><time>2022-03-29T10:48:02.000Z</time></trkpt>
      <trkpt lat="36.357862" lon="127.374643"><ele>623.4</ele><time>2022-03-29T10:48:06.000Z</time></trkpt>
      <trkpt lat="36.357864" lon="127.374704"><ele>623.0</ele><time>2022-03-29T10:48:12.000Z</time></trkpt>
      <trkpt lat="36.357867" lon="127.374711"><ele>623.2</ele><time>2022-03-29T10:48:13.000Z</time></trkpt>
      <trkpt lat="36.357877" lon="127.374723"><ele>623.6</ele><time>2022-03-29T10:48:15.000Z</time></trkpt>
      <trkpt lat="36.357873" lon="127.374793"><ele>624.0</ele><time>2022-03-29T10:48:19.000Z</time></trkpt>
      <trkpt lat="36.357875" lon="127.374811"><ele>624.0</ele><time>2022-03-29T10:48:20.000Z</time></trkpt>
      <trkpt lat="36.357873" lon="127.374830"><ele>624.2</ele><time>2022-03-29T10:48:21.000Z</time></trkpt>
      <trkpt lat="36.357872" lon="127.374874"><ele>624.2</ele><time>2022-03-29T10:48:23.000Z</time></trkpt>
      <trkpt lat="36.357871" lon="127.374984"><ele>624.8</ele><time>2022-03-29T10:48:28.000Z</time></trkpt>
      <trkpt lat="36.357868" lon="127.375025"><ele>624.8</ele><time>2022-03-29T10:48:30.000Z</time></trkpt>
      <trkpt lat="36.357880" lon="127.375136"><ele>624.2</ele><time>2022-03-29T10:48:35.000Z</time></trkpt>
      <trkpt lat="36.357891" lon="127.375212"><ele>624.4</ele><time>2022-03-29T10:48:40.000Z</time></trkpt>
      <trkpt lat="36.357892" lon="127.375233"><ele>624.4</ele><time>2022-03-29T10:48:41.000Z</time></trkpt>
      <trkpt lat="36.357894" lon="127.375376"><ele>624.4</ele><time>2022-03-29T10:48:49.000Z</time></trkpt>
      <trkpt lat="36.357894" lon="127.375398"><ele>624.4</ele><time>2022-03-29T10:48:50.000Z</time></trkpt>
      <trkpt lat="36.357896" lon="127.375473"><ele>624.6</ele><time>2022-03-29T10:48:55.000Z</time></trkpt>
      <trkpt lat="36.357898" lon="127.375584"><ele>624.6</ele><time>2022-03-29T10:49:01.000Z</time></trkpt>
      <trkpt lat="36.357922" lon="127.375699"><ele>624.8</ele><time>2022-03-29T10:49:09.000Z</time></trkpt>
      <trkpt lat="36.357959" lon="127.375769"><ele>624.4</ele><time>2022-03-29T10:49:16.000Z</time></trkpt>
      <trkpt lat="36.357966" lon="127.375780"><ele>624.6</ele><time>2022-03-29T10:49:17.000Z</time></trkpt>
      <trkpt lat="36.357973" lon="127.375812"><ele>624.6</ele><time>2022-03-29T10:49:19.000Z</time></trkpt>
      <trkpt lat="36.357973" lon="127.375867"><ele>624.8</ele><time>2022-03-29T10:49:22.000Z</time></trkpt>
      <trkpt lat="36.357963" lon="127.375999"><ele>624.8</ele><time>2022-03-29T10:49:29.000Z</time></trkpt>
      <trkpt lat="36.357952" lon="127.376084"><ele>624.6</ele><time>2022-03-29T10:49:34.000Z</time></trkpt>
      <trkpt lat="36.357947" lon="127.376102"><ele>624.6</ele><time>2022-03-29T10:49:36.000Z</time></trkpt>
      <trkpt lat="36.357943" lon="127.376130"><ele>624.6</ele><time>2022-03-29T10:49:39.000Z</time></trkpt>
      <trkpt lat="36.357937" lon="127.376155"><ele>624.6</ele><time>2022-03-29T10:49:41.000Z</time></trkpt>
      <trkpt lat="36.357946" lon="127.376219"><ele>624.6</ele><time>2022-03-29T10:49:47.000Z</time></trkpt>
      <trkpt lat="36.357939" lon="127.376247"><ele>624.6</ele><time>2022-03-29T10:49:49.000Z</time></trkpt>
      <trkpt lat="36.357927" lon="127.376286"><ele>624.4</ele><time>2022-03-29T10:49:51.000Z</time></trkpt>
      <trkpt lat="36.357896" lon="127.376352"><ele>624.2</ele><time>2022-03-29T10:49:55.000Z</time></trkpt>
      <trkpt lat="36.357894" lon="127.376366"><ele>624.2</ele><time>2022-03-29T10:49:56.000Z</time></trkpt>
      <trkpt lat="36.357909" lon="127.376422"><ele>623.8</ele><time>2022-03-29T10:50:00.000Z</time></trkpt>
      <trkpt lat="36.357911" lon="127.376438"><ele>623.6</ele><time>2022-03-29T10:50:01.000Z</time></trkpt>
      <trkpt lat="36.357906" lon="127.376461"><ele>623.6</ele><time>2022-03-29T10:50:02.000Z</time></trkpt>
      <trkpt lat="36.357897" lon="127.376580"><ele>623.6</ele><time>2022-03-29T10:50:08.000Z</time></trkpt>
      <trkpt lat="36.357895" lon="127.376619"><ele>623.6</ele><time>2022-03-29T10:50:10.000Z</time></trkpt>
      <trkpt lat="36.357879" lon="127.376686"><ele>623.6</ele><time>2022-03-29T10:50:14.000Z</time></trkpt>
      <trkpt lat="36.357888" lon="127.376808"><ele>623.8</ele><time>2022-03-29T10:50:20.000Z</time></trkpt>
      <trkpt lat="36.357902" lon="127.376976"><ele>624.0</ele><time>2022-03-29T10:50:28.000Z</time></trkpt>
      <trkpt lat="36.357923" lon="127.377130"><ele>624.0</ele><time>2022-03-29T10:50:36.000Z</time></trkpt>
      <trkpt lat="36.357935" lon="127.377168"><ele>624.2</ele><time>2022-03-29T10:50:38.000Z</time></trkpt>
      <trkpt lat="36.357928" lon="127.377213"><ele>624.2</ele><time>2022-03-29T10:50:40.000Z</time></trkpt>
      <trkpt lat="36.357940" lon="127.377249"><ele>624.2</ele><time>2022-03-29T10:50:42.000Z</time></trkpt>
      <trkpt lat="36.358011" lon="127.377361"><ele>624.0</ele><time>2022-03-29T10:50:48.000Z</time></trkpt>
      <trkpt lat="36.358009" lon="127.377385"><ele>624.0</ele><time>2022-03-29T10:50:49.000Z</time></trkpt>
      <trkpt lat="36.358002" lon="127.377472"><ele>624.2</ele><time>2022-03-29T10:50:53.000Z</time></trkpt>
      <trkpt lat="36.357997" lon="127.377490"><ele>624.2</ele><time>2022-03-29T10:50:54.000Z</time></trkpt>
      <trkpt lat="36.357973" lon="127.377538"><ele>624.2</ele><time>2022-03-29T10:50:58.000Z</time></trkpt>
      <trkpt lat="36.357959" lon="127.377549"><ele>624.4</ele><time>2022-03-29T10:51:00.000Z</time></trkpt>
      <trkpt lat="36.357951" lon="127.377575"><ele>624.8</ele><time>2022-03-29T10:51:03.000Z</time></trkpt>
      <trkpt lat="36.357948" lon="127.377599"><ele>624.8</ele><time>2022-03-29T10:51:05.000Z</time></trkpt>
      <trkpt lat="36.357955" lon="127.377688"><ele>625.2</ele><time>2022-03-29T10:51:10.000Z</time></trkpt>
      <trkpt lat="36.357937" lon="127.377887"><ele>625.2</ele><time>2022-03-29T10:51:23.000Z</time></trkpt>
      <trkpt lat="36.357933" lon="127.377912"><ele>625.2</ele><time>2022-03-29T10:51:25.000Z</time></trkpt>
      <trkpt lat="36.357924" lon="127.378056"><ele>625.0</ele><time>2022-03-29T10:51:33.000Z</time></trkpt>
      <trkpt lat="36.357922" lon="127.378098"><ele>625.0</ele><time>2022-03-29T10:51:35.000Z</time></trkpt>
      <trkpt lat="36.357922" lon="127.378135"><ele>624.8</ele><time>2022-03-29T10:51:37.000Z</time></trkpt>
      <trkpt lat="36.357932" lon="127.378288"><ele>624.6</ele><time>2022-03-29T10:51:47.000Z</time></trkpt>
      <trkpt lat="36.357934" lon="127.378302"><ele>624.6</ele><time>2022-03-29T10:51:48.000Z</time></trkpt>
      <trkpt lat="36.357969" lon="127.378384"><ele>624.4</ele><time>2022-03-29T10:51:53.000Z</time></trkpt>
      <trkpt lat="36.358008" lon="127.378486"><ele>624.4</ele><time>2022-03-29T10:52:01.000Z</time></trkpt>
      <trkpt lat="36.358013" lon="127.378500"><ele>624.4</ele><time>2022-03-29T10:52:02.000Z</time></trkpt>
      <trkpt lat="36.358017" lon="127.378517"><ele>624.4</ele><time>2022-03-29T10:52:03.000Z</time></trkpt>
      <trkpt lat="36.358051" lon="127.378607"><ele>624.6</ele><time>2022-03-29T10:52:09.000Z</time></trkpt>
      <trkpt lat="36.358068" lon="127.378633"><ele>624.4</ele><time>2022-03-29T10:52:12.000Z</time></trkpt>
      <trkpt lat="36.358056" lon="127.378671"><ele>624.4</ele><time>2022-03-29T10:52:14.000Z</time></trkpt>
      <trkpt lat="36.358017" lon="127.378748"><ele>624.4</ele><time>2022-03-29T10:52:18.000Z</time></trkpt>
      <trkpt lat="36.357993" lon="127.378874"><ele>624.4</ele><time>2022-03-29T10:52:29.000Z</time></trkpt>
      <trkpt lat="36.357968" lon="127.378984"><ele>624.4</ele><time>2022-03-29T10:52:39.000Z</time></trkpt>
      <trkpt lat="36.357975" lon="127.379016"><ele>624.2</ele><time>2022-03-29T10:52:42.000Z</time></trkpt>
      <trkpt lat="36.357990" lon="127.379057"><ele>624.4</ele><time>2022-03-29T10:52:47.000Z</time></trkpt>
      <trkpt lat="36.358003" lon="127.379089"><ele>624.2</ele><time>2022-03-29T10:52:49.000Z</time></trkpt>
      <trkpt lat="36.358015" lon="127.379105"><ele>624.2</ele><time>2022-03-29T10:52:51.000Z</time></trkpt>
      <trkpt lat="36.358081" lon="127.379168"><ele>624.2</ele><time>2022-03-29T10:52:55.000Z</time></trkpt>
      <trkpt lat="36.358131" lon="127.379178"><ele>624.2</ele><time>2022-03-29T10:53:01.000Z</time></trkpt>
      <trkpt lat="36.358198" lon="127.379192"><ele>624.2</ele><time>2022-03-29T10:53:07.000Z</time></trkpt>
      <trkpt lat="36.358222" lon="127.379200"><ele>624.2</ele><time>2022-03-29T10:53:09.000Z</time></trkpt>
      <trkpt lat="36.358301" lon="127.379216"><ele>624.0</ele><time>2022-03-29T10:53:16.000Z</time></trkpt>
      <trkpt lat="36.358373" lon="127.379231"><ele>623.8</ele><time>2022-03-29T10:53:23.000Z</time></trkpt>
      <trkpt lat="36.358409" lon="127.379241"><ele>623.8</ele><time>2022-03-29T10:53:28.000Z</time></trkpt>
      <trkpt lat="36.358522" lon="127.379225"><ele>623.6</ele><time>2022-03-29T10:53:38.000Z</time></trkpt>
      <trkpt lat="36.358563" lon="127.379215"><ele>623.6</ele><time>2022-03-29T10:53:43.000Z</time></trkpt>
      <trkpt lat="36.358543" lon="127.379242"><ele>623.8</ele><time>2022-03-29T10:53:45.000Z</time></trkpt>
      <trkpt lat="36.358636" lon="127.379223"><ele>624.0</ele><time>2022-03-29T10:53:53.000Z</time></trkpt>
      <trkpt lat="36.358719" lon="127.379226"><ele>623.8</ele><time>2022-03-29T10:53:57.000Z</time></trkpt>
      <trkpt lat="36.358843" lon="127.379256"><ele>624.0</ele><time>2022-03-29T10:54:05.000Z</time></trkpt>
      <trkpt lat="36.358861" lon="127.379263"><ele>624.0</ele><time>2022-03-29T10:54:06.000Z</time></trkpt>
      <trkpt lat="36.358923" lon="127.379289"><ele>623.8</ele><time>2022-03-29T10:54:11.000Z</time></trkpt>
      <trkpt lat="36.359024" lon="127.379414"><ele>623.6</ele><time>2022-03-29T10:54:16.000Z</time></trkpt>
      <trkpt lat="36.359035" lon="127.379425"><ele>623.6</ele><time>2022-03-29T10:54:17.000Z</time></trkpt>
      <trkpt lat="36.359114" lon="127.379478"><ele>623.2</ele><time>2022-03-29T10:54:23.000Z</time></trkpt>
      <trkpt lat="36.359223" lon="127.379589"><ele>623.4</ele><time>2022-03-29T10:54:29.000Z</time></trkpt>
      <trkpt lat="36.359294" lon="127.379603"><ele>623.2</ele><time>2022-03-29T10:54:33.000Z</time></trkpt>
      <trkpt lat="36.359320" lon="127.379605"><ele>623.2</ele><time>2022-03-29T10:54:35.000Z</time></trkpt>
      <trkpt lat="36.359406" lon="127.379580"><ele>623.0</ele><time>2022-03-29T10:54:42.000Z</time></trkpt>
      <trkpt lat="36.359428" lon="127.379563"><ele>623.2</ele><time>2022-03-29T10:54:44.000Z</time></trkpt>
      <trkpt lat="36.359444" lon="127.379542"><ele>623.2</ele><time>2022-03-29T10:54:45.000Z</time></trkpt>
      <trkpt lat="36.359467" lon="127.379516"><ele>623.6</ele><time>2022-03-29T10:54:47.000Z</time></trkpt>
      <trkpt lat="36.359482" lon="127.379492"><ele>623.6</ele><time>2022-03-29T10:54:48.000Z</time></trkpt>
      <trkpt lat="36.359507" lon="127.379408"><ele>623.6</ele><time>2022-03-29T10:54:50.000Z</time></trkpt>
      <trkpt lat="36.359539" lon="127.379215"><ele>623.0</ele><time>2022-03-29T10:54:55.000Z</time></trkpt>
      <trkpt lat="36.359564" lon="127.379198"><ele>623.0</ele><time>2022-03-29T10:54:58.000Z</time></trkpt>
      <trkpt lat="36.359580" lon="127.379194"><ele>623.0</ele><time>2022-03-29T10:55:00.000Z</time></trkpt>
      <trkpt lat="36.359626" lon="127.379202"><ele>623.0</ele><time>2022-03-29T10:55:03.000Z</time></trkpt>
      <trkpt lat="36.359647" lon="127.379245"><ele>622.8</ele><time>2022-03-29T10:55:06.000Z</time></trkpt>
      <trkpt lat="36.359753" lon="127.379362"><ele>623.0</ele><time>2022-03-29T10:55:15.000Z</time></trkpt>
      <trkpt lat="36.359829" lon="127.379404"><ele>623.0</ele><time>2022-03-29T10:55:18.000Z</time></trkpt>
      <trkpt lat="36.359881" lon="127.379450"><ele>623.0</ele><time>2022-03-29T10:55:21.000Z</time></trkpt>
      <trkpt lat="36.359907" lon="127.379553"><ele>622.6</ele><time>2022-03-29T10:55:27.000Z</time></trkpt>
      <trkpt lat="36.359918" lon="127.379581"><ele>622.6</ele><time>2022-03-29T10:55:29.000Z</time></trkpt>
      <trkpt lat="36.359942" lon="127.379606"><ele>622.8</ele><time>2022-03-29T10:55:33.000Z</time></trkpt>
      <trkpt lat="36.359884" lon="127.379574"><ele>622.6</ele><time>2022-03-29T10:55:35.000Z</time></trkpt>
      <trkpt lat="36.359819" lon="127.379559"><ele>622.4</ele><time>2022-03-29T10:55:40.000Z</time></trkpt>
      <trkpt lat="36.359810" lon="127.379555"><ele>622.4</ele><time>2022-03-29T10:55:42.000Z</time></trkpt>
      <trkpt lat="36.359813" lon="127.379570"><ele>622.6</ele><time>2022-03-29T10:55:48.000Z</time></trkpt>
      <trkpt lat="36.359894" lon="127.379545"><ele>622.6</ele><time>2022-03-29T10:55:59.000Z</time></trkpt>
      <trkpt lat="36.359973" lon="127.379499"><ele>622.4</ele><time>2022-03-29T10:56:09.000Z</time></trkpt>
      <trkpt lat="36.359987" lon="127.379489"><ele>622.4</ele><time>2022-03-29T10:56:11.000Z</time></trkpt>
      <trkpt lat="36.360079" lon="127.379478"><ele>622.4</ele><time>2022-03-29T10:56:21.000Z</time></trkpt>
      <trkpt lat="36.360283" lon="127.379538"><ele>622.6</ele><time>2022-03-29T10:56:29.000Z</time></trkpt>
      <trkpt lat="36.360365" lon="127.379547"><ele>622.8</ele><time>2022-03-29T10:56:34.000Z</time></trkpt>
      <trkpt lat="36.360389" lon="127.379552"><ele>623.0</ele><time>2022-03-29T10:56:36.000Z</time></trkpt>
      <trkpt lat="36.360401" lon="127.379555"><ele>622.8</ele><time>2022-03-29T10:56:37.000Z</time></trkpt>
      <trkpt lat="36.360536" lon="127.379571"><ele>622.4</ele><time>2022-03-29T10:56:46.000Z</time></trkpt>
      <trkpt lat="36.360563" lon="127.379578"><ele>622.2</ele><time>2022-03-29T10:56:48.000Z</time></trkpt>
      <trkpt lat="36.360575" lon="127.379580"><ele>622.2</ele><time>2022-03-29T10:56:49.000Z</time></trkpt>
      <trkpt lat="36.360603" lon="127.379579"><ele>622.2</ele><time>2022-03-29T10:56:53.000Z</time></trkpt>
      <trkpt lat="36.360720" lon="127.379597"><ele>622.2</ele><time>2022-03-29T10:57:00.000Z</time></trkpt>
      <trkpt lat="36.360848" lon="127.379641"><ele>622.4</ele><time>2022-03-29T10:57:06.000Z</time></trkpt>
      <trkpt lat="36.360948" lon="127.379648"><ele>622.4</ele><time>2022-03-29T10:57:13.000Z</time></trkpt>
      <trkpt lat="36.361041" lon="127.379632"><ele>622.0</ele><time>2022-03-29T10:57:20.000Z</time></trkpt>
      <trkpt lat="36.361043" lon="127.379618"><ele>622.0</ele><time>2022-03-29T10:57:21.000Z</time></trkpt>
      <trkpt lat="36.361097" lon="127.379583"><ele>622.0</ele><time>2022-03-29T10:57:26.000Z</time></trkpt>
      <trkpt lat="36.361127" lon="127.379574"><ele>622.0</ele><time>2022-03-29T10:57:29.000Z</time></trkpt>
      <trkpt lat="36.361224" lon="127.379580"><ele>621.8</ele><time>2022-03-29T10:57:36.000Z</time></trkpt>
      <trkpt lat="36.361322" lon="127.379566"><ele>621.8</ele><time>2022-03-29T10:57:44.000Z</time></trkpt>
      <trkpt lat="36.361387" lon="127.379571"><ele>621.8</ele><time>2022-03-29T10:57:50.000Z</time></trkpt>
      <trkpt lat="36.361402" lon="127.379571"><ele>621.8</ele><time>2022-03-29T10:57:51.000Z</time></trkpt>
      <trkpt lat="36.361418" lon="127.379569"><ele>621.6</ele><time>2022-03-29T10:57:52.000Z</time></trkpt>
      <trkpt lat="36.361445" lon="127.379564"><ele>621.4</ele><time>2022-03-29T10:57:54.000Z</time></trkpt>
      <trkpt lat="36.361475" lon="127.379567"><ele>621.2</ele><time>2022-03-29T10:57:56.000Z</time></trkpt>
      <trkpt lat="36.361514" lon="127.379552"><ele>621.2</ele><time>2022-03-29T10:57:59.000Z</time></trkpt>
      <trkpt lat="36.361578" lon="127.379497"><ele>621.2</ele><time>2022-03-29T10:58:05.000Z</time></trkpt>
      <trkpt lat="36.361588" lon="127.379491"><ele>621.2</ele><time>2022-03-29T10:58:06.000Z</time></trkpt>
      <trkpt lat="36.361676" lon="127.379393"><ele>621.2</ele><time>2022-03-29T10:58:14.000Z</time></trkpt>
      <trkpt lat="36.361739" lon="127.379343"><ele>620.6</ele><time>2022-03-29T10:58:20.000Z</time></trkpt>
      <trkpt lat="36.361825" lon="127.379321"><ele>620.6</ele><time>2022-03-29T10:58:25.000Z</time></trkpt>
      <trkpt lat="36.361884" lon="127.379320"><ele>620.8</ele><time>2022-03-29T10:58:28.000Z</time></trkpt>
      <trkpt lat="36.361926" lon="127.379318"><ele>620.8</ele><time>2022-03-29T10:58:31.000Z</time></trkpt>
      <trkpt lat="36.361940" lon="127.379320"><ele>621.0</ele><time>2022-03-29T10:58:32.000Z</time></trkpt>
      <trkpt lat="36.362012" lon="127.379331"><ele>620.6</ele><time>2022-03-29T10:58:37.000Z</time></trkpt>
      <trkpt lat="36.362131" lon="127.379380"><ele>620.6</ele><time>2022-03-29T10:58:43.000Z</time></trkpt>
      <trkpt lat="36.362227" lon="127.379378"><ele>620.8</ele><time>2022-03-29T10:58:50.000Z</time></trkpt>
      <trkpt lat="36.362240" lon="127.379366"><ele>620.8</ele><time>2022-03-29T10:58:51.000Z</time></trkpt>
      <trkpt lat="36.362260" lon="127.379333"><ele>620.8</ele><time>2022-03-29T10:58:55.000Z</time></trkpt>
      <trkpt lat="36.362268" lon="127.379314"><ele>620.8</ele><time>2022-03-29T10:58:57.000Z</time></trkpt>
      <trkpt lat="36.362268" lon="127.379305"><ele>620.6</ele><time>2022-03-29T10:58:58.000Z</time></trkpt>
      <trkpt lat="36.362282" lon="127.379304"><ele>620.4</ele><time>2022-03-29T10:59:03.000Z</time></trkpt>
      <trkpt lat="36.362301" lon="127.379309"><ele>620.4</ele><time>2022-03-29T10:59:05.000Z</time></trkpt>
      <trkpt lat="36.362320" lon="127.379317"><ele>620.6</ele><time>2022-03-29T10:59:08.000Z</time></trkpt>
      <trkpt lat="36.362354" lon="127.379299"><ele>620.8</ele><time>2022-03-29T10:59:10.000Z</time></trkpt>
      <trkpt lat="36.362476" lon="127.379272"><ele>620.6</ele><time>2022-03-29T10:59:16.000Z</time></trkpt>
      <trkpt lat="36.362565" lon="127.379284"><ele>620.2</ele><time>2022-03-29T10:59:20.000Z</time></trkpt>
      <trkpt lat="36.362625" lon="127.379311"><ele>620.2</ele><time>2022-03-29T10:59:23.000Z</time></trkpt>
      <trkpt lat="36.362740" lon="127.379369"><ele>620.4</ele><time>2022-03-29T10:59:29.000Z</time></trkpt>
      <trkpt lat="36.362873" lon="127.379384"><ele>620.2</ele><time>2022-03-29T10:59:37.000Z</time></trkpt>
      <trkpt lat="36.363011" lon="127.379402"><ele>620.0</ele><time>2022-03-29T10:59:44.000Z</time></trkpt>
      <trkpt lat="36.363197" lon="127.379464"><ele>620.2</ele><time>2022-03-29T10:59:51.000Z</time></trkpt>
      <trkpt lat="36.363247" lon="127.379463"><ele>620.0</ele><time>2022-03-29T10:59:54.000Z</time></trkpt>
      <trkpt lat="36.363386" lon="127.379468"><ele>619.8</ele><time>2022-03-29T11:00:02.000Z</time></trkpt>
      <trkpt lat="36.363485" lon="127.379490"><ele>619.8</ele><time>2022-03-29T11:00:09.000Z</time></trkpt>
      <trkpt lat="36.363590" lon="127.379506"><ele>619.8</ele><time>2022-03-29T11:00:17.000Z</time></trkpt>
      <trkpt lat="36.363597" lon="127.379507"><ele>619.6</ele><time>2022-03-29T11:00:18.000Z</time></trkpt>
      <trkpt lat="36.363629" lon="127.379499"><ele>619.8</ele><time>2022-03-29T11:00:22.000Z</time></trkpt>
      <trkpt lat="36.363638" lon="127.379500"><ele>619.8</ele><time>2022-03-29T11:00:23.000Z</time></trkpt>
      <trkpt lat="36.363690" lon="127.379490"><ele>619.8</ele><time>2022-03-29T11:00:28.000Z</time></trkpt>
      <trkpt lat="36.363753" lon="127.379496"><ele>620.0</ele><time>2022-03-29T11:00:31.000Z</time></trkpt>
      <trkpt lat="36.363947" lon="127.379535"><ele>619.2</ele><time>2022-03-29T11:00:40.000Z</time></trkpt>
      <trkpt lat="36.364128" lon="127.379588"><ele>619.4</ele><time>2022-03-29T11:00:47.000Z</time></trkpt>
      <trkpt lat="36.364174" lon="127.379615"><ele>619.4</ele><time>2022-03-29T11:00:48.000Z</time></trkpt>
      <trkpt lat="36.364254" lon="127.379638"><ele>619.6</ele><time>2022-03-29T11:00:52.000Z</time></trkpt>
      <trkpt lat="36.364306" lon="127.379650"><ele>619.6</ele><time>2022-03-29T11:00:55.000Z</time></trkpt>
      <trkpt lat="36.364332" lon="127.379655"><ele>619.4</ele><time>2022-03-29T11:00:57.000Z</time></trkpt>
      <trkpt lat="36.364363" lon="127.379655"><ele>619.0</ele><time>2022-03-29T11:00:59.000Z</time></trkpt>
      <trkpt lat="36.364403" lon="127.379654"><ele>619.0</ele><time>2022-03-29T11:01:02.000Z</time></trkpt>
      <trkpt lat="36.364447" lon="127.379663"><ele>618.6</ele><time>2022-03-29T11:01:05.000Z</time></trkpt>
      <trkpt lat="36.364459" lon="127.379664"><ele>618.6</ele><time>2022-03-29T11:01:06.000Z</time></trkpt>
      <trkpt lat="36.364499" lon="127.379678"><ele>618.6</ele><time>2022-03-29T11:01:09.000Z</time></trkpt>
      <trkpt lat="36.364545" lon="127.379692"><ele>618.4</ele><time>2022-03-29T11:01:13.000Z</time></trkpt>
      <trkpt lat="36.364564" lon="127.379696"><ele>618.4</ele><time>2022-03-29T11:01:14.000Z</time></trkpt>
      <trkpt lat="36.364586" lon="127.379699"><ele>618.2</ele><time>2022-03-29T11:01:15.000Z</time></trkpt>
      <trkpt lat="36.364593" lon="127.379696"><ele>618.0</ele><time>2022-03-29T11:01:16.000Z</time></trkpt>
      <trkpt lat="36.364597" lon="127.379691"><ele>618.0</ele><time>2022-03-29T11:01:18.000Z</time></trkpt>
      <trkpt lat="36.364591" lon="127.379693"><ele>618.0</ele><time>2022-03-29T11:01:20.000Z</time></trkpt>
      <trkpt lat="36.364584" lon="127.379694"><ele>618.0</ele><time>2022-03-29T11:01:21.000Z</time></trkpt>
      <trkpt lat="36.364583" lon="127.379683"><ele>618.0</ele><time>2022-03-29T11:01:24.000Z</time></trkpt>
      <trkpt lat="36.364606" lon="127.379679"><ele>618.0</ele><time>2022-03-29T11:01:26.000Z</time></trkpt>
      <trkpt lat="36.364668" lon="127.379683"><ele>618.2</ele><time>2022-03-29T11:01:31.000Z</time></trkpt>
      <trkpt lat="36.364759" lon="127.379684"><ele>618.8</ele><time>2022-03-29T11:01:38.000Z</time></trkpt>
      <trkpt lat="36.364789" lon="127.379685"><ele>618.6</ele><time>2022-03-29T11:01:40.000Z</time></trkpt>
      <trkpt lat="36.364817" lon="127.379689"><ele>618.6</ele><time>2022-03-29T11:01:42.000Z</time></trkpt>
      <trkpt lat="36.364893" lon="127.379703"><ele>618.2</ele><time>2022-03-29T11:01:50.000Z</time></trkpt>
      <trkpt lat="36.364868" lon="127.379705"><ele>618.2</ele><time>2022-03-29T11:01:55.000Z</time></trkpt>
      <trkpt lat="36.364863" lon="127.379712"><ele>618.2</ele><time>2022-03-29T11:01:56.000Z</time></trkpt>
      <trkpt lat="36.364851" lon="127.379718"><ele>618.2</ele><time>2022-03-29T11:01:57.000Z</time></trkpt>
      <trkpt lat="36.364828" lon="127.379732"><ele>618.0</ele><time>2022-03-29T11:01:59.000Z</time></trkpt>
      <trkpt lat="36.364812" lon="127.379754"><ele>618.0</ele><time>2022-03-29T11:02:01.000Z</time></trkpt>
      <trkpt lat="36.364785" lon="127.379786"><ele>618.0</ele><time>2022-03-29T11:02:04.000Z</time></trkpt>
      <trkpt lat="36.364759" lon="127.379828"><ele>618.0</ele><time>2022-03-29T11:02:08.000Z</time></trkpt>
      <trkpt lat="36.364755" lon="127.379839"><ele>618.0</ele><time>2022-03-29T11:02:09.000Z</time></trkpt>
      <trkpt lat="36.364762" lon="127.379919"><ele>618.2</ele><time>2022-03-29T11:02:14.000Z</time></trkpt>
      <trkpt lat="36.364782" lon="127.380022"><ele>618.4</ele><time>2022-03-29T11:02:19.000Z</time></trkpt>
      <trkpt lat="36.364826" lon="127.380089"><ele>618.6</ele><time>2022-03-29T11:02:21.000Z</time></trkpt>
      <trkpt lat="36.364847" lon="127.380146"><ele>618.6</ele><time>2022-03-29T11:02:23.000Z</time></trkpt>
      <trkpt lat="36.364871" lon="127.380265"><ele>618.6</ele><time>2022-03-29T11:02:29.000Z</time></trkpt>
      <trkpt lat="36.364870" lon="127.380279"><ele>618.6</ele><time>2022-03-29T11:02:30.000Z</time></trkpt>
      <trkpt lat="36.364928" lon="127.380494"><ele>618.2</ele><time>2022-03-29T11:02:40.000Z</time></trkpt>
      <trkpt lat="36.364971" lon="127.380706"><ele>618.2</ele><time>2022-03-29T11:02:48.000Z</time></trkpt>
      <trkpt lat="36.364981" lon="127.380759"><ele>618.2</ele><time>2022-03-29T11:02:50.000Z</time></trkpt>
      <trkpt lat="36.364991" lon="127.380809"><ele>618.4</ele><time>2022-03-29T11:02:52.000Z</time></trkpt>
      <trkpt lat="36.365003" lon="127.380948"><ele>618.4</ele><time>2022-03-29T11:02:58.000Z</time></trkpt>
      <trkpt lat="36.365007" lon="127.380972"><ele>618.4</ele><time>2022-03-29T11:02:59.000Z</time></trkpt>
      <trkpt lat="36.365029" lon="127.381092"><ele>618.0</ele><time>2022-03-29T11:03:05.000Z</time></trkpt>
      <trkpt lat="36.365072" lon="127.381191"><ele>618.6</ele><time>2022-03-29T11:03:12.000Z</time></trkpt>
      <trkpt lat="36.365067" lon="127.381205"><ele>618.6</ele><time>2022-03-29T11:03:13.000Z</time></trkpt>
      <trkpt lat="36.365068" lon="127.381220"><ele>618.6</ele><time>2022-03-29T11:03:14.000Z</time></trkpt>
      <trkpt lat="36.365052" lon="127.381295"><ele>618.2</ele><time>2022-03-29T11:03:18.000Z</time></trkpt>
      <trkpt lat="36.365032" lon="127.381465"><ele>618.2</ele><time>2022-03-29T11:03:25.000Z</time></trkpt>
      <trkpt lat="36.365041" lon="127.381569"><ele>618.0</ele><time>2022-03-29T11:03:29.000Z</time></trkpt>
      <trkpt lat="36.365047" lon="127.381595"><ele>618.0</ele><time>2022-03-29T11:03:30.000Z</time></trkpt>
      <trkpt lat="36.365044" lon="127.381618"><ele>618.0</ele><time>2022-03-29T11:03:31.000Z</time></trkpt>
      <trkpt lat="36.365026" lon="127.381684"><ele>618.2</ele><time>2022-03-29T11:03:35.000Z</time></trkpt>
      <trkpt lat="36.365014" lon="127.381701"><ele>618.2</ele><time>2022-03-29T11:03:36.000Z</time></trkpt>
      <trkpt lat="36.364991" lon="127.381879"><ele>618.2</ele><time>2022-03-29T11:03:45.000Z</time></trkpt>
      <trkpt lat="36.364973" lon="127.381917"><ele>618.2</ele><time>2022-03-29T11:03:47.000Z</time></trkpt>
      <trkpt lat="36.364969" lon="127.381981"><ele>618.0</ele><time>2022-03-29T11:03:50.000Z</time></trkpt>
      <trkpt lat="36.365013" lon="127.382089"><ele>618.0</ele><time>2022-03-29T11:03:56.000Z</time></trkpt>
      <trkpt lat="36.365029" lon="127.382125"><ele>618.0</ele><time>2022-03-29T11:03:59.000Z</time></trkpt>
      <trkpt lat="36.365025" lon="127.382131"><ele>617.8</ele><time>2022-03-29T11:04:01.000Z</time></trkpt>
      <trkpt lat="36.365035" lon="127.382195"><ele>617.8</ele><time>2022-03-29T11:04:10.000Z</time></trkpt>
      <trkpt lat="36.365018" lon="127.382344"><ele>617.8</ele><time>2022-03-29T11:04:19.000Z</time></trkpt>
      <trkpt lat="36.365033" lon="127.382475"><ele>617.8</ele><time>2022-03-29T11:04:26.000Z</time></trkpt>
      <trkpt lat="36.365047" lon="127.382620"><ele>618.0</ele><time>2022-03-29T11:04:34.000Z</time></trkpt>
      <trkpt lat="36.365046" lon="127.382654"><ele>618.2</ele><time>2022-03-29T11:04:36.000Z</time></trkpt>
      <trkpt lat="36.365042" lon="127.382708"><ele>618.4</ele><time>2022-03-29T11:04:39.000Z</time></trkpt>
      <trkpt lat="36.365062" lon="127.382820"><ele>618.0</ele><time>2022-03-29T11:04:47.000Z</time></trkpt>
      <trkpt lat="36.365080" lon="127.382855"><ele>617.8</ele><time>2022-03-29T11:04:50.000Z</time></trkpt>
      <trkpt lat="36.365120" lon="127.382866"><ele>618.0</ele><time>2022-03-29T11:04:53.000Z</time></trkpt>
      <trkpt lat="36.365158" lon="127.382876"><ele>618.2</ele><time>2022-03-29T11:04:56.000Z</time></trkpt>
      <trkpt lat="36.365238" lon="127.382872"><ele>618.4</ele><time>2022-03-29T11:05:03.000Z</time></trkpt>
      <trkpt lat="36.365273" lon="127.382865"><ele>618.4</ele><time>2022-03-29T11:05:06.000Z</time></trkpt>
      <trkpt lat="36.365284" lon="127.382865"><ele>618.4</ele><time>2022-03-29T11:05:07.000Z</time></trkpt>
      <trkpt lat="36.365309" lon="127.382862"><ele>618.4</ele><time>2022-03-29T11:05:09.000Z</time></trkpt>
      <trkpt lat="36.365403" lon="127.382845"><ele>618.6</ele><time>2022-03-29T11:05:16.000Z</time></trkpt>
      <trkpt lat="36.365414" lon="127.382843"><ele>618.6</ele><time>2022-03-29T11:05:17.000Z</time></trkpt>
      <trkpt lat="36.365473" lon="127.382831"><ele>618.6</ele><time>2022-03-29T11:05:22.000Z</time></trkpt>
      <trkpt lat="36.365519" lon="127.382811"><ele>618.6</ele><time>2022-03-29T11:05:25.000Z</time></trkpt>
      <trkpt lat="36.365610" lon="127.382788"><ele>618.4</ele><time>2022-03-29T11:05:31.000Z</time></trkpt>
      <trkpt lat="36.365640" lon="127.382778"><ele>618.4</ele><time>2022-03-29T11:05:34.000Z</time></trkpt>
      <trkpt lat="36.365690" lon="127.382760"><ele>618.8</ele><time>2022-03-29T11:05:38.000Z</time></trkpt>
      <trkpt lat="36.365728" lon="127.382761"><ele>618.8</ele><time>2022-03-29T11:05:41.000Z</time></trkpt>
      <trkpt lat="36.365757" lon="127.382765"><ele>618.8</ele><time>2022-03-29T11:05:43.000Z</time></trkpt>
      <trkpt lat="36.365797" lon="127.382749"><ele>618.6</ele><time>2022-03-29T11:05:46.000Z</time></trkpt>
      <trkpt lat="36.365852" lon="127.382757"><ele>618.4</ele><time>2022-03-29T11:05:49.000Z</time></trkpt>
      <trkpt lat="36.365872" lon="127.382757"><ele>618.4</ele><time>2022-03-29T11:05:50.000Z</time></trkpt>
      <trkpt lat="36.365943" lon="127.382750"><ele>618.2</ele><time>2022-03-29T11:05:55.000Z</time></trkpt>
      <trkpt lat="36.365988" lon="127.382748"><ele>618.4</ele><time>2022-03-29T11:05:59.000Z</time></trkpt>
      <trkpt lat="36.366045" lon="127.382736"><ele>618.4</ele><time>2022-03-29T11:06:05.000Z</time></trkpt>
      <trkpt lat="36.366127" lon="127.382737"><ele>618.4</ele><time>2022-03-29T11:06:12.000Z</time></trkpt>
      <trkpt lat="36.366138" lon="127.382740"><ele>618.4</ele><time>2022-03-29T11:06:13.000Z</time></trkpt>
      <trkpt lat="36.366238" lon="127.382781"><ele>618.6</ele><time>2022-03-29T11:06:18.000Z</time></trkpt>
      <trkpt lat="36.366303" lon="127.382782"><ele>618.8</ele><time>2022-03-29T11:06:22.000Z</time></trkpt>
      <trkpt lat="36.366360" lon="127.382779"><ele>618.6</ele><time>2022-03-29T11:06:26.000Z</time></trkpt>
      <trkpt lat="36.366372" lon="127.382789"><ele>618.6</ele><time>2022-03-29T11:06:27.000Z</time></trkpt>
      <trkpt lat="36.366566" lon="127.382814"><ele>618.6</ele><time>2022-03-29T11:06:39.000Z</time></trkpt>
      <trkpt lat="36.366632" lon="127.382821"><ele>618.6</ele><time>2022-03-29T11:06:43.000Z</time></trkpt>
      <trkpt lat="36.366662" lon="127.382821"><ele>618.6</ele><time>2022-03-29T11:06:45.000Z</time></trkpt>
      <trkpt lat="36.366813" lon="127.382838"><ele>618.4</ele><time>2022-03-29T11:06:55.000Z</time></trkpt>
      <trkpt lat="36.366932" lon="127.382930"><ele>618.6</ele><time>2022-03-29T11:07:07.000Z</time></trkpt>
      <trkpt lat="36.366953" lon="127.382913"><ele>618.4</ele><time>2022-03-29T11:07:09.000Z</time></trkpt>
      <trkpt lat="36.367067" lon="127.382845"><ele>618.0</ele><time>2022-03-29T11:07:19.000Z</time></trkpt>
      <trkpt lat="36.367159" lon="127.382888"><ele>617.6</ele><time>2022-03-29T11:07:30.000Z</time></trkpt>
      <trkpt lat="36.367161" lon="127.382895"><ele>617.6</ele><time>2022-03-29T11:07:31.000Z</time></trkpt>
      <trkpt lat="36.367189" lon="127.382962"><ele>617.8</ele><time>2022-03-29T11:07:37.000Z</time></trkpt>
      <trkpt lat="36.367193" lon="127.383036"><ele>617.8</ele><time>2022-03-29T11:07:43.000Z</time></trkpt>
      <trkpt lat="36.367168" lon="127.383119"><ele>617.6</ele><time>2022-03-29T11:07:50.000Z</time></trkpt>
      <trkpt lat="36.367153" lon="127.383178"><ele>617.6</ele><time>2022-03-29T11:07:54.000Z</time></trkpt>
      <trkpt lat="36.367159" lon="127.383257"><ele>617.8</ele><time>2022-03-29T11:07:57.000Z</time></trkpt>
      <trkpt lat="36.367159" lon="127.383275"><ele>617.8</ele><time>2022-03-29T11:07:58.000Z</time></trkpt>
      <trkpt lat="36.367152" lon="127.383299"><ele>617.8</ele><time>2022-03-29T11:07:59.000Z</time></trkpt>
      <trkpt lat="36.367147" lon="127.383372"><ele>618.0</ele><time>2022-03-29T11:08:04.000Z</time></trkpt>
      <trkpt lat="36.367151" lon="127.383425"><ele>618.0</ele><time>2022-03-29T11:08:08.000Z</time></trkpt>
      <trkpt lat="36.367153" lon="127.383461"><ele>618.0</ele><time>2022-03-29T11:08:10.000Z</time></trkpt>
      <trkpt lat="36.367178" lon="127.383523"><ele>618.0</ele><time>2022-03-29T11:08:12.000Z</time></trkpt>
      <trkpt lat="36.367215" lon="127.383627"><ele>618.0</ele><time>2022-03-29T11:08:16.000Z</time></trkpt>
      <trkpt lat="36.367196" lon="127.383704"><ele>618.0</ele><time>2022-03-29T11:08:21.000Z</time></trkpt>
      <trkpt lat="36.367195" lon="127.383741"><ele>618.0</ele><time>2022-03-29T11:08:23.000Z</time></trkpt>
      <trkpt lat="36.367194" lon="127.383760"><ele>617.8</ele><time>2022-03-29T11:08:24.000Z</time></trkpt>
      <trkpt lat="36.367170" lon="127.383870"><ele>618.0</ele><time>2022-03-29T11:08:31.000Z</time></trkpt>
      <trkpt lat="36.367165" lon="127.383912"><ele>618.0</ele><time>2022-03-29T11:08:33.000Z</time></trkpt>
      <trkpt lat="36.367178" lon="127.384128"><ele>618.4</ele><time>2022-03-29T11:08:45.000Z</time></trkpt>
      <trkpt lat="36.367151" lon="127.384332"><ele>618.0</ele><time>2022-03-29T11:08:57.000Z</time></trkpt>
      <trkpt lat="36.367137" lon="127.384476"><ele>618.2</ele><time>2022-03-29T11:09:05.000Z</time></trkpt>
      <trkpt lat="36.367133" lon="127.384508"><ele>618.4</ele><time>2022-03-29T11:09:07.000Z</time></trkpt>
      <trkpt lat="36.367125" lon="127.384540"><ele>618.4</ele><time>2022-03-29T11:09:09.000Z</time></trkpt>
      <trkpt lat="36.367109" lon="127.384771"><ele>618.2</ele><time>2022-03-29T11:09:22.000Z</time></trkpt>
      <trkpt lat="36.367139" lon="127.384972"><ele>618.4</ele><time>2022-03-29T11:09:33.000Z</time></trkpt>
      <trkpt lat="36.367135" lon="127.384992"><ele>618.4</ele><time>2022-03-29T11:09:34.000Z</time></trkpt>
      <trkpt lat="36.367132" lon="127.385044"><ele>618.0</ele><time>2022-03-29T11:09:37.000Z</time></trkpt>
      <trkpt lat="36.367133" lon="127.385115"><ele>617.8</ele><time>2022-03-29T11:09:40.000Z</time></trkpt>
      <trkpt lat="36.367136" lon="127.385139"><ele>617.8</ele><time>2022-03-29T11:09:41.000Z</time></trkpt>
      <trkpt lat="36.367138" lon="127.385177"><ele>617.8</ele><time>2022-03-29T11:09:43.000Z</time></trkpt>
      <trkpt lat="36.367143" lon="127.385297"><ele>618.2</ele><time>2022-03-29T11:09:49.000Z</time></trkpt>
      <trkpt lat="36.367143" lon="127.385419"><ele>618.4</ele><time>2022-03-29T11:09:56.000Z</time></trkpt>
      <trkpt lat="36.367139" lon="127.385541"><ele>618.2</ele><time>2022-03-29T11:10:03.000Z</time></trkpt>
      <trkpt lat="36.367145" lon="127.385579"><ele>618.0</ele><time>2022-03-29T11:10:05.000Z</time></trkpt>
      <trkpt lat="36.367129" lon="127.385630"><ele>617.8</ele><time>2022-03-29T11:10:08.000Z</time></trkpt>
      <trkpt lat="36.367123" lon="127.385650"><ele>617.8</ele><time>2022-03-29T11:10:09.000Z</time></trkpt>
      <trkpt lat="36.367136" lon="127.385745"><ele>618.0</ele><time>2022-03-29T11:10:14.000Z</time></trkpt>
      <trkpt lat="36.367139" lon="127.385764"><ele>618.0</ele><time>2022-03-29T11:10:15.000Z</time></trkpt>
      <trkpt lat="36.367132" lon="127.385795"><ele>618.2</ele><time>2022-03-29T11:10:17.000Z</time></trkpt>
      <trkpt lat="36.367121" lon="127.385835"><ele>618.2</ele><time>2022-03-29T11:10:20.000Z</time></trkpt>
      <trkpt lat="36.367117" lon="127.385875"><ele>618.2</ele><time>2022-03-29T11:10:22.000Z</time></trkpt>
      <trkpt lat="36.367127" lon="127.385949"><ele>618.2</ele><time>2022-03-29T11:10:26.000Z</time></trkpt>
      <trkpt lat="36.367137" lon="127.386138"><ele>617.8</ele><time>2022-03-29T11:10:35.000Z</time></trkpt>
      <trkpt lat="36.367145" lon="127.386230"><ele>618.0</ele><time>2022-03-29T11:10:39.000Z</time></trkpt>
      <trkpt lat="36.367158" lon="127.386293"><ele>618.0</ele><time>2022-03-29T11:10:42.000Z</time></trkpt>
      <trkpt lat="36.367167" lon="127.386345"><ele>618.2</ele><time>2022-03-29T11:10:45.000Z</time></trkpt>
      <trkpt lat="36.367165" lon="127.386358"><ele>618.2</ele><time>2022-03-29T11:10:46.000Z</time></trkpt>
      <trkpt lat="36.367172" lon="127.386382"><ele>618.4</ele><time>2022-03-29T11:10:47.000Z</time></trkpt>
      <trkpt lat="36.367176" lon="127.386424"><ele>618.4</ele><time>2022-03-29T11:10:49.000Z</time></trkpt>
      <trkpt lat="36.367183" lon="127.386447"><ele>618.2</ele><time>2022-03-29T11:10:50.000Z</time></trkpt>
      <trkpt lat="36.367187" lon="127.386587"><ele>618.0</ele><time>2022-03-29T11:10:57.000Z</time></trkpt>
      <trkpt lat="36.367221" lon="127.386788"><ele>617.8</ele><time>2022-03-29T11:11:04.000Z</time></trkpt>
      <trkpt lat="36.367222" lon="127.386918"><ele>618.0</ele><time>2022-03-29T11:11:10.000Z</time></trkpt>
      <trkpt lat="36.367210" lon="127.387074"><ele>617.6</ele><time>2022-03-29T11:11:19.000Z</time></trkpt>
      <trkpt lat="36.367206" lon="127.387219"><ele>617.4</ele><time>2022-03-29T11:11:26.000Z</time></trkpt>
      <trkpt lat="36.367207" lon="127.387240"><ele>617.4</ele><time>2022-03-29T11:11:27.000Z</time></trkpt>
      <trkpt lat="36.367212" lon="127.387281"><ele>617.4</ele><time>2022-03-29T11:11:29.000Z</time></trkpt>
      <trkpt lat="36.367211" lon="127.387300"><ele>617.4</ele><time>2022-03-29T11:11:30.000Z</time></trkpt>
      <trkpt lat="36.367202" lon="127.387371"><ele>617.4</ele><time>2022-03-29T11:11:34.000Z</time></trkpt>
      <trkpt lat="36.367202" lon="127.387406"><ele>617.6</ele><time>2022-03-29T11:11:36.000Z</time></trkpt>
      <trkpt lat="36.367186" lon="127.387470"><ele>618.0</ele><time>2022-03-29T11:11:40.000Z</time></trkpt>
      <trkpt lat="36.367149" lon="127.387528"><ele>618.2</ele><time>2022-03-29T11:11:45.000Z</time></trkpt>
      <trkpt lat="36.367136" lon="127.387533"><ele>618.2</ele><time>2022-03-29T11:11:46.000Z</time></trkpt>
      <trkpt lat="36.367073" lon="127.387583"><ele>618.0</ele><time>2022-03-29T11:11:52.000Z</time></trkpt>
      <trkpt lat="36.367059" lon="127.387587"><ele>617.8</ele><time>2022-03-29T11:11:53.000Z</time></trkpt>
      <trkpt lat="36.367039" lon="127.387600"><ele>617.8</ele><time>2022-03-29T11:11:55.000Z</time></trkpt>
      <trkpt lat="36.367004" lon="127.387632"><ele>617.6</ele><time>2022-03-29T11:11:58.000Z</time></trkpt>
      <trkpt lat="36.366979" lon="127.387642"><ele>617.8</ele><time>2022-03-29T11:12:00.000Z</time></trkpt>
      <trkpt lat="36.366908" lon="127.387671"><ele>617.6</ele><time>2022-03-29T11:12:06.000Z</time></trkpt>
      <trkpt lat="36.366813" lon="127.387710"><ele>618.0</ele><time>2022-03-29T11:12:13.000Z</time></trkpt>
      <trkpt lat="36.366800" lon="127.387719"><ele>618.0</ele><time>2022-03-29T11:12:14.000Z</time></trkpt>
      <trkpt lat="36.366788" lon="127.387725"><ele>617.8</ele><time>2022-03-29T11:12:15.000Z</time></trkpt>
      <trkpt lat="36.366752" lon="127.387742"><ele>617.8</ele><time>2022-03-29T11:12:18.000Z</time></trkpt>
      <trkpt lat="36.366728" lon="127.387752"><ele>617.8</ele><time>2022-03-29T11:12:20.000Z</time></trkpt>
      <trkpt lat="36.366650" lon="127.387770"><ele>617.2</ele><time>2022-03-29T11:12:27.000Z</time></trkpt>
      <trkpt lat="36.366575" lon="127.387783"><ele>617.2</ele><time>2022-03-29T11:12:34.000Z</time></trkpt>
      <trkpt lat="36.366449" lon="127.387778"><ele>617.0</ele><time>2022-03-29T11:12:42.000Z</time></trkpt>
      <trkpt lat="36.366437" lon="127.387783"><ele>617.0</ele><time>2022-03-29T11:12:43.000Z</time></trkpt>
      <trkpt lat="36.366251" lon="127.387825"><ele>617.4</ele><time>2022-03-29T11:12:56.000Z</time></trkpt>
      <trkpt lat="36.366236" lon="127.387823"><ele>617.4</ele><time>2022-03-29T11:12:57.000Z</time></trkpt>
      <trkpt lat="36.366103" lon="127.387834"><ele>617.4</ele><time>2022-03-29T11:13:06.000Z</time></trkpt>
      <trkpt lat="36.366062" lon="127.387831"><ele>617.2</ele><time>2022-03-29T11:13:09.000Z</time></trkpt>
      <trkpt lat="36.366036" lon="127.387831"><ele>617.4</ele><time>2022-03-29T11:13:11.000Z</time></trkpt>
      <trkpt lat="36.365901" lon="127.387701"><ele>617.4</ele><time>2022-03-29T11:13:19.000Z</time></trkpt>
      <trkpt lat="36.365843" lon="127.387485"><ele>617.8</ele><time>2022-03-29T11:13:28.000Z</time></trkpt>
      <trkpt lat="36.365840" lon="127.387461"><ele>617.8</ele><time>2022-03-29T11:13:29.000Z</time></trkpt>
      <trkpt lat="36.365826" lon="127.387319"><ele>617.6</ele><time>2022-03-29T11:13:35.000Z</time></trkpt>
      <trkpt lat="36.365814" lon="127.387251"><ele>617.6</ele><time>2022-03-29T11:13:38.000Z</time></trkpt>
      <trkpt lat="36.365810" lon="127.387225"><ele>617.4</ele><time>2022-03-29T11:13:39.000Z</time></trkpt>
      <trkpt lat="36.365806" lon="127.387199"><ele>617.4</ele><time>2022-03-29T11:13:40.000Z</time></trkpt>
      <trkpt lat="36.365796" lon="127.387128"><ele>617.6</ele><time>2022-03-29T11:13:43.000Z</time></trkpt>
      <trkpt lat="36.365782" lon="127.387047"><ele>617.8</ele><time>2022-03-29T11:13:47.000Z</time></trkpt>
      <trkpt lat="36.365779" lon="127.386964"><ele>618.2</ele><time>2022-03-29T11:13:51.000Z</time></trkpt>
      <trkpt lat="36.365782" lon="127.386885"><ele>618.2</ele><time>2022-03-29T11:13:55.000Z</time></trkpt>
      <trkpt lat="36.365769" lon="127.386742"><ele>618.4</ele><time>2022-03-29T11:14:03.000Z</time></trkpt>
      <trkpt lat="36.365767" lon="127.386608"><ele>618.2</ele><time>2022-03-29T11:14:10.000Z</time></trkpt>
      <trkpt lat="36.365777" lon="127.386569"><ele>618.2</ele><time>2022-03-29T11:14:12.000Z</time></trkpt>
      <trkpt lat="36.365775" lon="127.386499"><ele>618.4</ele><time>2022-03-29T11:14:15.000Z</time></trkpt>
      <trkpt lat="36.365774" lon="127.386395"><ele>618.4</ele><time>2022-03-29T11:14:19.000Z</time></trkpt>
      <trkpt lat="36.365763" lon="127.386323"><ele>618.2</ele><time>2022-03-29T11:14:22.000Z</time></trkpt>
      <trkpt lat="36.365759" lon="127.386275"><ele>618.0</ele><time>2022-03-29T11:14:24.000Z</time></trkpt>
      <trkpt lat="36.365760" lon="127.386251"><ele>618.0</ele><time>2022-03-29T11:14:25.000Z</time></trkpt>
      <trkpt lat="36.365759" lon="127.386182"><ele>618.0</ele><time>2022-03-29T11:14:28.000Z</time></trkpt>
      <trkpt lat="36.365760" lon="127.386160"><ele>618.0</ele><time>2022-03-29T11:14:29.000Z</time></trkpt>
      <trkpt lat="36.365760" lon="127.386065"><ele>618.0</ele><time>2022-03-29T11:14:33.000Z</time></trkpt>
      <trkpt lat="36.365762" lon="127.385992"><ele>618.0</ele><time>2022-03-29T11:14:36.000Z</time></trkpt>
      <trkpt lat="36.365757" lon="127.385923"><ele>618.0</ele><time>2022-03-29T11:14:39.000Z</time></trkpt>
      <trkpt lat="36.365757" lon="127.385805"><ele>618.0</ele><time>2022-03-29T11:14:44.000Z</time></trkpt>
      <trkpt lat="36.365759" lon="127.385780"><ele>618.0</ele><time>2022-03-29T11:14:45.000Z</time></trkpt>
      <trkpt lat="36.365776" lon="127.385660"><ele>617.8</ele><time>2022-03-29T11:14:50.000Z</time></trkpt>
      <trkpt lat="36.365778" lon="127.385635"><ele>617.8</ele><time>2022-03-29T11:14:51.000Z</time></trkpt>
      <trkpt lat="36.365767" lon="127.385515"><ele>617.6</ele><time>2022-03-29T11:14:58.000Z</time></trkpt>
      <trkpt lat="36.365766" lon="127.385404"><ele>617.8</ele><time>2022-03-29T11:15:05.000Z</time></trkpt>
      <trkpt lat="36.365792" lon="127.385321"><ele>618.0</ele><time>2022-03-29T11:15:10.000Z</time></trkpt>
      <trkpt lat="36.365798" lon="127.385287"><ele>618.0</ele><time>2022-03-29T11:15:12.000Z</time></trkpt>
      <trkpt lat="36.365798" lon="127.385172"><ele>618.2</ele><time>2022-03-29T11:15:19.000Z</time></trkpt>
      <trkpt lat="36.365788" lon="127.385122"><ele>617.8</ele><time>2022-03-29T11:15:22.000Z</time></trkpt>
      <trkpt lat="36.365799" lon="127.384992"><ele>617.8</ele><time>2022-03-29T11:15:29.000Z</time></trkpt>
      <trkpt lat="36.365794" lon="127.384830"><ele>618.8</ele><time>2022-03-29T11:15:38.000Z</time></trkpt>
      <trkpt lat="36.365764" lon="127.384688"><ele>618.2</ele><time>2022-03-29T11:15:46.000Z</time></trkpt>
      <trkpt lat="36.365753" lon="127.384534"><ele>618.2</ele><time>2022-03-29T11:15:53.000Z</time></trkpt>
      <trkpt lat="36.365748" lon="127.384486"><ele>618.6</ele><time>2022-03-29T11:15:56.000Z</time></trkpt>
      <trkpt lat="36.365744" lon="127.384429"><ele>618.6</ele><time>2022-03-29T11:15:59.000Z</time></trkpt>
      <trkpt lat="36.365732" lon="127.384353"><ele>618.4</ele><time>2022-03-29T11:16:03.000Z</time></trkpt>
      <trkpt lat="36.365714" lon="127.384268"><ele>618.2</ele><time>2022-03-29T11:16:08.000Z</time></trkpt>
      <trkpt lat="36.365725" lon="127.384116"><ele>618.0</ele><time>2022-03-29T11:16:15.000Z</time></trkpt>
      <trkpt lat="36.365721" lon="127.384025"><ele>618.0</ele><time>2022-03-29T11:16:20.000Z</time></trkpt>
      <trkpt lat="36.365726" lon="127.383971"><ele>618.0</ele><time>2022-03-29T11:16:23.000Z</time></trkpt>
      <trkpt lat="36.365727" lon="127.383810"><ele>617.8</ele><time>2022-03-29T11:16:32.000Z</time></trkpt>
      <trkpt lat="36.365731" lon="127.383730"><ele>617.8</ele><time>2022-03-29T11:16:36.000Z</time></trkpt>
      <trkpt lat="36.365730" lon="127.383693"><ele>617.8</ele><time>2022-03-29T11:16:38.000Z</time></trkpt>
      <trkpt lat="36.365737" lon="127.383579"><ele>618.0</ele><time>2022-03-29T11:16:44.000Z</time></trkpt>
      <trkpt lat="36.365731" lon="127.383476"><ele>618.2</ele><time>2022-03-29T11:16:50.000Z</time></trkpt>
      <trkpt lat="36.365728" lon="127.383395"><ele>617.8</ele><time>2022-03-29T11:16:55.000Z</time></trkpt>
      <trkpt lat="36.365728" lon="127.383362"><ele>617.8</ele><time>2022-03-29T11:16:57.000Z</time></trkpt>
      <trkpt lat="36.365718" lon="127.383238"><ele>618.0</ele><time>2022-03-29T11:17:04.000Z</time></trkpt>
      <trkpt lat="36.365704" lon="127.383180"><ele>617.8</ele><time>2022-03-29T11:17:07.000Z</time></trkpt>
      <trkpt lat="36.365689" lon="127.383126"><ele>617.8</ele><time>2022-03-29T11:17:10.000Z</time></trkpt>
      <trkpt lat="36.365684" lon="127.383106"><ele>617.8</ele><time>2022-03-29T11:17:11.000Z</time></trkpt>
      <trkpt lat="36.365692" lon="127.383029"><ele>617.8</ele><time>2022-03-29T11:17:17.000Z</time></trkpt>
      <trkpt lat="36.365678" lon="127.383007"><ele>617.8</ele><time>2022-03-29T11:17:20.000Z</time></trkpt>
      <trkpt lat="36.365666" lon="127.382990"><ele>617.6</ele><time>2022-03-29T11:17:22.000Z</time></trkpt>
      <trkpt lat="36.365657" lon="127.382984"><ele>617.6</ele><time>2022-03-29T11:17:23.000Z</time></trkpt>
      <trkpt lat="36.365647" lon="127.382976"><ele>617.4</ele><time>2022-03-29T11:17:24.000Z</time></trkpt>
      <trkpt lat="36.365621" lon="127.382945"><ele>617.4</ele><time>2022-03-29T11:17:27.000Z</time></trkpt>
      <trkpt lat="36.365611" lon="127.382930"><ele>617.4</ele><time>2022-03-29T11:17:28.000Z</time></trkpt>
      <trkpt lat="36.365595" lon="127.382905"><ele>617.4</ele><time>2022-03-29T11:17:30.000Z</time></trkpt>
      <trkpt lat="36.365585" lon="127.382896"><ele>617.2</ele><time>2022-03-29T11:17:31.000Z</time></trkpt>
      <trkpt lat="36.365454" lon="127.382829"><ele>618.8</ele><time>2022-03-29T11:17:42.000Z</time></trkpt>
      <trkpt lat="36.365335" lon="127.382792"><ele>618.0</ele><time>2022-03-29T11:17:53.000Z</time></trkpt>
      <trkpt lat="36.365264" lon="127.382817"><ele>618.0</ele><time>2022-03-29T11:17:57.000Z</time></trkpt>
      <trkpt lat="36.365226" lon="127.382837"><ele>618.0</ele><time>2022-03-29T11:17:59.000Z</time></trkpt>
      <trkpt lat="36.365142" lon="127.382859"><ele>618.2</ele><time>2022-03-29T11:18:06.000Z</time></trkpt>
      <trkpt lat="36.365139" lon="127.382849"><ele>617.8</ele><time>2022-03-29T11:18:07.000Z</time></trkpt>
      <trkpt lat="36.365127" lon="127.382801"><ele>618.0</ele><time>2022-03-29T11:18:10.000Z</time></trkpt>
      <trkpt lat="36.365113" lon="127.382726"><ele>618.0</ele><time>2022-03-29T11:18:13.000Z</time></trkpt>
      <trkpt lat="36.365095" lon="127.382631"><ele>617.8</ele><time>2022-03-29T11:18:18.000Z</time></trkpt>
      <trkpt lat="36.365092" lon="127.382595"><ele>617.6</ele><time>2022-03-29T11:18:20.000Z</time></trkpt>
      <trkpt lat="36.365088" lon="127.382575"><ele>617.6</ele><time>2022-03-29T11:18:21.000Z</time></trkpt>
      <trkpt lat="36.365089" lon="127.382559"><ele>617.6</ele><time>2022-03-29T11:18:22.000Z</time></trkpt>
      <trkpt lat="36.365098" lon="127.382477"><ele>618.2</ele><time>2022-03-29T11:18:26.000Z</time></trkpt>
      <trkpt lat="36.365106" lon="127.382320"><ele>618.4</ele><time>2022-03-29T11:18:33.000Z</time></trkpt>
      <trkpt lat="36.365094" lon="127.382220"><ele>618.6</ele><time>2022-03-29T11:18:38.000Z</time></trkpt>
      <trkpt lat="36.365084" lon="127.382178"><ele>618.4</ele><time>2022-03-29T11:18:40.000Z</time></trkpt>
      <trkpt lat="36.365073" lon="127.382125"><ele>618.2</ele><time>2022-03-29T11:18:43.000Z</time></trkpt>
      <trkpt lat="36.365070" lon="127.382067"><ele>617.8</ele><time>2022-03-29T11:18:46.000Z</time></trkpt>
      <trkpt lat="36.365066" lon="127.382018"><ele>617.8</ele><time>2022-03-29T11:18:49.000Z</time></trkpt>
      <trkpt lat="36.365057" lon="127.381972"><ele>618.0</ele><time>2022-03-29T11:18:52.000Z</time></trkpt>
      <trkpt lat="36.365050" lon="127.381921"><ele>618.0</ele><time>2022-03-29T11:18:55.000Z</time></trkpt>
      <trkpt lat="36.365048" lon="127.381889"><ele>618.2</ele><time>2022-03-29T11:18:57.000Z</time></trkpt>
      <trkpt lat="36.365039" lon="127.381875"><ele>618.4</ele><time>2022-03-29T11:18:58.000Z</time></trkpt>
      <trkpt lat="36.365035" lon="127.381857"><ele>618.8</ele><time>2022-03-29T11:18:59.000Z</time></trkpt>
      <trkpt lat="36.365038" lon="127.381824"><ele>619.2</ele><time>2022-03-29T11:19:01.000Z</time></trkpt>
      <trkpt lat="36.365039" lon="127.381785"><ele>619.2</ele><time>2022-03-29T11:19:03.000Z</time></trkpt>
      <trkpt lat="36.365041" lon="127.381767"><ele>619.2</ele><time>2022-03-29T11:19:04.000Z</time></trkpt>
      <trkpt lat="36.365044" lon="127.381722"><ele>619.2</ele><time>2022-03-29T11:19:06.000Z</time></trkpt>
      <trkpt lat="36.365049" lon="127.381676"><ele>619.2</ele><time>2022-03-29T11:19:08.000Z</time></trkpt>
      <trkpt lat="36.365053" lon="127.381641"><ele>619.4</ele><time>2022-03-29T11:19:10.000Z</time></trkpt>
      <trkpt lat="36.365056" lon="127.381559"><ele>619.4</ele><time>2022-03-29T11:19:14.000Z</time></trkpt>
      <trkpt lat="36.365052" lon="127.381540"><ele>619.4</ele><time>2022-03-29T11:19:15.000Z</time></trkpt>
      <trkpt lat="36.365065" lon="127.381481"><ele>619.4</ele><time>2022-03-29T11:19:18.000Z</time></trkpt>
      <trkpt lat="36.365068" lon="127.381354"><ele>619.2</ele><time>2022-03-29T11:19:25.000Z</time></trkpt>
      <trkpt lat="36.365046" lon="127.381283"><ele>618.8</ele><time>2022-03-29T11:19:30.000Z</time></trkpt>
      <trkpt lat="36.365045" lon="127.381269"><ele>619.0</ele><time>2022-03-29T11:19:31.000Z</time></trkpt>
      <trkpt lat="36.365054" lon="127.381173"><ele>619.2</ele><time>2022-03-29T11:19:37.000Z</time></trkpt>
      <trkpt lat="36.365046" lon="127.381113"><ele>619.4</ele><time>2022-03-29T11:19:40.000Z</time></trkpt>
      <trkpt lat="36.365051" lon="127.381093"><ele>619.6</ele><time>2022-03-29T11:19:41.000Z</time></trkpt>
      <trkpt lat="36.365061" lon="127.381038"><ele>619.6</ele><time>2022-03-29T11:19:44.000Z</time></trkpt>
      <trkpt lat="36.365084" lon="127.380892"><ele>619.6</ele><time>2022-03-29T11:19:53.000Z</time></trkpt>
      <trkpt lat="36.365077" lon="127.380797"><ele>619.6</ele><time>2022-03-29T11:19:59.000Z</time></trkpt>
      <trkpt lat="36.365065" lon="127.380708"><ele>619.2</ele><time>2022-03-29T11:20:04.000Z</time></trkpt>
      <trkpt lat="36.365058" lon="127.380662"><ele>619.2</ele><time>2022-03-29T11:20:06.000Z</time></trkpt>
      <trkpt lat="36.365040" lon="127.380554"><ele>619.4</ele><time>2022-03-29T11:20:11.000Z</time></trkpt>
      <trkpt lat="36.365046" lon="127.380512"><ele>619.6</ele><time>2022-03-29T11:20:13.000Z</time></trkpt>
      <trkpt lat="36.365058" lon="127.380404"><ele>619.6</ele><time>2022-03-29T11:20:18.000Z</time></trkpt>
      <trkpt lat="36.365059" lon="127.380386"><ele>619.6</ele><time>2022-03-29T11:20:19.000Z</time></trkpt>
      <trkpt lat="36.365057" lon="127.380330"><ele>619.6</ele><time>2022-03-29T11:20:22.000Z</time></trkpt>
      <trkpt lat="36.365049" lon="127.380191"><ele>619.8</ele><time>2022-03-29T11:20:29.000Z</time></trkpt>
      <trkpt lat="36.365055" lon="127.380138"><ele>619.8</ele><time>2022-03-29T11:20:32.000Z</time></trkpt>
      <trkpt lat="36.365060" lon="127.380123"><ele>619.8</ele><time>2022-03-29T11:20:33.000Z</time></trkpt>
      <trkpt lat="36.365060" lon="127.380087"><ele>619.8</ele><time>2022-03-29T11:20:35.000Z</time></trkpt>
      <trkpt lat="36.365045" lon="127.379907"><ele>619.8</ele><time>2022-03-29T11:20:41.000Z</time></trkpt>
      <trkpt lat="36.365065" lon="127.379738"><ele>620.0</ele><time>2022-03-29T11:20:46.000Z</time></trkpt>
      <trkpt lat="36.365068" lon="127.379705"><ele>620.0</ele><time>2022-03-29T11:20:47.000Z</time></trkpt>
      <trkpt lat="36.365067" lon="127.379675"><ele>620.0</ele><time>2022-03-29T11:20:48.000Z</time></trkpt>
      <trkpt lat="36.365041" lon="127.379614"><ele>620.0</ele><time>2022-03-29T11:20:50.000Z</time></trkpt>
      <trkpt lat="36.365048" lon="127.379588"><ele>620.0</ele><time>2022-03-29T11:20:51.000Z</time></trkpt>
      <trkpt lat="36.365062" lon="127.379532"><ele>620.0</ele><time>2022-03-29T11:20:53.000Z</time></trkpt>
      <trkpt lat="36.365064" lon="127.379481"><ele>620.2</ele><time>2022-03-29T11:20:55.000Z</time></trkpt>
      <trkpt lat="36.365060" lon="127.379432"><ele>620.4</ele><time>2022-03-29T11:20:57.000Z</time></trkpt>
      <trkpt lat="36.365048" lon="127.379381"><ele>620.4</ele><time>2022-03-29T11:20:59.000Z</time></trkpt>
      <trkpt lat="36.365020" lon="127.379312"><ele>620.4</ele><time>2022-03-29T11:21:02.000Z</time></trkpt>
      <trkpt lat="36.365012" lon="127.379272"><ele>620.2</ele><time>2022-03-29T11:21:04.000Z</time></trkpt>
      <trkpt lat="36.364978" lon="127.379255"><ele>620.0</ele><time>2022-03-29T11:21:06.000Z</time></trkpt>
      <trkpt lat="36.364890" lon="127.379274"><ele>619.8</ele><time>2022-03-29T11:21:09.000Z</time></trkpt>
      <trkpt lat="36.364790" lon="127.379327"><ele>619.4</ele><time>2022-03-29T11:21:17.000Z</time></trkpt>
      <trkpt lat="36.364745" lon="127.379362"><ele>619.2</ele><time>2022-03-29T11:21:22.000Z</time></trkpt>
      <trkpt lat="36.364735" lon="127.379375"><ele>619.2</ele><time>2022-03-29T11:21:31.000Z</time></trkpt>
      <trkpt lat="36.364742" lon="127.379372"><ele>619.2</ele><time>2022-03-29T11:21:34.000Z</time></trkpt>
      <trkpt lat="36.364683" lon="127.379335"><ele>619.2</ele><time>2022-03-29T11:21:44.000Z</time></trkpt>
      <trkpt lat="36.364621" lon="127.379323"><ele>619.8</ele><time>2022-03-29T11:21:51.000Z</time></trkpt>
      <trkpt lat="36.364626" lon="127.379323"><ele>620.0</ele><time>2022-03-29T11:21:54.000Z</time></trkpt>
      <trkpt lat="36.364629" lon="127.379320"><ele>620.0</ele><time>2022-03-29T11:21:57.000Z</time></trkpt>
      <trkpt lat="36.364622" lon="127.379352"><ele>620.4</ele><time>2022-03-29T11:22:04.000Z</time></trkpt>
      <trkpt lat="36.364614" lon="127.379367"><ele>620.4</ele><time>2022-03-29T11:22:06.000Z</time></trkpt>
      <trkpt lat="36.364545" lon="127.379399"><ele>620.8</ele><time>2022-03-29T11:22:15.000Z</time></trkpt>
      <trkpt lat="36.364527" lon="127.379406"><ele>620.8</ele><time>2022-03-29T11:22:17.000Z</time></trkpt>
      <trkpt lat="36.364507" lon="127.379404"><ele>621.0</ele><time>2022-03-29T11:22:19.000Z</time></trkpt>
      <trkpt lat="36.364477" lon="127.379392"><ele>621.0</ele><time>2022-03-29T11:22:22.000Z</time></trkpt>
      <trkpt lat="36.364429" lon="127.379396"><ele>621.2</ele><time>2022-03-29T11:22:27.000Z</time></trkpt>
      <trkpt lat="36.364412" lon="127.379405"><ele>621.2</ele><time>2022-03-29T11:22:29.000Z</time></trkpt>
      <trkpt lat="36.364305" lon="127.379397"><ele>621.2</ele><time>2022-03-29T11:22:37.000Z</time></trkpt>
      <trkpt lat="36.364290" lon="127.379397"><ele>621.4</ele><time>2022-03-29T11:22:38.000Z</time></trkpt>
      <trkpt lat="36.364203" lon="127.379409"><ele>621.8</ele><time>2022-03-29T11:22:44.000Z</time></trkpt>
      <trkpt lat="36.364076" lon="127.379389"><ele>621.8</ele><time>2022-03-29T11:22:52.000Z</time></trkpt>
      <trkpt lat="36.363928" lon="127.379402"><ele>621.8</ele><time>2022-03-29T11:23:01.000Z</time></trkpt>
      <trkpt lat="36.363914" lon="127.379399"><ele>621.8</ele><time>2022-03-29T11:23:02.000Z</time></trkpt>
      <trkpt lat="36.363883" lon="127.379391"><ele>622.0</ele><time>2022-03-29T11:23:04.000Z</time></trkpt>
      <trkpt lat="36.363837" lon="127.379384"><ele>622.2</ele><time>2022-03-29T11:23:07.000Z</time></trkpt>
      <trkpt lat="36.363786" lon="127.379377"><ele>622.2</ele><time>2022-03-29T11:23:11.000Z</time></trkpt>
      <trkpt lat="36.363745" lon="127.379381"><ele>622.2</ele><time>2022-03-29T11:23:14.000Z</time></trkpt>
      <trkpt lat="36.363656" lon="127.379374"><ele>622.0</ele><time>2022-03-29T11:23:21.000Z</time></trkpt>
      <trkpt lat="36.363575" lon="127.379366"><ele>622.2</ele><time>2022-03-29T11:23:27.000Z</time></trkpt>
      <trkpt lat="36.363532" lon="127.379358"><ele>622.4</ele><time>2022-03-29T11:23:30.000Z</time></trkpt>
      <trkpt lat="36.363518" lon="127.379357"><ele>622.4</ele><time>2022-03-29T11:23:31.000Z</time></trkpt>
      <trkpt lat="36.363505" lon="127.379353"><ele>622.4</ele><time>2022-03-29T11:23:32.000Z</time></trkpt>
      <trkpt lat="36.363470" lon="127.379348"><ele>622.4</ele><time>2022-03-29T11:23:35.000Z</time></trkpt>
      <trkpt lat="36.363429" lon="127.379352"><ele>622.4</ele><time>2022-03-29T11:23:38.000Z</time></trkpt>
      <trkpt lat="36.363347" lon="127.379344"><ele>622.4</ele><time>2022-03-29T11:23:45.000Z</time></trkpt>
      <trkpt lat="36.363324" lon="127.379344"><ele>622.4</ele><time>2022-03-29T11:23:47.000Z</time></trkpt>
      <trkpt lat="36.363244" lon="127.379351"><ele>622.4</ele><time>2022-03-29T11:23:53.000Z</time></trkpt>
      <trkpt lat="36.363112" lon="127.379359"><ele>622.6</ele><time>2022-03-29T11:24:02.000Z</time></trkpt>
      <trkpt lat="36.363037" lon="127.379352"><ele>623.0</ele><time>2022-03-29T11:24:08.000Z</time></trkpt>
      <trkpt lat="36.363028" lon="127.379348"><ele>622.8</ele><time>2022-03-29T11:24:10.000Z</time></trkpt>
      <trkpt lat="36.362981" lon="127.379341"><ele>622.6</ele><time>2022-03-29T11:24:14.000Z</time></trkpt>
      <trkpt lat="36.362949" lon="127.379346"><ele>622.6</ele><time>2022-03-29T11:24:16.000Z</time></trkpt>
      <trkpt lat="36.362915" lon="127.379347"><ele>622.8</ele><time>2022-03-29T11:24:18.000Z</time></trkpt>
      <trkpt lat="36.362782" lon="127.379337"><ele>623.2</ele><time>2022-03-29T11:24:26.000Z</time></trkpt>
      <trkpt lat="36.362763" lon="127.379333"><ele>623.2</ele><time>2022-03-29T11:24:27.000Z</time></trkpt>
      <trkpt lat="36.362684" lon="127.379319"><ele>623.2</ele><time>2022-03-29T11:24:33.000Z</time></trkpt>
      <trkpt lat="36.362668" lon="127.379304"><ele>623.2</ele><time>2022-03-29T11:24:35.000Z</time></trkpt>
      <trkpt lat="36.362627" lon="127.379270"><ele>623.0</ele><time>2022-03-29T11:24:39.000Z</time></trkpt>
      <trkpt lat="36.362548" lon="127.379225"><ele>623.0</ele><time>2022-03-29T11:24:46.000Z</time></trkpt>
      <trkpt lat="36.362481" lon="127.379207"><ele>623.2</ele><time>2022-03-29T11:24:52.000Z</time></trkpt>
      <trkpt lat="36.362374" lon="127.379278"><ele>623.2</ele><time>2022-03-29T11:24:59.000Z</time></trkpt>
      <trkpt lat="36.362363" lon="127.379257"><ele>622.8</ele><time>2022-03-29T11:25:04.000Z</time></trkpt>
      <trkpt lat="36.362338" lon="127.379224"><ele>622.8</ele><time>2022-03-29T11:25:07.000Z</time></trkpt>
      <trkpt lat="36.362313" lon="127.379147"><ele>623.0</ele><time>2022-03-29T11:25:10.000Z</time></trkpt>
      <trkpt lat="36.362303" lon="127.379098"><ele>623.2</ele><time>2022-03-29T11:25:12.000Z</time></trkpt>
      <trkpt lat="36.362270" lon="127.379046"><ele>623.2</ele><time>2022-03-29T11:25:15.000Z</time></trkpt>
      <trkpt lat="36.362252" lon="127.378985"><ele>623.2</ele><time>2022-03-29T11:25:18.000Z</time></trkpt>
      <trkpt lat="36.362247" lon="127.378907"><ele>623.0</ele><time>2022-03-29T11:25:22.000Z</time></trkpt>
      <trkpt lat="36.362236" lon="127.378892"><ele>622.8</ele><time>2022-03-29T11:25:23.000Z</time></trkpt>
      <trkpt lat="36.362232" lon="127.378872"><ele>622.6</ele><time>2022-03-29T11:25:24.000Z</time></trkpt>
      <trkpt lat="36.362218" lon="127.378858"><ele>622.6</ele><time>2022-03-29T11:25:25.000Z</time></trkpt>
      <trkpt lat="36.362198" lon="127.378809"><ele>622.6</ele><time>2022-03-29T11:25:28.000Z</time></trkpt>
      <trkpt lat="36.362172" lon="127.378746"><ele>622.6</ele><time>2022-03-29T11:25:31.000Z</time></trkpt>
      <trkpt lat="36.362149" lon="127.378734"><ele>622.8</ele><time>2022-03-29T11:25:32.000Z</time></trkpt>
      <trkpt lat="36.362075" lon="127.378685"><ele>623.0</ele><time>2022-03-29T11:25:36.000Z</time></trkpt>
      <trkpt lat="36.362065" lon="127.378670"><ele>623.2</ele><time>2022-03-29T11:25:37.000Z</time></trkpt>
      <trkpt lat="36.362032" lon="127.378626"><ele>623.2</ele><time>2022-03-29T11:25:40.000Z</time></trkpt>
      <trkpt lat="36.361941" lon="127.378587"><ele>623.2</ele><time>2022-03-29T11:25:45.000Z</time></trkpt>
      <trkpt lat="36.361843" lon="127.378506"><ele>623.2</ele><time>2022-03-29T11:25:52.000Z</time></trkpt>
      <trkpt lat="36.361870" lon="127.378379"><ele>623.4</ele><time>2022-03-29T11:25:59.000Z</time></trkpt>
      <trkpt lat="36.361887" lon="127.378263"><ele>623.2</ele><time>2022-03-29T11:26:05.000Z</time></trkpt>
      <trkpt lat="36.361884" lon="127.378259"><ele>623.2</ele><time>2022-03-29T11:26:06.000Z</time></trkpt>
      <trkpt lat="36.361903" lon="127.378245"><ele>623.2</ele><time>2022-03-29T11:26:09.000Z</time></trkpt>
      <trkpt lat="36.361915" lon="127.378243"><ele>623.0</ele><time>2022-03-29T11:26:11.000Z</time></trkpt>
      <trkpt lat="36.361954" lon="127.378236"><ele>622.8</ele><time>2022-03-29T11:26:17.000Z</time></trkpt>
      <trkpt lat="36.361982" lon="127.378225"><ele>622.8</ele><time>2022-03-29T11:26:20.000Z</time></trkpt>
      <trkpt lat="36.362037" lon="127.378169"><ele>623.0</ele><time>2022-03-29T11:26:23.000Z</time></trkpt>
      <trkpt lat="36.362050" lon="127.378149"><ele>623.2</ele><time>2022-03-29T11:26:24.000Z</time></trkpt>
      <trkpt lat="36.362085" lon="127.378093"><ele>623.2</ele><time>2022-03-29T11:26:26.000Z</time></trkpt>
      <trkpt lat="36.362093" lon="127.378077"><ele>623.2</ele><time>2022-03-29T11:26:28.000Z</time></trkpt>
      <trkpt lat="36.362119" lon="127.378023"><ele>623.4</ele><time>2022-03-29T11:26:30.000Z</time></trkpt>
      <trkpt lat="36.362203" lon="127.377896"><ele>623.8</ele><time>2022-03-29T11:26:36.000Z</time></trkpt>
      <trkpt lat="36.362234" lon="127.377867"><ele>623.8</ele><time>2022-03-29T11:26:39.000Z</time></trkpt>
      <trkpt lat="36.362236" lon="127.377829"><ele>623.8</ele><time>2022-03-29T11:26:41.000Z</time></trkpt>
      <trkpt lat="36.362228" lon="127.377788"><ele>623.6</ele><time>2022-03-29T11:26:44.000Z</time></trkpt>
      <trkpt lat="36.362200" lon="127.377754"><ele>623.4</ele><time>2022-03-29T11:26:48.000Z</time></trkpt>
      <trkpt lat="36.362087" lon="127.377726"><ele>623.2</ele><time>2022-03-29T11:26:53.000Z</time></trkpt>
      <trkpt lat="36.361922" lon="127.377678"><ele>623.0</ele><time>2022-03-29T11:26:58.000Z</time></trkpt>
      <trkpt lat="36.361852" lon="127.377642"><ele>623.0</ele><time>2022-03-29T11:27:03.000Z</time></trkpt>
      <trkpt lat="36.361777" lon="127.377650"><ele>623.0</ele><time>2022-03-29T11:27:07.000Z</time></trkpt>
      <trkpt lat="36.361664" lon="127.377652"><ele>623.4</ele><time>2022-03-29T11:27:13.000Z</time></trkpt>
      <trkpt lat="36.361561" lon="127.377678"><ele>623.6</ele><time>2022-03-29T11:27:18.000Z</time></trkpt>
      <trkpt lat="36.361513" lon="127.377672"><ele>623.8</ele><time>2022-03-29T11:27:21.000Z</time></trkpt>
      <trkpt lat="36.361486" lon="127.377669"><ele>623.8</ele><time>2022-03-29T11:27:23.000Z</time></trkpt>
      <trkpt lat="36.361444" lon="127.377671"><ele>623.6</ele><time>2022-03-29T11:27:27.000Z</time></trkpt>
      <trkpt lat="36.361411" lon="127.377667"><ele>623.2</ele><time>2022-03-29T11:27:31.000Z</time></trkpt>
      <trkpt lat="36.361377" lon="127.377675"><ele>623.4</ele><time>2022-03-29T11:27:35.000Z</time></trkpt>
      <trkpt lat="36.361329" lon="127.377685"><ele>623.4</ele><time>2022-03-29T11:27:40.000Z</time></trkpt>
      <trkpt lat="36.361325" lon="127.377687"><ele>623.4</ele><time>2022-03-29T11:27:41.000Z</time></trkpt>
      <trkpt lat="36.361289" lon="127.377676"><ele>623.4</ele><time>2022-03-29T11:27:45.000Z</time></trkpt>
      <trkpt lat="36.361220" lon="127.377599"><ele>623.6</ele><time>2022-03-29T11:27:48.000Z</time></trkpt>
      <trkpt lat="36.361169" lon="127.377486"><ele>623.8</ele><time>2022-03-29T11:27:54.000Z</time></trkpt>
      <trkpt lat="36.361165" lon="127.377477"><ele>623.6</ele><time>2022-03-29T11:27:55.000Z</time></trkpt>
      <trkpt lat="36.361164" lon="127.377470"><ele>623.6</ele><time>2022-03-29T11:27:56.000Z</time></trkpt>
      <trkpt lat="36.361164" lon="127.377463"><ele>623.4</ele><time>2022-03-29T11:27:57.000Z</time></trkpt>
      <trkpt lat="36.361147" lon="127.377439"><ele>623.4</ele><time>2022-03-29T11:27:58.000Z</time></trkpt>
      <trkpt lat="36.361139" lon="127.377393"><ele>623.4</ele><time>2022-03-29T11:28:02.000Z</time></trkpt>
      <trkpt lat="36.361147" lon="127.377366"><ele>623.4</ele><time>2022-03-29T11:28:05.000Z</time></trkpt>
      <trkpt lat="36.361150" lon="127.377359"><ele>623.4</ele><time>2022-03-29T11:28:06.000Z</time></trkpt>
      <trkpt lat="36.361184" lon="127.377307"><ele>623.2</ele><time>2022-03-29T11:28:11.000Z</time></trkpt>
      <trkpt lat="36.361194" lon="127.377291"><ele>623.2</ele><time>2022-03-29T11:28:13.000Z</time></trkpt>
      <trkpt lat="36.361145" lon="127.377039"><ele>622.6</ele><time>2022-03-29T11:28:25.000Z</time></trkpt>
      <trkpt lat="36.361142" lon="127.377023"><ele>622.6</ele><time>2022-03-29T11:28:26.000Z</time></trkpt>
      <trkpt lat="36.361124" lon="127.376945"><ele>622.8</ele><time>2022-03-29T11:28:31.000Z</time></trkpt>
      <trkpt lat="36.361124" lon="127.376933"><ele>622.8</ele><time>2022-03-29T11:28:32.000Z</time></trkpt>
      <trkpt lat="36.361120" lon="127.376908"><ele>622.8</ele><time>2022-03-29T11:28:34.000Z</time></trkpt>
      <trkpt lat="36.361120" lon="127.376871"><ele>622.8</ele><time>2022-03-29T11:28:37.000Z</time></trkpt>
      <trkpt lat="36.361110" lon="127.376859"><ele>623.0</ele><time>2022-03-29T11:28:38.000Z</time></trkpt>
      <trkpt lat="36.361097" lon="127.376854"><ele>623.0</ele><time>2022-03-29T11:28:39.000Z</time></trkpt>
      <trkpt lat="36.361063" lon="127.376845"><ele>623.2</ele><time>2022-03-29T11:28:44.000Z</time></trkpt>
      <trkpt lat="36.361060" lon="127.376848"><ele>623.4</ele><time>2022-03-29T11:28:45.000Z</time></trkpt>
      <trkpt lat="36.361045" lon="127.376853"><ele>623.6</ele><time>2022-03-29T11:28:48.000Z</time></trkpt>
      <trkpt lat="36.360978" lon="127.376843"><ele>623.8</ele><time>2022-03-29T11:28:58.000Z</time></trkpt>
      <trkpt lat="36.360861" lon="127.376864"><ele>623.8</ele><time>2022-03-29T11:29:08.000Z</time></trkpt>
      <trkpt lat="36.360845" lon="127.376852"><ele>624.0</ele><time>2022-03-29T11:29:09.000Z</time></trkpt>
      <trkpt lat="36.360650" lon="127.376851"><ele>624.4</ele><time>2022-03-29T11:29:21.000Z</time></trkpt>
      <trkpt lat="36.360573" lon="127.376880"><ele>624.4</ele><time>2022-03-29T11:29:26.000Z</time></trkpt>
      <trkpt lat="36.360522" lon="127.376868"><ele>624.4</ele><time>2022-03-29T11:29:28.000Z</time></trkpt>
      <trkpt lat="36.360463" lon="127.376865"><ele>624.4</ele><time>2022-03-29T11:29:31.000Z</time></trkpt>
      <trkpt lat="36.360451" lon="127.376863"><ele>624.4</ele><time>2022-03-29T11:29:32.000Z</time></trkpt>
      <trkpt lat="36.360428" lon="127.376859"><ele>624.4</ele><time>2022-03-29T11:29:33.000Z</time></trkpt>
      <trkpt lat="36.360392" lon="127.376847"><ele>624.2</ele><time>2022-03-29T11:29:37.000Z</time></trkpt>
      <trkpt lat="36.360359" lon="127.376839"><ele>624.2</ele><time>2022-03-29T11:29:39.000Z</time></trkpt>
      <trkpt lat="36.360321" lon="127.376829"><ele>624.2</ele><time>2022-03-29T11:29:41.000Z</time></trkpt>
      <trkpt lat="36.360250" lon="127.376794"><ele>624.4</ele><time>2022-03-29T11:29:46.000Z</time></trkpt>
      <trkpt lat="36.360212" lon="127.376772"><ele>624.4</ele><time>2022-03-29T11:29:49.000Z</time></trkpt>
      <trkpt lat="36.360121" lon="127.376747"><ele>624.0</ele><time>2022-03-29T11:29:55.000Z</time></trkpt>
      <trkpt lat="36.360043" lon="127.376730"><ele>623.8</ele><time>2022-03-29T11:30:01.000Z</time></trkpt>
      <trkpt lat="36.360036" lon="127.376732"><ele>623.8</ele><time>2022-03-29T11:30:02.000Z</time></trkpt>
      <trkpt lat="36.360030" lon="127.376733"><ele>623.8</ele><time>2022-03-29T11:30:03.000Z</time></trkpt>
      <trkpt lat="36.359995" lon="127.376745"><ele>623.4</ele><time>2022-03-29T11:30:09.000Z</time></trkpt>
      <trkpt lat="36.359977" lon="127.376753"><ele>623.2</ele><time>2022-03-29T11:30:13.000Z</time></trkpt>
      <trkpt lat="36.359974" lon="127.376760"><ele>623.2</ele><time>2022-03-29T11:30:14.000Z</time></trkpt>
      <trkpt lat="36.359967" lon="127.376779"><ele>623.2</ele><time>2022-03-29T11:30:16.000Z</time></trkpt>
      <trkpt lat="36.359953" lon="127.376792"><ele>623.0</ele><time>2022-03-29T11:30:24.000Z</time></trkpt>
      <trkpt lat="36.359947" lon="127.376786"><ele>622.8</ele><time>2022-03-29T11:30:25.000Z</time></trkpt>
      <trkpt lat="36.359934" lon="127.376800"><ele>622.8</ele><time>2022-03-29T11:30:34.000Z</time></trkpt>
      <trkpt lat="36.359932" lon="127.376805"><ele>622.8</ele><time>2022-03-29T11:30:35.000Z</time></trkpt>
      <trkpt lat="36.359923" lon="127.376814"><ele>622.8</ele><time>2022-03-29T11:30:37.000Z</time></trkpt>
      <trkpt lat="36.359914" lon="127.376892"><ele>622.8</ele><time>2022-03-29T11:30:44.000Z</time></trkpt>
      <trkpt lat="36.359917" lon="127.376891"><ele>623.0</ele><time>2022-03-29T11:30:46.000Z</time></trkpt>
      <trkpt lat="36.359921" lon="127.376889"><ele>623.0</ele><time>2022-03-29T11:30:47.000Z</time></trkpt>
      <trkpt lat="36.359915" lon="127.376900"><ele>623.2</ele><time>2022-03-29T11:30:54.000Z</time></trkpt>
      <trkpt lat="36.359917" lon="127.376901"><ele>623.2</ele><time>2022-03-29T11:30:55.000Z</time></trkpt>
      <trkpt lat="36.359907" lon="127.376899"><ele>622.8</ele><time>2022-03-29T11:31:00.000Z</time></trkpt>
      <trkpt lat="36.359851" lon="127.376951"><ele>622.4</ele><time>2022-03-29T11:31:06.000Z</time></trkpt>
      <trkpt lat="36.359850" lon="127.376951"><ele>622.4</ele><time>2022-03-29T11:31:08.000Z</time></trkpt>
      <trkpt lat="36.359847" lon="127.376958"><ele>622.4</ele><time>2022-03-29T11:31:15.000Z</time></trkpt>
      <trkpt lat="36.359844" lon="127.376960"><ele>622.4</ele><time>2022-03-29T11:31:17.000Z</time></trkpt>
      <trkpt lat="36.359840" lon="127.376963"><ele>622.4</ele><time>2022-03-29T11:31:19.000Z</time></trkpt>
      <trkpt lat="36.359827" lon="127.376978"><ele>623.2</ele><time>2022-03-29T11:31:22.000Z</time></trkpt>
      <trkpt lat="36.359824" lon="127.376997"><ele>623.4</ele><time>2022-03-29T11:31:24.000Z</time></trkpt>
      <trkpt lat="36.359809" lon="127.376994"><ele>623.6</ele><time>2022-03-29T11:31:26.000Z</time></trkpt>
      <trkpt lat="36.359804" lon="127.376974"><ele>623.6</ele><time>2022-03-29T11:31:29.000Z</time></trkpt>
      <trkpt lat="36.359796" lon="127.376960"><ele>623.4</ele><time>2022-03-29T11:31:31.000Z</time></trkpt>
      <trkpt lat="36.359792" lon="127.376954"><ele>623.6</ele><time>2022-03-29T11:31:32.000Z</time></trkpt>
      <trkpt lat="36.359756" lon="127.376931"><ele>623.6</ele><time>2022-03-29T11:31:34.000Z</time></trkpt>
      <trkpt lat="36.359722" lon="127.376911"><ele>623.6</ele><time>2022-03-29T11:31:35.000Z</time></trkpt>
      <trkpt lat="36.359646" lon="127.376812"><ele>623.6</ele><time>2022-03-29T11:31:41.000Z</time></trkpt>
      <trkpt lat="36.359629" lon="127.376767"><ele>623.2</ele><time>2022-03-29T11:31:47.000Z</time></trkpt>
      <trkpt lat="36.359628" lon="127.376761"><ele>623.2</ele><time>2022-03-29T11:31:49.000Z</time></trkpt>
      <trkpt lat="36.359629" lon="127.376752"><ele>623.4</ele><time>2022-03-29T11:31:53.000Z</time></trkpt>
      <trkpt lat="36.359616" lon="127.376739"><ele>623.4</ele><time>2022-03-29T11:31:55.000Z</time></trkpt>
      <trkpt lat="36.359546" lon="127.376720"><ele>623.6</ele><time>2022-03-29T11:32:00.000Z</time></trkpt>
      <trkpt lat="36.359516" lon="127.376707"><ele>623.8</ele><time>2022-03-29T11:32:02.000Z</time></trkpt>
      <trkpt lat="36.359415" lon="127.376696"><ele>623.8</ele><time>2022-03-29T11:32:08.000Z</time></trkpt>
      <trkpt lat="36.359305" lon="127.376706"><ele>623.8</ele><time>2022-03-29T11:32:14.000Z</time></trkpt>
      <trkpt lat="36.359187" lon="127.376710"><ele>624.0</ele><time>2022-03-29T11:32:21.000Z</time></trkpt>
      <trkpt lat="36.359119" lon="127.376743"><ele>624.2</ele><time>2022-03-29T11:32:27.000Z</time></trkpt>
      <trkpt lat="36.359093" lon="127.376747"><ele>624.0</ele><time>2022-03-29T11:32:30.000Z</time></trkpt>
      <trkpt lat="36.359075" lon="127.376760"><ele>624.0</ele><time>2022-03-29T11:32:32.000Z</time></trkpt>
      <trkpt lat="36.359038" lon="127.376772"><ele>624.2</ele><time>2022-03-29T11:32:36.000Z</time></trkpt>
      <trkpt lat="36.359018" lon="127.376783"><ele>624.2</ele><time>2022-03-29T11:32:38.000Z</time></trkpt>
      <trkpt lat="36.358989" lon="127.376773"><ele>624.6</ele><time>2022-03-29T11:32:40.000Z</time></trkpt>
      <trkpt lat="36.358915" lon="127.376752"><ele>624.8</ele><time>2022-03-29T11:32:45.000Z</time></trkpt>
      <trkpt lat="36.358884" lon="127.376739"><ele>624.6</ele><time>2022-03-29T11:32:47.000Z</time></trkpt>
      <trkpt lat="36.358762" lon="127.376761"><ele>624.6</ele><time>2022-03-29T11:32:58.000Z</time></trkpt>
      <trkpt lat="36.358753" lon="127.376743"><ele>624.8</ele><time>2022-03-29T11:33:01.000Z</time></trkpt>
      <trkpt lat="36.358747" lon="127.376722"><ele>625.0</ele><time>2022-03-29T11:33:03.000Z</time></trkpt>
      <trkpt lat="36.358759" lon="127.376684"><ele>625.2</ele><time>2022-03-29T11:33:06.000Z</time></trkpt>
      <trkpt lat="36.358755" lon="127.376647"><ele>625.4</ele><time>2022-03-29T11:33:08.000Z</time></trkpt>
      <trkpt lat="36.358730" lon="127.376593"><ele>625.6</ele><time>2022-03-29T11:33:10.000Z</time></trkpt>
      <trkpt lat="36.358682" lon="127.376458"><ele>626.2</ele><time>2022-03-29T11:33:15.000Z</time></trkpt>
      <trkpt lat="36.358655" lon="127.376411"><ele>626.2</ele><time>2022-03-29T11:33:18.000Z</time></trkpt>
      <trkpt lat="36.358651" lon="127.376404"><ele>626.2</ele><time>2022-03-29T11:33:19.000Z</time></trkpt>
      <trkpt lat="36.358633" lon="127.376390"><ele>626.2</ele><time>2022-03-29T11:33:22.000Z</time></trkpt>
      <trkpt lat="36.358610" lon="127.376377"><ele>626.0</ele><time>2022-03-29T11:33:24.000Z</time></trkpt>
      <trkpt lat="36.358562" lon="127.376311"><ele>626.4</ele><time>2022-03-29T11:33:28.000Z</time></trkpt>
      <trkpt lat="36.358530" lon="127.376266"><ele>626.4</ele><time>2022-03-29T11:33:30.000Z</time></trkpt>
      <trkpt lat="36.358514" lon="127.376196"><ele>626.4</ele><time>2022-03-29T11:33:34.000Z</time></trkpt>
      <trkpt lat="36.358517" lon="127.376162"><ele>626.2</ele><time>2022-03-29T11:33:36.000Z</time></trkpt>
      <trkpt lat="36.358492" lon="127.376002"><ele>626.4</ele><time>2022-03-29T11:33:44.000Z</time></trkpt>
      <trkpt lat="36.358516" lon="127.375883"><ele>626.0</ele><time>2022-03-29T11:33:51.000Z</time></trkpt>
      <trkpt lat="36.358510" lon="127.375841"><ele>626.0</ele><time>2022-03-29T11:33:54.000Z</time></trkpt>
      <trkpt lat="36.358496" lon="127.375822"><ele>626.0</ele><time>2022-03-29T11:33:56.000Z</time></trkpt>
      <trkpt lat="36.358490" lon="127.375818"><ele>626.2</ele><time>2022-03-29T11:33:57.000Z</time></trkpt>
      <trkpt lat="36.358481" lon="127.375814"><ele>626.2</ele><time>2022-03-29T11:33:58.000Z</time></trkpt>
      <trkpt lat="36.358458" lon="127.375773"><ele>626.2</ele><time>2022-03-29T11:34:01.000Z</time></trkpt>
      <trkpt lat="36.358451" lon="127.375731"><ele>626.0</ele><time>2022-03-29T11:34:04.000Z</time></trkpt>
      <trkpt lat="36.358451" lon="127.375704"><ele>626.0</ele><time>2022-03-29T11:34:06.000Z</time></trkpt>
      <trkpt lat="36.358402" lon="127.375622"><ele>626.0</ele><time>2022-03-29T11:34:13.000Z</time></trkpt>
      <trkpt lat="36.358360" lon="127.375602"><ele>625.8</ele><time>2022-03-29T11:34:16.000Z</time></trkpt>
      <trkpt lat="36.358253" lon="127.375546"><ele>626.2</ele><time>2022-03-29T11:34:24.000Z</time></trkpt>
      <trkpt lat="36.358249" lon="127.375509"><ele>626.2</ele><time>2022-03-29T11:34:26.000Z</time></trkpt>
      <trkpt lat="36.358248" lon="127.375494"><ele>626.2</ele><time>2022-03-29T11:34:27.000Z</time></trkpt>
      <trkpt lat="36.358255" lon="127.375454"><ele>626.2</ele><time>2022-03-29T11:34:30.000Z</time></trkpt>
      <trkpt lat="36.358257" lon="127.375420"><ele>626.2</ele><time>2022-03-29T11:34:33.000Z</time></trkpt>
      <trkpt lat="36.358269" lon="127.375380"><ele>626.2</ele><time>2022-03-29T11:34:35.000Z</time></trkpt>
      <trkpt lat="36.358314" lon="127.375280"><ele>626.2</ele><time>2022-03-29T11:34:41.000Z</time></trkpt>
      <trkpt lat="36.358318" lon="127.375158"><ele>626.2</ele><time>2022-03-29T11:34:47.000Z</time></trkpt>
      <trkpt lat="36.358320" lon="127.375075"><ele>626.2</ele><time>2022-03-29T11:34:51.000Z</time></trkpt>
      <trkpt lat="36.358318" lon="127.374977"><ele>626.4</ele><time>2022-03-29T11:34:56.000Z</time></trkpt>
      <trkpt lat="36.358317" lon="127.374952"><ele>626.4</ele><time>2022-03-29T11:34:57.000Z</time></trkpt>
      <trkpt lat="36.358325" lon="127.374880"><ele>626.4</ele><time>2022-03-29T11:35:01.000Z</time></trkpt>
      <trkpt lat="36.358318" lon="127.374789"><ele>626.2</ele><time>2022-03-29T11:35:07.000Z</time></trkpt>
      <trkpt lat="36.358342" lon="127.374746"><ele>626.0</ele><time>2022-03-29T11:35:12.000Z</time></trkpt>
      <trkpt lat="36.358341" lon="127.374739"><ele>626.0</ele><time>2022-03-29T11:35:13.000Z</time></trkpt>
      <trkpt lat="36.358346" lon="127.374732"><ele>626.2</ele><time>2022-03-29T11:35:14.000Z</time></trkpt>
      <trkpt lat="36.358359" lon="127.374726"><ele>626.2</ele><time>2022-03-29T11:35:17.000Z</time></trkpt>
      <trkpt lat="36.358381" lon="127.374725"><ele>626.6</ele><time>2022-03-29T11:35:19.000Z</time></trkpt>
    </trkseg>
  </trk>
</gpx>