<?xml version="1.0" encoding="UTF-8"?>
<gpx version="1.1" creator="gajago-nav" xmlns="http://www.topografix.com/GPX/1/1">
  <metadata><name>수통골로55번길_코스</name></metadata>
  <wpt lat="36.345499" lon="127.289651">
    <name>들머리 (수통골체험학습관 - 원점회귀)</name>
    <ele>145</ele>
  </wpt>
  <wpt lat="36.345633" lon="127.289441">
    <name>갈림길</name>
  </wpt>
  <wpt lat="36.345255" lon="127.288886">
    <name>수통골탐방</name>
  </wpt>
  <wpt lat="36.344156" lon="127.287509">
    <name>갈림길</name>
  </wpt>
  <wpt lat="36.354070" lon="127.284640">
    <name>옥녀봉</name>
    <ele>452</ele>
  </wpt>
  <wpt lat="36.349030" lon="127.277870">
    <name>도덕봉</name>
    <ele>534</ele>
  </wpt>
  <wpt lat="36.344278" lon="127.273602">
    <name>갈림길</name>
  </wpt>
  <wpt lat="36.331684" lon="127.267980">
    <name>갈림길</name>
  </wpt>
  <wpt lat="36.328460" lon="127.266210">
    <name>백운봉</name>
    <ele>535</ele>
  </wpt>
  <wpt lat="36.331420" lon="127.268550">
    <name>자티고개</name>
  </wpt>
  <wpt lat="36.328920" lon="127.280980">
    <name>금수봉</name>
    <ele>532</ele>
  </wpt>
  <wpt lat="36.331513" lon="127.275820">
    <name>쉼터</name>
  </wpt>
  <wpt lat="36.340640" lon="127.284575">
    <name>갈림길</name>
  </wpt>
  <trk>
    <name>수통골로55번길_코스</name>
    <trkseg>
      <trkpt lat="36.345499" lon="127.289651"><ele>145.0</ele><time>2026-09-18T12:37:52.027Z</time></trkpt>
      <trkpt lat="36.345536" lon="127.289619"><ele>145.0</ele><time>2026-09-18T12:37:52.027Z</time></trkpt>
      <trkpt lat="36.345560" lon="127.289603"><ele>145.0</ele><time>2026-09-18T12:37:52.027Z</time></trkpt>
      <trkpt lat="36.345719" lon="127.289505"><ele>121.0</ele><time>2026-09-18T12:37:52.027Z</time></trkpt>
      <trkpt lat="36.345656" lon="127.289418"><ele>121.0</ele><time>2026-09-18T12:37:52.027Z</time></trkpt>
      <trkpt lat="36.345551" lon="127.289272"><ele>121.0</ele><time>2026-09-18T12:37:52.027Z</time></trkpt>
      <trkpt lat="36.345306" lon="127.288881"><ele>121.0</ele><time>2026-09-18T12:37:52.027Z</time></trkpt>
      <trkpt lat="36.345239" lon="127.288772"><ele>121.0</ele><time>2026-09-18T12:37:52.027Z</time></trkpt>
      <trkpt lat="36.345123" lon="127.288655"><ele>121.0</ele><time>2026-09-18T12:37:52.027Z</time></trkpt>
      <trkpt lat="36.344839" lon="127.288302"><ele>121.0</ele><time>2026-09-18T12:37:52.027Z</time></trkpt>
      <trkpt lat="36.344769" lon="127.288217"><ele>121.0</ele><time>2026-09-18T12:37:52.027Z</time></trkpt>
      <trkpt lat="36.344550" lon="127.287954"><ele>121.0</ele><time>2026-09-18T12:37:52.027Z</time></trkpt>
      <trkpt lat="36.344203" lon="127.287469"><ele>145.0</ele><time>2026-09-18T12:37:52.027Z</time></trkpt>
      <trkpt lat="36.344174" lon="127.287429"><ele>145.0</ele><time>2026-09-18T12:37:52.027Z</time></trkpt>
      <trkpt lat="36.344397" lon="127.287144"><ele>145.0</ele><time>2026-09-18T12:37:52.027Z</time></trkpt>
      <trkpt lat="36.344628" lon="127.286871"><ele>145.0</ele><time>2026-09-18T12:37:52.027Z</time></trkpt>
      <trkpt lat="36.344751" lon="127.286835"><ele>145.0</ele><time>2026-09-18T12:37:52.027Z</time></trkpt>
      <trkpt lat="36.344984" lon="127.286766"><ele>145.0</ele><time>2026-09-18T12:37:52.027Z</time></trkpt>
      <trkpt lat="36.345214" lon="127.286661"><ele>145.0</ele><time>2026-09-18T12:37:52.027Z</time></trkpt>
      <trkpt lat="36.345423" lon="127.286571"><ele>145.0</ele><time>2026-09-18T12:37:52.027Z</time></trkpt>
      <trkpt lat="36.345534" lon="127.286509"><ele>145.0</ele><time>2026-09-18T12:37:52.027Z</time></trkpt>
      <trkpt lat="36.345708" lon="127.286408"><ele>145.0</ele><time>2026-09-18T12:37:52.027Z</time></trkpt>
      <trkpt lat="36.345881" lon="127.286451"><ele>229.0</ele><time>2026-09-18T12:37:52.027Z</time></trkpt>
      <trkpt lat="36.345980" lon="127.286390"><ele>229.0</ele><time>2026-09-18T12:37:52.027Z</time></trkpt>
      <trkpt lat="36.346153" lon="127.286279"><ele>229.0</ele><time>2026-09-18T12:37:52.027Z</time></trkpt>
      <trkpt lat="36.346289" lon="127.286182"><ele>229.0</ele><time>2026-09-18T12:37:52.027Z</time></trkpt>
      <trkpt lat="36.346445" lon="127.286279"><ele>229.0</ele><time>2026-09-18T12:37:52.027Z</time></trkpt>
      <trkpt lat="36.346548" lon="127.286167"><ele>229.0</ele><time>2026-09-18T12:37:52.027Z</time></trkpt>
      <trkpt lat="36.346730" lon="127.286071"><ele>229.0</ele><time>2026-09-18T12:37:52.027Z</time></trkpt>
      <trkpt lat="36.346818" lon="127.285968"><ele>229.0</ele><time>2026-09-18T12:37:52.027Z</time></trkpt>
      <trkpt lat="36.346961" lon="127.285809"><ele>229.0</ele><time>2026-09-18T12:37:52.027Z</time></trkpt>
      <trkpt lat="36.346968" lon="127.285685"><ele>229.0</ele><time>2026-09-18T12:37:52.027Z</time></trkpt>
      <trkpt lat="36.346918" lon="127.285489"><ele>229.0</ele><time>2026-09-18T12:37:52.027Z</time></trkpt>
      <trkpt lat="36.346967" lon="127.285285"><ele>273.0</ele><time>2026-09-18T12:37:52.027Z</time></trkpt>
      <trkpt lat="36.346948" lon="127.285187"><ele>273.0</ele><time>2026-09-18T12:37:52.027Z</time></trkpt>
      <trkpt lat="36.347010" lon="127.284987"><ele>273.0</ele><time>2026-09-18T12:37:52.027Z</time></trkpt>
      <trkpt lat="36.347079" lon="127.284798"><ele>273.0</ele><time>2026-09-18T12:37:52.027Z</time></trkpt>
      <trkpt lat="36.347329" lon="127.284635"><ele>273.0</ele><time>2026-09-18T12:37:52.027Z</time></trkpt>
      <trkpt lat="36.347459" lon="127.284590"><ele>273.0</ele><time>2026-09-18T12:37:52.027Z</time></trkpt>
      <trkpt lat="36.347568" lon="127.284513"><ele>273.0</ele><time>2026-09-18T12:37:52.027Z</time></trkpt>
      <trkpt lat="36.347686" lon="127.284474"><ele>273.0</ele><time>2026-09-18T12:37:52.027Z</time></trkpt>
      <trkpt lat="36.347827" lon="127.284305"><ele>273.0</ele><time>2026-09-18T12:37:52.027Z</time></trkpt>
      <trkpt lat="36.347927" lon="127.284191"><ele>247.0</ele><time>2026-09-18T12:37:52.027Z</time></trkpt>
      <trkpt lat="36.347981" lon="127.284039"><ele>247.0</ele><time>2026-09-18T12:37:52.027Z</time></trkpt>
      <trkpt lat="36.347964" lon="127.283841"><ele>247.0</ele><time>2026-09-18T12:37:52.027Z</time></trkpt>
      <trkpt lat="36.347946" lon="127.283719"><ele>247.0</ele><time>2026-09-18T12:37:52.027Z</time></trkpt>
      <trkpt lat="36.347952" lon="127.283577"><ele>247.0</ele><time>2026-09-18T12:37:52.027Z</time></trkpt>
      <trkpt lat="36.348021" lon="127.283335"><ele>247.0</ele><time>2026-09-18T12:37:52.027Z</time></trkpt>
      <trkpt lat="36.348054" lon="127.283050"><ele>361.0</ele><time>2026-09-18T12:37:52.027Z</time></trkpt>
      <trkpt lat="36.348093" lon="127.282831"><ele>361.0</ele><time>2026-09-18T12:37:52.027Z</time></trkpt>
      <trkpt lat="36.348194" lon="127.282552"><ele>361.0</ele><time>2026-09-18T12:37:52.027Z</time></trkpt>
      <trkpt lat="36.348266" lon="127.282402"><ele>361.0</ele><time>2026-09-18T12:37:52.027Z</time></trkpt>
      <trkpt lat="36.348403" lon="127.282301"><ele>361.0</ele><time>2026-09-18T12:37:52.027Z</time></trkpt>
      <trkpt lat="36.348560" lon="127.282118"><ele>361.0</ele><time>2026-09-18T12:37:52.027Z</time></trkpt>
      <trkpt lat="36.348631" lon="127.282011"><ele>361.0</ele><time>2026-09-18T12:37:52.027Z</time></trkpt>
      <trkpt lat="36.348646" lon="127.281874"><ele>361.0</ele><time>2026-09-18T12:37:52.027Z</time></trkpt>
      <trkpt lat="36.348816" lon="127.281711"><ele>361.0</ele><time>2026-09-18T12:37:52.027Z</time></trkpt>
      <trkpt lat="36.348959" lon="127.281565"><ele>361.0</ele><time>2026-09-18T12:37:52.027Z</time></trkpt>
      <trkpt lat="36.349018" lon="127.281432"><ele>361.0</ele><time>2026-09-18T12:37:52.027Z</time></trkpt>
      <trkpt lat="36.349030" lon="127.281221"><ele>406.0</ele><time>2026-09-18T12:37:52.027Z</time></trkpt>
      <trkpt lat="36.349108" lon="127.280921"><ele>406.0</ele><time>2026-09-18T12:37:52.027Z</time></trkpt>
      <trkpt lat="36.349155" lon="127.280702"><ele>406.0</ele><time>2026-09-18T12:37:52.027Z</time></trkpt>
      <trkpt lat="36.349282" lon="127.280545"><ele>406.0</ele><time>2026-09-18T12:37:52.027Z</time></trkpt>
      <trkpt lat="36.349400" lon="127.280344"><ele>406.0</ele><time>2026-09-18T12:37:52.027Z</time></trkpt>
      <trkpt lat="36.349473" lon="127.280041"><ele>406.0</ele><time>2026-09-18T12:37:52.027Z</time></trkpt>
      <trkpt lat="36.349512" lon="127.279897"><ele>406.0</ele><time>2026-09-18T12:37:52.027Z</time></trkpt>
      <trkpt lat="36.349497" lon="127.279702"><ele>406.0</ele><time>2026-09-18T12:37:52.027Z</time></trkpt>
      <trkpt lat="36.349395" lon="127.279597"><ele>406.0</ele><time>2026-09-18T12:37:52.027Z</time></trkpt>
      <trkpt lat="36.349256" lon="127.279528"><ele>406.0</ele><time>2026-09-18T12:37:52.027Z</time></trkpt>
      <trkpt lat="36.349075" lon="127.279520"><ele>406.0</ele><time>2026-09-18T12:37:52.027Z</time></trkpt>
      <trkpt lat="36.348958" lon="127.279449"><ele>406.0</ele><time>2026-09-18T12:37:52.027Z</time></trkpt>
      <trkpt lat="36.348973" lon="127.279342"><ele>406.0</ele><time>2026-09-18T12:37:52.027Z</time></trkpt>
      <trkpt lat="36.349120" lon="127.279348"><ele>406.0</ele><time>2026-09-18T12:37:52.027Z</time></trkpt>
      <trkpt lat="36.349227" lon="127.279206"><ele>406.0</ele><time>2026-09-18T12:37:52.027Z</time></trkpt>
      <trkpt lat="36.349419" lon="127.279091"><ele>524.0</ele><time>2026-09-18T12:37:52.027Z</time></trkpt>
      <trkpt lat="36.349549" lon="127.278998"><ele>524.0</ele><time>2026-09-18T12:37:52.027Z</time></trkpt>
      <trkpt lat="36.349462" lon="127.278816"><ele>524.0</ele><time>2026-09-18T12:37:52.027Z</time></trkpt>
      <trkpt lat="36.349377" lon="127.278621"><ele>524.0</ele><time>2026-09-18T12:37:52.027Z</time></trkpt>
      <trkpt lat="36.349191" lon="127.278554"><ele>524.0</ele><time>2026-09-18T12:37:52.027Z</time></trkpt>
      <trkpt lat="36.349113" lon="127.278367"><ele>524.0</ele><time>2026-09-18T12:37:52.027Z</time></trkpt>
      <trkpt lat="36.349106" lon="127.278140"><ele>524.0</ele><time>2026-09-18T12:37:52.027Z</time></trkpt>
      <trkpt lat="36.349028" lon="127.277994"><ele>524.0</ele><time>2026-09-18T12:37:52.027Z</time></trkpt>
      <trkpt lat="36.349025" lon="127.277865"><ele>524.0</ele><time>2026-09-18T12:37:52.027Z</time></trkpt>
      <trkpt lat="36.349032" lon="127.277853"><ele>524.0</ele><time>2026-09-18T12:37:52.027Z</time></trkpt>
      <trkpt lat="36.349025" lon="127.277865"><ele>524.0</ele><time>2026-09-18T12:37:52.027Z</time></trkpt>
      <trkpt lat="36.348919" lon="127.277919"><ele>524.0</ele><time>2026-09-18T12:37:52.027Z</time></trkpt>
      <trkpt lat="36.348708" lon="127.277883"><ele>524.0</ele><time>2026-09-18T12:37:52.027Z</time></trkpt>
      <trkpt lat="36.348502" lon="127.277817"><ele>524.0</ele><time>2026-09-18T12:37:52.027Z</time></trkpt>
      <trkpt lat="36.348431" lon="127.277764"><ele>524.0</ele><time>2026-09-18T12:37:52.027Z</time></trkpt>
      <trkpt lat="36.348246" lon="127.277669"><ele>524.0</ele><time>2026-09-18T12:37:52.027Z</time></trkpt>
      <trkpt lat="36.348172" lon="127.277652"><ele>524.0</ele><time>2026-09-18T12:37:52.027Z</time></trkpt>
      <trkpt lat="36.348074" lon="127.277663"><ele>524.0</ele><time>2026-09-18T12:37:52.027Z</time></trkpt>
      <trkpt lat="36.347941" lon="127.277609"><ele>524.0</ele><time>2026-09-18T12:37:52.027Z</time></trkpt>
      <trkpt lat="36.347827" lon="127.277541"><ele>465.0</ele><time>2026-09-18T12:37:52.027Z</time></trkpt>
      <trkpt lat="36.347736" lon="127.277510"><ele>465.0</ele><time>2026-09-18T12:37:52.027Z</time></trkpt>
      <trkpt lat="36.347699" lon="127.277432"><ele>465.0</ele><time>2026-09-18T12:37:52.027Z</time></trkpt>
      <trkpt lat="36.347650" lon="127.277436"><ele>465.0</ele><time>2026-09-18T12:37:52.027Z</time></trkpt>
      <trkpt lat="36.347460" lon="127.277402"><ele>465.0</ele><time>2026-09-18T12:37:52.027Z</time></trkpt>
      <trkpt lat="36.347348" lon="127.277344"><ele>465.0</ele><time>2026-09-18T12:37:52.027Z</time></trkpt>
      <trkpt lat="36.347127" lon="127.277277"><ele>465.0</ele><time>2026-09-18T12:37:52.027Z</time></trkpt>
      <trkpt lat="36.346899" lon="127.277112"><ele>465.0</ele><time>2026-09-18T12:37:52.027Z</time></trkpt>
      <trkpt lat="36.346799" lon="127.277006"><ele>472.0</ele><time>2026-09-18T12:37:52.027Z</time></trkpt>
      <trkpt lat="36.346777" lon="127.276888"><ele>472.0</ele><time>2026-09-18T12:37:52.027Z</time></trkpt>
      <trkpt lat="36.346696" lon="127.276818"><ele>472.0</ele><time>2026-09-18T12:37:52.027Z</time></trkpt>
      <trkpt lat="36.346641" lon="127.276713"><ele>472.0</ele><time>2026-09-18T12:37:52.027Z</time></trkpt>
      <trkpt lat="36.346601" lon="127.276671"><ele>472.0</ele><time>2026-09-18T12:37:52.027Z</time></trkpt>
      <trkpt lat="36.346400" lon="127.276547"><ele>472.0</ele><time>2026-09-18T12:37:52.027Z</time></trkpt>
      <trkpt lat="36.346321" lon="127.276492"><ele>472.0</ele><time>2026-09-18T12:37:52.027Z</time></trkpt>
      <trkpt lat="36.346113" lon="127.276285"><ele>472.0</ele><time>2026-09-18T12:37:52.027Z</time></trkpt>
      <trkpt lat="36.345988" lon="127.276198"><ele>472.0</ele><time>2026-09-18T12:37:52.027Z</time></trkpt>
      <trkpt lat="36.345816" lon="127.276121"><ele>504.0</ele><time>2026-09-18T12:37:52.027Z</time></trkpt>
      <trkpt lat="36.345668" lon="127.276046"><ele>504.0</ele><time>2026-09-18T12:37:52.027Z</time></trkpt>
      <trkpt lat="36.345568" lon="127.275991"><ele>504.0</ele><time>2026-09-18T12:37:52.027Z</time></trkpt>
      <trkpt lat="36.345461" lon="127.275884"><ele>504.0</ele><time>2026-09-18T12:37:52.027Z</time></trkpt>
      <trkpt lat="36.345342" lon="127.275823"><ele>504.0</ele><time>2026-09-18T12:37:52.027Z</time></trkpt>
      <trkpt lat="36.345196" lon="127.275743"><ele>504.0</ele><time>2026-09-18T12:37:52.027Z</time></trkpt>
      <trkpt lat="36.345015" lon="127.275735"><ele>504.0</ele><time>2026-09-18T12:37:52.027Z</time></trkpt>
      <trkpt lat="36.344873" lon="127.275679"><ele>504.0</ele><time>2026-09-18T12:37:52.027Z</time></trkpt>
      <trkpt lat="36.344797" lon="127.275519"><ele>504.0</ele><time>2026-09-18T12:37:52.027Z</time></trkpt>
      <trkpt lat="36.344683" lon="127.275355"><ele>504.0</ele><time>2026-09-18T12:37:52.027Z</time></trkpt>
      <trkpt lat="36.344682" lon="127.275099"><ele>504.0</ele><time>2026-09-18T12:37:52.027Z</time></trkpt>
      <trkpt lat="36.344657" lon="127.274991"><ele>486.0</ele><time>2026-09-18T12:37:52.027Z</time></trkpt>
      <trkpt lat="36.344660" lon="127.274881"><ele>486.0</ele><time>2026-09-18T12:37:52.027Z</time></trkpt>
      <trkpt lat="36.344593" lon="127.274699"><ele>486.0</ele><time>2026-09-18T12:37:52.027Z</time></trkpt>
      <trkpt lat="36.344518" lon="127.274638"><ele>486.0</ele><time>2026-09-18T12:37:52.027Z</time></trkpt>
      <trkpt lat="36.344427" lon="127.274458"><ele>486.0</ele><time>2026-09-18T12:37:52.027Z</time></trkpt>
      <trkpt lat="36.344310" lon="127.274233"><ele>486.0</ele><time>2026-09-18T12:37:52.027Z</time></trkpt>
      <trkpt lat="36.344282" lon="127.273995"><ele>486.0</ele><time>2026-09-18T12:37:52.027Z</time></trkpt>
      <trkpt lat="36.344237" lon="127.273665"><ele>486.0</ele><time>2026-09-18T12:37:52.027Z</time></trkpt>
      <trkpt lat="36.344235" lon="127.273589"><ele>486.0</ele><time>2026-09-18T12:37:52.027Z</time></trkpt>
      <trkpt lat="36.344227" lon="127.273341"><ele>486.0</ele><time>2026-09-18T12:37:52.027Z</time></trkpt>
      <trkpt lat="36.344239" lon="127.272989"><ele>486.0</ele><time>2026-09-18T12:37:52.027Z</time></trkpt>
      <trkpt lat="36.344108" lon="127.272768"><ele>495.0</ele><time>2026-09-18T12:37:52.027Z</time></trkpt>
      <trkpt lat="36.343853" lon="127.272491"><ele>495.0</ele><time>2026-09-18T12:37:52.027Z</time></trkpt>
      <trkpt lat="36.343653" lon="127.272180"><ele>460.0</ele><time>2026-09-18T12:37:52.027Z</time></trkpt>
      <trkpt lat="36.343554" lon="127.271905"><ele>460.0</ele><time>2026-09-18T12:37:52.027Z</time></trkpt>
      <trkpt lat="36.343012" lon="127.271613"><ele>460.0</ele><time>2026-09-18T12:37:52.027Z</time></trkpt>
      <trkpt lat="36.342780" lon="127.271575"><ele>460.0</ele><time>2026-09-18T12:37:52.027Z</time></trkpt>
      <trkpt lat="36.342566" lon="127.271557"><ele>460.0</ele><time>2026-09-18T12:37:52.027Z</time></trkpt>
      <trkpt lat="36.342351" lon="127.271527"><ele>460.0</ele><time>2026-09-18T12:37:52.027Z</time></trkpt>
      <trkpt lat="36.342042" lon="127.271560"><ele>460.0</ele><time>2026-09-18T12:37:52.027Z</time></trkpt>
      <trkpt lat="36.341907" lon="127.271435"><ele>460.0</ele><time>2026-09-18T12:37:52.027Z</time></trkpt>
      <trkpt lat="36.341588" lon="127.271414"><ele>381.0</ele><time>2026-09-18T12:37:52.027Z</time></trkpt>
      <trkpt lat="36.341461" lon="127.271253"><ele>381.0</ele><time>2026-09-18T12:37:52.027Z</time></trkpt>
      <trkpt lat="36.341261" lon="127.271034"><ele>381.0</ele><time>2026-09-18T12:37:52.027Z</time></trkpt>
      <trkpt lat="36.341206" lon="127.270991"><ele>381.0</ele><time>2026-09-18T12:37:52.027Z</time></trkpt>
      <trkpt lat="36.341119" lon="127.270774"><ele>398.0</ele><time>2026-09-18T12:37:52.027Z</time></trkpt>
      <trkpt lat="36.341010" lon="127.270663"><ele>398.0</ele><time>2026-09-18T12:37:52.027Z</time></trkpt>
      <trkpt lat="36.340908" lon="127.270577"><ele>398.0</ele><time>2026-09-18T12:37:52.027Z</time></trkpt>
      <trkpt lat="36.340907" lon="127.270530"><ele>398.0</ele><time>2026-09-18T12:37:52.027Z</time></trkpt>
      <trkpt lat="36.340839" lon="127.270515"><ele>398.0</ele><time>2026-09-18T12:37:52.027Z</time></trkpt>
      <trkpt lat="36.340798" lon="127.270439"><ele>398.0</ele><time>2026-09-18T12:37:52.027Z</time></trkpt>
      <trkpt lat="36.340749" lon="127.270403"><ele>398.0</ele><time>2026-09-18T12:37:52.027Z</time></trkpt>
      <trkpt lat="36.340711" lon="127.270328"><ele>398.0</ele><time>2026-09-18T12:37:52.027Z</time></trkpt>
      <trkpt lat="36.340659" lon="127.270281"><ele>398.0</ele><time>2026-09-18T12:37:52.027Z</time></trkpt>
      <trkpt lat="36.340407" lon="127.270075"><ele>398.0</ele><time>2026-09-18T12:37:52.027Z</time></trkpt>
      <trkpt lat="36.340222" lon="127.269997"><ele>398.0</ele><time>2026-09-18T12:37:52.027Z</time></trkpt>
      <trkpt lat="36.339940" lon="127.269907"><ele>398.0</ele><time>2026-09-18T12:37:52.027Z</time></trkpt>
      <trkpt lat="36.339826" lon="127.269796"><ele>398.0</ele><time>2026-09-18T12:37:52.027Z</time></trkpt>
      <trkpt lat="36.339719" lon="127.269577"><ele>398.0</ele><time>2026-09-18T12:37:52.027Z</time></trkpt>
      <trkpt lat="36.339583" lon="127.269219"><ele>362.0</ele><time>2026-09-18T12:37:52.027Z</time></trkpt>
      <trkpt lat="36.339515" lon="127.269070"><ele>362.0</ele><time>2026-09-18T12:37:52.027Z</time></trkpt>
      <trkpt lat="36.339449" lon="127.268869"><ele>362.0</ele><time>2026-09-18T12:37:52.027Z</time></trkpt>
      <trkpt lat="36.339437" lon="127.268613"><ele>462.0</ele><time>2026-09-18T12:37:52.027Z</time></trkpt>
      <trkpt lat="36.339406" lon="127.268465"><ele>462.0</ele><time>2026-09-18T12:37:52.027Z</time></trkpt>
      <trkpt lat="36.339396" lon="127.268341"><ele>462.0</ele><time>2026-09-18T12:37:52.027Z</time></trkpt>
      <trkpt lat="36.339112" lon="127.267942"><ele>462.0</ele><time>2026-09-18T12:37:52.027Z</time></trkpt>
      <trkpt lat="36.339031" lon="127.267817"><ele>462.0</ele><time>2026-09-18T12:37:52.027Z</time></trkpt>
      <trkpt lat="36.338976" lon="127.267480"><ele>462.0</ele><time>2026-09-18T12:37:52.027Z</time></trkpt>
      <trkpt lat="36.338905" lon="127.267214"><ele>462.0</ele><time>2026-09-18T12:37:52.027Z</time></trkpt>
      <trkpt lat="36.338810" lon="127.267137"><ele>462.0</ele><time>2026-09-18T12:37:52.027Z</time></trkpt>
      <trkpt lat="36.338721" lon="127.267128"><ele>462.0</ele><time>2026-09-18T12:37:52.027Z</time></trkpt>
      <trkpt lat="36.338450" lon="127.267104"><ele>462.0</ele><time>2026-09-18T12:37:52.027Z</time></trkpt>
      <trkpt lat="36.338245" lon="127.267031"><ele>462.0</ele><time>2026-09-18T12:37:52.027Z</time></trkpt>
      <trkpt lat="36.337985" lon="127.267080"><ele>462.0</ele><time>2026-09-18T12:37:52.027Z</time></trkpt>
      <trkpt lat="36.337819" lon="127.267131"><ele>462.0</ele><time>2026-09-18T12:37:52.027Z</time></trkpt>
      <trkpt lat="36.337587" lon="127.267216"><ele>462.0</ele><time>2026-09-18T12:37:52.027Z</time></trkpt>
      <trkpt lat="36.337418" lon="127.267265"><ele>456.0</ele><time>2026-09-18T12:37:52.027Z</time></trkpt>
      <trkpt lat="36.337069" lon="127.267228"><ele>456.0</ele><time>2026-09-18T12:37:52.027Z</time></trkpt>
      <trkpt lat="36.336729" lon="127.267244"><ele>456.0</ele><time>2026-09-18T12:37:52.027Z</time></trkpt>
      <trkpt lat="36.336362" lon="127.267250"><ele>456.0</ele><time>2026-09-18T12:37:52.027Z</time></trkpt>
      <trkpt lat="36.336194" lon="127.267244"><ele>456.0</ele><time>2026-09-18T12:37:52.027Z</time></trkpt>
      <trkpt lat="36.336101" lon="127.267292"><ele>456.0</ele><time>2026-09-18T12:37:52.027Z</time></trkpt>
      <trkpt lat="36.335863" lon="127.267392"><ele>456.0</ele><time>2026-09-18T12:37:52.027Z</time></trkpt>
      <trkpt lat="36.335675" lon="127.267401"><ele>456.0</ele><time>2026-09-18T12:37:52.027Z</time></trkpt>
      <trkpt lat="36.335504" lon="127.267413"><ele>456.0</ele><time>2026-09-18T12:37:52.027Z</time></trkpt>
      <trkpt lat="36.335417" lon="127.267405"><ele>456.0</ele><time>2026-09-18T12:37:52.027Z</time></trkpt>
      <trkpt lat="36.335039" lon="127.267304"><ele>436.0</ele><time>2026-09-18T12:37:52.027Z</time></trkpt>
      <trkpt lat="36.334892" lon="127.267203"><ele>436.0</ele><time>2026-09-18T12:37:52.027Z</time></trkpt>
      <trkpt lat="36.334761" lon="127.267197"><ele>436.0</ele><time>2026-09-18T12:37:52.027Z</time></trkpt>
      <trkpt lat="36.334617" lon="127.267199"><ele>436.0</ele><time>2026-09-18T12:37:52.027Z</time></trkpt>
      <trkpt lat="36.334425" lon="127.267227"><ele>436.0</ele><time>2026-09-18T12:37:52.027Z</time></trkpt>
      <trkpt lat="36.334111" lon="127.267289"><ele>436.0</ele><time>2026-09-18T12:37:52.027Z</time></trkpt>
      <trkpt lat="36.333922" lon="127.267203"><ele>436.0</ele><time>2026-09-18T12:37:52.027Z</time></trkpt>
      <trkpt lat="36.333841" lon="127.267212"><ele>436.0</ele><time>2026-09-18T12:37:52.027Z</time></trkpt>
      <trkpt lat="36.333658" lon="127.267356"><ele>436.0</ele><time>2026-09-18T12:37:52.027Z</time></trkpt>
      <trkpt lat="36.333469" lon="127.267467"><ele>436.0</ele><time>2026-09-18T12:37:52.027Z</time></trkpt>
      <trkpt lat="36.333276" lon="127.267476"><ele>446.0</ele><time>2026-09-18T12:37:52.027Z</time></trkpt>
      <trkpt lat="36.332889" lon="127.267536"><ele>446.0</ele><time>2026-09-18T12:37:52.027Z</time></trkpt>
      <trkpt lat="36.332780" lon="127.267632"><ele>446.0</ele><time>2026-09-18T12:37:52.027Z</time></trkpt>
      <trkpt lat="36.332617" lon="127.267716"><ele>446.0</ele><time>2026-09-18T12:37:52.027Z</time></trkpt>
      <trkpt lat="36.332538" lon="127.267828"><ele>446.0</ele><time>2026-09-18T12:37:52.027Z</time></trkpt>
      <trkpt lat="36.332297" lon="127.267845"><ele>446.0</ele><time>2026-09-18T12:37:52.027Z</time></trkpt>
      <trkpt lat="36.332106" lon="127.267922"><ele>446.0</ele><time>2026-09-18T12:37:52.027Z</time></trkpt>
      <trkpt lat="36.331899" lon="127.268014"><ele>446.0</ele><time>2026-09-18T12:37:52.027Z</time></trkpt>
      <trkpt lat="36.331697" lon="127.268017"><ele>446.0</ele><time>2026-09-18T12:37:52.027Z</time></trkpt>
      <trkpt lat="36.331697" lon="127.268017"><ele>446.0</ele><time>2026-09-18T12:37:52.027Z</time></trkpt>
      <trkpt lat="36.331654" lon="127.268064"><ele>446.0</ele><time>2026-09-18T12:37:52.027Z</time></trkpt>
      <trkpt lat="36.331629" lon="127.268240"><ele>446.0</ele><time>2026-09-18T12:37:52.027Z</time></trkpt>
      <trkpt lat="36.331441" lon="127.268635"><ele>446.0</ele><time>2026-09-18T12:37:52.027Z</time></trkpt>
      <trkpt lat="36.331422" lon="127.268783"><ele>404.0</ele><time>2026-09-18T12:37:52.027Z</time></trkpt>
      <trkpt lat="36.331432" lon="127.268951"><ele>404.0</ele><time>2026-09-18T12:37:52.027Z</time></trkpt>
      <trkpt lat="36.331407" lon="127.269122"><ele>404.0</ele><time>2026-09-18T12:37:52.027Z</time></trkpt>
      <trkpt lat="36.331318" lon="127.269287"><ele>404.0</ele><time>2026-09-18T12:37:52.027Z</time></trkpt>
      <trkpt lat="36.331233" lon="127.269375"><ele>433.0</ele><time>2026-09-18T12:37:52.027Z</time></trkpt>
      <trkpt lat="36.331209" lon="127.269447"><ele>433.0</ele><time>2026-09-18T12:37:52.027Z</time></trkpt>
      <trkpt lat="36.331164" lon="127.269572"><ele>433.0</ele><time>2026-09-18T12:37:52.027Z</time></trkpt>
      <trkpt lat="36.331069" lon="127.269728"><ele>433.0</ele><time>2026-09-18T12:37:52.027Z</time></trkpt>
      <trkpt lat="36.330945" lon="127.269978"><ele>433.0</ele><time>2026-09-18T12:37:52.027Z</time></trkpt>
      <trkpt lat="36.330961" lon="127.270090"><ele>433.0</ele><time>2026-09-18T12:37:52.027Z</time></trkpt>
      <trkpt lat="36.330960" lon="127.270210"><ele>433.0</ele><time>2026-09-18T12:37:52.027Z</time></trkpt>
      <trkpt lat="36.330911" lon="127.270311"><ele>433.0</ele><time>2026-09-18T12:37:52.027Z</time></trkpt>
      <trkpt lat="36.330872" lon="127.270640"><ele>433.0</ele><time>2026-09-18T12:37:52.027Z</time></trkpt>
      <trkpt lat="36.330887" lon="127.270708"><ele>433.0</ele><time>2026-09-18T12:37:52.027Z</time></trkpt>
      <trkpt lat="36.330936" lon="127.270881"><ele>409.0</ele><time>2026-09-18T12:37:52.027Z</time></trkpt>
      <trkpt lat="36.330999" lon="127.270973"><ele>409.0</ele><time>2026-09-18T12:37:52.027Z</time></trkpt>
      <trkpt lat="36.331119" lon="127.271148"><ele>409.0</ele><time>2026-09-18T12:37:52.027Z</time></trkpt>
      <trkpt lat="36.331164" lon="127.271273"><ele>409.0</ele><time>2026-09-18T12:37:52.027Z</time></trkpt>
      <trkpt lat="36.331159" lon="127.271480"><ele>409.0</ele><time>2026-09-18T12:37:52.027Z</time></trkpt>
      <trkpt lat="36.331129" lon="127.271732"><ele>409.0</ele><time>2026-09-18T12:37:52.027Z</time></trkpt>
      <trkpt lat="36.331018" lon="127.271905"><ele>409.0</ele><time>2026-09-18T12:37:52.027Z</time></trkpt>
      <trkpt lat="36.330982" lon="127.272042"><ele>409.0</ele><time>2026-09-18T12:37:52.027Z</time></trkpt>
      <trkpt lat="36.330963" lon="127.272180"><ele>409.0</ele><time>2026-09-18T12:37:52.027Z</time></trkpt>
      <trkpt lat="36.330833" lon="127.272473"><ele>409.0</ele><time>2026-09-18T12:37:52.027Z</time></trkpt>
      <trkpt lat="36.330786" lon="127.272684"><ele>409.0</ele><time>2026-09-18T12:37:52.027Z</time></trkpt>
      <trkpt lat="36.330769" lon="127.272858"><ele>409.0</ele><time>2026-09-18T12:37:52.027Z</time></trkpt>
      <trkpt lat="36.330818" lon="127.273052"><ele>404.0</ele><time>2026-09-18T12:37:52.027Z</time></trkpt>
      <trkpt lat="36.330852" lon="127.273180"><ele>404.0</ele><time>2026-09-18T12:37:52.027Z</time></trkpt>
      <trkpt lat="36.330885" lon="127.273286"><ele>404.0</ele><time>2026-09-18T12:37:52.027Z</time></trkpt>
      <trkpt lat="36.330923" lon="127.273350"><ele>404.0</ele><time>2026-09-18T12:37:52.027Z</time></trkpt>
      <trkpt lat="36.330962" lon="127.273523"><ele>404.0</ele><time>2026-09-18T12:37:52.027Z</time></trkpt>
      <trkpt lat="36.330992" lon="127.273793"><ele>404.0</ele><time>2026-09-18T12:37:52.027Z</time></trkpt>
      <trkpt lat="36.331033" lon="127.273998"><ele>404.0</ele><time>2026-09-18T12:37:52.027Z</time></trkpt>
      <trkpt lat="36.331068" lon="127.274187"><ele>404.0</ele><time>2026-09-18T12:37:52.027Z</time></trkpt>
      <trkpt lat="36.331002" lon="127.274426"><ele>404.0</ele><time>2026-09-18T12:37:52.027Z</time></trkpt>
      <trkpt lat="36.330981" lon="127.274738"><ele>404.0</ele><time>2026-09-18T12:37:52.027Z</time></trkpt>
      <trkpt lat="36.331080" lon="127.274999"><ele>404.0</ele><time>2026-09-18T12:37:52.027Z</time></trkpt>
      <trkpt lat="36.331163" lon="127.275104"><ele>408.0</ele><time>2026-09-18T12:37:52.027Z</time></trkpt>
      <trkpt lat="36.331225" lon="127.275198"><ele>408.0</ele><time>2026-09-18T12:37:52.027Z</time></trkpt>
      <trkpt lat="36.331303" lon="127.275219"><ele>425.0</ele><time>2026-09-18T12:37:52.027Z</time></trkpt>
      <trkpt lat="36.331361" lon="127.275323"><ele>425.0</ele><time>2026-09-18T12:37:52.027Z</time></trkpt>
      <trkpt lat="36.331479" lon="127.275477"><ele>425.0</ele><time>2026-09-18T12:37:52.027Z</time></trkpt>
      <trkpt lat="36.331500" lon="127.275586"><ele>425.0</ele><time>2026-09-18T12:37:52.027Z</time></trkpt>
      <trkpt lat="36.331478" lon="127.275819"><ele>425.0</ele><time>2026-09-18T12:37:52.027Z</time></trkpt>
      <trkpt lat="36.331522" lon="127.275807"><ele>425.0</ele><time>2026-09-18T12:37:52.027Z</time></trkpt>
      <trkpt lat="36.331550" lon="127.275800"><ele>425.0</ele><time>2026-09-18T12:37:52.027Z</time></trkpt>
      <trkpt lat="36.331625" lon="127.275831"><ele>425.0</ele><time>2026-09-18T12:37:52.027Z</time></trkpt>
      <trkpt lat="36.331774" lon="127.275895"><ele>425.0</ele><time>2026-09-18T12:37:52.027Z</time></trkpt>
      <trkpt lat="36.331955" lon="127.275917"><ele>425.0</ele><time>2026-09-18T12:37:52.027Z</time></trkpt>
      <trkpt lat="36.332078" lon="127.275887"><ele>425.0</ele><time>2026-09-18T12:37:52.027Z</time></trkpt>
      <trkpt lat="36.332171" lon="127.275894"><ele>425.0</ele><time>2026-09-18T12:37:52.027Z</time></trkpt>
      <trkpt lat="36.332277" lon="127.275926"><ele>425.0</ele><time>2026-09-18T12:37:52.027Z</time></trkpt>
      <trkpt lat="36.332439" lon="127.275964"><ele>425.0</ele><time>2026-09-18T12:37:52.027Z</time></trkpt>
      <trkpt lat="36.332592" lon="127.275957"><ele>425.0</ele><time>2026-09-18T12:37:52.027Z</time></trkpt>
      <trkpt lat="36.332700" lon="127.275983"><ele>425.0</ele><time>2026-09-18T12:37:52.027Z</time></trkpt>
      <trkpt lat="36.332750" lon="127.276032"><ele>425.0</ele><time>2026-09-18T12:37:52.027Z</time></trkpt>
      <trkpt lat="36.332975" lon="127.275925"><ele>425.0</ele><time>2026-09-18T12:37:52.027Z</time></trkpt>
      <trkpt lat="36.333108" lon="127.275979"><ele>425.0</ele><time>2026-09-18T12:37:52.027Z</time></trkpt>
      <trkpt lat="36.333181" lon="127.275936"><ele>425.0</ele><time>2026-09-18T12:37:52.027Z</time></trkpt>
      <trkpt lat="36.333306" lon="127.275947"><ele>425.0</ele><time>2026-09-18T12:37:52.027Z</time></trkpt>
      <trkpt lat="36.333427" lon="127.276002"><ele>348.0</ele><time>2026-09-18T12:37:52.027Z</time></trkpt>
      <trkpt lat="36.333530" lon="127.276045"><ele>348.0</ele><time>2026-09-18T12:37:52.027Z</time></trkpt>
      <trkpt lat="36.333599" lon="127.276057"><ele>348.0</ele><time>2026-09-18T12:37:52.027Z</time></trkpt>
      <trkpt lat="36.333744" lon="127.276024"><ele>348.0</ele><time>2026-09-18T12:37:52.027Z</time></trkpt>
      <trkpt lat="36.333813" lon="127.275984"><ele>348.0</ele><time>2026-09-18T12:37:52.027Z</time></trkpt>
      <trkpt lat="36.333927" lon="127.276049"><ele>348.0</ele><time>2026-09-18T12:37:52.027Z</time></trkpt>
      <trkpt lat="36.334003" lon="127.275989"><ele>348.0</ele><time>2026-09-18T12:37:52.027Z</time></trkpt>
      <trkpt lat="36.334086" lon="127.275989"><ele>348.0</ele><time>2026-09-18T12:37:52.027Z</time></trkpt>
      <trkpt lat="36.334151" lon="127.275960"><ele>348.0</ele><time>2026-09-18T12:37:52.027Z</time></trkpt>
      <trkpt lat="36.334177" lon="127.276009"><ele>348.0</ele><time>2026-09-18T12:37:52.027Z</time></trkpt>
      <trkpt lat="36.334248" lon="127.275952"><ele>348.0</ele><time>2026-09-18T12:37:52.027Z</time></trkpt>
      <trkpt lat="36.334310" lon="127.275943"><ele>348.0</ele><time>2026-09-18T12:37:52.027Z</time></trkpt>
      <trkpt lat="36.334377" lon="127.275974"><ele>348.0</ele><time>2026-09-18T12:37:52.027Z</time></trkpt>
      <trkpt lat="36.334434" lon="127.276025"><ele>348.0</ele><time>2026-09-18T12:37:52.027Z</time></trkpt>
      <trkpt lat="36.334512" lon="127.276005"><ele>348.0</ele><time>2026-09-18T12:37:52.027Z</time></trkpt>
      <trkpt lat="36.334550" lon="127.276007"><ele>348.0</ele><time>2026-09-18T12:37:52.027Z</time></trkpt>
      <trkpt lat="36.334673" lon="127.276009"><ele>348.0</ele><time>2026-09-18T12:37:52.027Z</time></trkpt>
      <trkpt lat="36.334780" lon="127.276024"><ele>348.0</ele><time>2026-09-18T12:37:52.027Z</time></trkpt>
      <trkpt lat="36.334896" lon="127.276002"><ele>348.0</ele><time>2026-09-18T12:37:52.027Z</time></trkpt>
      <trkpt lat="36.335017" lon="127.275957"><ele>348.0</ele><time>2026-09-18T12:37:52.027Z</time></trkpt>
      <trkpt lat="36.335148" lon="127.275954"><ele>348.0</ele><time>2026-09-18T12:37:52.027Z</time></trkpt>
      <trkpt lat="36.335171" lon="127.276048"><ele>348.0</ele><time>2026-09-18T12:37:52.027Z</time></trkpt>
      <trkpt lat="36.335244" lon="127.276106"><ele>348.0</ele><time>2026-09-18T12:37:52.027Z</time></trkpt>
      <trkpt lat="36.335327" lon="127.276159"><ele>348.0</ele><time>2026-09-18T12:37:52.027Z</time></trkpt>
      <trkpt lat="36.335389" lon="127.276218"><ele>348.0</ele><time>2026-09-18T12:37:52.027Z</time></trkpt>
      <trkpt lat="36.335534" lon="127.276178"><ele>241.0</ele><time>2026-09-18T12:37:52.027Z</time></trkpt>
      <trkpt lat="36.335629" lon="127.276165"><ele>241.0</ele><time>2026-09-18T12:37:52.027Z</time></trkpt>
      <trkpt lat="36.335700" lon="127.276192"><ele>241.0</ele><time>2026-09-18T12:37:52.027Z</time></trkpt>
      <trkpt lat="36.335744" lon="127.276245"><ele>241.0</ele><time>2026-09-18T12:37:52.027Z</time></trkpt>
      <trkpt lat="36.335834" lon="127.276304"><ele>241.0</ele><time>2026-09-18T12:37:52.027Z</time></trkpt>
      <trkpt lat="36.335816" lon="127.276369"><ele>241.0</ele><time>2026-09-18T12:37:52.027Z</time></trkpt>
      <trkpt lat="36.335832" lon="127.276407"><ele>241.0</ele><time>2026-09-18T12:37:52.027Z</time></trkpt>
      <trkpt lat="36.335869" lon="127.276383"><ele>241.0</ele><time>2026-09-18T12:37:52.027Z</time></trkpt>
      <trkpt lat="36.335918" lon="127.276381"><ele>241.0</ele><time>2026-09-18T12:37:52.027Z</time></trkpt>
      <trkpt lat="36.335967" lon="127.276299"><ele>241.0</ele><time>2026-09-18T12:37:52.027Z</time></trkpt>
      <trkpt lat="36.336027" lon="127.276339"><ele>241.0</ele><time>2026-09-18T12:37:52.027Z</time></trkpt>
      <trkpt lat="36.336080" lon="127.276303"><ele>241.0</ele><time>2026-09-18T12:37:52.027Z</time></trkpt>
      <trkpt lat="36.336069" lon="127.276359"><ele>241.0</ele><time>2026-09-18T12:37:52.027Z</time></trkpt>
      <trkpt lat="36.336075" lon="127.276434"><ele>241.0</ele><time>2026-09-18T12:37:52.027Z</time></trkpt>
      <trkpt lat="36.336140" lon="127.276393"><ele>241.0</ele><time>2026-09-18T12:37:52.027Z</time></trkpt>
      <trkpt lat="36.336170" lon="127.276449"><ele>241.0</ele><time>2026-09-18T12:37:52.027Z</time></trkpt>
      <trkpt lat="36.336228" lon="127.276420"><ele>241.0</ele><time>2026-09-18T12:37:52.027Z</time></trkpt>
      <trkpt lat="36.336236" lon="127.276484"><ele>241.0</ele><time>2026-09-18T12:37:52.027Z</time></trkpt>
      <trkpt lat="36.336252" lon="127.276495"><ele>241.0</ele><time>2026-09-18T12:37:52.027Z</time></trkpt>
      <trkpt lat="36.336256" lon="127.276463"><ele>241.0</ele><time>2026-09-18T12:37:52.027Z</time></trkpt>
      <trkpt lat="36.336281" lon="127.276444"><ele>241.0</ele><time>2026-09-18T12:37:52.027Z</time></trkpt>
      <trkpt lat="36.336293" lon="127.276522"><ele>241.0</ele><time>2026-09-18T12:37:52.027Z</time></trkpt>
      <trkpt lat="36.336306" lon="127.276536"><ele>241.0</ele><time>2026-09-18T12:37:52.027Z</time></trkpt>
      <trkpt lat="36.336343" lon="127.276476"><ele>241.0</ele><time>2026-09-18T12:37:52.027Z</time></trkpt>
      <trkpt lat="36.336374" lon="127.276585"><ele>241.0</ele><time>2026-09-18T12:37:52.027Z</time></trkpt>
      <trkpt lat="36.336412" lon="127.276488"><ele>241.0</ele><time>2026-09-18T12:37:52.027Z</time></trkpt>
      <trkpt lat="36.336437" lon="127.276581"><ele>241.0</ele><time>2026-09-18T12:37:52.027Z</time></trkpt>
      <trkpt lat="36.336468" lon="127.276598"><ele>241.0</ele><time>2026-09-18T12:37:52.027Z</time></trkpt>
      <trkpt lat="36.336460" lon="127.276662"><ele>241.0</ele><time>2026-09-18T12:37:52.027Z</time></trkpt>
      <trkpt lat="36.336485" lon="127.276704"><ele>241.0</ele><time>2026-09-18T12:37:52.027Z</time></trkpt>
      <trkpt lat="36.336537" lon="127.276572"><ele>241.0</ele><time>2026-09-18T12:37:52.027Z</time></trkpt>
      <trkpt lat="36.336563" lon="127.276627"><ele>241.0</ele><time>2026-09-18T12:37:52.027Z</time></trkpt>
      <trkpt lat="36.336561" lon="127.276735"><ele>241.0</ele><time>2026-09-18T12:37:52.027Z</time></trkpt>
      <trkpt lat="36.336578" lon="127.276776"><ele>241.0</ele><time>2026-09-18T12:37:52.027Z</time></trkpt>
      <trkpt lat="36.336604" lon="127.276741"><ele>241.0</ele><time>2026-09-18T12:37:52.027Z</time></trkpt>
      <trkpt lat="36.336639" lon="127.276672"><ele>241.0</ele><time>2026-09-18T12:37:52.027Z</time></trkpt>
      <trkpt lat="36.336697" lon="127.276594"><ele>241.0</ele><time>2026-09-18T12:37:52.027Z</time></trkpt>
      <trkpt lat="36.336720" lon="127.276649"><ele>241.0</ele><time>2026-09-18T12:37:52.027Z</time></trkpt>
      <trkpt lat="36.336721" lon="127.276727"><ele>241.0</ele><time>2026-09-18T12:37:52.027Z</time></trkpt>
      <trkpt lat="36.336763" lon="127.276712"><ele>241.0</ele><time>2026-09-18T12:37:52.027Z</time></trkpt>
      <trkpt lat="36.336791" lon="127.276766"><ele>241.0</ele><time>2026-09-18T12:37:52.027Z</time></trkpt>
      <trkpt lat="36.336801" lon="127.276831"><ele>241.0</ele><time>2026-09-18T12:37:52.027Z</time></trkpt>
      <trkpt lat="36.336814" lon="127.276858"><ele>241.0</ele><time>2026-09-18T12:37:52.027Z</time></trkpt>
      <trkpt lat="36.336834" lon="127.276846"><ele>241.0</ele><time>2026-09-18T12:37:52.027Z</time></trkpt>
      <trkpt lat="36.336868" lon="127.276772"><ele>241.0</ele><time>2026-09-18T12:37:52.027Z</time></trkpt>
      <trkpt lat="36.336891" lon="127.276865"><ele>241.0</ele><time>2026-09-18T12:37:52.027Z</time></trkpt>
      <trkpt lat="36.336902" lon="127.276987"><ele>241.0</ele><time>2026-09-18T12:37:52.027Z</time></trkpt>
      <trkpt lat="36.336954" lon="127.276998"><ele>241.0</ele><time>2026-09-18T12:37:52.027Z</time></trkpt>
      <trkpt lat="36.336975" lon="127.276986"><ele>241.0</ele><time>2026-09-18T12:37:52.027Z</time></trkpt>
      <trkpt lat="36.337003" lon="127.276865"><ele>241.0</ele><time>2026-09-18T12:37:52.027Z</time></trkpt>
      <trkpt lat="36.337022" lon="127.276872"><ele>241.0</ele><time>2026-09-18T12:37:52.027Z</time></trkpt>
      <trkpt lat="36.337021" lon="127.277007"><ele>241.0</ele><time>2026-09-18T12:37:52.027Z</time></trkpt>
      <trkpt lat="36.337073" lon="127.276937"><ele>241.0</ele><time>2026-09-18T12:37:52.027Z</time></trkpt>
      <trkpt lat="36.337116" lon="127.276959"><ele>241.0</ele><time>2026-09-18T12:37:52.027Z</time></trkpt>
      <trkpt lat="36.337165" lon="127.277101"><ele>200.0</ele><time>2026-09-18T12:37:52.027Z</time></trkpt>
      <trkpt lat="36.337202" lon="127.277011"><ele>241.0</ele><time>2026-09-18T12:37:52.027Z</time></trkpt>
      <trkpt lat="36.337218" lon="127.277118"><ele>200.0</ele><time>2026-09-18T12:37:52.027Z</time></trkpt>
      <trkpt lat="36.337279" lon="127.277027"><ele>241.0</ele><time>2026-09-18T12:37:52.027Z</time></trkpt>
      <trkpt lat="36.337312" lon="127.277058"><ele>241.0</ele><time>2026-09-18T12:37:52.027Z</time></trkpt>
      <trkpt lat="36.337325" lon="127.277133"><ele>200.0</ele><time>2026-09-18T12:37:52.027Z</time></trkpt>
      <trkpt lat="36.337360" lon="127.277196"><ele>200.0</ele><time>2026-09-18T12:37:52.027Z</time></trkpt>
      <trkpt lat="36.337388" lon="127.277140"><ele>200.0</ele><time>2026-09-18T12:37:52.027Z</time></trkpt>
      <trkpt lat="36.337447" lon="127.277043"><ele>241.0</ele><time>2026-09-18T12:37:52.027Z</time></trkpt>
      <trkpt lat="36.337561" lon="127.276947"><ele>212.0</ele><time>2026-09-18T12:37:52.027Z</time></trkpt>
      <trkpt lat="36.337632" lon="127.277138"><ele>183.0</ele><time>2026-09-18T12:37:52.027Z</time></trkpt>
      <trkpt lat="36.337696" lon="127.277256"><ele>183.0</ele><time>2026-09-18T12:37:52.027Z</time></trkpt>
      <trkpt lat="36.337753" lon="127.277386"><ele>183.0</ele><time>2026-09-18T12:37:52.027Z</time></trkpt>
      <trkpt lat="36.337810" lon="127.277708"><ele>183.0</ele><time>2026-09-18T12:37:52.027Z</time></trkpt>
      <trkpt lat="36.337815" lon="127.277811"><ele>183.0</ele><time>2026-09-18T12:37:52.027Z</time></trkpt>
      <trkpt lat="36.337860" lon="127.277891"><ele>183.0</ele><time>2026-09-18T12:37:52.027Z</time></trkpt>
      <trkpt lat="36.337909" lon="127.277886"><ele>183.0</ele><time>2026-09-18T12:37:52.027Z</time></trkpt>
      <trkpt lat="36.337999" lon="127.278015"><ele>183.0</ele><time>2026-09-18T12:37:52.027Z</time></trkpt>
      <trkpt lat="36.338052" lon="127.278090"><ele>183.0</ele><time>2026-09-18T12:37:52.027Z</time></trkpt>
      <trkpt lat="36.338111" lon="127.278326"><ele>183.0</ele><time>2026-09-18T12:37:52.027Z</time></trkpt>
      <trkpt lat="36.338234" lon="127.278427"><ele>183.0</ele><time>2026-09-18T12:37:52.027Z</time></trkpt>
      <trkpt lat="36.338367" lon="127.278519"><ele>183.0</ele><time>2026-09-18T12:37:52.027Z</time></trkpt>
      <trkpt lat="36.338444" lon="127.278672"><ele>183.0</ele><time>2026-09-18T12:37:52.027Z</time></trkpt>
      <trkpt lat="36.338538" lon="127.278794"><ele>183.0</ele><time>2026-09-18T12:37:52.027Z</time></trkpt>
      <trkpt lat="36.338569" lon="127.278888"><ele>183.0</ele><time>2026-09-18T12:37:52.027Z</time></trkpt>
      <trkpt lat="36.338654" lon="127.279031"><ele>183.0</ele><time>2026-09-18T12:37:52.027Z</time></trkpt>
      <trkpt lat="36.338681" lon="127.279077"><ele>183.0</ele><time>2026-09-18T12:37:52.027Z</time></trkpt>
      <trkpt lat="36.338673" lon="127.279301"><ele>167.0</ele><time>2026-09-18T12:37:52.027Z</time></trkpt>
      <trkpt lat="36.338686" lon="127.279504"><ele>167.0</ele><time>2026-09-18T12:37:52.027Z</time></trkpt>
      <trkpt lat="36.338752" lon="127.279689"><ele>167.0</ele><time>2026-09-18T12:37:52.027Z</time></trkpt>
      <trkpt lat="36.338904" lon="127.279906"><ele>167.0</ele><time>2026-09-18T12:37:52.027Z</time></trkpt>
      <trkpt lat="36.339008" lon="127.280079"><ele>167.0</ele><time>2026-09-18T12:37:52.027Z</time></trkpt>
      <trkpt lat="36.338970" lon="127.280247"><ele>167.0</ele><time>2026-09-18T12:37:52.027Z</time></trkpt>
      <trkpt lat="36.338961" lon="127.280350"><ele>167.0</ele><time>2026-09-18T12:37:52.027Z</time></trkpt>
      <trkpt lat="36.339072" lon="127.280536"><ele>167.0</ele><time>2026-09-18T12:37:52.027Z</time></trkpt>
      <trkpt lat="36.339186" lon="127.280850"><ele>167.0</ele><time>2026-09-18T12:37:52.027Z</time></trkpt>
      <trkpt lat="36.339253" lon="127.280981"><ele>167.0</ele><time>2026-09-18T12:37:52.027Z</time></trkpt>
      <trkpt lat="36.339385" lon="127.281262"><ele>223.0</ele><time>2026-09-18T12:37:52.027Z</time></trkpt>
      <trkpt lat="36.339507" lon="127.281523"><ele>223.0</ele><time>2026-09-18T12:37:52.027Z</time></trkpt>
      <trkpt lat="36.339630" lon="127.281676"><ele>181.0</ele><time>2026-09-18T12:37:52.027Z</time></trkpt>
      <trkpt lat="36.339708" lon="127.281839"><ele>181.0</ele><time>2026-09-18T12:37:52.027Z</time></trkpt>
      <trkpt lat="36.339784" lon="127.282098"><ele>181.0</ele><time>2026-09-18T12:37:52.027Z</time></trkpt>
      <trkpt lat="36.339881" lon="127.282206"><ele>181.0</ele><time>2026-09-18T12:37:52.027Z</time></trkpt>
      <trkpt lat="36.339979" lon="127.282287"><ele>181.0</ele><time>2026-09-18T12:37:52.027Z</time></trkpt>
      <trkpt lat="36.339990" lon="127.282296"><ele>181.0</ele><time>2026-09-18T12:37:52.027Z</time></trkpt>
      <trkpt lat="36.340074" lon="127.282403"><ele>181.0</ele><time>2026-09-18T12:37:52.027Z</time></trkpt>
      <trkpt lat="36.340138" lon="127.282558"><ele>181.0</ele><time>2026-09-18T12:37:52.027Z</time></trkpt>
      <trkpt lat="36.340164" lon="127.282695"><ele>181.0</ele><time>2026-09-18T12:37:52.027Z</time></trkpt>
      <trkpt lat="36.340222" lon="127.282926"><ele>181.0</ele><time>2026-09-18T12:37:52.027Z</time></trkpt>
      <trkpt lat="36.340225" lon="127.282935"><ele>181.0</ele><time>2026-09-18T12:37:52.027Z</time></trkpt>
      <trkpt lat="36.340249" lon="127.283049"><ele>181.0</ele><time>2026-09-18T12:37:52.027Z</time></trkpt>
      <trkpt lat="36.340199" lon="127.283159"><ele>181.0</ele><time>2026-09-18T12:37:52.027Z</time></trkpt>
      <trkpt lat="36.340256" lon="127.283307"><ele>181.0</ele><time>2026-09-18T12:37:52.027Z</time></trkpt>
      <trkpt lat="36.340436" lon="127.283680"><ele>141.0</ele><time>2026-09-18T12:37:52.027Z</time></trkpt>
      <trkpt lat="36.340513" lon="127.283864"><ele>141.0</ele><time>2026-09-18T12:37:52.027Z</time></trkpt>
      <trkpt lat="36.340652" lon="127.284294"><ele>141.0</ele><time>2026-09-18T12:37:52.027Z</time></trkpt>
      <trkpt lat="36.340653" lon="127.284561"><ele>141.0</ele><time>2026-09-18T12:37:52.027Z</time></trkpt>
      <trkpt lat="36.340653" lon="127.284585"><ele>141.0</ele><time>2026-09-18T12:37:52.027Z</time></trkpt>
      <trkpt lat="36.340668" lon="127.284585"><ele>141.0</ele><time>2026-09-18T12:37:52.027Z</time></trkpt>
      <trkpt lat="36.340713" lon="127.284586"><ele>141.0</ele><time>2026-09-18T12:37:52.027Z</time></trkpt>
      <trkpt lat="36.340776" lon="127.284564"><ele>141.0</ele><time>2026-09-18T12:37:52.027Z</time></trkpt>
      <trkpt lat="36.340839" lon="127.284570"><ele>141.0</ele><time>2026-09-18T12:37:52.027Z</time></trkpt>
      <trkpt lat="36.340890" lon="127.284614"><ele>141.0</ele><time>2026-09-18T12:37:52.027Z</time></trkpt>
      <trkpt lat="36.340927" lon="127.284579"><ele>141.0</ele><time>2026-09-18T12:37:52.027Z</time></trkpt>
      <trkpt lat="36.341042" lon="127.284586"><ele>141.0</ele><time>2026-09-18T12:37:52.027Z</time></trkpt>
      <trkpt lat="36.341368" lon="127.284832"><ele>141.0</ele><time>2026-09-18T12:37:52.027Z</time></trkpt>
      <trkpt lat="36.341766" lon="127.284884"><ele>167.0</ele><time>2026-09-18T12:37:52.027Z</time></trkpt>
      <trkpt lat="36.341832" lon="127.284892"><ele>167.0</ele><time>2026-09-18T12:37:52.027Z</time></trkpt>
      <trkpt lat="36.341864" lon="127.284848"><ele>167.0</ele><time>2026-09-18T12:37:52.027Z</time></trkpt>
      <trkpt lat="36.341832" lon="127.284892"><ele>167.0</ele><time>2026-09-18T12:37:52.027Z</time></trkpt>
      <trkpt lat="36.341805" lon="127.284997"><ele>167.0</ele><time>2026-09-18T12:37:52.027Z</time></trkpt>
      <trkpt lat="36.341793" lon="127.285072"><ele>167.0</ele><time>2026-09-18T12:37:52.027Z</time></trkpt>
      <trkpt lat="36.341798" lon="127.285152"><ele>167.0</ele><time>2026-09-18T12:37:52.027Z</time></trkpt>
      <trkpt lat="36.341824" lon="127.285281"><ele>167.0</ele><time>2026-09-18T12:37:52.027Z</time></trkpt>
      <trkpt lat="36.341925" lon="127.285304"><ele>167.0</ele><time>2026-09-18T12:37:52.027Z</time></trkpt>
      <trkpt lat="36.342043" lon="127.285354"><ele>167.0</ele><time>2026-09-18T12:37:52.027Z</time></trkpt>
      <trkpt lat="36.342153" lon="127.285459"><ele>136.0</ele><time>2026-09-18T12:37:52.027Z</time></trkpt>
      <trkpt lat="36.342235" lon="127.285577"><ele>136.0</ele><time>2026-09-18T12:37:52.027Z</time></trkpt>
      <trkpt lat="36.342306" lon="127.285703"><ele>136.0</ele><time>2026-09-18T12:37:52.027Z</time></trkpt>
      <trkpt lat="36.342337" lon="127.285761"><ele>136.0</ele><time>2026-09-18T12:37:52.027Z</time></trkpt>
      <trkpt lat="36.342383" lon="127.285849"><ele>136.0</ele><time>2026-09-18T12:37:52.027Z</time></trkpt>
      <trkpt lat="36.342536" lon="127.286015"><ele>136.0</ele><time>2026-09-18T12:37:52.027Z</time></trkpt>
      <trkpt lat="36.342647" lon="127.286105"><ele>136.0</ele><time>2026-09-18T12:37:52.027Z</time></trkpt>
      <trkpt lat="36.342771" lon="127.286179"><ele>136.0</ele><time>2026-09-18T12:37:52.027Z</time></trkpt>
      <trkpt lat="36.342950" lon="127.286333"><ele>136.0</ele><time>2026-09-18T12:37:52.027Z</time></trkpt>
      <trkpt lat="36.343058" lon="127.286487"><ele>136.0</ele><time>2026-09-18T12:37:52.027Z</time></trkpt>
      <trkpt lat="36.343150" lon="127.286563"><ele>136.0</ele><time>2026-09-18T12:37:52.027Z</time></trkpt>
      <trkpt lat="36.343297" lon="127.286729"><ele>136.0</ele><time>2026-09-18T12:37:52.027Z</time></trkpt>
      <trkpt lat="36.343478" lon="127.286931"><ele>136.0</ele><time>2026-09-18T12:37:52.027Z</time></trkpt>
      <trkpt lat="36.343584" lon="127.287096"><ele>136.0</ele><time>2026-09-18T12:37:52.027Z</time></trkpt>
      <trkpt lat="36.343643" lon="127.287176"><ele>136.0</ele><time>2026-09-18T12:37:52.027Z</time></trkpt>
      <trkpt lat="36.343810" lon="127.287070"><ele>145.0</ele><time>2026-09-18T12:37:52.027Z</time></trkpt>
      <trkpt lat="36.343900" lon="127.286998"><ele>145.0</ele><time>2026-09-18T12:37:52.027Z</time></trkpt>
      <trkpt lat="36.344111" lon="127.287329"><ele>145.0</ele><time>2026-09-18T12:37:52.027Z</time></trkpt>
      <trkpt lat="36.344174" lon="127.287429"><ele>145.0</ele><time>2026-09-18T12:37:52.027Z</time></trkpt>
      <trkpt lat="36.344550" lon="127.287954"><ele>121.0</ele><time>2026-09-18T12:37:52.027Z</time></trkpt>
      <trkpt lat="36.344769" lon="127.288217"><ele>121.0</ele><time>2026-09-18T12:37:52.027Z</time></trkpt>
      <trkpt lat="36.344839" lon="127.288302"><ele>121.0</ele><time>2026-09-18T12:37:52.027Z</time></trkpt>
      <trkpt lat="36.345123" lon="127.288655"><ele>121.0</ele><time>2026-09-18T12:37:52.027Z</time></trkpt>
      <trkpt lat="36.345239" lon="127.288772"><ele>121.0</ele><time>2026-09-18T12:37:52.027Z</time></trkpt>
      <trkpt lat="36.345306" lon="127.288881"><ele>121.0</ele><time>2026-09-18T12:37:52.027Z</time></trkpt>
      <trkpt lat="36.345551" lon="127.289272"><ele>121.0</ele><time>2026-09-18T12:37:52.027Z</time></trkpt>
      <trkpt lat="36.345719" lon="127.289505"><ele>121.0</ele><time>2026-09-18T12:37:52.027Z</time></trkpt>
      <trkpt lat="36.345560" lon="127.289603"><ele>145.0</ele><time>2026-09-18T12:37:52.027Z</time></trkpt>
      <trkpt lat="36.345536" lon="127.289619"><ele>145.0</ele><time>2026-09-18T12:37:52.027Z</time></trkpt>
      <trkpt lat="36.345551" lon="127.289724"><ele>145.0</ele><time>2026-09-18T12:37:52.027Z</time></trkpt>
      <trkpt lat="36.345601" lon="127.290167"><ele>145.0</ele><time>2026-09-18T12:37:52.027Z</time></trkpt>
      <trkpt lat="36.345640" lon="127.290484"><ele>145.0</ele><time>2026-09-18T12:37:52.027Z</time></trkpt>
      <trkpt lat="36.345659" lon="127.290725"><ele>145.0</ele><time>2026-09-18T12:37:52.027Z</time></trkpt>
      <trkpt lat="36.345646" lon="127.290727"><ele>145.0</ele><time>2026-09-18T12:37:52.027Z</time></trkpt>
      <trkpt lat="36.345634" lon="127.290728"><ele>145.0</ele><time>2026-09-18T12:37:52.027Z</time></trkpt>
      <trkpt lat="36.345631" lon="127.290678"><ele>145.0</ele><time>2026-09-18T12:37:52.027Z</time></trkpt>
      <trkpt lat="36.345614" lon="127.290494"><ele>145.0</ele><time>2026-09-18T12:37:52.027Z</time></trkpt>
      <trkpt lat="36.345594" lon="127.290291"><ele>145.0</ele><time>2026-09-18T12:37:52.027Z</time></trkpt>
      <trkpt lat="36.345559" lon="127.290036"><ele>145.0</ele><time>2026-09-18T12:37:52.027Z</time></trkpt>
      <trkpt lat="36.345520" lon="127.289739"><ele>145.0</ele><time>2026-09-18T12:37:52.027Z</time></trkpt>
    </trkseg>
  </trk>
</gpx>