<?xml version="1.0" encoding="UTF-8"?>
<gpx version="1.1" creator="gajago-nav" xmlns="http://www.topografix.com/GPX/1/1">
  <metadata><name>수통골_nav</name></metadata>
  <wpt lat="36.345671" lon="127.289401">
    <name>들머리 (수통골체험학습관 - 원점회귀)</name>
    <ele>135</ele>
  </wpt>
  <wpt lat="36.344176" lon="127.287514">
    <name>갈림길</name>
  </wpt>
  <wpt lat="36.354070" lon="127.284640">
    <name>옥녀봉</name>
    <ele>452</ele>
  </wpt>
  <wpt lat="36.349030" lon="127.277870">
    <name>도덕봉</name>
    <ele>534</ele>
  </wpt>
  <wpt lat="36.344245" lon="127.273674">
    <name>갈림길</name>
  </wpt>
  <wpt lat="36.331666" lon="127.267996">
    <name>갈림길</name>
  </wpt>
  <wpt lat="36.328460" lon="127.266210">
    <name>백운봉</name>
    <ele>535</ele>
  </wpt>
  <wpt lat="36.331420" lon="127.268550">
    <name>자티고개</name>
  </wpt>
  <wpt lat="36.331505" lon="127.275820">
    <name>쉼터(삼거리)</name>
  </wpt>
  <wpt lat="36.328920" lon="127.280980">
    <name>금수봉</name>
    <ele>532</ele>
  </wpt>
  <wpt lat="36.328981" lon="127.280820">
    <name>갈림길</name>
  </wpt>
  <wpt lat="36.331696" lon="127.288196">
    <name>쉼터</name>
  </wpt>
  <wpt lat="36.332760" lon="127.290630">
    <name>빈계산</name>
    <ele>414</ele>
  </wpt>
  <wpt lat="36.342084" lon="127.290993">
    <name>갈림길</name>
  </wpt>
  <trk>
    <name>수통골_nav</name>
    <trkseg>
      <trkpt lat="36.345671" lon="127.289401"><ele>135.3</ele><time>2026-09-20T21:07:14.256Z</time></trkpt>
      <trkpt lat="36.345540" lon="127.289260"><ele>133.1</ele><time>2026-09-20T21:07:41.898Z</time></trkpt>
      <trkpt lat="36.345320" lon="127.288836"><ele>132.0</ele><time>2026-09-20T21:08:46.879Z</time></trkpt>
      <trkpt lat="36.345261" lon="127.288775"><ele>131.9</ele><time>2026-09-20T21:08:59.204Z</time></trkpt>
      <trkpt lat="36.345082" lon="127.288685"><ele>132.8</ele><time>2026-09-20T21:09:30.253Z</time></trkpt>
      <trkpt lat="36.344866" lon="127.288306"><ele>129.5</ele><time>2026-09-20T21:10:30.014Z</time></trkpt>
      <trkpt lat="36.344757" lon="127.288207"><ele>131.0</ele><time>2026-09-20T21:10:51.709Z</time></trkpt>
      <trkpt lat="36.344572" lon="127.287988"><ele>136.6</ele><time>2026-09-20T21:11:32.643Z</time></trkpt>
      <trkpt lat="36.344209" lon="127.287460"><ele>139.7</ele><time>2026-09-20T21:13:02.121Z</time></trkpt>
      <trkpt lat="36.344161" lon="127.287423"><ele>144.2</ele><time>2026-09-20T21:13:11.306Z</time></trkpt>
      <trkpt lat="36.344399" lon="127.287129"><ele>148.8</ele><time>2026-09-20T21:14:05.142Z</time></trkpt>
      <trkpt lat="36.344649" lon="127.286874"><ele>155.3</ele><time>2026-09-20T21:14:56.952Z</time></trkpt>
      <trkpt lat="36.344749" lon="127.286812"><ele>158.7</ele><time>2026-09-20T21:15:14.806Z</time></trkpt>
      <trkpt lat="36.344978" lon="127.286711"><ele>165.6</ele><time>2026-09-20T21:15:53.703Z</time></trkpt>
      <trkpt lat="36.345204" lon="127.286652"><ele>173.0</ele><time>2026-09-20T21:16:30.755Z</time></trkpt>
      <trkpt lat="36.345419" lon="127.286533"><ele>181.4</ele><time>2026-09-20T21:17:08.328Z</time></trkpt>
      <trkpt lat="36.345534" lon="127.286513"><ele>189.2</ele><time>2026-09-20T21:17:26.915Z</time></trkpt>
      <trkpt lat="36.345711" lon="127.286404"><ele>195.9</ele><time>2026-09-20T21:17:58.565Z</time></trkpt>
      <trkpt lat="36.345888" lon="127.286443"><ele>203.0</ele><time>2026-09-20T21:18:27.411Z</time></trkpt>
      <trkpt lat="36.345967" lon="127.286378"><ele>209.8</ele><time>2026-09-20T21:18:42.556Z</time></trkpt>
      <trkpt lat="36.346157" lon="127.286252"><ele>215.8</ele><time>2026-09-20T21:19:17.077Z</time></trkpt>
      <trkpt lat="36.346292" lon="127.286177"><ele>221.4</ele><time>2026-09-20T21:19:40.805Z</time></trkpt>
      <trkpt lat="36.346431" lon="127.286270"><ele>228.4</ele><time>2026-09-20T21:20:06.025Z</time></trkpt>
      <trkpt lat="36.346530" lon="127.286178"><ele>234.9</ele><time>2026-09-20T21:20:25.883Z</time></trkpt>
      <trkpt lat="36.346716" lon="127.286055"><ele>242.2</ele><time>2026-09-20T21:20:59.546Z</time></trkpt>
      <trkpt lat="36.346812" lon="127.285962"><ele>250.4</ele><time>2026-09-20T21:21:19.019Z</time></trkpt>
      <trkpt lat="36.346959" lon="127.285803"><ele>258.0</ele><time>2026-09-20T21:21:50.309Z</time></trkpt>
      <trkpt lat="36.346936" lon="127.285672"><ele>264.5</ele><time>2026-09-20T21:22:07.632Z</time></trkpt>
      <trkpt lat="36.346930" lon="127.285469"><ele>270.4</ele><time>2026-09-20T21:22:33.898Z</time></trkpt>
      <trkpt lat="36.346953" lon="127.285300"><ele>275.1</ele><time>2026-09-20T21:22:55.988Z</time></trkpt>
      <trkpt lat="36.346946" lon="127.285172"><ele>279.7</ele><time>2026-09-20T21:23:12.535Z</time></trkpt>
      <trkpt lat="36.346990" lon="127.284989"><ele>289.4</ele><time>2026-09-20T21:23:37.183Z</time></trkpt>
      <trkpt lat="36.347085" lon="127.284813"><ele>296.7</ele><time>2026-09-20T21:24:04.478Z</time></trkpt>
      <trkpt lat="36.347332" lon="127.284654"><ele>307.6</ele><time>2026-09-20T21:24:49.064Z</time></trkpt>
      <trkpt lat="36.347475" lon="127.284607"><ele>318.5</ele><time>2026-09-20T21:25:12.690Z</time></trkpt>
      <trkpt lat="36.347569" lon="127.284506"><ele>326.8</ele><time>2026-09-20T21:25:32.552Z</time></trkpt>
      <trkpt lat="36.347694" lon="127.284473"><ele>330.3</ele><time>2026-09-20T21:25:53.022Z</time></trkpt>
      <trkpt lat="36.347817" lon="127.284285"><ele>335.2</ele><time>2026-09-20T21:26:24.265Z</time></trkpt>
      <trkpt lat="36.347925" lon="127.284190"><ele>335.4</ele><time>2026-09-20T21:26:45.408Z</time></trkpt>
      <trkpt lat="36.347951" lon="127.284044"><ele>335.2</ele><time>2026-09-20T21:27:04.722Z</time></trkpt>
      <trkpt lat="36.347965" lon="127.283843"><ele>334.7</ele><time>2026-09-20T21:27:30.732Z</time></trkpt>
      <trkpt lat="36.347939" lon="127.283703"><ele>333.6</ele><time>2026-09-20T21:27:49.229Z</time></trkpt>
      <trkpt lat="36.347937" lon="127.283584"><ele>335.0</ele><time>2026-09-20T21:28:04.608Z</time></trkpt>
      <trkpt lat="36.347979" lon="127.283337"><ele>338.3</ele><time>2026-09-20T21:28:37.183Z</time></trkpt>
      <trkpt lat="36.348047" lon="127.283050"><ele>342.0</ele><time>2026-09-20T21:29:15.787Z</time></trkpt>
      <trkpt lat="36.348075" lon="127.282847"><ele>352.2</ele><time>2026-09-20T21:29:42.306Z</time></trkpt>
      <trkpt lat="36.348163" lon="127.282548"><ele>360.0</ele><time>2026-09-20T21:30:23.390Z</time></trkpt>
      <trkpt lat="36.348260" lon="127.282395"><ele>367.4</ele><time>2026-09-20T21:30:48.579Z</time></trkpt>
      <trkpt lat="36.348382" lon="127.282279"><ele>372.4</ele><time>2026-09-20T21:31:13.092Z</time></trkpt>
      <trkpt lat="36.348557" lon="127.282123"><ele>379.1</ele><time>2026-09-20T21:31:47.623Z</time></trkpt>
      <trkpt lat="36.348633" lon="127.282018"><ele>383.3</ele><time>2026-09-20T21:32:05.797Z</time></trkpt>
      <trkpt lat="36.348645" lon="127.281873"><ele>389.7</ele><time>2026-09-20T21:32:24.636Z</time></trkpt>
      <trkpt lat="36.348814" lon="127.281700"><ele>395.6</ele><time>2026-09-20T21:32:59.675Z</time></trkpt>
      <trkpt lat="36.348963" lon="127.281564"><ele>405.2</ele><time>2026-09-20T21:33:29.303Z</time></trkpt>
      <trkpt lat="36.349012" lon="127.281436"><ele>413.3</ele><time>2026-09-20T21:33:47.566Z</time></trkpt>
      <trkpt lat="36.349018" lon="127.281200"><ele>418.4</ele><time>2026-09-20T21:34:17.966Z</time></trkpt>
      <trkpt lat="36.349095" lon="127.280913"><ele>424.8</ele><time>2026-09-20T21:34:56.996Z</time></trkpt>
      <trkpt lat="36.349149" lon="127.280680"><ele>433.6</ele><time>2026-09-20T21:35:28.332Z</time></trkpt>
      <trkpt lat="36.349279" lon="127.280536"><ele>439.5</ele><time>2026-09-20T21:35:56.229Z</time></trkpt>
      <trkpt lat="36.349410" lon="127.280372"><ele>444.4</ele><time>2026-09-20T21:36:25.970Z</time></trkpt>
      <trkpt lat="36.349455" lon="127.280042"><ele>450.4</ele><time>2026-09-20T21:37:09.109Z</time></trkpt>
      <trkpt lat="36.349519" lon="127.279903"><ele>454.1</ele><time>2026-09-20T21:37:29.708Z</time></trkpt>
      <trkpt lat="36.349511" lon="127.279688"><ele>455.5</ele><time>2026-09-20T21:37:57.453Z</time></trkpt>
      <trkpt lat="36.349383" lon="127.279627"><ele>456.0</ele><time>2026-09-20T21:38:19.465Z</time></trkpt>
      <trkpt lat="36.349246" lon="127.279564"><ele>460.8</ele><time>2026-09-20T21:38:42.740Z</time></trkpt>
      <trkpt lat="36.349056" lon="127.279559"><ele>464.2</ele><time>2026-09-20T21:39:13.188Z</time></trkpt>
      <trkpt lat="36.348975" lon="127.279452"><ele>470.2</ele><time>2026-09-20T21:39:32.118Z</time></trkpt>
      <trkpt lat="36.348970" lon="127.279354"><ele>478.4</ele><time>2026-09-20T21:39:44.674Z</time></trkpt>
      <trkpt lat="36.349099" lon="127.279356"><ele>489.2</ele><time>2026-09-20T21:40:05.250Z</time></trkpt>
      <trkpt lat="36.349233" lon="127.279199"><ele>498.0</ele><time>2026-09-20T21:40:34.869Z</time></trkpt>
      <trkpt lat="36.349428" lon="127.279103"><ele>509.2</ele><time>2026-09-20T21:41:08.355Z</time></trkpt>
      <trkpt lat="36.349579" lon="127.279010"><ele>519.2</ele><time>2026-09-20T21:41:35.389Z</time></trkpt>
      <trkpt lat="36.349460" lon="127.278800"><ele>526.3</ele><time>2026-09-20T21:42:08.489Z</time></trkpt>
      <trkpt lat="36.349367" lon="127.278654"><ele>530.8</ele><time>2026-09-20T21:42:32.484Z</time></trkpt>
      <trkpt lat="36.349206" lon="127.278511"><ele>532.6</ele><time>2026-09-20T21:43:04.107Z</time></trkpt>
      <trkpt lat="36.349107" lon="127.278360"><ele>533.7</ele><time>2026-09-20T21:43:29.271Z</time></trkpt>
      <trkpt lat="36.349098" lon="127.278136"><ele>535.1</ele><time>2026-09-20T21:43:58.295Z</time></trkpt>
      <trkpt lat="36.349039" lon="127.277988"><ele>536.2</ele><time>2026-09-20T21:44:19.585Z</time></trkpt>
      <trkpt lat="36.349023" lon="127.277876"><ele>538.0</ele><time>2026-09-20T21:44:34.240Z</time></trkpt>
      <trkpt lat="36.349035" lon="127.277834"><ele>539.3</ele><time>2026-09-20T21:44:39.979Z</time></trkpt>
      <trkpt lat="36.349023" lon="127.277876"><ele>539.0</ele><time>2026-09-20T21:44:45.717Z</time></trkpt>
      <trkpt lat="36.348927" lon="127.277928"><ele>537.7</ele><time>2026-09-20T21:45:02.540Z</time></trkpt>
      <trkpt lat="36.348702" lon="127.277850"><ele>535.6</ele><time>2026-09-20T21:45:39.997Z</time></trkpt>
      <trkpt lat="36.348479" lon="127.277828"><ele>534.6</ele><time>2026-09-20T21:46:15.756Z</time></trkpt>
      <trkpt lat="36.348442" lon="127.277811"><ele>533.9</ele><time>2026-09-20T21:46:21.988Z</time></trkpt>
      <trkpt lat="36.348226" lon="127.277666"><ele>533.9</ele><time>2026-09-20T21:47:01.393Z</time></trkpt>
      <trkpt lat="36.348168" lon="127.277667"><ele>533.6</ele><time>2026-09-20T21:47:10.641Z</time></trkpt>
      <trkpt lat="36.348057" lon="127.277683"><ele>533.6</ele><time>2026-09-20T21:47:28.479Z</time></trkpt>
      <trkpt lat="36.347936" lon="127.277617"><ele>532.4</ele><time>2026-09-20T21:47:49.715Z</time></trkpt>
      <trkpt lat="36.347830" lon="127.277541"><ele>531.0</ele><time>2026-09-20T21:48:09.401Z</time></trkpt>
      <trkpt lat="36.347721" lon="127.277531"><ele>529.3</ele><time>2026-09-20T21:48:26.803Z</time></trkpt>
      <trkpt lat="36.347711" lon="127.277441"><ele>527.0</ele><time>2026-09-20T21:48:38.466Z</time></trkpt>
      <trkpt lat="36.347648" lon="127.277415"><ele>524.9</ele><time>2026-09-20T21:48:49.030Z</time></trkpt>
      <trkpt lat="36.347461" lon="127.277424"><ele>522.7</ele><time>2026-09-20T21:49:19.035Z</time></trkpt>
      <trkpt lat="36.347343" lon="127.277329"><ele>519.4</ele><time>2026-09-20T21:49:41.599Z</time></trkpt>
      <trkpt lat="36.347115" lon="127.277261"><ele>516.0</ele><time>2026-09-20T21:50:19.045Z</time></trkpt>
      <trkpt lat="36.346888" lon="127.277146"><ele>514.9</ele><time>2026-09-20T21:50:58.378Z</time></trkpt>
      <trkpt lat="36.346765" lon="127.276988"><ele>514.7</ele><time>2026-09-20T21:51:26.587Z</time></trkpt>
      <trkpt lat="36.346770" lon="127.276886"><ele>515.4</ele><time>2026-09-20T21:51:39.837Z</time></trkpt>
      <trkpt lat="36.346688" lon="127.276792"><ele>517.8</ele><time>2026-09-20T21:51:57.684Z</time></trkpt>
      <trkpt lat="36.346646" lon="127.276693"><ele>522.0</ele><time>2026-09-20T21:52:12.104Z</time></trkpt>
      <trkpt lat="36.346587" lon="127.276668"><ele>523.5</ele><time>2026-09-20T21:52:22.094Z</time></trkpt>
      <trkpt lat="36.346402" lon="127.276570"><ele>524.7</ele><time>2026-09-20T21:52:54.211Z</time></trkpt>
      <trkpt lat="36.346315" lon="127.276523"><ele>527.3</ele><time>2026-09-20T21:53:09.530Z</time></trkpt>
      <trkpt lat="36.346107" lon="127.276308"><ele>529.7</ele><time>2026-09-20T21:53:52.896Z</time></trkpt>
      <trkpt lat="36.345964" lon="127.276215"><ele>530.9</ele><time>2026-09-20T21:54:18.623Z</time></trkpt>
      <trkpt lat="36.345809" lon="127.276151"><ele>533.4</ele><time>2026-09-20T21:54:44.853Z</time></trkpt>
      <trkpt lat="36.345668" lon="127.276026"><ele>535.5</ele><time>2026-09-20T21:55:12.513Z</time></trkpt>
      <trkpt lat="36.345586" lon="127.275966"><ele>535.9</ele><time>2026-09-20T21:55:27.796Z</time></trkpt>
      <trkpt lat="36.345453" lon="127.275909"><ele>535.8</ele><time>2026-09-20T21:55:50.376Z</time></trkpt>
      <trkpt lat="36.345381" lon="127.275808"><ele>534.5</ele><time>2026-09-20T21:56:07.721Z</time></trkpt>
      <trkpt lat="36.345168" lon="127.275750"><ele>533.2</ele><time>2026-09-20T21:56:42.608Z</time></trkpt>
      <trkpt lat="36.345000" lon="127.275766"><ele>532.4</ele><time>2026-09-20T21:57:09.675Z</time></trkpt>
      <trkpt lat="36.344867" lon="127.275680"><ele>531.2</ele><time>2026-09-20T21:57:33.679Z</time></trkpt>
      <trkpt lat="36.344792" lon="127.275503"><ele>530.3</ele><time>2026-09-20T21:57:59.487Z</time></trkpt>
      <trkpt lat="36.344711" lon="127.275351"><ele>530.2</ele><time>2026-09-20T21:58:22.964Z</time></trkpt>
      <trkpt lat="36.344677" lon="127.275118"><ele>529.8</ele><time>2026-09-20T21:58:53.493Z</time></trkpt>
      <trkpt lat="36.344655" lon="127.274979"><ele>528.5</ele><time>2026-09-20T21:59:11.668Z</time></trkpt>
      <trkpt lat="36.344628" lon="127.274886"><ele>526.9</ele><time>2026-09-20T21:59:24.498Z</time></trkpt>
      <trkpt lat="36.344572" lon="127.274746"><ele>525.1</ele><time>2026-09-20T21:59:44.705Z</time></trkpt>
      <trkpt lat="36.344545" lon="127.274633"><ele>523.3</ele><time>2026-09-20T21:59:59.880Z</time></trkpt>
      <trkpt lat="36.344450" lon="127.274449"><ele>520.5</ele><time>2026-09-20T22:00:28.032Z</time></trkpt>
      <trkpt lat="36.344333" lon="127.274238"><ele>517.6</ele><time>2026-09-20T22:01:01.109Z</time></trkpt>
      <trkpt lat="36.344281" lon="127.274017"><ele>514.8</ele><time>2026-09-20T22:01:30.798Z</time></trkpt>
      <trkpt lat="36.344253" lon="127.273646"><ele>513.4</ele><time>2026-09-20T22:02:18.828Z</time></trkpt>
      <trkpt lat="36.344261" lon="127.273611"><ele>513.6</ele><time>2026-09-20T22:02:23.572Z</time></trkpt>
      <trkpt lat="36.344229" lon="127.273341"><ele>515.6</ele><time>2026-09-20T22:02:58.652Z</time></trkpt>
      <trkpt lat="36.344228" lon="127.272981"><ele>517.8</ele><time>2026-09-20T22:03:45.083Z</time></trkpt>
      <trkpt lat="36.344063" lon="127.272816"><ele>517.7</ele><time>2026-09-20T22:04:19.150Z</time></trkpt>
      <trkpt lat="36.343841" lon="127.272500"><ele>514.5</ele><time>2026-09-20T22:05:13.197Z</time></trkpt>
      <trkpt lat="36.343640" lon="127.272198"><ele>510.1</ele><time>2026-09-20T22:06:03.706Z</time></trkpt>
      <trkpt lat="36.343521" lon="127.271924"><ele>504.2</ele><time>2026-09-20T22:06:43.800Z</time></trkpt>
      <trkpt lat="36.343017" lon="127.271661"><ele>496.8</ele><time>2026-09-20T22:08:11.403Z</time></trkpt>
      <trkpt lat="36.342787" lon="127.271621"><ele>490.2</ele><time>2026-09-20T22:08:48.555Z</time></trkpt>
      <trkpt lat="36.342551" lon="127.271587"><ele>485.7</ele><time>2026-09-20T22:09:26.495Z</time></trkpt>
      <trkpt lat="36.342340" lon="127.271573"><ele>482.2</ele><time>2026-09-20T22:10:00.415Z</time></trkpt>
      <trkpt lat="36.342025" lon="127.271518"><ele>480.2</ele><time>2026-09-20T22:10:51.347Z</time></trkpt>
      <trkpt lat="36.341908" lon="127.271470"><ele>478.9</ele><time>2026-09-20T22:11:11.000Z</time></trkpt>
      <trkpt lat="36.341590" lon="127.271430"><ele>477.2</ele><time>2026-09-20T22:12:02.294Z</time></trkpt>
      <trkpt lat="36.341454" lon="127.271274"><ele>475.0</ele><time>2026-09-20T22:12:31.884Z</time></trkpt>
      <trkpt lat="36.341243" lon="127.271041"><ele>469.9</ele><time>2026-09-20T22:13:17.047Z</time></trkpt>
      <trkpt lat="36.341202" lon="127.270995"><ele>462.8</ele><time>2026-09-20T22:13:25.906Z</time></trkpt>
      <trkpt lat="36.341113" lon="127.270779"><ele>455.5</ele><time>2026-09-20T22:13:57.225Z</time></trkpt>
      <trkpt lat="36.340996" lon="127.270704"><ele>449.5</ele><time>2026-09-20T22:14:18.243Z</time></trkpt>
      <trkpt lat="36.340916" lon="127.270576"><ele>445.0</ele><time>2026-09-20T22:14:39.243Z</time></trkpt>
      <trkpt lat="36.340909" lon="127.270532"><ele>440.3</ele><time>2026-09-20T22:14:45.012Z</time></trkpt>
      <trkpt lat="36.340838" lon="127.270535"><ele>436.6</ele><time>2026-09-20T22:14:56.373Z</time></trkpt>
      <trkpt lat="36.340779" lon="127.270454"><ele>432.8</ele><time>2026-09-20T22:15:10.425Z</time></trkpt>
      <trkpt lat="36.340743" lon="127.270403"><ele>429.2</ele><time>2026-09-20T22:15:19.221Z</time></trkpt>
      <trkpt lat="36.340704" lon="127.270360"><ele>426.4</ele><time>2026-09-20T22:15:27.545Z</time></trkpt>
      <trkpt lat="36.340675" lon="127.270305"><ele>427.2</ele><time>2026-09-20T22:15:36.026Z</time></trkpt>
      <trkpt lat="36.340406" lon="127.270100"><ele>428.1</ele><time>2026-09-20T22:16:26.525Z</time></trkpt>
      <trkpt lat="36.340227" lon="127.270027"><ele>430.5</ele><time>2026-09-20T22:16:56.750Z</time></trkpt>
      <trkpt lat="36.339905" lon="127.269930"><ele>433.9</ele><time>2026-09-20T22:17:49.786Z</time></trkpt>
      <trkpt lat="36.339813" lon="127.269795"><ele>438.6</ele><time>2026-09-20T22:18:12.710Z</time></trkpt>
      <trkpt lat="36.339707" lon="127.269582"><ele>442.8</ele><time>2026-09-20T22:18:44.939Z</time></trkpt>
      <trkpt lat="36.339579" lon="127.269287"><ele>447.3</ele><time>2026-09-20T22:19:28.107Z</time></trkpt>
      <trkpt lat="36.339478" lon="127.269082"><ele>453.8</ele><time>2026-09-20T22:19:59.125Z</time></trkpt>
      <trkpt lat="36.339422" lon="127.268863"><ele>460.8</ele><time>2026-09-20T22:20:28.833Z</time></trkpt>
      <trkpt lat="36.339428" lon="127.268606"><ele>467.0</ele><time>2026-09-20T22:21:01.906Z</time></trkpt>
      <trkpt lat="36.339408" lon="127.268458"><ele>473.0</ele><time>2026-09-20T22:21:21.357Z</time></trkpt>
      <trkpt lat="36.339372" lon="127.268339"><ele>478.6</ele><time>2026-09-20T22:21:37.658Z</time></trkpt>
      <trkpt lat="36.339108" lon="127.267936"><ele>482.2</ele><time>2026-09-20T22:22:44.786Z</time></trkpt>
      <trkpt lat="36.339043" lon="127.267805"><ele>485.3</ele><time>2026-09-20T22:23:04.621Z</time></trkpt>
      <trkpt lat="36.338968" lon="127.267512"><ele>486.6</ele><time>2026-09-20T22:23:44.269Z</time></trkpt>
      <trkpt lat="36.338907" lon="127.267228"><ele>487.0</ele><time>2026-09-20T22:24:22.105Z</time></trkpt>
      <trkpt lat="36.338803" lon="127.267168"><ele>486.7</ele><time>2026-09-20T22:24:40.514Z</time></trkpt>
      <trkpt lat="36.338736" lon="127.267166"><ele>486.8</ele><time>2026-09-20T22:24:51.201Z</time></trkpt>
      <trkpt lat="36.338449" lon="127.267120"><ele>486.3</ele><time>2026-09-20T22:25:37.552Z</time></trkpt>
      <trkpt lat="36.338229" lon="127.267037"><ele>485.8</ele><time>2026-09-20T22:26:14.366Z</time></trkpt>
      <trkpt lat="36.337978" lon="127.267130"><ele>484.6</ele><time>2026-09-20T22:26:56.270Z</time></trkpt>
      <trkpt lat="36.337811" lon="127.267182"><ele>483.8</ele><time>2026-09-20T22:27:23.814Z</time></trkpt>
      <trkpt lat="36.337584" lon="127.267240"><ele>482.8</ele><time>2026-09-20T22:28:00.886Z</time></trkpt>
      <trkpt lat="36.337418" lon="127.267276"><ele>481.2</ele><time>2026-09-20T22:28:27.892Z</time></trkpt>
      <trkpt lat="36.337079" lon="127.267272"><ele>479.7</ele><time>2026-09-20T22:29:22.196Z</time></trkpt>
      <trkpt lat="36.336732" lon="127.267307"><ele>479.0</ele><time>2026-09-20T22:30:17.952Z</time></trkpt>
      <trkpt lat="36.336383" lon="127.267260"><ele>478.4</ele><time>2026-09-20T22:31:14.133Z</time></trkpt>
      <trkpt lat="36.336201" lon="127.267280"><ele>477.3</ele><time>2026-09-20T22:31:43.385Z</time></trkpt>
      <trkpt lat="36.336136" lon="127.267348"><ele>476.2</ele><time>2026-09-20T22:31:56.954Z</time></trkpt>
      <trkpt lat="36.335857" lon="127.267387"><ele>475.0</ele><time>2026-09-20T22:32:41.952Z</time></trkpt>
      <trkpt lat="36.335675" lon="127.267405"><ele>473.4</ele><time>2026-09-20T22:33:11.181Z</time></trkpt>
      <trkpt lat="36.335506" lon="127.267429"><ele>471.1</ele><time>2026-09-20T22:33:38.443Z</time></trkpt>
      <trkpt lat="36.335412" lon="127.267431"><ele>469.4</ele><time>2026-09-20T22:33:53.531Z</time></trkpt>
      <trkpt lat="36.335012" lon="127.267313"><ele>468.0</ele><time>2026-09-20T22:34:59.338Z</time></trkpt>
      <trkpt lat="36.334907" lon="127.267264"><ele>466.5</ele><time>2026-09-20T22:35:17.336Z</time></trkpt>
      <trkpt lat="36.334768" lon="127.267226"><ele>465.1</ele><time>2026-09-20T22:35:40.079Z</time></trkpt>
      <trkpt lat="36.334620" lon="127.267240"><ele>464.0</ele><time>2026-09-20T22:36:03.862Z</time></trkpt>
      <trkpt lat="36.334398" lon="127.267285"><ele>463.5</ele><time>2026-09-20T22:36:39.822Z</time></trkpt>
      <trkpt lat="36.334116" lon="127.267285"><ele>462.6</ele><time>2026-09-20T22:37:24.998Z</time></trkpt>
      <trkpt lat="36.333905" lon="127.267210"><ele>461.2</ele><time>2026-09-20T22:38:00.150Z</time></trkpt>
      <trkpt lat="36.333822" lon="127.267255"><ele>459.6</ele><time>2026-09-20T22:38:14.585Z</time></trkpt>
      <trkpt lat="36.333663" lon="127.267396"><ele>458.4</ele><time>2026-09-20T22:38:45.943Z</time></trkpt>
      <trkpt lat="36.333463" lon="127.267463"><ele>457.4</ele><time>2026-09-20T22:39:19.088Z</time></trkpt>
      <trkpt lat="36.333293" lon="127.267493"><ele>457.4</ele><time>2026-09-20T22:39:46.623Z</time></trkpt>
      <trkpt lat="36.332916" lon="127.267552"><ele>458.0</ele><time>2026-09-20T22:40:47.497Z</time></trkpt>
      <trkpt lat="36.332790" lon="127.267671"><ele>459.3</ele><time>2026-09-20T22:41:12.753Z</time></trkpt>
      <trkpt lat="36.332617" lon="127.267779"><ele>460.8</ele><time>2026-09-20T22:41:43.719Z</time></trkpt>
      <trkpt lat="36.332541" lon="127.267839"><ele>462.2</ele><time>2026-09-20T22:41:58.157Z</time></trkpt>
      <trkpt lat="36.332288" lon="127.267870"><ele>463.1</ele><time>2026-09-20T22:42:38.898Z</time></trkpt>
      <trkpt lat="36.332106" lon="127.267949"><ele>464.4</ele><time>2026-09-20T22:43:09.775Z</time></trkpt>
      <trkpt lat="36.331895" lon="127.268027"><ele>465.4</ele><time>2026-09-20T22:43:45.005Z</time></trkpt>
      <trkpt lat="36.331719" lon="127.268022"><ele>466.4</ele><time>2026-09-20T22:44:13.154Z</time></trkpt>
      <trkpt lat="36.331685" lon="127.268054"><ele>467.8</ele><time>2026-09-20T22:44:20.035Z</time></trkpt>
      <trkpt lat="36.331638" lon="127.268253"><ele>468.2</ele><time>2026-09-20T22:44:46.839Z</time></trkpt>
      <trkpt lat="36.331465" lon="127.268663"><ele>468.4</ele><time>2026-09-20T22:45:46.498Z</time></trkpt>
      <trkpt lat="36.331444" lon="127.268803"><ele>469.0</ele><time>2026-09-20T22:46:04.865Z</time></trkpt>
      <trkpt lat="36.331434" lon="127.268964"><ele>470.9</ele><time>2026-09-20T22:46:25.779Z</time></trkpt>
      <trkpt lat="36.331409" lon="127.269122"><ele>471.5</ele><time>2026-09-20T22:46:46.466Z</time></trkpt>
      <trkpt lat="36.331320" lon="127.269278"><ele>473.1</ele><time>2026-09-20T22:47:11.170Z</time></trkpt>
      <trkpt lat="36.331236" lon="127.269378"><ele>474.7</ele><time>2026-09-20T22:47:29.816Z</time></trkpt>
      <trkpt lat="36.331216" lon="127.269433"><ele>474.5</ele><time>2026-09-20T22:47:37.474Z</time></trkpt>
      <trkpt lat="36.331159" lon="127.269592"><ele>472.7</ele><time>2026-09-20T22:47:59.959Z</time></trkpt>
      <trkpt lat="36.331070" lon="127.269733"><ele>469.6</ele><time>2026-09-20T22:48:23.140Z</time></trkpt>
      <trkpt lat="36.330955" lon="127.269968"><ele>465.8</ele><time>2026-09-20T22:48:58.581Z</time></trkpt>
      <trkpt lat="36.330966" lon="127.270096"><ele>462.2</ele><time>2026-09-20T22:49:15.222Z</time></trkpt>
      <trkpt lat="36.330972" lon="127.270207"><ele>458.4</ele><time>2026-09-20T22:49:29.488Z</time></trkpt>
      <trkpt lat="36.330920" lon="127.270331"><ele>455.4</ele><time>2026-09-20T22:49:47.574Z</time></trkpt>
      <trkpt lat="36.330872" lon="127.270643"><ele>452.8</ele><time>2026-09-20T22:50:28.530Z</time></trkpt>
      <trkpt lat="36.330878" lon="127.270707"><ele>450.2</ele><time>2026-09-20T22:50:36.932Z</time></trkpt>
      <trkpt lat="36.330933" lon="127.270894"><ele>447.3</ele><time>2026-09-20T22:51:02.524Z</time></trkpt>
      <trkpt lat="36.331005" lon="127.270966"><ele>445.3</ele><time>2026-09-20T22:51:17.315Z</time></trkpt>
      <trkpt lat="36.331135" lon="127.271154"><ele>444.0</ele><time>2026-09-20T22:51:49.299Z</time></trkpt>
      <trkpt lat="36.331167" lon="127.271258"><ele>443.9</ele><time>2026-09-20T22:52:03.702Z</time></trkpt>
      <trkpt lat="36.331164" lon="127.271477"><ele>445.0</ele><time>2026-09-20T22:52:31.893Z</time></trkpt>
      <trkpt lat="36.331129" lon="127.271735"><ele>446.9</ele><time>2026-09-20T22:53:05.637Z</time></trkpt>
      <trkpt lat="36.331019" lon="127.271906"><ele>449.0</ele><time>2026-09-20T22:53:33.853Z</time></trkpt>
      <trkpt lat="36.331010" lon="127.272034"><ele>450.8</ele><time>2026-09-20T22:53:50.428Z</time></trkpt>
      <trkpt lat="36.330958" lon="127.272181"><ele>450.6</ele><time>2026-09-20T22:54:11.168Z</time></trkpt>
      <trkpt lat="36.330851" lon="127.272466"><ele>449.6</ele><time>2026-09-20T22:54:51.667Z</time></trkpt>
      <trkpt lat="36.330807" lon="127.272697"><ele>448.0</ele><time>2026-09-20T22:55:22.369Z</time></trkpt>
      <trkpt lat="36.330814" lon="127.272858"><ele>447.0</ele><time>2026-09-20T22:55:43.086Z</time></trkpt>
      <trkpt lat="36.330857" lon="127.273046"><ele>445.8</ele><time>2026-09-20T22:56:08.363Z</time></trkpt>
      <trkpt lat="36.330864" lon="127.273142"><ele>445.2</ele><time>2026-09-20T22:56:20.820Z</time></trkpt>
      <trkpt lat="36.330909" lon="127.273271"><ele>444.0</ele><time>2026-09-20T22:56:38.895Z</time></trkpt>
      <trkpt lat="36.330938" lon="127.273330"><ele>443.2</ele><time>2026-09-20T22:56:47.909Z</time></trkpt>
      <trkpt lat="36.330959" lon="127.273543"><ele>443.6</ele><time>2026-09-20T22:57:15.556Z</time></trkpt>
      <trkpt lat="36.330993" lon="127.273795"><ele>445.0</ele><time>2026-09-20T22:57:48.473Z</time></trkpt>
      <trkpt lat="36.331040" lon="127.273991"><ele>447.4</ele><time>2026-09-20T22:58:14.926Z</time></trkpt>
      <trkpt lat="36.331056" lon="127.274202"><ele>450.5</ele><time>2026-09-20T22:58:42.254Z</time></trkpt>
      <trkpt lat="36.331007" lon="127.274439"><ele>455.9</ele><time>2026-09-20T22:59:13.774Z</time></trkpt>
      <trkpt lat="36.331008" lon="127.274719"><ele>460.3</ele><time>2026-09-20T22:59:49.822Z</time></trkpt>
      <trkpt lat="36.331111" lon="127.274995"><ele>463.8</ele><time>2026-09-20T23:00:29.080Z</time></trkpt>
      <trkpt lat="36.331175" lon="127.275123"><ele>466.8</ele><time>2026-09-20T23:00:48.509Z</time></trkpt>
      <trkpt lat="36.331216" lon="127.275191"><ele>469.6</ele><time>2026-09-20T23:00:59.465Z</time></trkpt>
      <trkpt lat="36.331282" lon="127.275224"><ele>468.4</ele><time>2026-09-20T23:01:10.982Z</time></trkpt>
      <trkpt lat="36.331356" lon="127.275322"><ele>466.3</ele><time>2026-09-20T23:01:28.269Z</time></trkpt>
      <trkpt lat="36.331480" lon="127.275477"><ele>463.3</ele><time>2026-09-20T23:01:56.440Z</time></trkpt>
      <trkpt lat="36.331497" lon="127.275573"><ele>460.2</ele><time>2026-09-20T23:02:09.147Z</time></trkpt>
      <trkpt lat="36.331481" lon="127.275823"><ele>457.3</ele><time>2026-09-20T23:02:41.391Z</time></trkpt>
      <trkpt lat="36.331495" lon="127.275809"><ele>456.1</ele><time>2026-09-20T23:02:44.323Z</time></trkpt>
      <trkpt lat="36.331481" lon="127.275823"><ele>455.6</ele><time>2026-09-20T23:02:47.255Z</time></trkpt>
      <trkpt lat="36.331452" lon="127.275999"><ele>456.2</ele><time>2026-09-20T23:03:10.531Z</time></trkpt>
      <trkpt lat="36.331315" lon="127.276213"><ele>456.9</ele><time>2026-09-20T23:03:45.719Z</time></trkpt>
      <trkpt lat="36.331218" lon="127.276290"><ele>457.6</ele><time>2026-09-20T23:04:04.143Z</time></trkpt>
      <trkpt lat="36.331167" lon="127.276386"><ele>458.3</ele><time>2026-09-20T23:04:18.967Z</time></trkpt>
      <trkpt lat="36.331097" lon="127.276534"><ele>459.4</ele><time>2026-09-20T23:04:41.140Z</time></trkpt>
      <trkpt lat="36.330994" lon="127.276719"><ele>460.6</ele><time>2026-09-20T23:05:10.071Z</time></trkpt>
      <trkpt lat="36.330899" lon="127.276872"><ele>461.3</ele><time>2026-09-20T23:05:35.000Z</time></trkpt>
      <trkpt lat="36.330853" lon="127.276978"><ele>462.0</ele><time>2026-09-20T23:05:50.472Z</time></trkpt>
      <trkpt lat="36.330684" lon="127.277217"><ele>462.4</ele><time>2026-09-20T23:06:31.625Z</time></trkpt>
      <trkpt lat="36.330671" lon="127.277238"><ele>462.0</ele><time>2026-09-20T23:06:35.002Z</time></trkpt>
      <trkpt lat="36.330531" lon="127.277376"><ele>461.3</ele><time>2026-09-20T23:07:03.545Z</time></trkpt>
      <trkpt lat="36.330440" lon="127.277493"><ele>461.0</ele><time>2026-09-20T23:07:24.533Z</time></trkpt>
      <trkpt lat="36.330351" lon="127.277546"><ele>460.7</ele><time>2026-09-20T23:07:40.479Z</time></trkpt>
      <trkpt lat="36.330227" lon="127.277693"><ele>460.9</ele><time>2026-09-20T23:08:07.928Z</time></trkpt>
      <trkpt lat="36.330176" lon="127.277749"><ele>461.8</ele><time>2026-09-20T23:08:18.754Z</time></trkpt>
      <trkpt lat="36.330086" lon="127.277851"><ele>462.5</ele><time>2026-09-20T23:08:38.229Z</time></trkpt>
      <trkpt lat="36.330008" lon="127.277880"><ele>462.6</ele><time>2026-09-20T23:08:51.333Z</time></trkpt>
      <trkpt lat="36.329942" lon="127.277981"><ele>461.8</ele><time>2026-09-20T23:09:08.080Z</time></trkpt>
      <trkpt lat="36.329847" lon="127.278009"><ele>459.5</ele><time>2026-09-20T23:09:23.766Z</time></trkpt>
      <trkpt lat="36.329794" lon="127.278039"><ele>456.1</ele><time>2026-09-20T23:09:32.944Z</time></trkpt>
      <trkpt lat="36.329761" lon="127.278239"><ele>453.4</ele><time>2026-09-20T23:09:59.324Z</time></trkpt>
      <trkpt lat="36.329691" lon="127.278337"><ele>452.1</ele><time>2026-09-20T23:10:16.267Z</time></trkpt>
      <trkpt lat="36.329595" lon="127.278626"><ele>452.1</ele><time>2026-09-20T23:10:56.571Z</time></trkpt>
      <trkpt lat="36.329619" lon="127.278776"><ele>453.8</ele><time>2026-09-20T23:11:16.266Z</time></trkpt>
      <trkpt lat="36.329585" lon="127.278833"><ele>457.1</ele><time>2026-09-20T23:11:25.331Z</time></trkpt>
      <trkpt lat="36.329539" lon="127.278896"><ele>460.8</ele><time>2026-09-20T23:11:36.268Z</time></trkpt>
      <trkpt lat="36.329548" lon="127.279006"><ele>465.2</ele><time>2026-09-20T23:11:50.587Z</time></trkpt>
      <trkpt lat="36.329508" lon="127.279115"><ele>470.8</ele><time>2026-09-20T23:12:06.136Z</time></trkpt>
      <trkpt lat="36.329462" lon="127.279321"><ele>475.8</ele><time>2026-09-20T23:12:33.621Z</time></trkpt>
      <trkpt lat="36.329474" lon="127.279521"><ele>479.7</ele><time>2026-09-20T23:12:59.550Z</time></trkpt>
      <trkpt lat="36.329427" lon="127.279614"><ele>483.2</ele><time>2026-09-20T23:13:13.628Z</time></trkpt>
      <trkpt lat="36.329359" lon="127.279746"><ele>486.3</ele><time>2026-09-20T23:13:33.863Z</time></trkpt>
      <trkpt lat="36.329315" lon="127.279847"><ele>488.9</ele><time>2026-09-20T23:13:48.691Z</time></trkpt>
      <trkpt lat="36.329321" lon="127.279970"><ele>492.0</ele><time>2026-09-20T23:14:04.585Z</time></trkpt>
      <trkpt lat="36.329296" lon="127.280081"><ele>495.8</ele><time>2026-09-20T23:14:19.519Z</time></trkpt>
      <trkpt lat="36.329333" lon="127.280125"><ele>499.8</ele><time>2026-09-20T23:14:27.697Z</time></trkpt>
      <trkpt lat="36.329364" lon="127.280186"><ele>503.3</ele><time>2026-09-20T23:14:37.007Z</time></trkpt>
      <trkpt lat="36.329373" lon="127.280251"><ele>506.4</ele><time>2026-09-20T23:14:45.473Z</time></trkpt>
      <trkpt lat="36.329357" lon="127.280349"><ele>509.8</ele><time>2026-09-20T23:14:58.349Z</time></trkpt>
      <trkpt lat="36.329273" lon="127.280380"><ele>513.7</ele><time>2026-09-20T23:15:12.378Z</time></trkpt>
      <trkpt lat="36.329214" lon="127.280455"><ele>517.6</ele><time>2026-09-20T23:15:25.905Z</time></trkpt>
      <trkpt lat="36.329170" lon="127.280561"><ele>521.3</ele><time>2026-09-20T23:15:41.237Z</time></trkpt>
      <trkpt lat="36.329137" lon="127.280642"><ele>524.5</ele><time>2026-09-20T23:15:52.999Z</time></trkpt>
      <trkpt lat="36.329107" lon="127.280704"><ele>526.6</ele><time>2026-09-20T23:16:02.316Z</time></trkpt>
      <trkpt lat="36.329051" lon="127.280786"><ele>527.9</ele><time>2026-09-20T23:16:16.112Z</time></trkpt>
      <trkpt lat="36.329025" lon="127.280822"><ele>528.5</ele><time>2026-09-20T23:16:22.352Z</time></trkpt>
      <trkpt lat="36.329051" lon="127.280786"><ele>528.2</ele><time>2026-09-20T23:16:28.592Z</time></trkpt>
      <trkpt lat="36.329071" lon="127.280845"><ele>527.1</ele><time>2026-09-20T23:16:36.836Z</time></trkpt>
      <trkpt lat="36.329101" lon="127.280868"><ele>525.6</ele><time>2026-09-20T23:16:42.583Z</time></trkpt>
      <trkpt lat="36.329139" lon="127.280950"><ele>523.9</ele><time>2026-09-20T23:16:54.665Z</time></trkpt>
      <trkpt lat="36.329185" lon="127.280998"><ele>521.2</ele><time>2026-09-20T23:17:04.419Z</time></trkpt>
      <trkpt lat="36.329212" lon="127.281021"><ele>518.4</ele><time>2026-09-20T23:17:09.604Z</time></trkpt>
      <trkpt lat="36.329307" lon="127.281028"><ele>516.2</ele><time>2026-09-20T23:17:24.826Z</time></trkpt>
      <trkpt lat="36.329398" lon="127.281028"><ele>513.9</ele><time>2026-09-20T23:17:39.441Z</time></trkpt>
      <trkpt lat="36.329440" lon="127.281022"><ele>511.6</ele><time>2026-09-20T23:17:46.128Z</time></trkpt>
      <trkpt lat="36.329526" lon="127.281048"><ele>509.9</ele><time>2026-09-20T23:18:00.305Z</time></trkpt>
      <trkpt lat="36.329556" lon="127.281062"><ele>508.7</ele><time>2026-09-20T23:18:05.484Z</time></trkpt>
      <trkpt lat="36.329637" lon="127.281080"><ele>507.4</ele><time>2026-09-20T23:18:18.618Z</time></trkpt>
      <trkpt lat="36.329686" lon="127.281120"><ele>504.6</ele><time>2026-09-20T23:18:28.099Z</time></trkpt>
      <trkpt lat="36.329759" lon="127.281137"><ele>502.8</ele><time>2026-09-20T23:18:39.889Z</time></trkpt>
      <trkpt lat="36.329836" lon="127.281143"><ele>501.0</ele><time>2026-09-20T23:18:52.354Z</time></trkpt>
      <trkpt lat="36.329973" lon="127.281189"><ele>499.1</ele><time>2026-09-20T23:19:14.975Z</time></trkpt>
      <trkpt lat="36.330046" lon="127.281281"><ele>496.0</ele><time>2026-09-20T23:19:31.668Z</time></trkpt>
      <trkpt lat="36.330070" lon="127.281303"><ele>495.2</ele><time>2026-09-20T23:19:36.455Z</time></trkpt>
      <trkpt lat="36.330125" lon="127.281315"><ele>494.1</ele><time>2026-09-20T23:19:45.426Z</time></trkpt>
      <trkpt lat="36.330145" lon="127.281325"><ele>493.3</ele><time>2026-09-20T23:19:48.866Z</time></trkpt>
      <trkpt lat="36.330184" lon="127.281370"><ele>492.6</ele><time>2026-09-20T23:19:57.368Z</time></trkpt>
      <trkpt lat="36.330242" lon="127.281420"><ele>491.9</ele><time>2026-09-20T23:20:08.685Z</time></trkpt>
      <trkpt lat="36.330303" lon="127.281468"><ele>491.4</ele><time>2026-09-20T23:20:20.219Z</time></trkpt>
      <trkpt lat="36.330355" lon="127.281540"><ele>491.0</ele><time>2026-09-20T23:20:32.684Z</time></trkpt>
      <trkpt lat="36.330420" lon="127.281616"><ele>490.3</ele><time>2026-09-20T23:20:47.073Z</time></trkpt>
      <trkpt lat="36.330438" lon="127.281690"><ele>489.8</ele><time>2026-09-20T23:20:56.972Z</time></trkpt>
      <trkpt lat="36.330456" lon="127.281773"><ele>489.1</ele><time>2026-09-20T23:21:08.145Z</time></trkpt>
      <trkpt lat="36.330479" lon="127.281836"><ele>488.3</ele><time>2026-09-20T23:21:17.005Z</time></trkpt>
      <trkpt lat="36.330512" lon="127.282023"><ele>487.8</ele><time>2026-09-20T23:21:41.786Z</time></trkpt>
      <trkpt lat="36.330546" lon="127.282114"><ele>488.0</ele><time>2026-09-20T23:21:54.714Z</time></trkpt>
      <trkpt lat="36.330578" lon="127.282148"><ele>488.2</ele><time>2026-09-20T23:22:01.466Z</time></trkpt>
      <trkpt lat="36.330648" lon="127.282298"><ele>487.6</ele><time>2026-09-20T23:22:23.757Z</time></trkpt>
      <trkpt lat="36.330675" lon="127.282355"><ele>486.0</ele><time>2026-09-20T23:22:32.264Z</time></trkpt>
      <trkpt lat="36.330678" lon="127.282471"><ele>483.4</ele><time>2026-09-20T23:22:47.313Z</time></trkpt>
      <trkpt lat="36.330672" lon="127.282575"><ele>480.5</ele><time>2026-09-20T23:23:00.805Z</time></trkpt>
      <trkpt lat="36.330680" lon="127.282674"><ele>477.6</ele><time>2026-09-20T23:23:13.594Z</time></trkpt>
      <trkpt lat="36.330652" lon="127.282712"><ele>475.3</ele><time>2026-09-20T23:23:20.170Z</time></trkpt>
      <trkpt lat="36.330650" lon="127.282765"><ele>473.5</ele><time>2026-09-20T23:23:27.021Z</time></trkpt>
      <trkpt lat="36.330672" lon="127.282841"><ele>472.6</ele><time>2026-09-20T23:23:37.445Z</time></trkpt>
      <trkpt lat="36.330684" lon="127.282986"><ele>472.2</ele><time>2026-09-20T23:23:56.239Z</time></trkpt>
      <trkpt lat="36.330686" lon="127.283013"><ele>472.0</ele><time>2026-09-20T23:23:59.674Z</time></trkpt>
      <trkpt lat="36.330674" lon="127.283070"><ele>471.8</ele><time>2026-09-20T23:24:07.292Z</time></trkpt>
      <trkpt lat="36.330649" lon="127.283149"><ele>471.1</ele><time>2026-09-20T23:24:18.189Z</time></trkpt>
      <trkpt lat="36.330682" lon="127.283265"><ele>469.8</ele><time>2026-09-20T23:24:34.073Z</time></trkpt>
      <trkpt lat="36.330742" lon="127.283409"><ele>467.6</ele><time>2026-09-20T23:24:55.047Z</time></trkpt>
      <trkpt lat="36.330774" lon="127.283490"><ele>465.4</ele><time>2026-09-20T23:25:06.618Z</time></trkpt>
      <trkpt lat="36.330812" lon="127.283553"><ele>462.7</ele><time>2026-09-20T23:25:16.809Z</time></trkpt>
      <trkpt lat="36.330815" lon="127.283564"><ele>460.1</ele><time>2026-09-20T23:25:18.328Z</time></trkpt>
      <trkpt lat="36.330800" lon="127.283678"><ele>456.8</ele><time>2026-09-20T23:25:33.195Z</time></trkpt>
      <trkpt lat="36.330778" lon="127.283720"><ele>454.0</ele><time>2026-09-20T23:25:39.587Z</time></trkpt>
      <trkpt lat="36.330742" lon="127.283794"><ele>449.6</ele><time>2026-09-20T23:25:50.749Z</time></trkpt>
      <trkpt lat="36.330724" lon="127.283821"><ele>444.7</ele><time>2026-09-20T23:25:55.314Z</time></trkpt>
      <trkpt lat="36.330687" lon="127.283913"><ele>439.7</ele><time>2026-09-20T23:26:08.515Z</time></trkpt>
      <trkpt lat="36.330701" lon="127.284058"><ele>435.4</ele><time>2026-09-20T23:26:27.470Z</time></trkpt>
      <trkpt lat="36.330699" lon="127.284182"><ele>431.0</ele><time>2026-09-20T23:26:43.412Z</time></trkpt>
      <trkpt lat="36.330767" lon="127.284397"><ele>428.3</ele><time>2026-09-20T23:27:13.235Z</time></trkpt>
      <trkpt lat="36.330772" lon="127.284509"><ele>427.2</ele><time>2026-09-20T23:27:27.710Z</time></trkpt>
      <trkpt lat="36.330761" lon="127.284588"><ele>427.0</ele><time>2026-09-20T23:27:38.061Z</time></trkpt>
      <trkpt lat="36.330778" lon="127.284701"><ele>427.0</ele><time>2026-09-20T23:27:52.810Z</time></trkpt>
      <trkpt lat="36.330783" lon="127.284774"><ele>427.2</ele><time>2026-09-20T23:28:02.237Z</time></trkpt>
      <trkpt lat="36.330755" lon="127.284936"><ele>427.2</ele><time>2026-09-20T23:28:23.628Z</time></trkpt>
      <trkpt lat="36.330752" lon="127.284960"><ele>426.7</ele><time>2026-09-20T23:28:26.745Z</time></trkpt>
      <trkpt lat="36.330727" lon="127.285070"><ele>425.2</ele><time>2026-09-20T23:28:41.485Z</time></trkpt>
      <trkpt lat="36.330739" lon="127.285124"><ele>423.9</ele><time>2026-09-20T23:28:48.767Z</time></trkpt>
      <trkpt lat="36.330765" lon="127.285222"><ele>422.1</ele><time>2026-09-20T23:29:02.152Z</time></trkpt>
      <trkpt lat="36.330778" lon="127.285286"><ele>420.4</ele><time>2026-09-20T23:29:10.569Z</time></trkpt>
      <trkpt lat="36.330799" lon="127.285341"><ele>418.2</ele><time>2026-09-20T23:29:18.504Z</time></trkpt>
      <trkpt lat="36.330803" lon="127.285360"><ele>416.0</ele><time>2026-09-20T23:29:21.000Z</time></trkpt>
      <trkpt lat="36.330816" lon="127.285408"><ele>413.6</ele><time>2026-09-20T23:29:27.505Z</time></trkpt>
      <trkpt lat="36.330798" lon="127.285463"><ele>411.1</ele><time>2026-09-20T23:29:35.182Z</time></trkpt>
      <trkpt lat="36.330817" lon="127.285502"><ele>408.3</ele><time>2026-09-20T23:29:41.107Z</time></trkpt>
      <trkpt lat="36.330848" lon="127.285560"><ele>405.8</ele><time>2026-09-20T23:29:49.972Z</time></trkpt>
      <trkpt lat="36.330864" lon="127.285608"><ele>403.0</ele><time>2026-09-20T23:29:56.762Z</time></trkpt>
      <trkpt lat="36.330883" lon="127.285651"><ele>400.4</ele><time>2026-09-20T23:30:03.072Z</time></trkpt>
      <trkpt lat="36.330935" lon="127.285736"><ele>398.0</ele><time>2026-09-20T23:30:16.792Z</time></trkpt>
      <trkpt lat="36.330980" lon="127.285757"><ele>395.4</ele><time>2026-09-20T23:30:24.579Z</time></trkpt>
      <trkpt lat="36.331014" lon="127.285802"><ele>393.0</ele><time>2026-09-20T23:30:32.467Z</time></trkpt>
      <trkpt lat="36.331086" lon="127.285866"><ele>391.0</ele><time>2026-09-20T23:30:46.699Z</time></trkpt>
      <trkpt lat="36.331101" lon="127.285925"><ele>388.9</ele><time>2026-09-20T23:30:54.631Z</time></trkpt>
      <trkpt lat="36.331157" lon="127.285983"><ele>386.8</ele><time>2026-09-20T23:31:06.325Z</time></trkpt>
      <trkpt lat="36.331183" lon="127.286080"><ele>385.0</ele><time>2026-09-20T23:31:19.562Z</time></trkpt>
      <trkpt lat="36.331183" lon="127.286174"><ele>383.0</ele><time>2026-09-20T23:31:31.672Z</time></trkpt>
      <trkpt lat="36.331193" lon="127.286257"><ele>379.8</ele><time>2026-09-20T23:31:42.541Z</time></trkpt>
      <trkpt lat="36.331228" lon="127.286334"><ele>377.0</ele><time>2026-09-20T23:31:53.887Z</time></trkpt>
      <trkpt lat="36.331275" lon="127.286526"><ele>374.0</ele><time>2026-09-20T23:32:19.779Z</time></trkpt>
      <trkpt lat="36.331289" lon="127.286575"><ele>370.4</ele><time>2026-09-20T23:32:26.474Z</time></trkpt>
      <trkpt lat="36.331308" lon="127.286641"><ele>366.7</ele><time>2026-09-20T23:32:35.506Z</time></trkpt>
      <trkpt lat="36.331343" lon="127.286780"><ele>363.8</ele><time>2026-09-20T23:32:54.336Z</time></trkpt>
      <trkpt lat="36.331378" lon="127.286886"><ele>360.3</ele><time>2026-09-20T23:33:09.099Z</time></trkpt>
      <trkpt lat="36.331377" lon="127.286975"><ele>356.9</ele><time>2026-09-20T23:33:20.604Z</time></trkpt>
      <trkpt lat="36.331371" lon="127.287037"><ele>353.4</ele><time>2026-09-20T23:33:28.568Z</time></trkpt>
      <trkpt lat="36.331373" lon="127.287075"><ele>350.3</ele><time>2026-09-20T23:33:33.514Z</time></trkpt>
      <trkpt lat="36.331396" lon="127.287179"><ele>347.3</ele><time>2026-09-20T23:33:47.448Z</time></trkpt>
      <trkpt lat="36.331402" lon="127.287210"><ele>344.8</ele><time>2026-09-20T23:33:51.568Z</time></trkpt>
      <trkpt lat="36.331440" lon="127.287287"><ele>341.9</ele><time>2026-09-20T23:34:03.211Z</time></trkpt>
      <trkpt lat="36.331462" lon="127.287309"><ele>339.9</ele><time>2026-09-20T23:34:07.733Z</time></trkpt>
      <trkpt lat="36.331453" lon="127.287412"><ele>337.2</ele><time>2026-09-20T23:34:21.056Z</time></trkpt>
      <trkpt lat="36.331453" lon="127.287429"><ele>334.1</ele><time>2026-09-20T23:34:23.211Z</time></trkpt>
      <trkpt lat="36.331495" lon="127.287526"><ele>331.3</ele><time>2026-09-20T23:34:37.331Z</time></trkpt>
      <trkpt lat="36.331531" lon="127.287631"><ele>328.6</ele><time>2026-09-20T23:34:52.164Z</time></trkpt>
      <trkpt lat="36.331556" lon="127.287725"><ele>322.4</ele><time>2026-09-20T23:35:04.894Z</time></trkpt>
      <trkpt lat="36.331561" lon="127.287880"><ele>320.0</ele><time>2026-09-20T23:35:24.864Z</time></trkpt>
      <trkpt lat="36.331588" lon="127.287930"><ele>317.2</ele><time>2026-09-20T23:35:32.605Z</time></trkpt>
      <trkpt lat="36.331648" lon="127.288078"><ele>314.8</ele><time>2026-09-20T23:35:54.038Z</time></trkpt>
      <trkpt lat="36.331707" lon="127.288170"><ele>313.4</ele><time>2026-09-20T23:36:09.110Z</time></trkpt>
      <trkpt lat="36.331720" lon="127.288175"><ele>312.2</ele><time>2026-09-20T23:36:11.405Z</time></trkpt>
      <trkpt lat="36.331707" lon="127.288170"><ele>311.5</ele><time>2026-09-20T23:36:13.699Z</time></trkpt>
      <trkpt lat="36.331723" lon="127.288188"><ele>311.2</ele><time>2026-09-20T23:36:17.257Z</time></trkpt>
      <trkpt lat="36.331742" lon="127.288230"><ele>311.1</ele><time>2026-09-20T23:36:23.357Z</time></trkpt>
      <trkpt lat="36.331883" lon="127.288697"><time>2026-09-20T23:37:27.744Z</time></trkpt>
      <trkpt lat="36.331957" lon="127.288795"><time>2026-09-20T23:37:45.070Z</time></trkpt>
      <trkpt lat="36.331921" lon="127.288913"><time>2026-09-20T23:38:01.346Z</time></trkpt>
      <trkpt lat="36.331948" lon="127.289013"><time>2026-09-20T23:38:14.951Z</time></trkpt>
      <trkpt lat="36.331992" lon="127.289096"><time>2026-09-20T23:38:27.767Z</time></trkpt>
      <trkpt lat="36.332048" lon="127.289154"><time>2026-09-20T23:38:39.445Z</time></trkpt>
      <trkpt lat="36.332091" lon="127.289212"><time>2026-09-20T23:38:49.613Z</time></trkpt>
      <trkpt lat="36.332095" lon="127.289257"><time>2026-09-20T23:38:55.453Z</time></trkpt>
      <trkpt lat="36.332079" lon="127.289334"><time>2026-09-20T23:39:05.710Z</time></trkpt>
      <trkpt lat="36.332188" lon="127.289465"><time>2026-09-20T23:39:30.003Z</time></trkpt>
      <trkpt lat="36.332231" lon="127.289591"><time>2026-09-20T23:39:47.655Z</time></trkpt>
      <trkpt lat="36.332328" lon="127.289670"><time>2026-09-20T23:40:06.231Z</time></trkpt>
      <trkpt lat="36.332437" lon="127.289795"><time>2026-09-20T23:40:29.992Z</time></trkpt>
      <trkpt lat="36.332437" lon="127.289866"><time>2026-09-20T23:40:39.151Z</time></trkpt>
      <trkpt lat="36.332523" lon="127.289912"><time>2026-09-20T23:40:54.145Z</time></trkpt>
      <trkpt lat="36.332499" lon="127.290026"><time>2026-09-20T23:41:09.344Z</time></trkpt>
      <trkpt lat="36.332508" lon="127.290082"><time>2026-09-20T23:41:16.710Z</time></trkpt>
      <trkpt lat="36.332519" lon="127.290168"><time>2026-09-20T23:41:27.942Z</time></trkpt>
      <trkpt lat="36.332546" lon="127.290219"><time>2026-09-20T23:41:35.814Z</time></trkpt>
      <trkpt lat="36.332521" lon="127.290282"><time>2026-09-20T23:41:44.873Z</time></trkpt>
      <trkpt lat="36.332551" lon="127.290345"><time>2026-09-20T23:41:54.313Z</time></trkpt>
      <trkpt lat="36.332555" lon="127.290401"><time>2026-09-20T23:42:01.565Z</time></trkpt>
      <trkpt lat="36.332584" lon="127.290428"><time>2026-09-20T23:42:07.369Z</time></trkpt>
      <trkpt lat="36.332622" lon="127.290465"><time>2026-09-20T23:42:15.103Z</time></trkpt>
      <trkpt lat="36.332672" lon="127.290494"><time>2026-09-20T23:42:23.939Z</time></trkpt>
      <trkpt lat="36.332720" lon="127.290522"><time>2026-09-20T23:42:32.432Z</time></trkpt>
      <trkpt lat="36.332798" lon="127.290660"><time>2026-09-20T23:42:54.177Z</time></trkpt>
      <trkpt lat="36.332740" lon="127.290663"><time>2026-09-20T23:43:03.472Z</time></trkpt>
      <trkpt lat="36.332798" lon="127.290660"><time>2026-09-20T23:43:12.767Z</time></trkpt>
      <trkpt lat="36.332979" lon="127.290640"><time>2026-09-20T23:43:41.863Z</time></trkpt>
      <trkpt lat="36.333034" lon="127.290657"><time>2026-09-20T23:43:50.939Z</time></trkpt>
      <trkpt lat="36.333068" lon="127.290653"><time>2026-09-20T23:43:56.407Z</time></trkpt>
      <trkpt lat="36.333115" lon="127.290648"><time>2026-09-20T23:44:03.961Z</time></trkpt>
      <trkpt lat="36.333140" lon="127.290656"><time>2026-09-20T23:44:08.095Z</time></trkpt>
      <trkpt lat="36.333189" lon="127.290640"><time>2026-09-20T23:44:16.207Z</time></trkpt>
      <trkpt lat="36.333246" lon="127.290658"><time>2026-09-20T23:44:25.625Z</time></trkpt>
      <trkpt lat="36.333294" lon="127.290672"><time>2026-09-20T23:44:33.520Z</time></trkpt>
      <trkpt lat="36.333339" lon="127.290683"><time>2026-09-20T23:44:40.864Z</time></trkpt>
      <trkpt lat="36.333404" lon="127.290684"><time>2026-09-20T23:44:51.272Z</time></trkpt>
      <trkpt lat="36.333437" lon="127.290673"><time>2026-09-20T23:44:56.744Z</time></trkpt>
      <trkpt lat="36.333485" lon="127.290665"><time>2026-09-20T23:45:04.498Z</time></trkpt>
      <trkpt lat="36.333526" lon="127.290680"><time>2026-09-20T23:45:11.343Z</time></trkpt>
      <trkpt lat="36.333570" lon="127.290669"><time>2026-09-20T23:45:18.529Z</time></trkpt>
      <trkpt lat="36.333599" lon="127.290657"><time>2026-09-20T23:45:23.424Z</time></trkpt>
      <trkpt lat="36.333661" lon="127.290676"><time>2026-09-20T23:45:33.650Z</time></trkpt>
      <trkpt lat="36.333719" lon="127.290671"><time>2026-09-20T23:45:42.959Z</time></trkpt>
      <trkpt lat="36.333744" lon="127.290680"><time>2026-09-20T23:45:47.127Z</time></trkpt>
      <trkpt lat="36.333792" lon="127.290680"><time>2026-09-20T23:45:54.813Z</time></trkpt>
      <trkpt lat="36.333845" lon="127.290624"><time>2026-09-20T23:46:05.957Z</time></trkpt>
      <trkpt lat="36.333873" lon="127.290607"><time>2026-09-20T23:46:10.948Z</time></trkpt>
      <trkpt lat="36.333948" lon="127.290593"><time>2026-09-20T23:46:23.092Z</time></trkpt>
      <trkpt lat="36.334007" lon="127.290553"><time>2026-09-20T23:46:33.856Z</time></trkpt>
      <trkpt lat="36.334093" lon="127.290544"><time>2026-09-20T23:46:47.675Z</time></trkpt>
      <trkpt lat="36.334203" lon="127.290460"><time>2026-09-20T23:47:08.355Z</time></trkpt>
      <trkpt lat="36.334285" lon="127.290434"><time>2026-09-20T23:47:21.906Z</time></trkpt>
      <trkpt lat="36.334359" lon="127.290412"><time>2026-09-20T23:47:34.090Z</time></trkpt>
      <trkpt lat="36.334425" lon="127.290402"><time>2026-09-20T23:47:44.736Z</time></trkpt>
      <trkpt lat="36.334536" lon="127.290422"><time>2026-09-20T23:48:02.696Z</time></trkpt>
      <trkpt lat="36.334640" lon="127.290390"><time>2026-09-20T23:48:19.853Z</time></trkpt>
      <trkpt lat="36.334715" lon="127.290386"><time>2026-09-20T23:48:31.873Z</time></trkpt>
      <trkpt lat="36.334750" lon="127.290422"><time>2026-09-20T23:48:39.151Z</time></trkpt>
      <trkpt lat="36.334794" lon="127.290439"><time>2026-09-20T23:48:46.529Z</time></trkpt>
      <trkpt lat="36.334849" lon="127.290454"><time>2026-09-20T23:48:55.546Z</time></trkpt>
      <trkpt lat="36.334926" lon="127.290439"><time>2026-09-20T23:49:08.026Z</time></trkpt>
      <trkpt lat="36.335024" lon="127.290422"><time>2026-09-20T23:49:23.871Z</time></trkpt>
      <trkpt lat="36.335121" lon="127.290392"><time>2026-09-20T23:49:39.877Z</time></trkpt>
      <trkpt lat="36.335182" lon="127.290372"><time>2026-09-20T23:49:49.979Z</time></trkpt>
      <trkpt lat="36.335255" lon="127.290367"><time>2026-09-20T23:50:01.686Z</time></trkpt>
      <trkpt lat="36.335326" lon="127.290387"><time>2026-09-20T23:50:13.344Z</time></trkpt>
      <trkpt lat="36.335393" lon="127.290433"><time>2026-09-20T23:50:25.603Z</time></trkpt>
      <trkpt lat="36.335461" lon="127.290482"><time>2026-09-20T23:50:38.193Z</time></trkpt>
      <trkpt lat="36.335526" lon="127.290493"><time>2026-09-20T23:50:48.697Z</time></trkpt>
      <trkpt lat="36.335580" lon="127.290478"><time>2026-09-20T23:50:57.557Z</time></trkpt>
      <trkpt lat="36.335652" lon="127.290438"><time>2026-09-20T23:51:10.188Z</time></trkpt>
      <trkpt lat="36.335746" lon="127.290416"><time>2026-09-20T23:51:25.504Z</time></trkpt>
      <trkpt lat="36.335867" lon="127.290404"><time>2026-09-20T23:51:44.941Z</time></trkpt>
      <trkpt lat="36.335995" lon="127.290386"><time>2026-09-20T23:52:05.567Z</time></trkpt>
      <trkpt lat="36.336082" lon="127.290386"><time>2026-09-20T23:52:19.498Z</time></trkpt>
      <trkpt lat="36.336199" lon="127.290360"><time>2026-09-20T23:52:38.530Z</time></trkpt>
      <trkpt lat="36.336274" lon="127.290337"><time>2026-09-20T23:52:50.900Z</time></trkpt>
      <trkpt lat="36.336305" lon="127.290332"><time>2026-09-20T23:52:55.905Z</time></trkpt>
      <trkpt lat="36.336341" lon="127.290367"><time>2026-09-20T23:53:03.227Z</time></trkpt>
      <trkpt lat="36.336372" lon="127.290377"><time>2026-09-20T23:53:08.356Z</time></trkpt>
      <trkpt lat="36.336407" lon="127.290353"><time>2026-09-20T23:53:14.758Z</time></trkpt>
      <trkpt lat="36.336438" lon="127.290327"><time>2026-09-20T23:53:20.748Z</time></trkpt>
      <trkpt lat="36.336473" lon="127.290315"><time>2026-09-20T23:53:26.562Z</time></trkpt>
      <trkpt lat="36.336548" lon="127.290271"><time>2026-09-20T23:53:39.845Z</time></trkpt>
      <trkpt lat="36.336615" lon="127.290212"><time>2026-09-20T23:53:52.998Z</time></trkpt>
      <trkpt lat="36.336681" lon="127.290131"><time>2026-09-20T23:54:07.859Z</time></trkpt>
      <trkpt lat="36.336726" lon="127.290066"><time>2026-09-20T23:54:18.914Z</time></trkpt>
      <trkpt lat="36.336774" lon="127.290007"><time>2026-09-20T23:54:29.730Z</time></trkpt>
      <trkpt lat="36.336871" lon="127.289923"><time>2026-09-20T23:54:48.667Z</time></trkpt>
      <trkpt lat="36.336916" lon="127.289893"><time>2026-09-20T23:54:56.846Z</time></trkpt>
      <trkpt lat="36.336951" lon="127.289883"><time>2026-09-20T23:55:02.597Z</time></trkpt>
      <trkpt lat="36.337015" lon="127.289886"><time>2026-09-20T23:55:12.852Z</time></trkpt>
      <trkpt lat="36.337053" lon="127.289909"><time>2026-09-20T23:55:19.621Z</time></trkpt>
      <trkpt lat="36.337088" lon="127.289930"><time>2026-09-20T23:55:25.845Z</time></trkpt>
      <trkpt lat="36.337124" lon="127.289958"><time>2026-09-20T23:55:32.648Z</time></trkpt>
      <trkpt lat="36.337193" lon="127.289975"><time>2026-09-20T23:55:43.911Z</time></trkpt>
      <trkpt lat="36.337210" lon="127.289999"><time>2026-09-20T23:55:48.034Z</time></trkpt>
      <trkpt lat="36.337249" lon="127.290023"><time>2026-09-20T23:55:55.004Z</time></trkpt>
      <trkpt lat="36.337311" lon="127.290042"><time>2026-09-20T23:56:05.229Z</time></trkpt>
      <trkpt lat="36.337339" lon="127.290064"><time>2026-09-20T23:56:10.535Z</time></trkpt>
      <trkpt lat="36.337349" lon="127.290092"><time>2026-09-20T23:56:14.486Z</time></trkpt>
      <trkpt lat="36.337366" lon="127.290112"><time>2026-09-20T23:56:18.236Z</time></trkpt>
      <trkpt lat="36.337398" lon="127.290112"><time>2026-09-20T23:56:23.360Z</time></trkpt>
      <trkpt lat="36.337440" lon="127.290102"><time>2026-09-20T23:56:30.207Z</time></trkpt>
      <trkpt lat="36.337529" lon="127.290113"><time>2026-09-20T23:56:44.528Z</time></trkpt>
      <trkpt lat="36.337597" lon="127.290112"><time>2026-09-20T23:56:55.417Z</time></trkpt>
      <trkpt lat="36.337671" lon="127.290125"><time>2026-09-20T23:57:07.384Z</time></trkpt>
      <trkpt lat="36.337720" lon="127.290129"><time>2026-09-20T23:57:15.247Z</time></trkpt>
      <trkpt lat="36.337786" lon="127.290166"><time>2026-09-20T23:57:26.843Z</time></trkpt>
      <trkpt lat="36.337889" lon="127.290180"><time>2026-09-20T23:57:43.434Z</time></trkpt>
      <trkpt lat="36.337976" lon="127.290213"><time>2026-09-20T23:57:58.000Z</time></trkpt>
      <trkpt lat="36.338026" lon="127.290286"><time>2026-09-20T23:58:10.359Z</time></trkpt>
      <trkpt lat="36.338064" lon="127.290345"><time>2026-09-20T23:58:20.103Z</time></trkpt>
      <trkpt lat="36.338111" lon="127.290376"><time>2026-09-20T23:58:28.625Z</time></trkpt>
      <trkpt lat="36.338164" lon="127.290385"><time>2026-09-20T23:58:37.190Z</time></trkpt>
      <trkpt lat="36.338251" lon="127.290451"><time>2026-09-20T23:58:53.516Z</time></trkpt>
      <trkpt lat="36.338357" lon="127.290557"><time>2026-09-20T23:59:15.310Z</time></trkpt>
      <trkpt lat="36.338454" lon="127.290628"><time>2026-09-20T23:59:33.341Z</time></trkpt>
      <trkpt lat="36.338532" lon="127.290671"><time>2026-09-20T23:59:47.006Z</time></trkpt>
      <trkpt lat="36.338639" lon="127.290740"><time>2026-09-21T00:00:06.313Z</time></trkpt>
      <trkpt lat="36.338703" lon="127.290713"><time>2026-09-21T00:00:17.136Z</time></trkpt>
      <trkpt lat="36.338809" lon="127.290628"><time>2026-09-21T00:00:37.342Z</time></trkpt>
      <trkpt lat="36.338855" lon="127.290572"><time>2026-09-21T00:00:47.658Z</time></trkpt>
      <trkpt lat="36.338934" lon="127.290550"><time>2026-09-21T00:01:00.622Z</time></trkpt>
      <trkpt lat="36.338984" lon="127.290540"><time>2026-09-21T00:01:08.731Z</time></trkpt>
      <trkpt lat="36.339065" lon="127.290521"><time>2026-09-21T00:01:21.931Z</time></trkpt>
      <trkpt lat="36.339137" lon="127.290499"><time>2026-09-21T00:01:33.803Z</time></trkpt>
      <trkpt lat="36.339158" lon="127.290449"><time>2026-09-21T00:01:41.076Z</time></trkpt>
      <trkpt lat="36.339169" lon="127.290415"><time>2026-09-21T00:01:45.802Z</time></trkpt>
      <trkpt lat="36.339195" lon="127.290311"><time>2026-09-21T00:01:59.847Z</time></trkpt>
      <trkpt lat="36.339218" lon="127.290234"><time>2026-09-21T00:02:10.440Z</time></trkpt>
      <trkpt lat="36.339251" lon="127.290172"><time>2026-09-21T00:02:20.025Z</time></trkpt>
      <trkpt lat="36.339315" lon="127.290101"><time>2026-09-21T00:02:33.768Z</time></trkpt>
      <trkpt lat="36.339371" lon="127.290069"><time>2026-09-21T00:02:43.639Z</time></trkpt>
      <trkpt lat="36.339412" lon="127.289995"><time>2026-09-21T00:02:55.223Z</time></trkpt>
      <trkpt lat="36.339470" lon="127.290006"><time>2026-09-21T00:03:04.618Z</time></trkpt>
      <trkpt lat="36.339518" lon="127.289997"><time>2026-09-21T00:03:12.391Z</time></trkpt>
      <trkpt lat="36.339593" lon="127.289896"><time>2026-09-21T00:03:30.109Z</time></trkpt>
      <trkpt lat="36.339657" lon="127.289794"><time>2026-09-21T00:03:46.785Z</time></trkpt>
      <trkpt lat="36.339706" lon="127.289739"><time>2026-09-21T00:03:57.363Z</time></trkpt>
      <trkpt lat="36.339763" lon="127.289710"><time>2026-09-21T00:04:07.226Z</time></trkpt>
      <trkpt lat="36.339803" lon="127.289706"><time>2026-09-21T00:04:13.652Z</time></trkpt>
      <trkpt lat="36.339841" lon="127.289697"><time>2026-09-21T00:04:19.846Z</time></trkpt>
      <trkpt lat="36.339898" lon="127.289692"><time>2026-09-21T00:04:28.996Z</time></trkpt>
      <trkpt lat="36.339939" lon="127.289699"><time>2026-09-21T00:04:35.622Z</time></trkpt>
      <trkpt lat="36.339998" lon="127.289723"><time>2026-09-21T00:04:45.564Z</time></trkpt>
      <trkpt lat="36.340071" lon="127.289747"><time>2026-09-21T00:04:57.656Z</time></trkpt>
      <trkpt lat="36.340106" lon="127.289755"><time>2026-09-21T00:05:03.354Z</time></trkpt>
      <trkpt lat="36.340146" lon="127.289758"><time>2026-09-21T00:05:09.770Z</time></trkpt>
      <trkpt lat="36.340184" lon="127.289754"><time>2026-09-21T00:05:15.877Z</time></trkpt>
      <trkpt lat="36.340221" lon="127.289744"><time>2026-09-21T00:05:21.940Z</time></trkpt>
      <trkpt lat="36.340264" lon="127.289744"><time>2026-09-21T00:05:28.825Z</time></trkpt>
      <trkpt lat="36.340295" lon="127.289760"><time>2026-09-21T00:05:34.201Z</time></trkpt>
      <trkpt lat="36.340324" lon="127.289788"><time>2026-09-21T00:05:40.083Z</time></trkpt>
      <trkpt lat="36.340356" lon="127.289822"><time>2026-09-21T00:05:46.828Z</time></trkpt>
      <trkpt lat="36.340373" lon="127.289867"><time>2026-09-21T00:05:53.238Z</time></trkpt>
      <trkpt lat="36.340452" lon="127.289894"><time>2026-09-21T00:06:06.359Z</time></trkpt>
      <trkpt lat="36.340479" lon="127.289932"><time>2026-09-21T00:06:12.894Z</time></trkpt>
      <trkpt lat="36.340516" lon="127.289956"><time>2026-09-21T00:06:19.578Z</time></trkpt>
      <trkpt lat="36.340584" lon="127.289979"><time>2026-09-21T00:06:30.863Z</time></trkpt>
      <trkpt lat="36.340629" lon="127.289994"><time>2026-09-21T00:06:38.324Z</time></trkpt>
      <trkpt lat="36.340655" lon="127.290025"><time>2026-09-21T00:06:44.096Z</time></trkpt>
      <trkpt lat="36.340685" lon="127.290054"><time>2026-09-21T00:06:50.184Z</time></trkpt>
      <trkpt lat="36.340718" lon="127.290098"><time>2026-09-21T00:06:57.939Z</time></trkpt>
      <trkpt lat="36.340771" lon="127.290123"><time>2026-09-21T00:07:07.017Z</time></trkpt>
      <trkpt lat="36.340814" lon="127.290152"><time>2026-09-21T00:07:14.852Z</time></trkpt>
      <trkpt lat="36.340896" lon="127.290179"><time>2026-09-21T00:07:28.436Z</time></trkpt>
      <trkpt lat="36.340927" lon="127.290219"><time>2026-09-21T00:07:35.596Z</time></trkpt>
      <trkpt lat="36.340940" lon="127.290257"><time>2026-09-21T00:07:40.921Z</time></trkpt>
      <trkpt lat="36.340956" lon="127.290315"><time>2026-09-21T00:07:48.828Z</time></trkpt>
      <trkpt lat="36.340964" lon="127.290342"><time>2026-09-21T00:07:52.538Z</time></trkpt>
      <trkpt lat="36.341033" lon="127.290383"><time>2026-09-21T00:08:04.787Z</time></trkpt>
      <trkpt lat="36.341065" lon="127.290411"><time>2026-09-21T00:08:11.056Z</time></trkpt>
      <trkpt lat="36.341085" lon="127.290435"><time>2026-09-21T00:08:15.510Z</time></trkpt>
      <trkpt lat="36.341098" lon="127.290471"><time>2026-09-21T00:08:20.598Z</time></trkpt>
      <trkpt lat="36.341101" lon="127.290503"><time>2026-09-21T00:08:24.753Z</time></trkpt>
      <trkpt lat="36.341094" lon="127.290535"><time>2026-09-21T00:08:29.030Z</time></trkpt>
      <trkpt lat="36.341152" lon="127.290544"><time>2026-09-21T00:08:38.389Z</time></trkpt>
      <trkpt lat="36.341211" lon="127.290552"><time>2026-09-21T00:08:47.892Z</time></trkpt>
      <trkpt lat="36.341229" lon="127.290571"><time>2026-09-21T00:08:51.676Z</time></trkpt>
      <trkpt lat="36.341222" lon="127.290603"><time>2026-09-21T00:08:55.952Z</time></trkpt>
      <trkpt lat="36.341224" lon="127.290641"><time>2026-09-21T00:09:00.864Z</time></trkpt>
      <trkpt lat="36.341240" lon="127.290665"><time>2026-09-21T00:09:04.882Z</time></trkpt>
      <trkpt lat="36.341258" lon="127.290705"><time>2026-09-21T00:09:10.792Z</time></trkpt>
      <trkpt lat="36.341289" lon="127.290730"><time>2026-09-21T00:09:16.711Z</time></trkpt>
      <trkpt lat="36.341291" lon="127.290764"><time>2026-09-21T00:09:21.108Z</time></trkpt>
      <trkpt lat="36.341285" lon="127.290796"><time>2026-09-21T00:09:25.345Z</time></trkpt>
      <trkpt lat="36.341291" lon="127.290823"><time>2026-09-21T00:09:28.958Z</time></trkpt>
      <trkpt lat="36.341305" lon="127.290843"><time>2026-09-21T00:09:32.375Z</time></trkpt>
      <trkpt lat="36.341327" lon="127.290858"><time>2026-09-21T00:09:36.394Z</time></trkpt>
      <trkpt lat="36.341375" lon="127.290862"><time>2026-09-21T00:09:44.097Z</time></trkpt>
      <trkpt lat="36.341426" lon="127.290853"><time>2026-09-21T00:09:52.346Z</time></trkpt>
      <trkpt lat="36.341466" lon="127.290847"><time>2026-09-21T00:09:58.797Z</time></trkpt>
      <trkpt lat="36.341556" lon="127.290960"><time>2026-09-21T00:10:19.293Z</time></trkpt>
      <trkpt lat="36.341601" lon="127.291022"><time>2026-09-21T00:10:30.057Z</time></trkpt>
      <trkpt lat="36.341641" lon="127.291049"><time>2026-09-21T00:10:37.347Z</time></trkpt>
      <trkpt lat="36.341686" lon="127.291078"><time>2026-09-21T00:10:45.466Z</time></trkpt>
      <trkpt lat="36.341723" lon="127.291114"><time>2026-09-21T00:10:52.993Z</time></trkpt>
      <trkpt lat="36.341780" lon="127.291126"><time>2026-09-21T00:11:02.250Z</time></trkpt>
      <trkpt lat="36.341844" lon="127.291107"><time>2026-09-21T00:11:12.787Z</time></trkpt>
      <trkpt lat="36.341949" lon="127.291069"><time>2026-09-21T00:11:30.299Z</time></trkpt>
      <trkpt lat="36.342017" lon="127.291044"><time>2026-09-21T00:11:41.655Z</time></trkpt>
      <trkpt lat="36.342081" lon="127.291021"><time>2026-09-21T00:11:52.323Z</time></trkpt>
      <trkpt lat="36.342098" lon="127.291011"><time>2026-09-21T00:11:55.335Z</time></trkpt>
      <trkpt lat="36.342126" lon="127.290993"><time>2026-09-21T00:12:00.384Z</time></trkpt>
      <trkpt lat="36.342169" lon="127.290948"><time>2026-09-21T00:12:09.389Z</time></trkpt>
      <trkpt lat="36.342210" lon="127.290914"><time>2026-09-21T00:12:17.284Z</time></trkpt>
      <trkpt lat="36.342281" lon="127.290869"><time>2026-09-21T00:12:30.048Z</time></trkpt>
      <trkpt lat="36.342311" lon="127.290813"><time>2026-09-21T00:12:38.723Z</time></trkpt>
      <trkpt lat="36.342347" lon="127.290799"><time>2026-09-21T00:12:44.763Z</time></trkpt>
      <trkpt lat="36.342413" lon="127.290759"><time>2026-09-21T00:12:56.523Z</time></trkpt>
      <trkpt lat="36.342439" lon="127.290752"><time>2026-09-21T00:13:00.783Z</time></trkpt>
      <trkpt lat="36.342536" lon="127.290699"><time>2026-09-21T00:13:17.753Z</time></trkpt>
      <trkpt lat="36.342604" lon="127.290653"><time>2026-09-21T00:13:30.152Z</time></trkpt>
      <trkpt lat="36.342657" lon="127.290624"><time>2026-09-21T00:13:39.426Z</time></trkpt>
      <trkpt lat="36.342687" lon="127.290600"><time>2026-09-21T00:13:45.141Z</time></trkpt>
      <trkpt lat="36.342730" lon="127.290573"><time>2026-09-21T00:13:52.857Z</time></trkpt>
      <trkpt lat="36.342778" lon="127.290556"><time>2026-09-21T00:14:00.849Z</time></trkpt>
      <trkpt lat="36.342820" lon="127.290505"><time>2026-09-21T00:14:10.256Z</time></trkpt>
      <trkpt lat="36.342868" lon="127.290450"><time>2026-09-21T00:14:20.715Z</time></trkpt>
      <trkpt lat="36.342926" lon="127.290435"><time>2026-09-21T00:14:30.201Z</time></trkpt>
      <trkpt lat="36.342997" lon="127.290405"><time>2026-09-21T00:14:42.210Z</time></trkpt>
      <trkpt lat="36.343061" lon="127.290390"><time>2026-09-21T00:14:52.639Z</time></trkpt>
      <trkpt lat="36.343106" lon="127.290406"><time>2026-09-21T00:15:00.134Z</time></trkpt>
      <trkpt lat="36.343135" lon="127.290422"><time>2026-09-21T00:15:05.216Z</time></trkpt>
      <trkpt lat="36.343155" lon="127.290443"><time>2026-09-21T00:15:09.410Z</time></trkpt>
      <trkpt lat="36.343185" lon="127.290469"><time>2026-09-21T00:15:15.268Z</time></trkpt>
      <trkpt lat="36.343221" lon="127.290488"><time>2026-09-21T00:15:21.532Z</time></trkpt>
      <trkpt lat="36.343257" lon="127.290486"><time>2026-09-21T00:15:27.302Z</time></trkpt>
      <trkpt lat="36.343284" lon="127.290472"><time>2026-09-21T00:15:31.987Z</time></trkpt>
      <trkpt lat="36.343304" lon="127.290469"><time>2026-09-21T00:15:35.213Z</time></trkpt>
      <trkpt lat="36.343326" lon="127.290478"><time>2026-09-21T00:15:38.922Z</time></trkpt>
      <trkpt lat="36.343395" lon="127.290465"><time>2026-09-21T00:15:50.097Z</time></trkpt>
      <trkpt lat="36.343433" lon="127.290447"><time>2026-09-21T00:15:56.609Z</time></trkpt>
      <trkpt lat="36.343480" lon="127.290446"><time>2026-09-21T00:16:04.136Z</time></trkpt>
      <trkpt lat="36.343522" lon="127.290418"><time>2026-09-21T00:16:11.769Z</time></trkpt>
      <trkpt lat="36.343548" lon="127.290385"><time>2026-09-21T00:16:17.723Z</time></trkpt>
      <trkpt lat="36.343576" lon="127.290350"><time>2026-09-21T00:16:24.085Z</time></trkpt>
      <trkpt lat="36.343682" lon="127.290238"><time>2026-09-21T00:16:46.372Z</time></trkpt>
      <trkpt lat="36.343749" lon="127.290213"><time>2026-09-21T00:16:57.575Z</time></trkpt>
      <trkpt lat="36.343797" lon="127.290185"><time>2026-09-21T00:17:06.067Z</time></trkpt>
      <trkpt lat="36.343828" lon="127.290193"><time>2026-09-21T00:17:11.136Z</time></trkpt>
      <trkpt lat="36.343863" lon="127.290230"><time>2026-09-21T00:17:18.497Z</time></trkpt>
      <trkpt lat="36.343885" lon="127.290255"><time>2026-09-21T00:17:23.273Z</time></trkpt>
      <trkpt lat="36.343924" lon="127.290270"><time>2026-09-21T00:17:29.810Z</time></trkpt>
      <trkpt lat="36.343985" lon="127.290274"><time>2026-09-21T00:17:39.591Z</time></trkpt>
      <trkpt lat="36.344037" lon="127.290259"><time>2026-09-21T00:17:48.139Z</time></trkpt>
      <trkpt lat="36.344078" lon="127.290221"><time>2026-09-21T00:17:56.332Z</time></trkpt>
      <trkpt lat="36.344111" lon="127.290200"><time>2026-09-21T00:18:02.269Z</time></trkpt>
      <trkpt lat="36.344146" lon="127.290201"><time>2026-09-21T00:18:07.875Z</time></trkpt>
      <trkpt lat="36.344185" lon="127.290222"><time>2026-09-21T00:18:14.682Z</time></trkpt>
      <trkpt lat="36.344230" lon="127.290184"><time>2026-09-21T00:18:23.396Z</time></trkpt>
      <trkpt lat="36.344285" lon="127.290185"><time>2026-09-21T00:18:32.204Z</time></trkpt>
      <trkpt lat="36.344319" lon="127.290195"><time>2026-09-21T00:18:37.798Z</time></trkpt>
      <trkpt lat="36.344360" lon="127.290198"><time>2026-09-21T00:18:44.375Z</time></trkpt>
      <trkpt lat="36.344395" lon="127.290216"><time>2026-09-21T00:18:50.441Z</time></trkpt>
      <trkpt lat="36.344450" lon="127.290213"><time>2026-09-21T00:18:59.256Z</time></trkpt>
      <trkpt lat="36.344527" lon="127.290206"><time>2026-09-21T00:19:11.618Z</time></trkpt>
      <trkpt lat="36.344597" lon="127.290211"><time>2026-09-21T00:19:22.845Z</time></trkpt>
      <trkpt lat="36.344671" lon="127.290230"><time>2026-09-21T00:19:34.945Z</time></trkpt>
      <trkpt lat="36.344726" lon="127.290208"><time>2026-09-21T00:19:44.197Z</time></trkpt>
      <trkpt lat="36.344757" lon="127.290143"><time>2026-09-21T00:19:53.940Z</time></trkpt>
      <trkpt lat="36.344725" lon="127.290067"><time>2026-09-21T00:20:05.000Z</time></trkpt>
      <trkpt lat="36.344691" lon="127.290003"><time>2026-09-21T00:20:14.888Z</time></trkpt>
      <trkpt lat="36.344668" lon="127.289932"><time>2026-09-21T00:20:24.758Z</time></trkpt>
      <trkpt lat="36.344648" lon="127.289850"><time>2026-09-21T00:20:35.808Z</time></trkpt>
      <trkpt lat="36.344674" lon="127.289745"><time>2026-09-21T00:20:49.975Z</time></trkpt>
      <trkpt lat="36.344730" lon="127.289727"><time>2026-09-21T00:20:59.238Z</time></trkpt>
      <trkpt lat="36.344799" lon="127.289703"><time>2026-09-21T00:21:10.711Z</time></trkpt>
      <trkpt lat="36.344838" lon="127.289676"><time>2026-09-21T00:21:17.861Z</time></trkpt>
      <trkpt lat="36.344860" lon="127.289614"><time>2026-09-21T00:21:26.599Z</time></trkpt>
      <trkpt lat="36.344878" lon="127.289524"><time>2026-09-21T00:21:38.559Z</time></trkpt>
      <trkpt lat="36.344897" lon="127.289456"><time>2026-09-21T00:21:47.842Z</time></trkpt>
      <trkpt lat="36.344921" lon="127.289420"><time>2026-09-21T00:21:53.869Z</time></trkpt>
      <trkpt lat="36.344961" lon="127.289388"><time>2026-09-21T00:22:01.488Z</time></trkpt>
      <trkpt lat="36.345035" lon="127.289366"><time>2026-09-21T00:22:13.672Z</time></trkpt>
      <trkpt lat="36.345085" lon="127.289342"><time>2026-09-21T00:22:22.256Z</time></trkpt>
      <trkpt lat="36.345160" lon="127.289297"><time>2026-09-21T00:22:35.594Z</time></trkpt>
      <trkpt lat="36.345178" lon="127.289286"><time>2026-09-21T00:22:38.806Z</time></trkpt>
      <trkpt lat="36.345189" lon="127.289168"><time>2026-09-21T00:22:54.126Z</time></trkpt>
      <trkpt lat="36.345360" lon="127.289080"><ele>131.3</ele><time>2026-09-21T00:23:23.755Z</time></trkpt>
      <trkpt lat="36.345413" lon="127.289181"><ele>131.3</ele><time>2026-09-21T00:23:39.181Z</time></trkpt>
      <trkpt lat="36.345564" lon="127.289414"><ele>131.3</ele><time>2026-09-21T00:24:17.816Z</time></trkpt>
      <trkpt lat="36.345475" lon="127.289672"><time>2026-09-21T00:24:53.952Z</time></trkpt>
      <trkpt lat="36.345451" lon="127.289628"><time>2026-09-21T00:25:00.806Z</time></trkpt>
    </trkseg>
  </trk>
</gpx>