<?xml version="1.0" encoding="UTF-8"?>
<gpx version="1.1" creator="gajago-nav" xmlns="http://www.topografix.com/GPX/1/1">
  <metadata><name>아파트2</name></metadata>
  <wpt lat="36.358409" lon="127.374669">
    <name>들머리 (청사서로 - 원점회귀)</name>
    <ele>39</ele>
  </wpt>
  <wpt lat="36.358524" lon="127.374972">
    <name>최고지점 (46m)</name>
    <ele>46</ele>
  </wpt>
  <trk>
    <name>아파트2</name>
    <trkseg>
      <trkpt lat="36.358409" lon="127.374669"><ele>38.8</ele><time>2026-09-13T08:05:17.000Z</time></trkpt>
      <trkpt lat="36.358336" lon="127.374598"><ele>33.9</ele><time>2026-09-13T08:05:23.000Z</time></trkpt>
      <trkpt lat="36.358426" lon="127.374549"><ele>40.6</ele><time>2026-09-13T08:05:49.000Z</time></trkpt>
      <trkpt lat="36.358519" lon="127.374519"><ele>39.7</ele><time>2026-09-13T08:05:58.000Z</time></trkpt>
      <trkpt lat="36.358617" lon="127.374510"><ele>40.1</ele><time>2026-09-13T08:06:07.000Z</time></trkpt>
      <trkpt lat="36.358711" lon="127.374545"><ele>40.4</ele><time>2026-09-13T08:06:17.000Z</time></trkpt>
      <trkpt lat="36.358747" lon="127.374654"><ele>40.0</ele><time>2026-09-13T08:06:41.000Z</time></trkpt>
      <trkpt lat="36.358747" lon="127.374778"><ele>40.6</ele><time>2026-09-13T08:06:51.000Z</time></trkpt>
      <trkpt lat="36.358747" lon="127.374893"><ele>39.6</ele><time>2026-09-13T08:07:00.000Z</time></trkpt>
      <trkpt lat="36.358737" lon="127.375005"><ele>38.6</ele><time>2026-09-13T08:07:08.000Z</time></trkpt>
      <trkpt lat="36.358746" lon="127.375127"><ele>38.1</ele><time>2026-09-13T08:07:16.000Z</time></trkpt>
      <trkpt lat="36.358759" lon="127.375240"><ele>39.0</ele><time>2026-09-13T08:07:24.000Z</time></trkpt>
      <trkpt lat="36.358762" lon="127.375365"><ele>38.8</ele><time>2026-09-13T08:07:33.000Z</time></trkpt>
      <trkpt lat="36.358729" lon="127.375476"><ele>39.8</ele><time>2026-09-13T08:07:49.000Z</time></trkpt>
      <trkpt lat="36.358634" lon="127.375474"><ele>41.4</ele><time>2026-09-13T08:07:58.000Z</time></trkpt>
      <trkpt lat="36.358541" lon="127.375461"><ele>43.6</ele><time>2026-09-13T08:08:08.000Z</time></trkpt>
      <trkpt lat="36.358539" lon="127.375335"><ele>45.0</ele><time>2026-09-13T08:08:18.000Z</time></trkpt>
      <trkpt lat="36.358530" lon="127.375220"><ele>44.5</ele><time>2026-09-13T08:08:27.000Z</time></trkpt>
      <trkpt lat="36.358528" lon="127.375097"><ele>44.8</ele><time>2026-09-13T08:08:36.000Z</time></trkpt>
      <trkpt lat="36.358524" lon="127.374972"><ele>46.1</ele><time>2026-09-13T08:08:45.000Z</time></trkpt>
      <trkpt lat="36.358521" lon="127.374860"><ele>45.5</ele><time>2026-09-13T08:08:53.000Z</time></trkpt>
      <trkpt lat="36.358511" lon="127.374739"><ele>44.7</ele><time>2026-09-13T08:09:02.000Z</time></trkpt>
      <trkpt lat="36.358514" lon="127.374628"><ele>45.1</ele><time>2026-09-13T08:09:11.000Z</time></trkpt>
      <trkpt lat="36.358537" lon="127.374515"><ele>43.9</ele><time>2026-09-13T08:09:29.000Z</time></trkpt>
      <trkpt lat="36.358446" lon="127.374564"><ele>41.3</ele><time>2026-09-13T08:09:49.000Z</time></trkpt>
      <trkpt lat="36.358349" lon="127.374563"><ele>41.0</ele><time>2026-09-13T08:09:58.000Z</time></trkpt>
      <trkpt lat="36.358260" lon="127.374587"><ele>42.6</ele><time>2026-09-13T08:10:07.000Z</time></trkpt>
    </trkseg>
  </trk>
</gpx>