<?xml version="1.0" encoding="UTF-8"?>
<gpx version="1.1" creator="gajago-nav" xmlns="http://www.topografix.com/GPX/1/1">
  <metadata><name>아파트</name></metadata>
  <wpt lat="36.358378" lon="127.374641">
    <name>들머리 (청사서로 - 원점회귀)</name>
    <ele>31</ele>
  </wpt>
  <wpt lat="36.358726" lon="127.374557">
    <name>갈림길1</name>
  </wpt>
  <wpt lat="36.358743" lon="127.375368">
    <name>갈림길2</name>
  </wpt>
  <wpt lat="36.358612" lon="127.375458">
    <name>갈림길3</name>
  </wpt>
  <wpt lat="36.358551" lon="127.374798">
    <name>갈림길4</name>
  </wpt>
  <wpt lat="36.358399" lon="127.374694">
    <name>최고지점 (49m)</name>
    <ele>49</ele>
  </wpt>
  <trk>
    <name>아파트</name>
    <trkseg>
      <trkpt lat="36.358378" lon="127.374641"><ele>30.9</ele><time>2026-09-12T09:01:08.000Z</time></trkpt>
      <trkpt lat="36.358449" lon="127.374567"><ele>42.6</ele><time>2026-09-12T09:01:30.000Z</time></trkpt>
      <trkpt lat="36.358546" lon="127.374572"><ele>41.9</ele><time>2026-09-12T09:01:40.000Z</time></trkpt>
      <trkpt lat="36.358634" lon="127.374530"><ele>43.2</ele><time>2026-09-12T09:01:51.000Z</time></trkpt>
      <trkpt lat="36.358727" lon="127.374555"><ele>41.6</ele><time>2026-09-12T09:02:01.000Z</time></trkpt>
      <trkpt lat="36.358761" lon="127.374667"><ele>39.8</ele><time>2026-09-12T09:02:13.000Z</time></trkpt>
      <trkpt lat="36.358760" lon="127.374779"><ele>39.2</ele><time>2026-09-12T09:02:22.000Z</time></trkpt>
      <trkpt lat="36.358765" lon="127.374893"><ele>40.1</ele><time>2026-09-12T09:02:32.000Z</time></trkpt>
      <trkpt lat="36.358763" lon="127.375011"><ele>42.9</ele><time>2026-09-12T09:02:42.000Z</time></trkpt>
      <trkpt lat="36.358754" lon="127.375122"><ele>42.2</ele><time>2026-09-12T09:02:49.000Z</time></trkpt>
      <trkpt lat="36.358747" lon="127.375240"><ele>42.6</ele><time>2026-09-12T09:02:58.000Z</time></trkpt>
      <trkpt lat="36.358746" lon="127.375365"><ele>41.7</ele><time>2026-09-12T09:03:07.000Z</time></trkpt>
      <trkpt lat="36.358704" lon="127.375463"><ele>43.9</ele><time>2026-09-12T09:03:17.000Z</time></trkpt>
      <trkpt lat="36.358614" lon="127.375456"><ele>42.9</ele><time>2026-09-12T09:03:26.000Z</time></trkpt>
      <trkpt lat="36.358538" lon="127.375393"><ele>42.7</ele><time>2026-09-12T09:03:34.000Z</time></trkpt>
      <trkpt lat="36.358537" lon="127.375280"><ele>41.8</ele><time>2026-09-12T09:03:43.000Z</time></trkpt>
      <trkpt lat="36.358554" lon="127.375159"><ele>42.0</ele><time>2026-09-12T09:03:52.000Z</time></trkpt>
      <trkpt lat="36.358560" lon="127.375036"><ele>42.3</ele><time>2026-09-12T09:04:01.000Z</time></trkpt>
      <trkpt lat="36.358551" lon="127.374919"><ele>44.1</ele><time>2026-09-12T09:04:10.000Z</time></trkpt>
      <trkpt lat="36.358552" lon="127.374802"><ele>44.6</ele><time>2026-09-12T09:04:18.000Z</time></trkpt>
      <trkpt lat="36.358498" lon="127.374709"><ele>47.0</ele><time>2026-09-12T09:04:27.000Z</time></trkpt>
      <trkpt lat="36.358399" lon="127.374694"><ele>49.2</ele><time>2026-09-12T09:04:35.000Z</time></trkpt>
      <trkpt lat="36.358306" lon="127.374687"><ele>49.0</ele><time>2026-09-12T09:04:43.000Z</time></trkpt>
    </trkseg>
  </trk>
</gpx>