<?xml version="1.0" encoding="UTF-8"?>
<gpx version="1.1" creator="gajago-nav" xmlns="http://www.topografix.com/GPX/1/1">
  <metadata><name>영월 구봉대산 A코스</name></metadata>
  <wpt lat="37.371918" lon="128.259620">
    <name>들머리 (일주문)</name>
    <ele>454</ele>
  </wpt>
  <wpt lat="37.371968" lon="128.258936">
    <name>갈림길</name>
  </wpt>
  <wpt lat="37.368100" lon="128.242550">
    <name>널목재</name>
  </wpt>
  <wpt lat="37.367750" lon="128.243180">
    <name>양이봉</name>
    <ele>808</ele>
  </wpt>
  <wpt lat="37.366820" lon="128.244110">
    <name>아이봉</name>
    <ele>828</ele>
  </wpt>
  <wpt lat="37.366530" lon="128.244170">
    <name>장생봉</name>
    <ele>832</ele>
  </wpt>
  <wpt lat="37.364930" lon="128.245650">
    <name>4봉</name>
    <ele>840</ele>
  </wpt>
  <wpt lat="37.363470" lon="128.245680">
    <name>관대봉</name>
    <ele>861</ele>
  </wpt>
  <wpt lat="37.360890" lon="128.248090">
    <name>관망봉</name>
    <ele>878</ele>
  </wpt>
  <wpt lat="37.358630" lon="128.248460">
    <name>쇠봉</name>
    <ele>886</ele>
  </wpt>
  <wpt lat="37.357320" lon="128.248470">
    <name>구봉대산(8봉)</name>
    <ele>900</ele>
  </wpt>
  <wpt lat="37.355680" lon="128.251480">
    <name>삼각점</name>
    <ele>813</ele>
  </wpt>
  <wpt lat="37.355100" lon="128.252900">
    <name>칼바위(9봉)</name>
    <ele>831</ele>
  </wpt>
  <wpt lat="37.365821" lon="128.270608">
    <name>날머리 (법흥사)</name>
  </wpt>
  <trk>
    <name>영월 구봉대산 A코스</name>
    <trkseg>
      <trkpt lat="37.371918" lon="128.259620"><ele>453.5</ele><time>2024-11-02T01:03:23.000Z</time></trkpt>
      <trkpt lat="37.371959" lon="128.259509"><ele>452.7</ele><time>2024-11-02T01:03:48.398Z</time></trkpt>
      <trkpt lat="37.371946" lon="128.259396"><ele>450.3</ele><time>2024-11-02T01:04:12.090Z</time></trkpt>
      <trkpt lat="37.371859" lon="128.259436"><ele>448.2</ele><time>2024-11-02T01:04:36.275Z</time></trkpt>
      <trkpt lat="37.371882" lon="128.259324"><ele>448.4</ele><time>2024-11-02T01:05:00.278Z</time></trkpt>
      <trkpt lat="37.371932" lon="128.259215"><ele>452.3</ele><time>2024-11-02T01:05:26.393Z</time></trkpt>
      <trkpt lat="37.371960" lon="128.259096"><ele>452.9</ele><time>2024-11-02T01:05:52.145Z</time></trkpt>
      <trkpt lat="37.371990" lon="128.258982"><ele>456.4</ele><time>2024-11-02T01:06:17.063Z</time></trkpt>
      <trkpt lat="37.371992" lon="128.258984"><ele>459.1</ele><time>2024-11-02T01:07:05.276Z</time></trkpt>
      <trkpt lat="37.371991" lon="128.258980"><ele>458.1</ele><time>2024-11-02T01:08:48.470Z</time></trkpt>
      <trkpt lat="37.371924" lon="128.258889"><ele>461.2</ele><time>2024-11-02T01:09:14.211Z</time></trkpt>
      <trkpt lat="37.371887" lon="128.258783"><ele>460.7</ele><time>2024-11-02T01:09:38.234Z</time></trkpt>
      <trkpt lat="37.371855" lon="128.258663"><ele>462.4</ele><time>2024-11-02T01:10:04.499Z</time></trkpt>
      <trkpt lat="37.371876" lon="128.258552"><ele>461.3</ele><time>2024-11-02T01:10:28.175Z</time></trkpt>
      <trkpt lat="37.371928" lon="128.258446"><ele>460.6</ele><time>2024-11-02T01:10:54.023Z</time></trkpt>
      <trkpt lat="37.371949" lon="128.258332"><ele>458.7</ele><time>2024-11-02T01:11:18.305Z</time></trkpt>
      <trkpt lat="37.371977" lon="128.258224"><ele>459.1</ele><time>2024-11-02T01:11:41.878Z</time></trkpt>
      <trkpt lat="37.372000" lon="128.258105"><ele>459.6</ele><time>2024-11-02T01:12:07.290Z</time></trkpt>
      <trkpt lat="37.371976" lon="128.257994"><ele>460.9</ele><time>2024-11-02T01:12:31.160Z</time></trkpt>
      <trkpt lat="37.371927" lon="128.257897"><ele>464.6</ele><time>2024-11-02T01:12:55.009Z</time></trkpt>
      <trkpt lat="37.371912" lon="128.257785"><ele>467.6</ele><time>2024-11-02T01:13:18.577Z</time></trkpt>
      <trkpt lat="37.371890" lon="128.257674"><ele>468.2</ele><time>2024-11-02T01:13:42.315Z</time></trkpt>
      <trkpt lat="37.371932" lon="128.257573"><ele>472.1</ele><time>2024-11-02T01:14:05.968Z</time></trkpt>
      <trkpt lat="37.372023" lon="128.257524"><ele>471.9</ele><time>2024-11-02T01:14:31.813Z</time></trkpt>
      <trkpt lat="37.372109" lon="128.257461"><ele>472.1</ele><time>2024-11-02T01:14:57.795Z</time></trkpt>
      <trkpt lat="37.372201" lon="128.257448"><ele>471.8</ele><time>2024-11-02T01:15:21.968Z</time></trkpt>
      <trkpt lat="37.372292" lon="128.257422"><ele>472.0</ele><time>2024-11-02T01:15:46.333Z</time></trkpt>
      <trkpt lat="37.372373" lon="128.257362"><ele>472.4</ele><time>2024-11-02T01:16:10.874Z</time></trkpt>
      <trkpt lat="37.372415" lon="128.257250"><ele>469.5</ele><time>2024-11-02T01:16:36.572Z</time></trkpt>
      <trkpt lat="37.372441" lon="128.257140"><ele>468.8</ele><time>2024-11-02T01:17:00.385Z</time></trkpt>
      <trkpt lat="37.372468" lon="128.257030"><ele>469.7</ele><time>2024-11-02T01:17:24.273Z</time></trkpt>
      <trkpt lat="37.372471" lon="128.256911"><ele>467.1</ele><time>2024-11-02T01:17:48.978Z</time></trkpt>
      <trkpt lat="37.372445" lon="128.256792"><ele>465.2</ele><time>2024-11-02T01:18:14.587Z</time></trkpt>
      <trkpt lat="37.372419" lon="128.256682"><ele>463.8</ele><time>2024-11-02T01:18:38.400Z</time></trkpt>
      <trkpt lat="37.372361" lon="128.256577"><ele>460.1</ele><time>2024-11-02T01:19:04.933Z</time></trkpt>
      <trkpt lat="37.372332" lon="128.256469"><ele>465.5</ele><time>2024-11-02T01:19:28.588Z</time></trkpt>
      <trkpt lat="37.372333" lon="128.256351"><ele>464.9</ele><time>2024-11-02T01:19:53.074Z</time></trkpt>
      <trkpt lat="37.372380" lon="128.256244"><ele>465.5</ele><time>2024-11-02T01:20:18.442Z</time></trkpt>
      <trkpt lat="37.372446" lon="128.256152"><ele>468.4</ele><time>2024-11-02T01:20:44.160Z</time></trkpt>
      <trkpt lat="37.372449" lon="128.256032"><ele>467.7</ele><time>2024-11-02T01:21:09.072Z</time></trkpt>
      <trkpt lat="37.372382" lon="128.255950"><ele>471.7</ele><time>2024-11-02T01:21:33.476Z</time></trkpt>
      <trkpt lat="37.372312" lon="128.255876"><ele>471.6</ele><time>2024-11-02T01:21:57.347Z</time></trkpt>
      <trkpt lat="37.372225" lon="128.255821"><ele>472.3</ele><time>2024-11-02T01:22:22.768Z</time></trkpt>
      <trkpt lat="37.372136" lon="128.255774"><ele>474.6</ele><time>2024-11-02T01:22:47.970Z</time></trkpt>
      <trkpt lat="37.372037" lon="128.255782"><ele>471.7</ele><time>2024-11-02T01:23:13.872Z</time></trkpt>
      <trkpt lat="37.371944" lon="128.255770"><ele>473.7</ele><time>2024-11-02T01:23:38.282Z</time></trkpt>
      <trkpt lat="37.371845" lon="128.255754"><ele>481.1</ele><time>2024-11-02T01:24:04.343Z</time></trkpt>
      <trkpt lat="37.371805" lon="128.255639"><ele>487.3</ele><time>2024-11-02T01:24:30.391Z</time></trkpt>
      <trkpt lat="37.371847" lon="128.255529"><ele>486.2</ele><time>2024-11-02T01:24:55.714Z</time></trkpt>
      <trkpt lat="37.371879" lon="128.255423"><ele>489.8</ele><time>2024-11-02T01:25:19.242Z</time></trkpt>
      <trkpt lat="37.371836" lon="128.255321"><ele>496.8</ele><time>2024-11-02T01:25:43.201Z</time></trkpt>
      <trkpt lat="37.371741" lon="128.255266"><ele>494.7</ele><time>2024-11-02T01:26:10.505Z</time></trkpt>
      <trkpt lat="37.371715" lon="128.255155"><ele>497.8</ele><time>2024-11-02T01:26:34.517Z</time></trkpt>
      <trkpt lat="37.371695" lon="128.255039"><ele>498.9</ele><time>2024-11-02T01:26:59.147Z</time></trkpt>
      <trkpt lat="37.371646" lon="128.254936"><ele>502.4</ele><time>2024-11-02T01:27:24.057Z</time></trkpt>
      <trkpt lat="37.371580" lon="128.254842"><ele>507.8</ele><time>2024-11-02T01:27:50.084Z</time></trkpt>
      <trkpt lat="37.371548" lon="128.254725"><ele>509.1</ele><time>2024-11-02T01:28:15.759Z</time></trkpt>
      <trkpt lat="37.371628" lon="128.254664"><ele>500.9</ele><time>2024-11-02T01:28:40.183Z</time></trkpt>
      <trkpt lat="37.371594" lon="128.254782"><ele>505.6</ele><time>2024-11-02T01:29:06.228Z</time></trkpt>
      <trkpt lat="37.371500" lon="128.254752"><ele>504.5</ele><time>2024-11-02T01:29:31.548Z</time></trkpt>
      <trkpt lat="37.371421" lon="128.254674"><ele>506.1</ele><time>2024-11-02T01:29:57.767Z</time></trkpt>
      <trkpt lat="37.371352" lon="128.254590"><ele>510.3</ele><time>2024-11-02T01:30:22.835Z</time></trkpt>
      <trkpt lat="37.371288" lon="128.254509"><ele>511.5</ele><time>2024-11-02T01:30:46.536Z</time></trkpt>
      <trkpt lat="37.371234" lon="128.254411"><ele>514.5</ele><time>2024-11-02T01:31:11.281Z</time></trkpt>
      <trkpt lat="37.371178" lon="128.254310"><ele>516.4</ele><time>2024-11-02T01:31:36.835Z</time></trkpt>
      <trkpt lat="37.371124" lon="128.254218"><ele>517.5</ele><time>2024-11-02T01:32:00.568Z</time></trkpt>
      <trkpt lat="37.371083" lon="128.254109"><ele>517.5</ele><time>2024-11-02T01:32:25.591Z</time></trkpt>
      <trkpt lat="37.371057" lon="128.253993"><ele>519.3</ele><time>2024-11-02T01:32:50.600Z</time></trkpt>
      <trkpt lat="37.371028" lon="128.253877"><ele>520.1</ele><time>2024-11-02T01:33:15.833Z</time></trkpt>
      <trkpt lat="37.371029" lon="128.253759"><ele>522.1</ele><time>2024-11-02T01:33:40.320Z</time></trkpt>
      <trkpt lat="37.371014" lon="128.253643"><ele>521.1</ele><time>2024-11-02T01:34:04.707Z</time></trkpt>
      <trkpt lat="37.370964" lon="128.253542"><ele>521.8</ele><time>2024-11-02T01:34:29.398Z</time></trkpt>
      <trkpt lat="37.370919" lon="128.253433"><ele>523.5</ele><time>2024-11-02T01:34:54.886Z</time></trkpt>
      <trkpt lat="37.370882" lon="128.253321"><ele>523.4</ele><time>2024-11-02T01:35:20.054Z</time></trkpt>
      <trkpt lat="37.370838" lon="128.253215"><ele>522.7</ele><time>2024-11-02T01:35:44.869Z</time></trkpt>
      <trkpt lat="37.370779" lon="128.253114"><ele>524.2</ele><time>2024-11-02T01:36:10.880Z</time></trkpt>
      <trkpt lat="37.370706" lon="128.253033"><ele>529.7</ele><time>2024-11-02T01:36:36.292Z</time></trkpt>
      <trkpt lat="37.370646" lon="128.252943"><ele>533.4</ele><time>2024-11-02T01:37:00.668Z</time></trkpt>
      <trkpt lat="37.370597" lon="128.252839"><ele>535.9</ele><time>2024-11-02T01:37:25.756Z</time></trkpt>
      <trkpt lat="37.370558" lon="128.252731"><ele>536.3</ele><time>2024-11-02T01:37:50.372Z</time></trkpt>
      <trkpt lat="37.370521" lon="128.252623"><ele>537.9</ele><time>2024-11-02T01:38:14.776Z</time></trkpt>
      <trkpt lat="37.370483" lon="128.252517"><ele>539.7</ele><time>2024-11-02T01:38:38.905Z</time></trkpt>
      <trkpt lat="37.370455" lon="128.252400"><ele>543.0</ele><time>2024-11-02T01:39:04.260Z</time></trkpt>
      <trkpt lat="37.370436" lon="128.252288"><ele>543.4</ele><time>2024-11-02T01:39:28.024Z</time></trkpt>
      <trkpt lat="37.370414" lon="128.252177"><ele>547.4</ele><time>2024-11-02T01:39:51.763Z</time></trkpt>
      <trkpt lat="37.370405" lon="128.252052"><ele>548.2</ele><time>2024-11-02T01:40:17.807Z</time></trkpt>
      <trkpt lat="37.370396" lon="128.251938"><ele>550.3</ele><time>2024-11-02T01:40:41.579Z</time></trkpt>
      <trkpt lat="37.370439" lon="128.251833"><ele>552.1</ele><time>2024-11-02T01:41:06.090Z</time></trkpt>
      <trkpt lat="37.370468" lon="128.251721"><ele>553.4</ele><time>2024-11-02T01:41:30.532Z</time></trkpt>
      <trkpt lat="37.370446" lon="128.251607"><ele>554.0</ele><time>2024-11-02T01:41:54.875Z</time></trkpt>
      <trkpt lat="37.370437" lon="128.251492"><ele>556.3</ele><time>2024-11-02T01:42:18.854Z</time></trkpt>
      <trkpt lat="37.370429" lon="128.251371"><ele>558.9</ele><time>2024-11-02T01:42:44.049Z</time></trkpt>
      <trkpt lat="37.370391" lon="128.251255"><ele>561.2</ele><time>2024-11-02T01:43:10.084Z</time></trkpt>
      <trkpt lat="37.370359" lon="128.251146"><ele>562.7</ele><time>2024-11-02T01:43:34.196Z</time></trkpt>
      <trkpt lat="37.370374" lon="128.251029"><ele>562.2</ele><time>2024-11-02T01:43:58.788Z</time></trkpt>
      <trkpt lat="37.370331" lon="128.250921"><ele>561.3</ele><time>2024-11-02T01:44:23.853Z</time></trkpt>
      <trkpt lat="37.370312" lon="128.250810"><ele>560.1</ele><time>2024-11-02T01:44:47.414Z</time></trkpt>
      <trkpt lat="37.370252" lon="128.250722"><ele>564.9</ele><time>2024-11-02T01:45:11.474Z</time></trkpt>
      <trkpt lat="37.370212" lon="128.250616"><ele>572.0</ele><time>2024-11-02T01:45:35.823Z</time></trkpt>
      <trkpt lat="37.370209" lon="128.250491"><ele>577.6</ele><time>2024-11-02T01:46:01.773Z</time></trkpt>
      <trkpt lat="37.370228" lon="128.250376"><ele>576.0</ele><time>2024-11-02T01:46:26.147Z</time></trkpt>
      <trkpt lat="37.370229" lon="128.250252"><ele>575.1</ele><time>2024-11-02T01:46:51.879Z</time></trkpt>
      <trkpt lat="37.370229" lon="128.250131"><ele>577.6</ele><time>2024-11-02T01:47:16.987Z</time></trkpt>
      <trkpt lat="37.370244" lon="128.250014"><ele>576.2</ele><time>2024-11-02T01:47:41.579Z</time></trkpt>
      <trkpt lat="37.370256" lon="128.249897"><ele>580.9</ele><time>2024-11-02T01:48:06.058Z</time></trkpt>
      <trkpt lat="37.370284" lon="128.249783"><ele>584.5</ele><time>2024-11-02T01:48:30.818Z</time></trkpt>
      <trkpt lat="37.370322" lon="128.249673"><ele>585.1</ele><time>2024-11-02T01:48:55.706Z</time></trkpt>
      <trkpt lat="37.370298" lon="128.249556"><ele>589.8</ele><time>2024-11-02T01:49:20.780Z</time></trkpt>
      <trkpt lat="37.370305" lon="128.249434"><ele>593.4</ele><time>2024-11-02T01:49:46.161Z</time></trkpt>
      <trkpt lat="37.370321" lon="128.249315"><ele>594.5</ele><time>2024-11-02T01:50:11.205Z</time></trkpt>
      <trkpt lat="37.370342" lon="128.249203"><ele>595.2</ele><time>2024-11-02T01:50:35.084Z</time></trkpt>
      <trkpt lat="37.370352" lon="128.249088"><ele>597.9</ele><time>2024-11-02T01:50:59.089Z</time></trkpt>
      <trkpt lat="37.370366" lon="128.248976"><ele>597.8</ele><time>2024-11-02T01:51:22.616Z</time></trkpt>
      <trkpt lat="37.370348" lon="128.248865"><ele>599.8</ele><time>2024-11-02T01:51:46.123Z</time></trkpt>
      <trkpt lat="37.370327" lon="128.248742"><ele>600.0</ele><time>2024-11-02T01:52:12.229Z</time></trkpt>
      <trkpt lat="37.370275" lon="128.248647"><ele>600.8</ele><time>2024-11-02T01:52:36.165Z</time></trkpt>
      <trkpt lat="37.370224" lon="128.248547"><ele>600.4</ele><time>2024-11-02T01:53:00.821Z</time></trkpt>
      <trkpt lat="37.370191" lon="128.248436"><ele>602.4</ele><time>2024-11-02T01:53:25.413Z</time></trkpt>
      <trkpt lat="37.370171" lon="128.248323"><ele>606.2</ele><time>2024-11-02T01:53:49.435Z</time></trkpt>
      <trkpt lat="37.370148" lon="128.248206"><ele>610.8</ele><time>2024-11-02T01:54:14.445Z</time></trkpt>
      <trkpt lat="37.370108" lon="128.248096"><ele>613.0</ele><time>2024-11-02T01:54:39.546Z</time></trkpt>
      <trkpt lat="37.370087" lon="128.247973"><ele>616.4</ele><time>2024-11-02T01:55:05.652Z</time></trkpt>
      <trkpt lat="37.370063" lon="128.247857"><ele>618.7</ele><time>2024-11-02T01:55:30.525Z</time></trkpt>
      <trkpt lat="37.370053" lon="128.247742"><ele>619.3</ele><time>2024-11-02T01:55:54.530Z</time></trkpt>
      <trkpt lat="37.370039" lon="128.247627"><ele>620.7</ele><time>2024-11-02T01:56:18.672Z</time></trkpt>
      <trkpt lat="37.370031" lon="128.247507"><ele>620.9</ele><time>2024-11-02T01:56:43.660Z</time></trkpt>
      <trkpt lat="37.369983" lon="128.247408"><ele>621.0</ele><time>2024-11-02T01:57:07.724Z</time></trkpt>
      <trkpt lat="37.369946" lon="128.247295"><ele>623.7</ele><time>2024-11-02T01:57:33.085Z</time></trkpt>
      <trkpt lat="37.369850" lon="128.247253"><ele>626.2</ele><time>2024-11-02T01:57:59.622Z</time></trkpt>
      <trkpt lat="37.369867" lon="128.247139"><ele>625.0</ele><time>2024-11-02T01:58:23.691Z</time></trkpt>
      <trkpt lat="37.369827" lon="128.247034"><ele>626.9</ele><time>2024-11-02T01:58:47.853Z</time></trkpt>
      <trkpt lat="37.369844" lon="128.246920"><ele>626.7</ele><time>2024-11-02T01:59:11.921Z</time></trkpt>
      <trkpt lat="37.369819" lon="128.246807"><ele>629.4</ele><time>2024-11-02T01:59:36.261Z</time></trkpt>
      <trkpt lat="37.369767" lon="128.246711"><ele>635.0</ele><time>2024-11-02T02:00:00.369Z</time></trkpt>
      <trkpt lat="37.369755" lon="128.246595"><ele>634.0</ele><time>2024-11-02T02:00:24.642Z</time></trkpt>
      <trkpt lat="37.369730" lon="128.246486"><ele>635.1</ele><time>2024-11-02T02:00:48.184Z</time></trkpt>
      <trkpt lat="37.369682" lon="128.246382"><ele>635.6</ele><time>2024-11-02T02:01:13.140Z</time></trkpt>
      <trkpt lat="37.369628" lon="128.246267"><ele>636.9</ele><time>2024-11-02T02:01:40.857Z</time></trkpt>
      <trkpt lat="37.369597" lon="128.246156"><ele>638.1</ele><time>2024-11-02T02:02:05.271Z</time></trkpt>
      <trkpt lat="37.369576" lon="128.246040"><ele>641.0</ele><time>2024-11-02T02:02:29.958Z</time></trkpt>
      <trkpt lat="37.369551" lon="128.245925"><ele>644.5</ele><time>2024-11-02T02:02:54.698Z</time></trkpt>
      <trkpt lat="37.369554" lon="128.245806"><ele>640.6</ele><time>2024-11-02T02:03:19.404Z</time></trkpt>
      <trkpt lat="37.369564" lon="128.245680"><ele>640.0</ele><time>2024-11-02T02:03:45.680Z</time></trkpt>
      <trkpt lat="37.369497" lon="128.245586"><ele>640.8</ele><time>2024-11-02T02:04:11.881Z</time></trkpt>
      <trkpt lat="37.369529" lon="128.245471"><ele>642.5</ele><time>2024-11-02T02:04:37.165Z</time></trkpt>
      <trkpt lat="37.369463" lon="128.245389"><ele>642.5</ele><time>2024-11-02T02:05:01.382Z</time></trkpt>
      <trkpt lat="37.369373" lon="128.245361"><ele>646.2</ele><time>2024-11-02T02:05:25.589Z</time></trkpt>
      <trkpt lat="37.369325" lon="128.245260"><ele>649.0</ele><time>2024-11-02T02:05:50.009Z</time></trkpt>
      <trkpt lat="37.369343" lon="128.245145"><ele>654.9</ele><time>2024-11-02T02:06:14.331Z</time></trkpt>
      <trkpt lat="37.369444" lon="128.245111"><ele>657.5</ele><time>2024-11-02T02:06:41.629Z</time></trkpt>
      <trkpt lat="37.369472" lon="128.245002"><ele>661.5</ele><time>2024-11-02T02:07:05.400Z</time></trkpt>
      <trkpt lat="37.369407" lon="128.245091"><ele>665.2</ele><time>2024-11-02T02:07:30.482Z</time></trkpt>
      <trkpt lat="37.369320" lon="128.245055"><ele>664.7</ele><time>2024-11-02T02:07:54.394Z</time></trkpt>
      <trkpt lat="37.369351" lon="128.244947"><ele>667.3</ele><time>2024-11-02T02:08:18.222Z</time></trkpt>
      <trkpt lat="37.369316" lon="128.244838"><ele>676.1</ele><time>2024-11-02T02:08:42.617Z</time></trkpt>
      <trkpt lat="37.369238" lon="128.244774"><ele>674.9</ele><time>2024-11-02T02:09:06.930Z</time></trkpt>
      <trkpt lat="37.369203" lon="128.244649"><ele>683.3</ele><time>2024-11-02T02:09:34.431Z</time></trkpt>
      <trkpt lat="37.369114" lon="128.244628"><ele>677.6</ele><time>2024-11-02T02:09:58.075Z</time></trkpt>
      <trkpt lat="37.369172" lon="128.244539"><ele>682.1</ele><time>2024-11-02T02:10:21.958Z</time></trkpt>
      <trkpt lat="37.369143" lon="128.244427"><ele>685.6</ele><time>2024-11-02T02:10:46.401Z</time></trkpt>
      <trkpt lat="37.369133" lon="128.244313"><ele>688.8</ele><time>2024-11-02T02:11:10.201Z</time></trkpt>
      <trkpt lat="37.369039" lon="128.244317"><ele>694.6</ele><time>2024-11-02T02:11:34.758Z</time></trkpt>
      <trkpt lat="37.369019" lon="128.244207"><ele>707.4</ele><time>2024-11-02T02:11:58.174Z</time></trkpt>
      <trkpt lat="37.369039" lon="128.244091"><ele>712.3</ele><time>2024-11-02T02:12:22.805Z</time></trkpt>
      <trkpt lat="37.368949" lon="128.244066"><ele>718.8</ele><time>2024-11-02T02:12:46.870Z</time></trkpt>
      <trkpt lat="37.368908" lon="128.243961"><ele>721.9</ele><time>2024-11-02T02:13:11.146Z</time></trkpt>
      <trkpt lat="37.368900" lon="128.243848"><ele>733.4</ele><time>2024-11-02T02:13:34.687Z</time></trkpt>
      <trkpt lat="37.368809" lon="128.243820"><ele>739.2</ele><time>2024-11-02T02:13:59.147Z</time></trkpt>
      <trkpt lat="37.368806" lon="128.243699"><ele>731.3</ele><time>2024-11-02T02:14:24.268Z</time></trkpt>
      <trkpt lat="37.368826" lon="128.243574"><ele>731.5</ele><time>2024-11-02T02:14:50.727Z</time></trkpt>
      <trkpt lat="37.368767" lon="128.243483"><ele>735.6</ele><time>2024-11-02T02:15:15.097Z</time></trkpt>
      <trkpt lat="37.368774" lon="128.243358"><ele>745.6</ele><time>2024-11-02T02:15:41.100Z</time></trkpt>
      <trkpt lat="37.368796" lon="128.243247"><ele>745.8</ele><time>2024-11-02T02:16:04.839Z</time></trkpt>
      <trkpt lat="37.368764" lon="128.243133"><ele>753.8</ele><time>2024-11-02T02:16:29.927Z</time></trkpt>
      <trkpt lat="37.368668" lon="128.243147"><ele>754.9</ele><time>2024-11-02T02:16:55.161Z</time></trkpt>
      <trkpt lat="37.368609" lon="128.243049"><ele>760.2</ele><time>2024-11-02T02:17:20.673Z</time></trkpt>
      <trkpt lat="37.368533" lon="128.242985"><ele>764.3</ele><time>2024-11-02T02:17:44.551Z</time></trkpt>
      <trkpt lat="37.368495" lon="128.242867"><ele>777.8</ele><time>2024-11-02T02:18:10.971Z</time></trkpt>
      <trkpt lat="37.368402" lon="128.242832"><ele>778.8</ele><time>2024-11-02T02:18:36.316Z</time></trkpt>
      <trkpt lat="37.368429" lon="128.242722"><ele>780.6</ele><time>2024-11-02T02:19:00.206Z</time></trkpt>
      <trkpt lat="37.368350" lon="128.242661"><ele>801.2</ele><time>2024-11-02T02:19:24.407Z</time></trkpt>
      <trkpt lat="37.368256" lon="128.242609"><ele>803.8</ele><time>2024-11-02T02:19:51.218Z</time></trkpt>
      <trkpt lat="37.368163" lon="128.242586"><ele>800.0</ele><time>2024-11-02T02:20:15.965Z</time></trkpt>
      <trkpt lat="37.368070" lon="128.242592"><ele>799.2</ele><time>2024-11-02T02:20:40.279Z</time></trkpt>
      <trkpt lat="37.368046" lon="128.242702"><ele>799.0</ele><time>2024-11-02T02:21:03.950Z</time></trkpt>
      <trkpt lat="37.367997" lon="128.242803"><ele>799.2</ele><time>2024-11-02T02:21:28.505Z</time></trkpt>
      <trkpt lat="37.367946" lon="128.242899"><ele>804.8</ele><time>2024-11-02T02:21:52.467Z</time></trkpt>
      <trkpt lat="37.367883" lon="128.242989"><ele>804.5</ele><time>2024-11-02T02:22:17.354Z</time></trkpt>
      <trkpt lat="37.367824" lon="128.243079"><ele>806.4</ele><time>2024-11-02T02:22:41.564Z</time></trkpt>
      <trkpt lat="37.367817" lon="128.243193"><ele>804.3</ele><time>2024-11-02T02:23:05.291Z</time></trkpt>
      <trkpt lat="37.367787" lon="128.243084"><ele>803.4</ele><time>2024-11-02T02:23:29.227Z</time></trkpt>
      <trkpt lat="37.367722" lon="128.243171"><ele>801.6</ele><time>2024-11-02T02:23:54.006Z</time></trkpt>
      <trkpt lat="37.367634" lon="128.243205"><ele>801.3</ele><time>2024-11-02T02:24:18.041Z</time></trkpt>
      <trkpt lat="37.367573" lon="128.243292"><ele>803.8</ele><time>2024-11-02T02:24:42.116Z</time></trkpt>
      <trkpt lat="37.367524" lon="128.243398"><ele>807.9</ele><time>2024-11-02T02:25:07.563Z</time></trkpt>
      <trkpt lat="37.367454" lon="128.243471"><ele>806.9</ele><time>2024-11-02T02:25:31.302Z</time></trkpt>
      <trkpt lat="37.367367" lon="128.243522"><ele>806.0</ele><time>2024-11-02T02:25:56.362Z</time></trkpt>
      <trkpt lat="37.367332" lon="128.243626"><ele>807.9</ele><time>2024-11-02T02:26:19.798Z</time></trkpt>
      <trkpt lat="37.367297" lon="128.243745"><ele>808.3</ele><time>2024-11-02T02:26:46.129Z</time></trkpt>
      <trkpt lat="37.367220" lon="128.243815"><ele>810.1</ele><time>2024-11-02T02:27:10.932Z</time></trkpt>
      <trkpt lat="37.367141" lon="128.243881"><ele>811.8</ele><time>2024-11-02T02:27:35.692Z</time></trkpt>
      <trkpt lat="37.367045" lon="128.243900"><ele>812.0</ele><time>2024-11-02T02:28:01.066Z</time></trkpt>
      <trkpt lat="37.366975" lon="128.243976"><ele>817.2</ele><time>2024-11-02T02:28:25.207Z</time></trkpt>
      <trkpt lat="37.366906" lon="128.244056"><ele>818.7</ele><time>2024-11-02T02:28:49.705Z</time></trkpt>
      <trkpt lat="37.366822" lon="128.244115"><ele>824.3</ele><time>2024-11-02T02:29:14.824Z</time></trkpt>
      <trkpt lat="37.366732" lon="128.244086"><ele>824.5</ele><time>2024-11-02T02:29:39.081Z</time></trkpt>
      <trkpt lat="37.366640" lon="128.244117"><ele>823.2</ele><time>2024-11-02T02:30:03.949Z</time></trkpt>
      <trkpt lat="37.366555" lon="128.244171"><ele>824.4</ele><time>2024-11-02T02:30:28.811Z</time></trkpt>
      <trkpt lat="37.366470" lon="128.244211"><ele>824.0</ele><time>2024-11-02T02:30:52.506Z</time></trkpt>
      <trkpt lat="37.366417" lon="128.244307"><ele>827.0</ele><time>2024-11-02T02:31:16.762Z</time></trkpt>
      <trkpt lat="37.366477" lon="128.244218"><ele>829.4</ele><time>2024-11-02T02:31:40.981Z</time></trkpt>
      <trkpt lat="37.366386" lon="128.244201"><ele>827.1</ele><time>2024-11-02T02:32:05.001Z</time></trkpt>
      <trkpt lat="37.366338" lon="128.244098"><ele>819.6</ele><time>2024-11-02T02:32:29.779Z</time></trkpt>
      <trkpt lat="37.366252" lon="128.244058"><ele>817.3</ele><time>2024-11-02T02:32:53.719Z</time></trkpt>
      <trkpt lat="37.366170" lon="128.244012"><ele>814.4</ele><time>2024-11-02T02:33:17.161Z</time></trkpt>
      <trkpt lat="37.366078" lon="128.244026"><ele>806.5</ele><time>2024-11-02T02:33:41.357Z</time></trkpt>
      <trkpt lat="37.366037" lon="128.244127"><ele>809.3</ele><time>2024-11-02T02:34:04.892Z</time></trkpt>
      <trkpt lat="37.365992" lon="128.244228"><ele>813.6</ele><time>2024-11-02T02:34:28.920Z</time></trkpt>
      <trkpt lat="37.365917" lon="128.244293"><ele>814.6</ele><time>2024-11-02T02:34:52.698Z</time></trkpt>
      <trkpt lat="37.365825" lon="128.244316"><ele>815.9</ele><time>2024-11-02T02:35:17.189Z</time></trkpt>
      <trkpt lat="37.365756" lon="128.244399"><ele>811.1</ele><time>2024-11-02T02:35:42.114Z</time></trkpt>
      <trkpt lat="37.365684" lon="128.244471"><ele>811.4</ele><time>2024-11-02T02:36:06.127Z</time></trkpt>
      <trkpt lat="37.365650" lon="128.244583"><ele>811.7</ele><time>2024-11-02T02:36:31.007Z</time></trkpt>
      <trkpt lat="37.365607" lon="128.244689"><ele>811.2</ele><time>2024-11-02T02:36:55.703Z</time></trkpt>
      <trkpt lat="37.365539" lon="128.244766"><ele>805.5</ele><time>2024-11-02T02:37:19.590Z</time></trkpt>
      <trkpt lat="37.365474" lon="128.244851"><ele>805.8</ele><time>2024-11-02T02:37:44.068Z</time></trkpt>
      <trkpt lat="37.365402" lon="128.244934"><ele>806.1</ele><time>2024-11-02T02:38:09.564Z</time></trkpt>
      <trkpt lat="37.365396" lon="128.245057"><ele>803.8</ele><time>2024-11-02T02:38:35.137Z</time></trkpt>
      <trkpt lat="37.365307" lon="128.245118"><ele>803.9</ele><time>2024-11-02T02:39:01.599Z</time></trkpt>
      <trkpt lat="37.365274" lon="128.245223"><ele>805.4</ele><time>2024-11-02T02:39:25.031Z</time></trkpt>
      <trkpt lat="37.365220" lon="128.245316"><ele>810.5</ele><time>2024-11-02T02:39:48.932Z</time></trkpt>
      <trkpt lat="37.365194" lon="128.245428"><ele>812.5</ele><time>2024-11-02T02:40:13.145Z</time></trkpt>
      <trkpt lat="37.365121" lon="128.245505"><ele>814.0</ele><time>2024-11-02T02:40:38.017Z</time></trkpt>
      <trkpt lat="37.365027" lon="128.245507"><ele>809.7</ele><time>2024-11-02T02:41:02.564Z</time></trkpt>
      <trkpt lat="37.364948" lon="128.245591"><ele>796.6</ele><time>2024-11-02T02:41:29.570Z</time></trkpt>
      <trkpt lat="37.364851" lon="128.245506"><ele>778.8</ele><time>2024-11-02T02:42:00.434Z</time></trkpt>
      <trkpt lat="37.364769" lon="128.245426"><ele>770.5</ele><time>2024-11-02T02:42:27.527Z</time></trkpt>
      <trkpt lat="37.364703" lon="128.245327"><ele>760.9</ele><time>2024-11-02T02:42:54.342Z</time></trkpt>
      <trkpt lat="37.364606" lon="128.245283"><ele>751.8</ele><time>2024-11-02T02:43:21.264Z</time></trkpt>
      <trkpt lat="37.364532" lon="128.245207"><ele>748.5</ele><time>2024-11-02T02:43:46.206Z</time></trkpt>
      <trkpt lat="37.364476" lon="128.245118"><ele>789.6</ele><time>2024-11-02T02:44:09.762Z</time></trkpt>
      <trkpt lat="37.364448" lon="128.245241"><ele>800.9</ele><time>2024-11-02T02:44:36.314Z</time></trkpt>
      <trkpt lat="37.364456" lon="128.245355"><ele>823.9</ele><time>2024-11-02T02:45:00.063Z</time></trkpt>
      <trkpt lat="37.364362" lon="128.245360"><ele>821.7</ele><time>2024-11-02T02:45:24.628Z</time></trkpt>
      <trkpt lat="37.364269" lon="128.245369"><ele>823.8</ele><time>2024-11-02T02:45:48.983Z</time></trkpt>
      <trkpt lat="37.364181" lon="128.245340"><ele>817.4</ele><time>2024-11-02T02:46:12.735Z</time></trkpt>
      <trkpt lat="37.364093" lon="128.245296"><ele>817.2</ele><time>2024-11-02T02:46:37.459Z</time></trkpt>
      <trkpt lat="37.364000" lon="128.245332"><ele>820.3</ele><time>2024-11-02T02:47:02.865Z</time></trkpt>
      <trkpt lat="37.363919" lon="128.245391"><ele>822.2</ele><time>2024-11-02T02:47:27.303Z</time></trkpt>
      <trkpt lat="37.363853" lon="128.245475"><ele>833.0</ele><time>2024-11-02T02:47:51.815Z</time></trkpt>
      <trkpt lat="37.363765" lon="128.245510"><ele>838.1</ele><time>2024-11-02T02:48:15.912Z</time></trkpt>
      <trkpt lat="37.363674" lon="128.245498"><ele>839.5</ele><time>2024-11-02T02:48:39.803Z</time></trkpt>
      <trkpt lat="37.363579" lon="128.245518"><ele>846.0</ele><time>2024-11-02T02:49:04.952Z</time></trkpt>
      <trkpt lat="37.363550" lon="128.245627"><ele>850.8</ele><time>2024-11-02T02:49:28.806Z</time></trkpt>
      <trkpt lat="37.363504" lon="128.245724"><ele>854.8</ele><time>2024-11-02T02:49:52.246Z</time></trkpt>
      <trkpt lat="37.363414" lon="128.245682"><ele>850.0</ele><time>2024-11-02T02:50:17.310Z</time></trkpt>
      <trkpt lat="37.363328" lon="128.245637"><ele>849.7</ele><time>2024-11-02T02:50:41.629Z</time></trkpt>
      <trkpt lat="37.363244" lon="128.245680"><ele>852.0</ele><time>2024-11-02T02:51:05.307Z</time></trkpt>
      <trkpt lat="37.363178" lon="128.245768"><ele>856.8</ele><time>2024-11-02T02:51:30.417Z</time></trkpt>
      <trkpt lat="37.363148" lon="128.245890"><ele>855.4</ele><time>2024-11-02T02:51:56.919Z</time></trkpt>
      <trkpt lat="37.363085" lon="128.245986"><ele>851.1</ele><time>2024-11-02T02:52:22.754Z</time></trkpt>
      <trkpt lat="37.363094" lon="128.245867"><ele>860.3</ele><time>2024-11-02T02:52:47.561Z</time></trkpt>
      <trkpt lat="37.363036" lon="128.245960"><ele>858.0</ele><time>2024-11-02T02:53:12.093Z</time></trkpt>
      <trkpt lat="37.362960" lon="128.246044"><ele>856.8</ele><time>2024-11-02T02:53:38.506Z</time></trkpt>
      <trkpt lat="37.362893" lon="128.246123"><ele>855.6</ele><time>2024-11-02T02:54:02.482Z</time></trkpt>
      <trkpt lat="37.362873" lon="128.246242"><ele>854.1</ele><time>2024-11-02T02:54:27.723Z</time></trkpt>
      <trkpt lat="37.362823" lon="128.246337"><ele>851.7</ele><time>2024-11-02T02:54:51.369Z</time></trkpt>
      <trkpt lat="37.362747" lon="128.246416"><ele>850.1</ele><time>2024-11-02T02:55:17.109Z</time></trkpt>
      <trkpt lat="37.362656" lon="128.246429"><ele>847.9</ele><time>2024-11-02T02:55:41.022Z</time></trkpt>
      <trkpt lat="37.362561" lon="128.246410"><ele>847.2</ele><time>2024-11-02T02:56:06.138Z</time></trkpt>
      <trkpt lat="37.362491" lon="128.246486"><ele>843.0</ele><time>2024-11-02T02:56:30.279Z</time></trkpt>
      <trkpt lat="37.362394" lon="128.246497"><ele>839.5</ele><time>2024-11-02T02:56:55.709Z</time></trkpt>
      <trkpt lat="37.362309" lon="128.246542"><ele>840.8</ele><time>2024-11-02T02:57:19.787Z</time></trkpt>
      <trkpt lat="37.362244" lon="128.246622"><ele>841.2</ele><time>2024-11-02T02:57:43.529Z</time></trkpt>
      <trkpt lat="37.362141" lon="128.246638"><ele>838.7</ele><time>2024-11-02T02:58:10.626Z</time></trkpt>
      <trkpt lat="37.362090" lon="128.246743"><ele>848.2</ele><time>2024-11-02T02:58:36.163Z</time></trkpt>
      <trkpt lat="37.362038" lon="128.246837"><ele>849.6</ele><time>2024-11-02T02:58:59.931Z</time></trkpt>
      <trkpt lat="37.361947" lon="128.246850"><ele>847.0</ele><time>2024-11-02T02:59:23.844Z</time></trkpt>
      <trkpt lat="37.361863" lon="128.246901"><ele>851.1</ele><time>2024-11-02T02:59:48.196Z</time></trkpt>
      <trkpt lat="37.361780" lon="128.246852"><ele>861.7</ele><time>2024-11-02T03:00:12.135Z</time></trkpt>
      <trkpt lat="37.361697" lon="128.246806"><ele>863.3</ele><time>2024-11-02T03:00:35.816Z</time></trkpt>
      <trkpt lat="37.361604" lon="128.246837"><ele>863.4</ele><time>2024-11-02T03:01:00.936Z</time></trkpt>
      <trkpt lat="37.361627" lon="128.246947"><ele>870.9</ele><time>2024-11-02T03:01:24.541Z</time></trkpt>
      <trkpt lat="37.361543" lon="128.247003"><ele>874.8</ele><time>2024-11-02T03:01:49.362Z</time></trkpt>
      <trkpt lat="37.361473" lon="128.246932"><ele>876.4</ele><time>2024-11-02T03:02:12.839Z</time></trkpt>
      <trkpt lat="37.361400" lon="128.247006"><ele>877.4</ele><time>2024-11-02T03:02:37.316Z</time></trkpt>
      <trkpt lat="37.361308" lon="128.247011"><ele>873.9</ele><time>2024-11-02T03:03:01.360Z</time></trkpt>
      <trkpt lat="37.361269" lon="128.247116"><ele>871.8</ele><time>2024-11-02T03:03:25.412Z</time></trkpt>
      <trkpt lat="37.361249" lon="128.247228"><ele>872.2</ele><time>2024-11-02T03:03:49.235Z</time></trkpt>
      <trkpt lat="37.361187" lon="128.247134"><ele>867.6</ele><time>2024-11-02T03:04:14.585Z</time></trkpt>
      <trkpt lat="37.361119" lon="128.247057"><ele>869.1</ele><time>2024-11-02T03:04:38.472Z</time></trkpt>
      <trkpt lat="37.361123" lon="128.247174"><ele>864.3</ele><time>2024-11-02T03:05:02.776Z</time></trkpt>
      <trkpt lat="37.361145" lon="128.247291"><ele>863.3</ele><time>2024-11-02T03:05:27.727Z</time></trkpt>
      <trkpt lat="37.361166" lon="128.247414"><ele>860.7</ele><time>2024-11-02T03:05:53.835Z</time></trkpt>
      <trkpt lat="37.361156" lon="128.247533"><ele>856.6</ele><time>2024-11-02T03:06:18.669Z</time></trkpt>
      <trkpt lat="37.361110" lon="128.247641"><ele>860.7</ele><time>2024-11-02T03:06:44.098Z</time></trkpt>
      <trkpt lat="37.361086" lon="128.247756"><ele>865.4</ele><time>2024-11-02T03:07:08.772Z</time></trkpt>
      <trkpt lat="37.361085" lon="128.247869"><ele>869.1</ele><time>2024-11-02T03:07:32.225Z</time></trkpt>
      <trkpt lat="37.361010" lon="128.247936"><ele>870.3</ele><time>2024-11-02T03:07:56.242Z</time></trkpt>
      <trkpt lat="37.360933" lon="128.248000"><ele>870.5</ele><time>2024-11-02T03:08:20.338Z</time></trkpt>
      <trkpt lat="37.360851" lon="128.248052"><ele>870.5</ele><time>2024-11-02T03:08:44.314Z</time></trkpt>
      <trkpt lat="37.360934" lon="128.248098"><ele>872.8</ele><time>2024-11-02T03:09:07.995Z</time></trkpt>
      <trkpt lat="37.360844" lon="128.248126"><ele>876.9</ele><time>2024-11-02T03:09:32.202Z</time></trkpt>
      <trkpt lat="37.360857" lon="128.248004"><ele>876.4</ele><time>2024-11-02T03:09:57.747Z</time></trkpt>
      <trkpt lat="37.360933" lon="128.247939"><ele>874.4</ele><time>2024-11-02T03:10:21.742Z</time></trkpt>
      <trkpt lat="37.361019" lon="128.247895"><ele>866.2</ele><time>2024-11-02T03:10:45.982Z</time></trkpt>
      <trkpt lat="37.360924" lon="128.247888"><ele>863.1</ele><time>2024-11-02T03:11:10.829Z</time></trkpt>
      <trkpt lat="37.360837" lon="128.247919"><ele>860.0</ele><time>2024-11-02T03:11:34.438Z</time></trkpt>
      <trkpt lat="37.360752" lon="128.247962"><ele>855.2</ele><time>2024-11-02T03:11:58.359Z</time></trkpt>
      <trkpt lat="37.360664" lon="128.247992"><ele>849.8</ele><time>2024-11-02T03:12:22.164Z</time></trkpt>
      <trkpt lat="37.360577" lon="128.247960"><ele>838.3</ele><time>2024-11-02T03:12:45.831Z</time></trkpt>
      <trkpt lat="37.360497" lon="128.248022"><ele>834.1</ele><time>2024-11-02T03:13:10.364Z</time></trkpt>
      <trkpt lat="37.360407" lon="128.248002"><ele>827.5</ele><time>2024-11-02T03:13:34.227Z</time></trkpt>
      <trkpt lat="37.360315" lon="128.247979"><ele>823.9</ele><time>2024-11-02T03:13:58.718Z</time></trkpt>
      <trkpt lat="37.360232" lon="128.248031"><ele>824.7</ele><time>2024-11-02T03:14:22.928Z</time></trkpt>
      <trkpt lat="37.360151" lon="128.248082"><ele>827.2</ele><time>2024-11-02T03:14:46.577Z</time></trkpt>
      <trkpt lat="37.360060" lon="128.248101"><ele>826.8</ele><time>2024-11-02T03:15:10.663Z</time></trkpt>
      <trkpt lat="37.359971" lon="128.248083"><ele>825.5</ele><time>2024-11-02T03:15:34.199Z</time></trkpt>
      <trkpt lat="37.359880" lon="128.248066"><ele>831.9</ele><time>2024-11-02T03:15:58.220Z</time></trkpt>
      <trkpt lat="37.359786" lon="128.248050"><ele>833.7</ele><time>2024-11-02T03:16:22.987Z</time></trkpt>
      <trkpt lat="37.359699" lon="128.247991"><ele>836.2</ele><time>2024-11-02T03:16:48.792Z</time></trkpt>
      <trkpt lat="37.359618" lon="128.248089"><ele>837.1</ele><time>2024-11-02T03:17:18.134Z</time></trkpt>
      <trkpt lat="37.359550" lon="128.248164"><ele>845.0</ele><time>2024-11-02T03:17:41.746Z</time></trkpt>
      <trkpt lat="37.359461" lon="128.248191"><ele>850.7</ele><time>2024-11-02T03:18:05.650Z</time></trkpt>
      <trkpt lat="37.359417" lon="128.248292"><ele>857.7</ele><time>2024-11-02T03:18:29.553Z</time></trkpt>
      <trkpt lat="37.359326" lon="128.248292"><ele>861.7</ele><time>2024-11-02T03:18:53.313Z</time></trkpt>
      <trkpt lat="37.359235" lon="128.248292"><ele>863.7</ele><time>2024-11-02T03:19:17.073Z</time></trkpt>
      <trkpt lat="37.359138" lon="128.248296"><ele>869.4</ele><time>2024-11-02T03:19:42.414Z</time></trkpt>
      <trkpt lat="37.359044" lon="128.248280"><ele>871.1</ele><time>2024-11-02T03:20:07.181Z</time></trkpt>
      <trkpt lat="37.358953" lon="128.248241"><ele>877.0</ele><time>2024-11-02T03:20:32.282Z</time></trkpt>
      <trkpt lat="37.358860" lon="128.248257"><ele>880.0</ele><time>2024-11-02T03:20:56.790Z</time></trkpt>
      <trkpt lat="37.358779" lon="128.248328"><ele>876.1</ele><time>2024-11-02T03:21:22.566Z</time></trkpt>
      <trkpt lat="37.358686" lon="128.248357"><ele>873.8</ele><time>2024-11-02T03:21:47.583Z</time></trkpt>
      <trkpt lat="37.358591" lon="128.248383"><ele>877.7</ele><time>2024-11-02T03:22:12.968Z</time></trkpt>
      <trkpt lat="37.358536" lon="128.248478"><ele>879.5</ele><time>2024-11-02T03:22:37.360Z</time></trkpt>
      <trkpt lat="37.358452" lon="128.248425"><ele>877.9</ele><time>2024-11-02T03:23:01.896Z</time></trkpt>
      <trkpt lat="37.358368" lon="128.248472"><ele>879.4</ele><time>2024-11-02T03:23:25.900Z</time></trkpt>
      <trkpt lat="37.358276" lon="128.248498"><ele>888.2</ele><time>2024-11-02T03:23:50.520Z</time></trkpt>
      <trkpt lat="37.358213" lon="128.248581"><ele>890.6</ele><time>2024-11-02T03:24:14.338Z</time></trkpt>
      <trkpt lat="37.358110" lon="128.248587"><ele>890.3</ele><time>2024-11-02T03:24:41.260Z</time></trkpt>
      <trkpt lat="37.358020" lon="128.248537"><ele>889.3</ele><time>2024-11-02T03:25:06.948Z</time></trkpt>
      <trkpt lat="37.357926" lon="128.248531"><ele>890.4</ele><time>2024-11-02T03:25:31.523Z</time></trkpt>
      <trkpt lat="37.357830" lon="128.248547"><ele>885.3</ele><time>2024-11-02T03:25:56.808Z</time></trkpt>
      <trkpt lat="37.357742" lon="128.248512"><ele>888.8</ele><time>2024-11-02T03:26:20.906Z</time></trkpt>
      <trkpt lat="37.357647" lon="128.248529"><ele>889.2</ele><time>2024-11-02T03:26:45.960Z</time></trkpt>
      <trkpt lat="37.357562" lon="128.248473"><ele>891.0</ele><time>2024-11-02T03:27:11.013Z</time></trkpt>
      <trkpt lat="37.357470" lon="128.248468"><ele>896.8</ele><time>2024-11-02T03:27:35.056Z</time></trkpt>
      <trkpt lat="37.357373" lon="128.248458"><ele>900.2</ele><time>2024-11-02T03:28:00.468Z</time></trkpt>
      <trkpt lat="37.357282" lon="128.248473"><ele>895.0</ele><time>2024-11-02T03:28:24.431Z</time></trkpt>
      <trkpt lat="37.357306" lon="128.248355"><ele>896.4</ele><time>2024-11-02T03:28:49.710Z</time></trkpt>
      <trkpt lat="37.357261" lon="128.248455"><ele>896.3</ele><time>2024-11-02T03:29:13.559Z</time></trkpt>
      <trkpt lat="37.357179" lon="128.248510"><ele>892.6</ele><time>2024-11-02T03:29:37.823Z</time></trkpt>
      <trkpt lat="37.357092" lon="128.248552"><ele>893.5</ele><time>2024-11-02T03:30:02.153Z</time></trkpt>
      <trkpt lat="37.357048" lon="128.248652"><ele>892.2</ele><time>2024-11-02T03:30:25.875Z</time></trkpt>
      <trkpt lat="37.357104" lon="128.248742"><ele>887.3</ele><time>2024-11-02T03:30:49.596Z</time></trkpt>
      <trkpt lat="37.357150" lon="128.248843"><ele>883.1</ele><time>2024-11-02T03:31:13.755Z</time></trkpt>
      <trkpt lat="37.357124" lon="128.248955"><ele>879.2</ele><time>2024-11-02T03:31:37.971Z</time></trkpt>
      <trkpt lat="37.357140" lon="128.249071"><ele>871.2</ele><time>2024-11-02T03:32:02.405Z</time></trkpt>
      <trkpt lat="37.357096" lon="128.249175"><ele>865.7</ele><time>2024-11-02T03:32:26.856Z</time></trkpt>
      <trkpt lat="37.357068" lon="128.249284"><ele>858.9</ele><time>2024-11-02T03:32:50.630Z</time></trkpt>
      <trkpt lat="37.357102" lon="128.249391"><ele>854.7</ele><time>2024-11-02T03:33:14.546Z</time></trkpt>
      <trkpt lat="37.357024" lon="128.249460"><ele>852.0</ele><time>2024-11-02T03:33:39.443Z</time></trkpt>
      <trkpt lat="37.356987" lon="128.249563"><ele>848.9</ele><time>2024-11-02T03:34:02.901Z</time></trkpt>
      <trkpt lat="37.356975" lon="128.249677"><ele>842.0</ele><time>2024-11-02T03:34:26.767Z</time></trkpt>
      <trkpt lat="37.356944" lon="128.249786"><ele>842.7</ele><time>2024-11-02T03:34:50.794Z</time></trkpt>
      <trkpt lat="37.356909" lon="128.249898"><ele>838.9</ele><time>2024-11-02T03:35:15.770Z</time></trkpt>
      <trkpt lat="37.356892" lon="128.250016"><ele>835.6</ele><time>2024-11-02T03:35:40.659Z</time></trkpt>
      <trkpt lat="37.356871" lon="128.250136"><ele>834.2</ele><time>2024-11-02T03:36:06.161Z</time></trkpt>
      <trkpt lat="37.356815" lon="128.250228"><ele>831.9</ele><time>2024-11-02T03:36:30.210Z</time></trkpt>
      <trkpt lat="37.356764" lon="128.250332"><ele>827.6</ele><time>2024-11-02T03:36:55.572Z</time></trkpt>
      <trkpt lat="37.356692" lon="128.250400"><ele>824.2</ele><time>2024-11-02T03:37:19.079Z</time></trkpt>
      <trkpt lat="37.356640" lon="128.250496"><ele>824.2</ele><time>2024-11-02T03:37:43.189Z</time></trkpt>
      <trkpt lat="37.356576" lon="128.250576"><ele>820.3</ele><time>2024-11-02T03:38:06.746Z</time></trkpt>
      <trkpt lat="37.356492" lon="128.250619"><ele>822.5</ele><time>2024-11-02T03:38:30.424Z</time></trkpt>
      <trkpt lat="37.356434" lon="128.250711"><ele>820.0</ele><time>2024-11-02T03:38:54.795Z</time></trkpt>
      <trkpt lat="37.356404" lon="128.250820"><ele>820.4</ele><time>2024-11-02T03:39:18.735Z</time></trkpt>
      <trkpt lat="37.356314" lon="128.250833"><ele>815.4</ele><time>2024-11-02T03:39:42.388Z</time></trkpt>
      <trkpt lat="37.356236" lon="128.250776"><ele>812.7</ele><time>2024-11-02T03:40:05.941Z</time></trkpt>
      <trkpt lat="37.356160" lon="128.250840"><ele>812.2</ele><time>2024-11-02T03:40:29.820Z</time></trkpt>
      <trkpt lat="37.356124" lon="128.250948"><ele>805.8</ele><time>2024-11-02T03:40:54.126Z</time></trkpt>
      <trkpt lat="37.356037" lon="128.251006"><ele>805.1</ele><time>2024-11-02T03:41:19.834Z</time></trkpt>
      <trkpt lat="37.355941" lon="128.251005"><ele>806.7</ele><time>2024-11-02T03:41:44.900Z</time></trkpt>
      <trkpt lat="37.355863" lon="128.251072"><ele>811.8</ele><time>2024-11-02T03:42:09.561Z</time></trkpt>
      <trkpt lat="37.355786" lon="128.251131"><ele>815.4</ele><time>2024-11-02T03:42:33.101Z</time></trkpt>
      <trkpt lat="37.355772" lon="128.251245"><ele>820.2</ele><time>2024-11-02T03:42:57.042Z</time></trkpt>
      <trkpt lat="37.355693" lon="128.251326"><ele>822.7</ele><time>2024-11-02T03:43:23.652Z</time></trkpt>
      <trkpt lat="37.355637" lon="128.251418"><ele>821.7</ele><time>2024-11-02T03:43:47.701Z</time></trkpt>
      <trkpt lat="37.355650" lon="128.251537"><ele>820.7</ele><time>2024-11-02T03:44:12.631Z</time></trkpt>
      <trkpt lat="37.355597" lon="128.251629"><ele>820.3</ele><time>2024-11-02T03:44:36.213Z</time></trkpt>
      <trkpt lat="37.355531" lon="128.251713"><ele>821.0</ele><time>2024-11-02T03:45:00.726Z</time></trkpt>
      <trkpt lat="37.355493" lon="128.251824"><ele>819.1</ele><time>2024-11-02T03:45:25.809Z</time></trkpt>
      <trkpt lat="37.355465" lon="128.251932"><ele>820.6</ele><time>2024-11-02T03:45:49.387Z</time></trkpt>
      <trkpt lat="37.355452" lon="128.252045"><ele>819.6</ele><time>2024-11-02T03:46:13.084Z</time></trkpt>
      <trkpt lat="37.355424" lon="128.252161"><ele>815.1</ele><time>2024-11-02T03:46:38.244Z</time></trkpt>
      <trkpt lat="37.355449" lon="128.252273"><ele>812.2</ele><time>2024-11-02T03:47:02.389Z</time></trkpt>
      <trkpt lat="37.355448" lon="128.252160"><ele>825.8</ele><time>2024-11-02T03:47:25.843Z</time></trkpt>
      <trkpt lat="37.355372" lon="128.252222"><ele>825.9</ele><time>2024-11-02T03:47:49.494Z</time></trkpt>
      <trkpt lat="37.355317" lon="128.252315"><ele>827.0</ele><time>2024-11-02T03:48:13.551Z</time></trkpt>
      <trkpt lat="37.355272" lon="128.252419"><ele>823.7</ele><time>2024-11-02T03:48:38.127Z</time></trkpt>
      <trkpt lat="37.355216" lon="128.252520"><ele>825.8</ele><time>2024-11-02T03:49:03.685Z</time></trkpt>
      <trkpt lat="37.355212" lon="128.252635"><ele>823.5</ele><time>2024-11-02T03:49:27.576Z</time></trkpt>
      <trkpt lat="37.355198" lon="128.252756"><ele>825.4</ele><time>2024-11-02T03:49:52.953Z</time></trkpt>
      <trkpt lat="37.355161" lon="128.252862"><ele>827.6</ele><time>2024-11-02T03:50:16.981Z</time></trkpt>
      <trkpt lat="37.355150" lon="128.252983"><ele>830.5</ele><time>2024-11-02T03:50:42.258Z</time></trkpt>
      <trkpt lat="37.355222" lon="128.253061"><ele>823.2</ele><time>2024-11-02T03:51:07.067Z</time></trkpt>
      <trkpt lat="37.355280" lon="128.253153"><ele>819.7</ele><time>2024-11-02T03:51:31.437Z</time></trkpt>
      <trkpt lat="37.355339" lon="128.253240"><ele>816.3</ele><time>2024-11-02T03:51:55.172Z</time></trkpt>
      <trkpt lat="37.355394" lon="128.253332"><ele>813.4</ele><time>2024-11-02T03:52:19.064Z</time></trkpt>
      <trkpt lat="37.355353" lon="128.253438"><ele>809.2</ele><time>2024-11-02T03:52:43.530Z</time></trkpt>
      <trkpt lat="37.355383" lon="128.253546"><ele>805.8</ele><time>2024-11-02T03:53:07.275Z</time></trkpt>
      <trkpt lat="37.355422" lon="128.253656"><ele>802.5</ele><time>2024-11-02T03:53:32.273Z</time></trkpt>
      <trkpt lat="37.355440" lon="128.253770"><ele>797.9</ele><time>2024-11-02T03:53:56.395Z</time></trkpt>
      <trkpt lat="37.355460" lon="128.253881"><ele>795.8</ele><time>2024-11-02T03:54:20.017Z</time></trkpt>
      <trkpt lat="37.355493" lon="128.253986"><ele>793.1</ele><time>2024-11-02T03:54:43.451Z</time></trkpt>
      <trkpt lat="37.355544" lon="128.254083"><ele>787.1</ele><time>2024-11-02T03:55:07.589Z</time></trkpt>
      <trkpt lat="37.355583" lon="128.254192"><ele>784.1</ele><time>2024-11-02T03:55:32.397Z</time></trkpt>
      <trkpt lat="37.355565" lon="128.254310"><ele>782.3</ele><time>2024-11-02T03:55:57.334Z</time></trkpt>
      <trkpt lat="37.355536" lon="128.254419"><ele>775.7</ele><time>2024-11-02T03:56:21.190Z</time></trkpt>
      <trkpt lat="37.355507" lon="128.254529"><ele>769.6</ele><time>2024-11-02T03:56:45.243Z</time></trkpt>
      <trkpt lat="37.355522" lon="128.254645"><ele>765.8</ele><time>2024-11-02T03:57:09.635Z</time></trkpt>
      <trkpt lat="37.355516" lon="128.254759"><ele>758.4</ele><time>2024-11-02T03:57:33.347Z</time></trkpt>
      <trkpt lat="37.355559" lon="128.254864"><ele>756.4</ele><time>2024-11-02T03:57:57.862Z</time></trkpt>
      <trkpt lat="37.355550" lon="128.254984"><ele>754.8</ele><time>2024-11-02T03:58:22.878Z</time></trkpt>
      <trkpt lat="37.355553" lon="128.255100"><ele>752.2</ele><time>2024-11-02T03:58:46.966Z</time></trkpt>
      <trkpt lat="37.355579" lon="128.255211"><ele>751.5</ele><time>2024-11-02T03:59:10.983Z</time></trkpt>
      <trkpt lat="37.355591" lon="128.255324"><ele>748.6</ele><time>2024-11-02T03:59:34.644Z</time></trkpt>
      <trkpt lat="37.355604" lon="128.255436"><ele>746.2</ele><time>2024-11-02T03:59:58.135Z</time></trkpt>
      <trkpt lat="37.355658" lon="128.255527"><ele>743.5</ele><time>2024-11-02T04:00:21.704Z</time></trkpt>
      <trkpt lat="37.355707" lon="128.255632"><ele>744.1</ele><time>2024-11-02T04:00:46.975Z</time></trkpt>
      <trkpt lat="37.355760" lon="128.255726"><ele>746.6</ele><time>2024-11-02T04:01:10.894Z</time></trkpt>
      <trkpt lat="37.355791" lon="128.255833"><ele>748.6</ele><time>2024-11-02T04:01:34.530Z</time></trkpt>
      <trkpt lat="37.355841" lon="128.255928"><ele>755.5</ele><time>2024-11-02T04:01:58.177Z</time></trkpt>
      <trkpt lat="37.355855" lon="128.256040"><ele>754.1</ele><time>2024-11-02T04:02:21.708Z</time></trkpt>
      <trkpt lat="37.355907" lon="128.256134"><ele>754.9</ele><time>2024-11-02T04:02:45.476Z</time></trkpt>
      <trkpt lat="37.355963" lon="128.256230"><ele>758.8</ele><time>2024-11-02T04:03:10.190Z</time></trkpt>
      <trkpt lat="37.356019" lon="128.256324"><ele>757.3</ele><time>2024-11-02T04:03:34.570Z</time></trkpt>
      <trkpt lat="37.356085" lon="128.256405"><ele>758.5</ele><time>2024-11-02T04:03:58.645Z</time></trkpt>
      <trkpt lat="37.356165" lon="128.256467"><ele>757.2</ele><time>2024-11-02T04:04:23.178Z</time></trkpt>
      <trkpt lat="37.356209" lon="128.256575"><ele>757.3</ele><time>2024-11-02T04:04:48.366Z</time></trkpt>
      <trkpt lat="37.356256" lon="128.256681"><ele>756.7</ele><time>2024-11-02T04:05:13.557Z</time></trkpt>
      <trkpt lat="37.356273" lon="128.256798"><ele>756.3</ele><time>2024-11-02T04:05:38.242Z</time></trkpt>
      <trkpt lat="37.356324" lon="128.256895"><ele>761.9</ele><time>2024-11-02T04:06:02.379Z</time></trkpt>
      <trkpt lat="37.356383" lon="128.256981"><ele>756.9</ele><time>2024-11-02T04:06:25.956Z</time></trkpt>
      <trkpt lat="37.356477" lon="128.256982"><ele>751.4</ele><time>2024-11-02T04:06:50.501Z</time></trkpt>
      <trkpt lat="37.356554" lon="128.257048"><ele>748.6</ele><time>2024-11-02T04:07:14.828Z</time></trkpt>
      <trkpt lat="37.356603" lon="128.257144"><ele>749.3</ele><time>2024-11-02T04:07:38.506Z</time></trkpt>
      <trkpt lat="37.356695" lon="128.257145"><ele>748.4</ele><time>2024-11-02T04:08:02.529Z</time></trkpt>
      <trkpt lat="37.356791" lon="128.257152"><ele>745.9</ele><time>2024-11-02T04:08:27.636Z</time></trkpt>
      <trkpt lat="37.356888" lon="128.257142"><ele>746.7</ele><time>2024-11-02T04:08:53.048Z</time></trkpt>
      <trkpt lat="37.356963" lon="128.257213"><ele>746.6</ele><time>2024-11-02T04:09:17.555Z</time></trkpt>
      <trkpt lat="37.357042" lon="128.257272"><ele>743.5</ele><time>2024-11-02T04:09:41.543Z</time></trkpt>
      <trkpt lat="37.357085" lon="128.257375"><ele>741.7</ele><time>2024-11-02T04:10:05.689Z</time></trkpt>
      <trkpt lat="37.357172" lon="128.257411"><ele>741.6</ele><time>2024-11-02T04:10:29.602Z</time></trkpt>
      <trkpt lat="37.357267" lon="128.257408"><ele>740.6</ele><time>2024-11-02T04:10:54.414Z</time></trkpt>
      <trkpt lat="37.357359" lon="128.257409"><ele>742.0</ele><time>2024-11-02T04:11:18.437Z</time></trkpt>
      <trkpt lat="37.357452" lon="128.257430"><ele>741.8</ele><time>2024-11-02T04:11:43.107Z</time></trkpt>
      <trkpt lat="37.357548" lon="128.257412"><ele>743.8</ele><time>2024-11-02T04:12:08.450Z</time></trkpt>
      <trkpt lat="37.357634" lon="128.257453"><ele>745.9</ele><time>2024-11-02T04:12:32.463Z</time></trkpt>
      <trkpt lat="37.357730" lon="128.257448"><ele>747.4</ele><time>2024-11-02T04:12:57.550Z</time></trkpt>
      <trkpt lat="37.357783" lon="128.257541"><ele>746.9</ele><time>2024-11-02T04:13:21.299Z</time></trkpt>
      <trkpt lat="37.357852" lon="128.257618"><ele>746.8</ele><time>2024-11-02T04:13:45.381Z</time></trkpt>
      <trkpt lat="37.357935" lon="128.257663"><ele>742.1</ele><time>2024-11-02T04:14:08.979Z</time></trkpt>
      <trkpt lat="37.358001" lon="128.257742"><ele>741.2</ele><time>2024-11-02T04:14:32.766Z</time></trkpt>
      <trkpt lat="37.358055" lon="128.257839"><ele>739.2</ele><time>2024-11-02T04:14:57.343Z</time></trkpt>
      <trkpt lat="37.358084" lon="128.257950"><ele>737.5</ele><time>2024-11-02T04:15:21.593Z</time></trkpt>
      <trkpt lat="37.358137" lon="128.258044"><ele>735.9</ele><time>2024-11-02T04:15:45.511Z</time></trkpt>
      <trkpt lat="37.358176" lon="128.258148"><ele>734.0</ele><time>2024-11-02T04:16:09.376Z</time></trkpt>
      <trkpt lat="37.358226" lon="128.258246"><ele>732.6</ele><time>2024-11-02T04:16:33.545Z</time></trkpt>
      <trkpt lat="37.358275" lon="128.258351"><ele>730.0</ele><time>2024-11-02T04:16:58.814Z</time></trkpt>
      <trkpt lat="37.358323" lon="128.258451"><ele>730.3</ele><time>2024-11-02T04:17:23.059Z</time></trkpt>
      <trkpt lat="37.358380" lon="128.258551"><ele>729.6</ele><time>2024-11-02T04:17:48.597Z</time></trkpt>
      <trkpt lat="37.358446" lon="128.258632"><ele>730.8</ele><time>2024-11-02T04:18:12.671Z</time></trkpt>
      <trkpt lat="37.358522" lon="128.258699"><ele>729.9</ele><time>2024-11-02T04:18:36.902Z</time></trkpt>
      <trkpt lat="37.358573" lon="128.258802"><ele>726.9</ele><time>2024-11-02T04:19:02.086Z</time></trkpt>
      <trkpt lat="37.358664" lon="128.258810"><ele>722.6</ele><time>2024-11-02T04:19:25.905Z</time></trkpt>
      <trkpt lat="37.358752" lon="128.258850"><ele>720.8</ele><time>2024-11-02T04:19:50.335Z</time></trkpt>
      <trkpt lat="37.358844" lon="128.258870"><ele>716.8</ele><time>2024-11-02T04:20:14.712Z</time></trkpt>
      <trkpt lat="37.358922" lon="128.258813"><ele>712.4</ele><time>2024-11-02T04:20:38.265Z</time></trkpt>
      <trkpt lat="37.359015" lon="128.258812"><ele>708.3</ele><time>2024-11-02T04:21:02.548Z</time></trkpt>
      <trkpt lat="37.359110" lon="128.258827"><ele>705.3</ele><time>2024-11-02T04:21:27.547Z</time></trkpt>
      <trkpt lat="37.359186" lon="128.258767"><ele>699.8</ele><time>2024-11-02T04:21:50.974Z</time></trkpt>
      <trkpt lat="37.359276" lon="128.258797"><ele>693.6</ele><time>2024-11-02T04:22:15.284Z</time></trkpt>
      <trkpt lat="37.359363" lon="128.258763"><ele>695.5</ele><time>2024-11-02T04:22:39.071Z</time></trkpt>
      <trkpt lat="37.359439" lon="128.258831"><ele>691.1</ele><time>2024-11-02T04:23:03.421Z</time></trkpt>
      <trkpt lat="37.359534" lon="128.258822"><ele>683.2</ele><time>2024-11-02T04:23:28.296Z</time></trkpt>
      <trkpt lat="37.359624" lon="128.258790"><ele>680.0</ele><time>2024-11-02T04:23:52.715Z</time></trkpt>
      <trkpt lat="37.359715" lon="128.258764"><ele>676.6</ele><time>2024-11-02T04:24:17.080Z</time></trkpt>
      <trkpt lat="37.359805" lon="128.258789"><ele>666.7</ele><time>2024-11-02T04:24:41.145Z</time></trkpt>
      <trkpt lat="37.359868" lon="128.258870"><ele>661.6</ele><time>2024-11-02T04:25:04.665Z</time></trkpt>
      <trkpt lat="37.359951" lon="128.258917"><ele>653.9</ele><time>2024-11-02T04:25:28.430Z</time></trkpt>
      <trkpt lat="37.360042" lon="128.258902"><ele>647.2</ele><time>2024-11-02T04:25:52.394Z</time></trkpt>
      <trkpt lat="37.360095" lon="128.259001"><ele>643.4</ele><time>2024-11-02T04:26:17.165Z</time></trkpt>
      <trkpt lat="37.360189" lon="128.259016"><ele>641.0</ele><time>2024-11-02T04:26:41.905Z</time></trkpt>
      <trkpt lat="37.360279" lon="128.259045"><ele>635.4</ele><time>2024-11-02T04:27:06.163Z</time></trkpt>
      <trkpt lat="37.360370" lon="128.259080"><ele>632.7</ele><time>2024-11-02T04:27:31.009Z</time></trkpt>
      <trkpt lat="37.360462" lon="128.259097"><ele>631.2</ele><time>2024-11-02T04:27:55.288Z</time></trkpt>
      <trkpt lat="37.360550" lon="128.259123"><ele>627.1</ele><time>2024-11-02T04:28:18.890Z</time></trkpt>
      <trkpt lat="37.360619" lon="128.259048"><ele>624.2</ele><time>2024-11-02T04:28:42.698Z</time></trkpt>
      <trkpt lat="37.360712" lon="128.259082"><ele>616.1</ele><time>2024-11-02T04:29:07.985Z</time></trkpt>
      <trkpt lat="37.360800" lon="128.259039"><ele>608.8</ele><time>2024-11-02T04:29:32.634Z</time></trkpt>
      <trkpt lat="37.360889" lon="128.259011"><ele>607.0</ele><time>2024-11-02T04:29:56.587Z</time></trkpt>
      <trkpt lat="37.360973" lon="128.258966"><ele>594.8</ele><time>2024-11-02T04:30:20.425Z</time></trkpt>
      <trkpt lat="37.361036" lon="128.258878"><ele>594.3</ele><time>2024-11-02T04:30:45.004Z</time></trkpt>
      <trkpt lat="37.361129" lon="128.258859"><ele>587.6</ele><time>2024-11-02T04:31:09.604Z</time></trkpt>
      <trkpt lat="37.361213" lon="128.258907"><ele>580.0</ele><time>2024-11-02T04:31:33.693Z</time></trkpt>
      <trkpt lat="37.361310" lon="128.258911"><ele>576.4</ele><time>2024-11-02T04:31:59.033Z</time></trkpt>
      <trkpt lat="37.361399" lon="128.258935"><ele>571.9</ele><time>2024-11-02T04:32:22.799Z</time></trkpt>
      <trkpt lat="37.361489" lon="128.258913"><ele>569.1</ele><time>2024-11-02T04:32:46.738Z</time></trkpt>
      <trkpt lat="37.361554" lon="128.258831"><ele>560.6</ele><time>2024-11-02T04:33:10.772Z</time></trkpt>
      <trkpt lat="37.361647" lon="128.258821"><ele>559.7</ele><time>2024-11-02T04:33:35.143Z</time></trkpt>
      <trkpt lat="37.361729" lon="128.258770"><ele>553.0</ele><time>2024-11-02T04:33:59.026Z</time></trkpt>
      <trkpt lat="37.361821" lon="128.258765"><ele>547.5</ele><time>2024-11-02T04:34:23.070Z</time></trkpt>
      <trkpt lat="37.361901" lon="128.258710"><ele>546.9</ele><time>2024-11-02T04:34:46.873Z</time></trkpt>
      <trkpt lat="37.361944" lon="128.258601"><ele>546.8</ele><time>2024-11-02T04:35:12.127Z</time></trkpt>
      <trkpt lat="37.362026" lon="128.258549"><ele>548.6</ele><time>2024-11-02T04:35:36.103Z</time></trkpt>
      <trkpt lat="37.362122" lon="128.258553"><ele>545.6</ele><time>2024-11-02T04:36:01.182Z</time></trkpt>
      <trkpt lat="37.362215" lon="128.258576"><ele>546.1</ele><time>2024-11-02T04:36:25.929Z</time></trkpt>
      <trkpt lat="37.362281" lon="128.258664"><ele>545.5</ele><time>2024-11-02T04:36:51.039Z</time></trkpt>
      <trkpt lat="37.362336" lon="128.258761"><ele>544.7</ele><time>2024-11-02T04:37:15.766Z</time></trkpt>
      <trkpt lat="37.362339" lon="128.258877"><ele>541.8</ele><time>2024-11-02T04:37:39.852Z</time></trkpt>
      <trkpt lat="37.362322" lon="128.258988"><ele>544.6</ele><time>2024-11-02T04:38:03.311Z</time></trkpt>
      <trkpt lat="37.362266" lon="128.259082"><ele>546.4</ele><time>2024-11-02T04:38:27.690Z</time></trkpt>
      <trkpt lat="37.362242" lon="128.259200"><ele>543.4</ele><time>2024-11-02T04:38:52.967Z</time></trkpt>
      <trkpt lat="37.362264" lon="128.259314"><ele>539.6</ele><time>2024-11-02T04:39:17.313Z</time></trkpt>
      <trkpt lat="37.362301" lon="128.259422"><ele>539.4</ele><time>2024-11-02T04:39:41.719Z</time></trkpt>
      <trkpt lat="37.362270" lon="128.259529"><ele>533.0</ele><time>2024-11-02T04:40:05.354Z</time></trkpt>
      <trkpt lat="37.362228" lon="128.259633"><ele>530.5</ele><time>2024-11-02T04:40:29.563Z</time></trkpt>
      <trkpt lat="37.362209" lon="128.259753"><ele>529.3</ele><time>2024-11-02T04:40:54.955Z</time></trkpt>
      <trkpt lat="37.362240" lon="128.259867"><ele>532.2</ele><time>2024-11-02T04:41:19.960Z</time></trkpt>
      <trkpt lat="37.362265" lon="128.259980"><ele>532.9</ele><time>2024-11-02T04:41:44.302Z</time></trkpt>
      <trkpt lat="37.362264" lon="128.260096"><ele>531.8</ele><time>2024-11-02T04:42:08.376Z</time></trkpt>
      <trkpt lat="37.362265" lon="128.260219"><ele>530.8</ele><time>2024-11-02T04:42:33.904Z</time></trkpt>
      <trkpt lat="37.362266" lon="128.260336"><ele>526.7</ele><time>2024-11-02T04:42:58.186Z</time></trkpt>
      <trkpt lat="37.362287" lon="128.260457"><ele>521.3</ele><time>2024-11-02T04:43:23.888Z</time></trkpt>
      <trkpt lat="37.362291" lon="128.260574"><ele>520.0</ele><time>2024-11-02T04:43:48.191Z</time></trkpt>
      <trkpt lat="37.362306" lon="128.260693"><ele>519.9</ele><time>2024-11-02T04:44:13.196Z</time></trkpt>
      <trkpt lat="37.362371" lon="128.260787"><ele>519.3</ele><time>2024-11-02T04:44:39.052Z</time></trkpt>
      <trkpt lat="37.362434" lon="128.260881"><ele>521.6</ele><time>2024-11-02T04:45:04.570Z</time></trkpt>
      <trkpt lat="37.362464" lon="128.260994"><ele>523.2</ele><time>2024-11-02T04:45:29.294Z</time></trkpt>
      <trkpt lat="37.362466" lon="128.261118"><ele>519.7</ele><time>2024-11-02T04:45:55.032Z</time></trkpt>
      <trkpt lat="37.362450" lon="128.261233"><ele>519.4</ele><time>2024-11-02T04:46:19.261Z</time></trkpt>
      <trkpt lat="37.362537" lon="128.261268"><ele>517.3</ele><time>2024-11-02T04:46:43.110Z</time></trkpt>
      <trkpt lat="37.362597" lon="128.261357"><ele>517.0</ele><time>2024-11-02T04:47:07.329Z</time></trkpt>
      <trkpt lat="37.362642" lon="128.261459"><ele>517.2</ele><time>2024-11-02T04:47:31.538Z</time></trkpt>
      <trkpt lat="37.362685" lon="128.261560"><ele>516.3</ele><time>2024-11-02T04:47:55.316Z</time></trkpt>
      <trkpt lat="37.362724" lon="128.261663"><ele>515.8</ele><time>2024-11-02T04:48:18.993Z</time></trkpt>
      <trkpt lat="37.362772" lon="128.261760"><ele>516.3</ele><time>2024-11-02T04:48:42.706Z</time></trkpt>
      <trkpt lat="37.362792" lon="128.261876"><ele>512.8</ele><time>2024-11-02T04:49:07.338Z</time></trkpt>
      <trkpt lat="37.362809" lon="128.261997"><ele>505.5</ele><time>2024-11-02T04:49:32.838Z</time></trkpt>
      <trkpt lat="37.362808" lon="128.262117"><ele>503.8</ele><time>2024-11-02T04:49:57.743Z</time></trkpt>
      <trkpt lat="37.362733" lon="128.262193"><ele>503.9</ele><time>2024-11-02T04:50:22.887Z</time></trkpt>
      <trkpt lat="37.362778" lon="128.262299"><ele>503.0</ele><time>2024-11-02T04:50:47.826Z</time></trkpt>
      <trkpt lat="37.362819" lon="128.262401"><ele>505.2</ele><time>2024-11-02T04:51:11.547Z</time></trkpt>
      <trkpt lat="37.362851" lon="128.262509"><ele>505.3</ele><time>2024-11-02T04:51:35.466Z</time></trkpt>
      <trkpt lat="37.362909" lon="128.262599"><ele>502.5</ele><time>2024-11-02T04:51:59.511Z</time></trkpt>
      <trkpt lat="37.362990" lon="128.262657"><ele>500.9</ele><time>2024-11-02T04:52:23.846Z</time></trkpt>
      <trkpt lat="37.363029" lon="128.262772"><ele>499.3</ele><time>2024-11-02T04:52:49.793Z</time></trkpt>
      <trkpt lat="37.363032" lon="128.262899"><ele>497.9</ele><time>2024-11-02T04:53:16.160Z</time></trkpt>
      <trkpt lat="37.363029" lon="128.263013"><ele>495.7</ele><time>2024-11-02T04:53:39.831Z</time></trkpt>
      <trkpt lat="37.362990" lon="128.263126"><ele>498.6</ele><time>2024-11-02T04:54:05.397Z</time></trkpt>
      <trkpt lat="37.363013" lon="128.263238"><ele>498.5</ele><time>2024-11-02T04:54:29.403Z</time></trkpt>
      <trkpt lat="37.363067" lon="128.263340"><ele>495.8</ele><time>2024-11-02T04:54:54.836Z</time></trkpt>
      <trkpt lat="37.363117" lon="128.263438"><ele>496.8</ele><time>2024-11-02T04:55:19.003Z</time></trkpt>
      <trkpt lat="37.363130" lon="128.263550"><ele>499.7</ele><time>2024-11-02T04:55:42.493Z</time></trkpt>
      <trkpt lat="37.363130" lon="128.263665"><ele>498.7</ele><time>2024-11-02T04:56:06.358Z</time></trkpt>
      <trkpt lat="37.363124" lon="128.263780"><ele>495.6</ele><time>2024-11-02T04:56:30.275Z</time></trkpt>
      <trkpt lat="37.363170" lon="128.263882"><ele>493.2</ele><time>2024-11-02T04:56:54.612Z</time></trkpt>
      <trkpt lat="37.363198" lon="128.263993"><ele>492.3</ele><time>2024-11-02T04:57:18.780Z</time></trkpt>
      <trkpt lat="37.363239" lon="128.264106"><ele>488.1</ele><time>2024-11-02T04:57:44.558Z</time></trkpt>
      <trkpt lat="37.363259" lon="128.264219"><ele>487.8</ele><time>2024-11-02T04:58:08.583Z</time></trkpt>
      <trkpt lat="37.363259" lon="128.264339"><ele>485.0</ele><time>2024-11-02T04:58:33.486Z</time></trkpt>
      <trkpt lat="37.363255" lon="128.264453"><ele>485.7</ele><time>2024-11-02T04:58:57.166Z</time></trkpt>
      <trkpt lat="37.363274" lon="128.264564"><ele>484.8</ele><time>2024-11-02T04:59:20.730Z</time></trkpt>
      <trkpt lat="37.363265" lon="128.264678"><ele>483.7</ele><time>2024-11-02T04:59:44.504Z</time></trkpt>
      <trkpt lat="37.363270" lon="128.264802"><ele>481.6</ele><time>2024-11-02T05:00:10.270Z</time></trkpt>
      <trkpt lat="37.363266" lon="128.264927"><ele>481.7</ele><time>2024-11-02T05:00:36.232Z</time></trkpt>
      <trkpt lat="37.363321" lon="128.265021"><ele>479.7</ele><time>2024-11-02T05:01:00.455Z</time></trkpt>
      <trkpt lat="37.363377" lon="128.265113"><ele>477.1</ele><time>2024-11-02T05:01:24.503Z</time></trkpt>
      <trkpt lat="37.363404" lon="128.265236"><ele>478.3</ele><time>2024-11-02T05:01:50.984Z</time></trkpt>
      <trkpt lat="37.363447" lon="128.265347"><ele>478.7</ele><time>2024-11-02T05:02:16.609Z</time></trkpt>
      <trkpt lat="37.363492" lon="128.265458"><ele>478.9</ele><time>2024-11-02T05:02:42.468Z</time></trkpt>
      <trkpt lat="37.363525" lon="128.265565"><ele>480.3</ele><time>2024-11-02T05:03:06.286Z</time></trkpt>
      <trkpt lat="37.363556" lon="128.265674"><ele>482.6</ele><time>2024-11-02T05:03:30.311Z</time></trkpt>
      <trkpt lat="37.363601" lon="128.265781"><ele>477.9</ele><time>2024-11-02T05:03:55.433Z</time></trkpt>
      <trkpt lat="37.363646" lon="128.265888"><ele>477.5</ele><time>2024-11-02T05:04:20.555Z</time></trkpt>
      <trkpt lat="37.363684" lon="128.266005"><ele>476.2</ele><time>2024-11-02T05:04:46.784Z</time></trkpt>
      <trkpt lat="37.363732" lon="128.266112"><ele>472.4</ele><time>2024-11-02T05:05:12.282Z</time></trkpt>
      <trkpt lat="37.363819" lon="128.266170"><ele>470.0</ele><time>2024-11-02T05:05:37.989Z</time></trkpt>
      <trkpt lat="37.363898" lon="128.266246"><ele>469.5</ele><time>2024-11-02T05:06:03.955Z</time></trkpt>
      <trkpt lat="37.363971" lon="128.266319"><ele>470.8</ele><time>2024-11-02T05:06:28.302Z</time></trkpt>
      <trkpt lat="37.363992" lon="128.266434"><ele>469.6</ele><time>2024-11-02T05:06:52.789Z</time></trkpt>
      <trkpt lat="37.364001" lon="128.266550"><ele>467.5</ele><time>2024-11-02T05:07:16.976Z</time></trkpt>
      <trkpt lat="37.364052" lon="128.266653"><ele>467.0</ele><time>2024-11-02T05:07:42.160Z</time></trkpt>
      <trkpt lat="37.364119" lon="128.266733"><ele>465.0</ele><time>2024-11-02T05:08:06.277Z</time></trkpt>
      <trkpt lat="37.364196" lon="128.266811"><ele>463.1</ele><time>2024-11-02T05:08:32.088Z</time></trkpt>
      <trkpt lat="37.364268" lon="128.266893"><ele>460.9</ele><time>2024-11-02T05:08:57.445Z</time></trkpt>
      <trkpt lat="37.364319" lon="128.266997"><ele>458.4</ele><time>2024-11-02T05:09:22.805Z</time></trkpt>
      <trkpt lat="37.364390" lon="128.267079"><ele>457.0</ele><time>2024-11-02T05:09:47.969Z</time></trkpt>
      <trkpt lat="37.364443" lon="128.267176"><ele>453.2</ele><time>2024-11-02T05:10:12.396Z</time></trkpt>
      <trkpt lat="37.364534" lon="128.267229"><ele>451.2</ele><time>2024-11-02T05:10:38.579Z</time></trkpt>
      <trkpt lat="37.364616" lon="128.267278"><ele>450.9</ele><time>2024-11-02T05:11:02.281Z</time></trkpt>
      <trkpt lat="37.364684" lon="128.267354"><ele>449.2</ele><time>2024-11-02T05:11:26.029Z</time></trkpt>
      <trkpt lat="37.364730" lon="128.267462"><ele>448.2</ele><time>2024-11-02T05:11:51.457Z</time></trkpt>
      <trkpt lat="37.364797" lon="128.267554"><ele>448.8</ele><time>2024-11-02T05:12:17.351Z</time></trkpt>
      <trkpt lat="37.364858" lon="128.267644"><ele>448.7</ele><time>2024-11-02T05:12:41.897Z</time></trkpt>
      <trkpt lat="37.364920" lon="128.267728"><ele>446.5</ele><time>2024-11-02T05:13:05.686Z</time></trkpt>
      <trkpt lat="37.364951" lon="128.267835"><ele>444.3</ele><time>2024-11-02T05:13:29.320Z</time></trkpt>
      <trkpt lat="37.365004" lon="128.267941"><ele>443.8</ele><time>2024-11-02T05:13:55.308Z</time></trkpt>
      <trkpt lat="37.365070" lon="128.268024"><ele>444.0</ele><time>2024-11-02T05:14:19.673Z</time></trkpt>
      <trkpt lat="37.365050" lon="128.268135"><ele>440.0</ele><time>2024-11-02T05:14:43.292Z</time></trkpt>
      <trkpt lat="37.364991" lon="128.268227"><ele>437.5</ele><time>2024-11-02T05:15:07.824Z</time></trkpt>
      <trkpt lat="37.365050" lon="128.268314"><ele>440.0</ele><time>2024-11-02T05:15:31.557Z</time></trkpt>
      <trkpt lat="37.365052" lon="128.268436"><ele>438.5</ele><time>2024-11-02T05:15:56.880Z</time></trkpt>
      <trkpt lat="37.365073" lon="128.268553"><ele>437.6</ele><time>2024-11-02T05:16:21.771Z</time></trkpt>
      <trkpt lat="37.365097" lon="128.268672"><ele>439.0</ele><time>2024-11-02T05:16:47.248Z</time></trkpt>
      <trkpt lat="37.365114" lon="128.268792"><ele>438.3</ele><time>2024-11-02T05:17:12.543Z</time></trkpt>
      <trkpt lat="37.365136" lon="128.268904"><ele>436.6</ele><time>2024-11-02T05:17:36.485Z</time></trkpt>
      <trkpt lat="37.365145" lon="128.269028"><ele>436.7</ele><time>2024-11-02T05:18:02.324Z</time></trkpt>
      <trkpt lat="37.365149" lon="128.269145"><ele>435.3</ele><time>2024-11-02T05:18:26.626Z</time></trkpt>
      <trkpt lat="37.365172" lon="128.269269"><ele>432.2</ele><time>2024-11-02T05:18:53.050Z</time></trkpt>
      <trkpt lat="37.365182" lon="128.269385"><ele>429.4</ele><time>2024-11-02T05:19:17.264Z</time></trkpt>
      <trkpt lat="37.365198" lon="128.269501"><ele>427.0</ele><time>2024-11-02T05:19:41.696Z</time></trkpt>
      <trkpt lat="37.365200" lon="128.269614"><ele>427.1</ele><time>2024-11-02T05:20:05.151Z</time></trkpt>
      <trkpt lat="37.365197" lon="128.269731"><ele>429.2</ele><time>2024-11-02T05:20:29.443Z</time></trkpt>
      <trkpt lat="37.365199" lon="128.269852"><ele>430.7</ele><time>2024-11-02T05:20:54.559Z</time></trkpt>
      <trkpt lat="37.365217" lon="128.269971"><ele>429.1</ele><time>2024-11-02T05:21:19.697Z</time></trkpt>
      <trkpt lat="37.365262" lon="128.270071"><ele>429.2</ele><time>2024-11-02T05:21:43.544Z</time></trkpt>
      <trkpt lat="37.365347" lon="128.270020"><ele>427.0</ele><time>2024-11-02T05:22:08.132Z</time></trkpt>
      <trkpt lat="37.365437" lon="128.270028"><ele>422.3</ele><time>2024-11-02T05:22:31.689Z</time></trkpt>
      <trkpt lat="37.365528" lon="128.270064"><ele>421.1</ele><time>2024-11-02T05:22:56.596Z</time></trkpt>
      <trkpt lat="37.365606" lon="128.270129"><ele>424.5</ele><time>2024-11-02T05:23:21.024Z</time></trkpt>
      <trkpt lat="37.365664" lon="128.270219"><ele>425.4</ele><time>2024-11-02T05:23:45.069Z</time></trkpt>
      <trkpt lat="37.365725" lon="128.270305"><ele>424.7</ele><time>2024-11-02T05:24:08.989Z</time></trkpt>
      <trkpt lat="37.365704" lon="128.270419"><ele>425.3</ele><time>2024-11-02T05:24:33.273Z</time></trkpt>
      <trkpt lat="37.365763" lon="128.270510"><ele>419.8</ele><time>2024-11-02T05:24:57.644Z</time></trkpt>
      <trkpt lat="37.365821" lon="128.270608"><time>2024-11-02T05:25:23.000Z</time></trkpt>
    </trkseg>
  </trk>
</gpx>