<?xml version="1.0" encoding="UTF-8"?>
<gpx version="1.1" creator="gajago (https://hjwpro1971.github.io/gaja)" xmlns="http://www.topografix.com/GPX/1/1" xmlns:xsi="http://www.w3.org/2001/XMLSchema-instance" xsi:schemaLocation="http://www.topografix.com/GPX/1/1 http://www.topografix.com/GPX/1/1/gpx.xsd">
  <metadata>
    <name>영월 구봉대산 일주문 법흥사</name>
    <time>2026-09-08T12:42:34.332Z</time>
  </metadata>
  <trk>
    <name>영월 구봉대산 일주문 법흥사</name>
    <trkseg>
      <trkpt lat="37.365821" lon="128.270608">
        <time>2026-09-08T12:42:34.332Z</time>
      </trkpt>
      <trkpt lat="37.365763" lon="128.270510">
        <ele>419.8494</ele>
        <time>2024-11-02T01:03:23Z</time>
      </trkpt>
      <trkpt lat="37.365704" lon="128.270419">
        <ele>425.311</ele>
        <time>2024-11-02T01:03:48Z</time>
      </trkpt>
      <trkpt lat="37.365725" lon="128.270305">
        <ele>424.74832</ele>
        <time>2024-11-02T01:04:07Z</time>
      </trkpt>
      <trkpt lat="37.365664" lon="128.270219">
        <ele>425.433</ele>
        <time>2024-11-02T01:04:17Z</time>
      </trkpt>
      <trkpt lat="37.365606" lon="128.270129">
        <ele>424.51486</ele>
        <time>2024-11-02T01:04:29Z</time>
      </trkpt>
      <trkpt lat="37.365528" lon="128.270064">
        <ele>421.0615</ele>
        <time>2024-11-02T01:04:53Z</time>
      </trkpt>
      <trkpt lat="37.365437" lon="128.270028">
        <ele>422.30038</ele>
        <time>2024-11-02T01:05:06Z</time>
      </trkpt>
      <trkpt lat="37.365347" lon="128.270020">
        <ele>427.04172</ele>
        <time>2024-11-02T01:05:45Z</time>
      </trkpt>
      <trkpt lat="37.365262" lon="128.270071">
        <ele>429.23105</ele>
        <time>2024-11-02T01:06:01Z</time>
      </trkpt>
      <trkpt lat="37.365217" lon="128.269971">
        <ele>429.10202</ele>
        <time>2024-11-02T01:06:19Z</time>
      </trkpt>
      <trkpt lat="37.365199" lon="128.269852">
        <ele>430.7421</ele>
        <time>2024-11-02T01:06:30Z</time>
      </trkpt>
      <trkpt lat="37.365197" lon="128.269731">
        <ele>429.1992</ele>
        <time>2024-11-02T01:06:40Z</time>
      </trkpt>
      <trkpt lat="37.365200" lon="128.269614">
        <ele>427.13467</ele>
        <time>2024-11-02T01:06:49Z</time>
      </trkpt>
      <trkpt lat="37.365198" lon="128.269501">
        <ele>426.97653</ele>
        <time>2024-11-02T01:06:58Z</time>
      </trkpt>
      <trkpt lat="37.365182" lon="128.269385">
        <ele>429.3602</ele>
        <time>2024-11-02T01:07:08Z</time>
      </trkpt>
      <trkpt lat="37.365172" lon="128.269269">
        <ele>432.22104</ele>
        <time>2024-11-02T01:07:17Z</time>
      </trkpt>
      <trkpt lat="37.365149" lon="128.269145">
        <ele>435.2573</ele>
        <time>2024-11-02T01:07:26Z</time>
      </trkpt>
      <trkpt lat="37.365145" lon="128.269028">
        <ele>436.71048</ele>
        <time>2024-11-02T01:07:34Z</time>
      </trkpt>
      <trkpt lat="37.365136" lon="128.268904">
        <ele>436.62338</ele>
        <time>2024-11-02T01:07:43Z</time>
      </trkpt>
      <trkpt lat="37.365114" lon="128.268792">
        <ele>438.28513</ele>
        <time>2024-11-02T01:07:51Z</time>
      </trkpt>
      <trkpt lat="37.365097" lon="128.268672">
        <ele>439.00778</ele>
        <time>2024-11-02T01:07:58Z</time>
      </trkpt>
      <trkpt lat="37.365073" lon="128.268553">
        <ele>437.61557</ele>
        <time>2024-11-02T01:08:05Z</time>
      </trkpt>
      <trkpt lat="37.365052" lon="128.268436">
        <ele>438.5386</ele>
        <time>2024-11-02T01:08:12Z</time>
      </trkpt>
      <trkpt lat="37.365050" lon="128.268314">
        <ele>440.00204</ele>
        <time>2024-11-02T01:08:21Z</time>
      </trkpt>
      <trkpt lat="37.364991" lon="128.268227">
        <ele>437.5378</ele>
        <time>2024-11-02T01:08:33Z</time>
      </trkpt>
      <trkpt lat="37.365050" lon="128.268135">
        <ele>439.9504</ele>
        <time>2024-11-02T01:08:45Z</time>
      </trkpt>
      <trkpt lat="37.365070" lon="128.268024">
        <ele>443.97238</ele>
        <time>2024-11-02T01:08:57Z</time>
      </trkpt>
      <trkpt lat="37.365004" lon="128.267941">
        <ele>443.77536</ele>
        <time>2024-11-02T01:09:08Z</time>
      </trkpt>
      <trkpt lat="37.364951" lon="128.267835">
        <ele>444.34592</ele>
        <time>2024-11-02T01:09:18Z</time>
      </trkpt>
      <trkpt lat="37.364920" lon="128.267728">
        <ele>446.49313</ele>
        <time>2024-11-02T01:09:28Z</time>
      </trkpt>
      <trkpt lat="37.364858" lon="128.267644">
        <ele>448.65036</ele>
        <time>2024-11-02T01:09:37Z</time>
      </trkpt>
      <trkpt lat="37.364797" lon="128.267554">
        <ele>448.8397</ele>
        <time>2024-11-02T01:09:47Z</time>
      </trkpt>
      <trkpt lat="37.364730" lon="128.267462">
        <ele>448.21378</ele>
        <time>2024-11-02T01:09:58Z</time>
      </trkpt>
      <trkpt lat="37.364684" lon="128.267354">
        <ele>449.16403</ele>
        <time>2024-11-02T01:10:08Z</time>
      </trkpt>
      <trkpt lat="37.364616" lon="128.267278">
        <ele>450.85226</ele>
        <time>2024-11-02T01:10:17Z</time>
      </trkpt>
      <trkpt lat="37.364534" lon="128.267229">
        <ele>451.2451</ele>
        <time>2024-11-02T01:10:25Z</time>
      </trkpt>
      <trkpt lat="37.364443" lon="128.267176">
        <ele>453.21408</ele>
        <time>2024-11-02T01:10:34Z</time>
      </trkpt>
      <trkpt lat="37.364390" lon="128.267079">
        <ele>457.0079</ele>
        <time>2024-11-02T01:10:46Z</time>
      </trkpt>
      <trkpt lat="37.364319" lon="128.266997">
        <ele>458.36172</ele>
        <time>2024-11-02T01:10:57Z</time>
      </trkpt>
      <trkpt lat="37.364268" lon="128.266893">
        <ele>460.88156</ele>
        <time>2024-11-02T01:11:38Z</time>
      </trkpt>
      <trkpt lat="37.364196" lon="128.266811">
        <ele>463.1069</ele>
        <time>2024-11-02T01:11:49Z</time>
      </trkpt>
      <trkpt lat="37.364119" lon="128.266733">
        <ele>464.98593</ele>
        <time>2024-11-02T01:12:00Z</time>
      </trkpt>
      <trkpt lat="37.364052" lon="128.266653">
        <ele>466.9974</ele>
        <time>2024-11-02T01:12:12Z</time>
      </trkpt>
      <trkpt lat="37.364001" lon="128.266550">
        <ele>467.4952</ele>
        <time>2024-11-02T01:12:23Z</time>
      </trkpt>
      <trkpt lat="37.363992" lon="128.266434">
        <ele>469.59818</ele>
        <time>2024-11-02T01:12:33Z</time>
      </trkpt>
      <trkpt lat="37.363971" lon="128.266319">
        <ele>470.75253</ele>
        <time>2024-11-02T01:12:44Z</time>
      </trkpt>
      <trkpt lat="37.363898" lon="128.266246">
        <ele>469.5494</ele>
        <time>2024-11-02T01:12:54Z</time>
      </trkpt>
      <trkpt lat="37.363819" lon="128.266170">
        <ele>470.01596</ele>
        <time>2024-11-02T01:13:04Z</time>
      </trkpt>
      <trkpt lat="37.363732" lon="128.266112">
        <ele>472.3644</ele>
        <time>2024-11-02T01:13:13Z</time>
      </trkpt>
      <trkpt lat="37.363684" lon="128.266005">
        <ele>476.19235</ele>
        <time>2024-11-02T01:13:22Z</time>
      </trkpt>
      <trkpt lat="37.363646" lon="128.265888">
        <ele>477.49142</ele>
        <time>2024-11-02T01:13:32Z</time>
      </trkpt>
      <trkpt lat="37.363601" lon="128.265781">
        <ele>477.88217</ele>
        <time>2024-11-02T01:13:43Z</time>
      </trkpt>
      <trkpt lat="37.363556" lon="128.265674">
        <ele>482.57132</ele>
        <time>2024-11-02T01:13:53Z</time>
      </trkpt>
      <trkpt lat="37.363525" lon="128.265565">
        <ele>480.31058</ele>
        <time>2024-11-02T01:14:05Z</time>
      </trkpt>
      <trkpt lat="37.363492" lon="128.265458">
        <ele>478.94846</ele>
        <time>2024-11-02T01:14:15Z</time>
      </trkpt>
      <trkpt lat="37.363447" lon="128.265347">
        <ele>478.68784</ele>
        <time>2024-11-02T01:14:25Z</time>
      </trkpt>
      <trkpt lat="37.363404" lon="128.265236">
        <ele>478.28842</ele>
        <time>2024-11-02T01:14:35Z</time>
      </trkpt>
      <trkpt lat="37.363377" lon="128.265113">
        <ele>477.07413</ele>
        <time>2024-11-02T01:14:44Z</time>
      </trkpt>
      <trkpt lat="37.363321" lon="128.265021">
        <ele>479.6533</ele>
        <time>2024-11-02T01:14:52Z</time>
      </trkpt>
      <trkpt lat="37.363266" lon="128.264927">
        <ele>481.6622</ele>
        <time>2024-11-02T01:15:01Z</time>
      </trkpt>
      <trkpt lat="37.363270" lon="128.264802">
        <ele>481.60385</ele>
        <time>2024-11-02T01:15:12Z</time>
      </trkpt>
      <trkpt lat="37.363265" lon="128.264678">
        <ele>483.67258</ele>
        <time>2024-11-02T01:15:21Z</time>
      </trkpt>
      <trkpt lat="37.363274" lon="128.264564">
        <ele>484.76132</ele>
        <time>2024-11-02T01:15:31Z</time>
      </trkpt>
      <trkpt lat="37.363255" lon="128.264453">
        <ele>485.6749</ele>
        <time>2024-11-02T01:15:40Z</time>
      </trkpt>
      <trkpt lat="37.363259" lon="128.264339">
        <ele>484.99875</ele>
        <time>2024-11-02T01:15:50Z</time>
      </trkpt>
      <trkpt lat="37.363259" lon="128.264219">
        <ele>487.76395</ele>
        <time>2024-11-02T01:16:00Z</time>
      </trkpt>
      <trkpt lat="37.363239" lon="128.264106">
        <ele>488.1381</ele>
        <time>2024-11-02T01:16:09Z</time>
      </trkpt>
      <trkpt lat="37.363198" lon="128.263993">
        <ele>492.301</ele>
        <time>2024-11-02T01:16:20Z</time>
      </trkpt>
      <trkpt lat="37.363170" lon="128.263882">
        <ele>493.24844</ele>
        <time>2024-11-02T01:16:37Z</time>
      </trkpt>
      <trkpt lat="37.363124" lon="128.263780">
        <ele>495.62186</ele>
        <time>2024-11-02T01:16:52Z</time>
      </trkpt>
      <trkpt lat="37.363130" lon="128.263665">
        <ele>498.686</ele>
        <time>2024-11-02T01:17:05Z</time>
      </trkpt>
      <trkpt lat="37.363130" lon="128.263550">
        <ele>499.72482</ele>
        <time>2024-11-02T01:17:16Z</time>
      </trkpt>
      <trkpt lat="37.363117" lon="128.263438">
        <ele>496.7585</ele>
        <time>2024-11-02T01:17:27Z</time>
      </trkpt>
      <trkpt lat="37.363067" lon="128.263340">
        <ele>495.81393</ele>
        <time>2024-11-02T01:17:38Z</time>
      </trkpt>
      <trkpt lat="37.363013" lon="128.263238">
        <ele>498.46384</ele>
        <time>2024-11-02T01:17:49Z</time>
      </trkpt>
      <trkpt lat="37.362990" lon="128.263126">
        <ele>498.63376</ele>
        <time>2024-11-02T01:17:59Z</time>
      </trkpt>
      <trkpt lat="37.363029" lon="128.263013">
        <ele>495.6636</ele>
        <time>2024-11-02T01:18:12Z</time>
      </trkpt>
      <trkpt lat="37.363032" lon="128.262899">
        <ele>497.87094</ele>
        <time>2024-11-02T01:18:22Z</time>
      </trkpt>
      <trkpt lat="37.363029" lon="128.262772">
        <ele>499.27316</ele>
        <time>2024-11-02T01:18:33Z</time>
      </trkpt>
      <trkpt lat="37.362990" lon="128.262657">
        <ele>500.94687</ele>
        <time>2024-11-02T01:18:43Z</time>
      </trkpt>
      <trkpt lat="37.362909" lon="128.262599">
        <ele>502.46164</ele>
        <time>2024-11-02T01:18:52Z</time>
      </trkpt>
      <trkpt lat="37.362851" lon="128.262509">
        <ele>505.25388</ele>
        <time>2024-11-02T01:19:02Z</time>
      </trkpt>
      <trkpt lat="37.362819" lon="128.262401">
        <ele>505.18112</ele>
        <time>2024-11-02T01:19:12Z</time>
      </trkpt>
      <trkpt lat="37.362778" lon="128.262299">
        <ele>502.95493</ele>
        <time>2024-11-02T01:19:24Z</time>
      </trkpt>
      <trkpt lat="37.362733" lon="128.262193">
        <ele>503.86154</ele>
        <time>2024-11-02T01:19:36Z</time>
      </trkpt>
      <trkpt lat="37.362808" lon="128.262117">
        <ele>503.77353</ele>
        <time>2024-11-02T01:19:48Z</time>
      </trkpt>
      <trkpt lat="37.362809" lon="128.261997">
        <ele>505.45663</ele>
        <time>2024-11-02T01:19:58Z</time>
      </trkpt>
      <trkpt lat="37.362792" lon="128.261876">
        <ele>512.7829</ele>
        <time>2024-11-02T01:20:10Z</time>
      </trkpt>
      <trkpt lat="37.362772" lon="128.261760">
        <ele>516.262</ele>
        <time>2024-11-02T01:20:23Z</time>
      </trkpt>
      <trkpt lat="37.362724" lon="128.261663">
        <ele>515.7652</ele>
        <time>2024-11-02T01:20:35Z</time>
      </trkpt>
      <trkpt lat="37.362685" lon="128.261560">
        <ele>516.26434</ele>
        <time>2024-11-02T01:20:46Z</time>
      </trkpt>
      <trkpt lat="37.362642" lon="128.261459">
        <ele>517.15533</ele>
        <time>2024-11-02T01:20:57Z</time>
      </trkpt>
      <trkpt lat="37.362597" lon="128.261357">
        <ele>516.98944</ele>
        <time>2024-11-02T01:21:09Z</time>
      </trkpt>
      <trkpt lat="37.362537" lon="128.261268">
        <ele>517.2563</ele>
        <time>2024-11-02T01:21:22Z</time>
      </trkpt>
      <trkpt lat="37.362450" lon="128.261233">
        <ele>519.4439</ele>
        <time>2024-11-02T01:21:37Z</time>
      </trkpt>
      <trkpt lat="37.362466" lon="128.261118">
        <ele>519.7448</ele>
        <time>2024-11-02T01:21:54Z</time>
      </trkpt>
      <trkpt lat="37.362464" lon="128.260994">
        <ele>523.2343</ele>
        <time>2024-11-02T01:22:05Z</time>
      </trkpt>
      <trkpt lat="37.362434" lon="128.260881">
        <ele>521.6171</ele>
        <time>2024-11-02T01:22:17Z</time>
      </trkpt>
      <trkpt lat="37.362371" lon="128.260787">
        <ele>519.29266</ele>
        <time>2024-11-02T01:22:28Z</time>
      </trkpt>
      <trkpt lat="37.362306" lon="128.260693">
        <ele>519.9255</ele>
        <time>2024-11-02T01:22:39Z</time>
      </trkpt>
      <trkpt lat="37.362291" lon="128.260574">
        <ele>519.9692</ele>
        <time>2024-11-02T01:22:50Z</time>
      </trkpt>
      <trkpt lat="37.362287" lon="128.260457">
        <ele>521.3194</ele>
        <time>2024-11-02T01:23:03Z</time>
      </trkpt>
      <trkpt lat="37.362266" lon="128.260336">
        <ele>526.67816</ele>
        <time>2024-11-02T01:23:15Z</time>
      </trkpt>
      <trkpt lat="37.362265" lon="128.260219">
        <ele>530.7966</ele>
        <time>2024-11-02T01:23:27Z</time>
      </trkpt>
      <trkpt lat="37.362264" lon="128.260096">
        <ele>531.80084</ele>
        <time>2024-11-02T01:23:38Z</time>
      </trkpt>
      <trkpt lat="37.362265" lon="128.259980">
        <ele>532.9067</ele>
        <time>2024-11-02T01:23:49Z</time>
      </trkpt>
      <trkpt lat="37.362240" lon="128.259867">
        <ele>532.21234</ele>
        <time>2024-11-02T01:24:00Z</time>
      </trkpt>
      <trkpt lat="37.362209" lon="128.259753">
        <ele>529.2856</ele>
        <time>2024-11-02T01:24:11Z</time>
      </trkpt>
      <trkpt lat="37.362228" lon="128.259633">
        <ele>530.519</ele>
        <time>2024-11-02T01:24:21Z</time>
      </trkpt>
      <trkpt lat="37.362270" lon="128.259529">
        <ele>533.01215</ele>
        <time>2024-11-02T01:24:31Z</time>
      </trkpt>
      <trkpt lat="37.362301" lon="128.259422">
        <ele>539.3542</ele>
        <time>2024-11-02T01:24:41Z</time>
      </trkpt>
      <trkpt lat="37.362264" lon="128.259314">
        <ele>539.5739</ele>
        <time>2024-11-02T01:24:52Z</time>
      </trkpt>
      <trkpt lat="37.362242" lon="128.259200">
        <ele>543.38763</ele>
        <time>2024-11-02T01:25:02Z</time>
      </trkpt>
      <trkpt lat="37.362266" lon="128.259082">
        <ele>546.39215</ele>
        <time>2024-11-02T01:25:17Z</time>
      </trkpt>
      <trkpt lat="37.362322" lon="128.258988">
        <ele>544.6419</ele>
        <time>2024-11-02T01:25:35Z</time>
      </trkpt>
      <trkpt lat="37.362339" lon="128.258877">
        <ele>541.76263</ele>
        <time>2024-11-02T01:25:59Z</time>
      </trkpt>
      <trkpt lat="37.362336" lon="128.258761">
        <ele>544.696</ele>
        <time>2024-11-02T01:26:12Z</time>
      </trkpt>
      <trkpt lat="37.362281" lon="128.258664">
        <ele>545.4577</ele>
        <time>2024-11-02T01:26:25Z</time>
      </trkpt>
      <trkpt lat="37.362215" lon="128.258576">
        <ele>546.0739</ele>
        <time>2024-11-02T01:26:38Z</time>
      </trkpt>
      <trkpt lat="37.362122" lon="128.258553">
        <ele>545.57</ele>
        <time>2024-11-02T01:26:50Z</time>
      </trkpt>
      <trkpt lat="37.362026" lon="128.258549">
        <ele>548.57</ele>
        <time>2024-11-02T01:27:04Z</time>
      </trkpt>
      <trkpt lat="37.361944" lon="128.258601">
        <ele>546.7845</ele>
        <time>2024-11-02T01:27:17Z</time>
      </trkpt>
      <trkpt lat="37.361901" lon="128.258710">
        <ele>546.8575</ele>
        <time>2024-11-02T01:27:28Z</time>
      </trkpt>
      <trkpt lat="37.361821" lon="128.258765">
        <ele>547.4549</ele>
        <time>2024-11-02T01:27:55Z</time>
      </trkpt>
      <trkpt lat="37.361729" lon="128.258770">
        <ele>552.9594</ele>
        <time>2024-11-02T01:28:18Z</time>
      </trkpt>
      <trkpt lat="37.361647" lon="128.258821">
        <ele>559.7496</ele>
        <time>2024-11-02T01:28:50Z</time>
      </trkpt>
      <trkpt lat="37.361554" lon="128.258831">
        <ele>560.5745</ele>
        <time>2024-11-02T01:29:36Z</time>
      </trkpt>
      <trkpt lat="37.361489" lon="128.258913">
        <ele>569.1097</ele>
        <time>2024-11-02T01:30:00Z</time>
      </trkpt>
      <trkpt lat="37.361399" lon="128.258935">
        <ele>571.9494</ele>
        <time>2024-11-02T01:30:41Z</time>
      </trkpt>
      <trkpt lat="37.361310" lon="128.258911">
        <ele>576.4368</ele>
        <time>2024-11-02T01:31:18Z</time>
      </trkpt>
      <trkpt lat="37.361213" lon="128.258907">
        <ele>580.043</ele>
        <time>2024-11-02T01:32:00Z</time>
      </trkpt>
      <trkpt lat="37.361129" lon="128.258859">
        <ele>587.6337</ele>
        <time>2024-11-02T01:32:41Z</time>
      </trkpt>
      <trkpt lat="37.361036" lon="128.258878">
        <ele>594.2636</ele>
        <time>2024-11-02T01:33:56Z</time>
      </trkpt>
      <trkpt lat="37.360973" lon="128.258966">
        <ele>594.78485</ele>
        <time>2024-11-02T01:34:18Z</time>
      </trkpt>
      <trkpt lat="37.360889" lon="128.259011">
        <ele>606.98627</ele>
        <time>2024-11-02T01:35:26Z</time>
      </trkpt>
      <trkpt lat="37.360800" lon="128.259039">
        <ele>608.8049</ele>
        <time>2024-11-02T01:35:58Z</time>
      </trkpt>
      <trkpt lat="37.360712" lon="128.259082">
        <ele>616.07904</ele>
        <time>2024-11-02T01:36:40Z</time>
      </trkpt>
      <trkpt lat="37.360619" lon="128.259048">
        <ele>624.1586</ele>
        <time>2024-11-02T01:37:55Z</time>
      </trkpt>
      <trkpt lat="37.360550" lon="128.259123">
        <ele>627.06366</ele>
        <time>2024-11-02T01:38:25Z</time>
      </trkpt>
      <trkpt lat="37.360462" lon="128.259097">
        <ele>631.16693</ele>
        <time>2024-11-02T01:40:25Z</time>
      </trkpt>
      <trkpt lat="37.360370" lon="128.259080">
        <ele>632.69476</ele>
        <time>2024-11-02T01:40:53Z</time>
      </trkpt>
      <trkpt lat="37.360279" lon="128.259045">
        <ele>635.4002</ele>
        <time>2024-11-02T01:41:30Z</time>
      </trkpt>
      <trkpt lat="37.360189" lon="128.259016">
        <ele>641.038</ele>
        <time>2024-11-02T01:41:56Z</time>
      </trkpt>
      <trkpt lat="37.360095" lon="128.259001">
        <ele>643.4191</ele>
        <time>2024-11-02T01:42:19Z</time>
      </trkpt>
      <trkpt lat="37.360042" lon="128.258902">
        <ele>647.24445</ele>
        <time>2024-11-02T01:43:00Z</time>
      </trkpt>
      <trkpt lat="37.359951" lon="128.258917">
        <ele>653.9279</ele>
        <time>2024-11-02T01:43:25Z</time>
      </trkpt>
      <trkpt lat="37.359868" lon="128.258870">
        <ele>661.5649</ele>
        <time>2024-11-02T01:45:14Z</time>
      </trkpt>
      <trkpt lat="37.359805" lon="128.258789">
        <ele>666.71136</ele>
        <time>2024-11-02T01:45:52Z</time>
      </trkpt>
      <trkpt lat="37.359715" lon="128.258764">
        <ele>676.6036</ele>
        <time>2024-11-02T01:47:05Z</time>
      </trkpt>
      <trkpt lat="37.359624" lon="128.258790">
        <ele>679.9511</ele>
        <time>2024-11-02T01:47:49Z</time>
      </trkpt>
      <trkpt lat="37.359534" lon="128.258822">
        <ele>683.1733</ele>
        <time>2024-11-02T01:48:07Z</time>
      </trkpt>
      <trkpt lat="37.359439" lon="128.258831">
        <ele>691.0809</ele>
        <time>2024-11-02T01:49:00Z</time>
      </trkpt>
      <trkpt lat="37.359363" lon="128.258763">
        <ele>695.54803</ele>
        <time>2024-11-02T01:49:35Z</time>
      </trkpt>
      <trkpt lat="37.359276" lon="128.258797">
        <ele>693.5666</ele>
        <time>2024-11-02T01:50:10Z</time>
      </trkpt>
      <trkpt lat="37.359186" lon="128.258767">
        <ele>699.77155</ele>
        <time>2024-11-02T01:50:31Z</time>
      </trkpt>
      <trkpt lat="37.359110" lon="128.258827">
        <ele>705.3493</ele>
        <time>2024-11-02T01:50:56Z</time>
      </trkpt>
      <trkpt lat="37.359015" lon="128.258812">
        <ele>708.3455</ele>
        <time>2024-11-02T01:51:32Z</time>
      </trkpt>
      <trkpt lat="37.358922" lon="128.258813">
        <ele>712.35956</ele>
        <time>2024-11-02T01:52:15Z</time>
      </trkpt>
      <trkpt lat="37.358844" lon="128.258870">
        <ele>716.7819</ele>
        <time>2024-11-02T01:53:24Z</time>
      </trkpt>
      <trkpt lat="37.358752" lon="128.258850">
        <ele>720.7801</ele>
        <time>2024-11-02T01:53:51Z</time>
      </trkpt>
      <trkpt lat="37.358664" lon="128.258810">
        <ele>722.6136</ele>
        <time>2024-11-02T01:54:11Z</time>
      </trkpt>
      <trkpt lat="37.358573" lon="128.258802">
        <ele>726.9025</ele>
        <time>2024-11-02T01:54:40Z</time>
      </trkpt>
      <trkpt lat="37.358522" lon="128.258699">
        <ele>729.87885</ele>
        <time>2024-11-02T01:55:20Z</time>
      </trkpt>
      <trkpt lat="37.358446" lon="128.258632">
        <ele>730.7536</ele>
        <time>2024-11-02T01:55:33Z</time>
      </trkpt>
      <trkpt lat="37.358380" lon="128.258551">
        <ele>729.60736</ele>
        <time>2024-11-02T01:55:45Z</time>
      </trkpt>
      <trkpt lat="37.358323" lon="128.258451">
        <ele>730.27484</ele>
        <time>2024-11-02T01:55:57Z</time>
      </trkpt>
      <trkpt lat="37.358275" lon="128.258351">
        <ele>729.9567</ele>
        <time>2024-11-02T01:56:10Z</time>
      </trkpt>
      <trkpt lat="37.358226" lon="128.258246">
        <ele>732.5534</ele>
        <time>2024-11-02T01:56:24Z</time>
      </trkpt>
      <trkpt lat="37.358176" lon="128.258148">
        <ele>733.97675</ele>
        <time>2024-11-02T01:56:38Z</time>
      </trkpt>
      <trkpt lat="37.358137" lon="128.258044">
        <ele>735.91473</ele>
        <time>2024-11-02T01:56:54Z</time>
      </trkpt>
      <trkpt lat="37.358084" lon="128.257950">
        <ele>737.4633</ele>
        <time>2024-11-02T01:57:10Z</time>
      </trkpt>
      <trkpt lat="37.358055" lon="128.257839">
        <ele>739.1984</ele>
        <time>2024-11-02T01:57:50Z</time>
      </trkpt>
      <trkpt lat="37.358001" lon="128.257742">
        <ele>741.1733</ele>
        <time>2024-11-02T01:58:06Z</time>
      </trkpt>
      <trkpt lat="37.357935" lon="128.257663">
        <ele>742.0988</ele>
        <time>2024-11-02T01:58:20Z</time>
      </trkpt>
      <trkpt lat="37.357852" lon="128.257618">
        <ele>746.82477</ele>
        <time>2024-11-02T01:59:03Z</time>
      </trkpt>
      <trkpt lat="37.357783" lon="128.257541">
        <ele>746.8986</ele>
        <time>2024-11-02T01:59:28Z</time>
      </trkpt>
      <trkpt lat="37.357730" lon="128.257448">
        <ele>747.398</ele>
        <time>2024-11-02T01:59:43Z</time>
      </trkpt>
      <trkpt lat="37.357634" lon="128.257453">
        <ele>745.8703</ele>
        <time>2024-11-02T02:00:03Z</time>
      </trkpt>
      <trkpt lat="37.357548" lon="128.257412">
        <ele>743.83856</ele>
        <time>2024-11-02T02:00:13Z</time>
      </trkpt>
      <trkpt lat="37.357452" lon="128.257430">
        <ele>741.81903</ele>
        <time>2024-11-02T02:00:28Z</time>
      </trkpt>
      <trkpt lat="37.357359" lon="128.257409">
        <ele>742.0048</ele>
        <time>2024-11-02T02:00:37Z</time>
      </trkpt>
      <trkpt lat="37.357267" lon="128.257408">
        <ele>740.55817</ele>
        <time>2024-11-02T02:00:53Z</time>
      </trkpt>
      <trkpt lat="37.357172" lon="128.257411">
        <ele>741.59674</ele>
        <time>2024-11-02T02:01:04Z</time>
      </trkpt>
      <trkpt lat="37.357085" lon="128.257375">
        <ele>741.7292</ele>
        <time>2024-11-02T02:01:21Z</time>
      </trkpt>
      <trkpt lat="37.357042" lon="128.257272">
        <ele>743.4952</ele>
        <time>2024-11-02T02:01:34Z</time>
      </trkpt>
      <trkpt lat="37.356963" lon="128.257213">
        <ele>746.6292</ele>
        <time>2024-11-02T02:01:56Z</time>
      </trkpt>
      <trkpt lat="37.356888" lon="128.257142">
        <ele>746.7238</ele>
        <time>2024-11-02T02:02:15Z</time>
      </trkpt>
      <trkpt lat="37.356791" lon="128.257152">
        <ele>745.9289</ele>
        <time>2024-11-02T02:04:34Z</time>
      </trkpt>
      <trkpt lat="37.356695" lon="128.257145">
        <ele>748.3774</ele>
        <time>2024-11-02T02:04:55Z</time>
      </trkpt>
      <trkpt lat="37.356603" lon="128.257144">
        <ele>749.2526</ele>
        <time>2024-11-02T02:05:08Z</time>
      </trkpt>
      <trkpt lat="37.356554" lon="128.257048">
        <ele>748.5568</ele>
        <time>2024-11-02T02:05:29Z</time>
      </trkpt>
      <trkpt lat="37.356477" lon="128.256982">
        <ele>751.3946</ele>
        <time>2024-11-02T02:05:45Z</time>
      </trkpt>
      <trkpt lat="37.356383" lon="128.256981">
        <ele>756.94794</ele>
        <time>2024-11-02T02:06:22Z</time>
      </trkpt>
      <trkpt lat="37.356324" lon="128.256895">
        <ele>761.8847</ele>
        <time>2024-11-02T02:07:51Z</time>
      </trkpt>
      <trkpt lat="37.356273" lon="128.256798">
        <ele>756.26373</ele>
        <time>2024-11-02T02:08:58Z</time>
      </trkpt>
      <trkpt lat="37.356256" lon="128.256681">
        <ele>756.67255</ele>
        <time>2024-11-02T02:09:08Z</time>
      </trkpt>
      <trkpt lat="37.356209" lon="128.256575">
        <ele>757.332</ele>
        <time>2024-11-02T02:09:18Z</time>
      </trkpt>
      <trkpt lat="37.356165" lon="128.256467">
        <ele>757.2426</ele>
        <time>2024-11-02T02:09:27Z</time>
      </trkpt>
      <trkpt lat="37.356085" lon="128.256405">
        <ele>758.5402</ele>
        <time>2024-11-02T02:09:39Z</time>
      </trkpt>
      <trkpt lat="37.356019" lon="128.256324">
        <ele>757.29755</ele>
        <time>2024-11-02T02:09:50Z</time>
      </trkpt>
      <trkpt lat="37.355963" lon="128.256230">
        <ele>758.7973</ele>
        <time>2024-11-02T02:10:02Z</time>
      </trkpt>
      <trkpt lat="37.355907" lon="128.256134">
        <ele>754.8857</ele>
        <time>2024-11-02T02:10:18Z</time>
      </trkpt>
      <trkpt lat="37.355855" lon="128.256040">
        <ele>754.0987</ele>
        <time>2024-11-02T02:10:30Z</time>
      </trkpt>
      <trkpt lat="37.355841" lon="128.255928">
        <ele>755.50323</ele>
        <time>2024-11-02T02:10:49Z</time>
      </trkpt>
      <trkpt lat="37.355791" lon="128.255833">
        <ele>748.5643</ele>
        <time>2024-11-02T02:11:32Z</time>
      </trkpt>
      <trkpt lat="37.355760" lon="128.255726">
        <ele>746.5529</ele>
        <time>2024-11-02T02:12:02Z</time>
      </trkpt>
      <trkpt lat="37.355707" lon="128.255632">
        <ele>744.09174</ele>
        <time>2024-11-02T02:12:29Z</time>
      </trkpt>
      <trkpt lat="37.355658" lon="128.255527">
        <ele>743.46674</ele>
        <time>2024-11-02T02:12:42Z</time>
      </trkpt>
      <trkpt lat="37.355604" lon="128.255436">
        <ele>746.1729</ele>
        <time>2024-11-02T02:13:00Z</time>
      </trkpt>
      <trkpt lat="37.355591" lon="128.255324">
        <ele>748.6425</ele>
        <time>2024-11-02T02:13:33Z</time>
      </trkpt>
      <trkpt lat="37.355579" lon="128.255211">
        <ele>751.53876</ele>
        <time>2024-11-02T02:13:50Z</time>
      </trkpt>
      <trkpt lat="37.355553" lon="128.255100">
        <ele>752.17523</ele>
        <time>2024-11-02T02:14:03Z</time>
      </trkpt>
      <trkpt lat="37.355550" lon="128.254984">
        <ele>754.78986</ele>
        <time>2024-11-02T02:14:16Z</time>
      </trkpt>
      <trkpt lat="37.355559" lon="128.254864">
        <ele>756.44794</ele>
        <time>2024-11-02T02:15:12Z</time>
      </trkpt>
      <trkpt lat="37.355516" lon="128.254759">
        <ele>758.35297</ele>
        <time>2024-11-02T02:15:58Z</time>
      </trkpt>
      <trkpt lat="37.355522" lon="128.254645">
        <ele>765.84406</ele>
        <time>2024-11-02T02:16:34Z</time>
      </trkpt>
      <trkpt lat="37.355507" lon="128.254529">
        <ele>769.5671</ele>
        <time>2024-11-02T02:17:00Z</time>
      </trkpt>
      <trkpt lat="37.355536" lon="128.254419">
        <ele>775.6606</ele>
        <time>2024-11-02T02:18:24Z</time>
      </trkpt>
      <trkpt lat="37.355565" lon="128.254310">
        <ele>782.34686</ele>
        <time>2024-11-02T02:19:10Z</time>
      </trkpt>
      <trkpt lat="37.355583" lon="128.254192">
        <ele>784.12506</ele>
        <time>2024-11-02T02:19:29Z</time>
      </trkpt>
      <trkpt lat="37.355544" lon="128.254083">
        <ele>787.1253</ele>
        <time>2024-11-02T02:20:04Z</time>
      </trkpt>
      <trkpt lat="37.355493" lon="128.253986">
        <ele>793.0949</ele>
        <time>2024-11-02T02:20:31Z</time>
      </trkpt>
      <trkpt lat="37.355460" lon="128.253881">
        <ele>795.79144</ele>
        <time>2024-11-02T02:21:07Z</time>
      </trkpt>
      <trkpt lat="37.355440" lon="128.253770">
        <ele>797.9079</ele>
        <time>2024-11-02T02:21:28Z</time>
      </trkpt>
      <trkpt lat="37.355422" lon="128.253656">
        <ele>802.51935</ele>
        <time>2024-11-02T02:22:04Z</time>
      </trkpt>
      <trkpt lat="37.355383" lon="128.253546">
        <ele>805.75946</ele>
        <time>2024-11-02T02:22:28Z</time>
      </trkpt>
      <trkpt lat="37.355353" lon="128.253438">
        <ele>809.22015</ele>
        <time>2024-11-02T02:23:16Z</time>
      </trkpt>
      <trkpt lat="37.355394" lon="128.253332">
        <ele>813.4013</ele>
        <time>2024-11-02T02:23:47Z</time>
      </trkpt>
      <trkpt lat="37.355339" lon="128.253240">
        <ele>816.29535</ele>
        <time>2024-11-02T02:24:53Z</time>
      </trkpt>
      <trkpt lat="37.355280" lon="128.253153">
        <ele>819.6801</ele>
        <time>2024-11-02T02:25:17Z</time>
      </trkpt>
      <trkpt lat="37.355222" lon="128.253061">
        <ele>823.20624</ele>
        <time>2024-11-02T02:26:00Z</time>
      </trkpt>
      <trkpt lat="37.355150" lon="128.252983">
        <ele>830.5466</ele>
        <time>2024-11-02T02:27:33Z</time>
      </trkpt>
      <trkpt lat="37.355161" lon="128.252862">
        <ele>827.63043</ele>
        <time>2024-11-02T02:27:45Z</time>
      </trkpt>
      <trkpt lat="37.355198" lon="128.252756">
        <ele>825.3514</ele>
        <time>2024-11-02T02:27:58Z</time>
      </trkpt>
      <trkpt lat="37.355212" lon="128.252635">
        <ele>823.5241</ele>
        <time>2024-11-02T02:28:11Z</time>
      </trkpt>
      <trkpt lat="37.355216" lon="128.252520">
        <ele>825.84674</ele>
        <time>2024-11-02T02:28:24Z</time>
      </trkpt>
      <trkpt lat="37.355272" lon="128.252419">
        <ele>823.74567</ele>
        <time>2024-11-02T02:28:57Z</time>
      </trkpt>
      <trkpt lat="37.355317" lon="128.252315">
        <ele>826.99066</ele>
        <time>2024-11-02T02:29:06Z</time>
      </trkpt>
      <trkpt lat="37.355372" lon="128.252222">
        <ele>825.8813</ele>
        <time>2024-11-02T02:29:22Z</time>
      </trkpt>
      <trkpt lat="37.355448" lon="128.252160">
        <ele>825.84393</ele>
        <time>2024-11-02T02:29:37Z</time>
      </trkpt>
      <trkpt lat="37.355449" lon="128.252273">
        <ele>812.2404</ele>
        <time>2024-11-02T02:30:33Z</time>
      </trkpt>
      <trkpt lat="37.355424" lon="128.252161">
        <ele>815.1248</ele>
        <time>2024-11-02T02:30:46Z</time>
      </trkpt>
      <trkpt lat="37.355452" lon="128.252045">
        <ele>819.6005</ele>
        <time>2024-11-02T02:31:00Z</time>
      </trkpt>
      <trkpt lat="37.355465" lon="128.251932">
        <ele>820.6425</ele>
        <time>2024-11-02T02:31:16Z</time>
      </trkpt>
      <trkpt lat="37.355493" lon="128.251824">
        <ele>819.0993</ele>
        <time>2024-11-02T02:31:32Z</time>
      </trkpt>
      <trkpt lat="37.355531" lon="128.251713">
        <ele>821.0275</ele>
        <time>2024-11-02T02:31:48Z</time>
      </trkpt>
      <trkpt lat="37.355597" lon="128.251629">
        <ele>820.3107</ele>
        <time>2024-11-02T02:32:06Z</time>
      </trkpt>
      <trkpt lat="37.355650" lon="128.251537">
        <ele>820.6739</ele>
        <time>2024-11-02T02:32:34Z</time>
      </trkpt>
      <trkpt lat="37.355637" lon="128.251418">
        <ele>821.66644</ele>
        <time>2024-11-02T02:35:16Z</time>
      </trkpt>
      <trkpt lat="37.355693" lon="128.251326">
        <ele>822.65717</ele>
        <time>2024-11-02T02:35:46Z</time>
      </trkpt>
      <trkpt lat="37.355772" lon="128.251245">
        <ele>820.238</ele>
        <time>2024-11-02T02:36:05Z</time>
      </trkpt>
      <trkpt lat="37.355786" lon="128.251131">
        <ele>815.44354</ele>
        <time>2024-11-02T02:36:42Z</time>
      </trkpt>
      <trkpt lat="37.355863" lon="128.251072">
        <ele>811.7714</ele>
        <time>2024-11-02T02:37:19Z</time>
      </trkpt>
      <trkpt lat="37.355941" lon="128.251005">
        <ele>806.7017</ele>
        <time>2024-11-02T02:38:10Z</time>
      </trkpt>
      <trkpt lat="37.356037" lon="128.251006">
        <ele>805.12274</ele>
        <time>2024-11-02T02:38:20Z</time>
      </trkpt>
      <trkpt lat="37.356124" lon="128.250948">
        <ele>805.81525</ele>
        <time>2024-11-02T02:38:30Z</time>
      </trkpt>
      <trkpt lat="37.356160" lon="128.250840">
        <ele>812.15985</ele>
        <time>2024-11-02T02:38:40Z</time>
      </trkpt>
      <trkpt lat="37.356236" lon="128.250776">
        <ele>812.6994</ele>
        <time>2024-11-02T02:38:56Z</time>
      </trkpt>
      <trkpt lat="37.356314" lon="128.250833">
        <ele>815.39325</ele>
        <time>2024-11-02T02:39:17Z</time>
      </trkpt>
      <trkpt lat="37.356404" lon="128.250820">
        <ele>820.4482</ele>
        <time>2024-11-02T02:39:58Z</time>
      </trkpt>
      <trkpt lat="37.356434" lon="128.250711">
        <ele>820.0225</ele>
        <time>2024-11-02T02:40:17Z</time>
      </trkpt>
      <trkpt lat="37.356492" lon="128.250619">
        <ele>822.5439</ele>
        <time>2024-11-02T02:40:37Z</time>
      </trkpt>
      <trkpt lat="37.356576" lon="128.250576">
        <ele>820.30255</ele>
        <time>2024-11-02T02:40:46Z</time>
      </trkpt>
      <trkpt lat="37.356640" lon="128.250496">
        <ele>824.1652</ele>
        <time>2024-11-02T02:41:11Z</time>
      </trkpt>
      <trkpt lat="37.356692" lon="128.250400">
        <ele>824.1923</ele>
        <time>2024-11-02T02:41:27Z</time>
      </trkpt>
      <trkpt lat="37.356764" lon="128.250332">
        <ele>827.6319</ele>
        <time>2024-11-02T02:41:49Z</time>
      </trkpt>
      <trkpt lat="37.356815" lon="128.250228">
        <ele>831.85236</ele>
        <time>2024-11-02T02:42:12Z</time>
      </trkpt>
      <trkpt lat="37.356871" lon="128.250136">
        <ele>834.2314</ele>
        <time>2024-11-02T02:42:29Z</time>
      </trkpt>
      <trkpt lat="37.356892" lon="128.250016">
        <ele>835.5771</ele>
        <time>2024-11-02T02:42:46Z</time>
      </trkpt>
      <trkpt lat="37.356909" lon="128.249898">
        <ele>838.8549</ele>
        <time>2024-11-02T02:42:59Z</time>
      </trkpt>
      <trkpt lat="37.356944" lon="128.249786">
        <ele>842.6961</ele>
        <time>2024-11-02T02:43:21Z</time>
      </trkpt>
      <trkpt lat="37.356975" lon="128.249677">
        <ele>842.01385</ele>
        <time>2024-11-02T02:43:55Z</time>
      </trkpt>
      <trkpt lat="37.356987" lon="128.249563">
        <ele>848.8581</ele>
        <time>2024-11-02T02:44:27Z</time>
      </trkpt>
      <trkpt lat="37.357024" lon="128.249460">
        <ele>852.02826</ele>
        <time>2024-11-02T02:45:02Z</time>
      </trkpt>
      <trkpt lat="37.357102" lon="128.249391">
        <ele>854.7194</ele>
        <time>2024-11-02T02:45:39Z</time>
      </trkpt>
      <trkpt lat="37.357068" lon="128.249284">
        <ele>858.87006</ele>
        <time>2024-11-02T02:46:11Z</time>
      </trkpt>
      <trkpt lat="37.357096" lon="128.249175">
        <ele>865.7138</ele>
        <time>2024-11-02T02:46:56Z</time>
      </trkpt>
      <trkpt lat="37.357140" lon="128.249071">
        <ele>871.21674</ele>
        <time>2024-11-02T02:47:28Z</time>
      </trkpt>
      <trkpt lat="37.357124" lon="128.248955">
        <ele>879.1606</ele>
        <time>2024-11-02T02:48:01Z</time>
      </trkpt>
      <trkpt lat="37.357150" lon="128.248843">
        <ele>883.08514</ele>
        <time>2024-11-02T02:48:26Z</time>
      </trkpt>
      <trkpt lat="37.357104" lon="128.248742">
        <ele>887.33075</ele>
        <time>2024-11-02T02:49:15Z</time>
      </trkpt>
      <trkpt lat="37.357048" lon="128.248652">
        <ele>892.1857</ele>
        <time>2024-11-02T02:49:29Z</time>
      </trkpt>
      <trkpt lat="37.357092" lon="128.248552">
        <ele>893.4665</ele>
        <time>2024-11-02T02:50:07Z</time>
      </trkpt>
      <trkpt lat="37.357179" lon="128.248510">
        <ele>892.6209</ele>
        <time>2024-11-02T02:50:45Z</time>
      </trkpt>
      <trkpt lat="37.357261" lon="128.248455">
        <ele>896.25946</ele>
        <time>2024-11-02T02:51:13Z</time>
      </trkpt>
      <trkpt lat="37.357306" lon="128.248355">
        <ele>896.393</ele>
        <time>2024-11-02T03:09:41Z</time>
      </trkpt>
      <trkpt lat="37.357282" lon="128.248473">
        <ele>895.034</ele>
        <time>2024-11-02T03:11:33Z</time>
      </trkpt>
      <trkpt lat="37.357373" lon="128.248458">
        <ele>900.1999</ele>
        <time>2024-11-02T03:13:56Z</time>
      </trkpt>
      <trkpt lat="37.357470" lon="128.248468">
        <ele>896.8188</ele>
        <time>2024-11-02T03:14:23Z</time>
      </trkpt>
      <trkpt lat="37.357562" lon="128.248473">
        <ele>890.9797</ele>
        <time>2024-11-02T03:14:53Z</time>
      </trkpt>
      <trkpt lat="37.357647" lon="128.248529">
        <ele>889.22845</ele>
        <time>2024-11-02T03:15:08Z</time>
      </trkpt>
      <trkpt lat="37.357742" lon="128.248512">
        <ele>888.84357</ele>
        <time>2024-11-02T03:15:19Z</time>
      </trkpt>
      <trkpt lat="37.357830" lon="128.248547">
        <ele>885.3062</ele>
        <time>2024-11-02T03:15:31Z</time>
      </trkpt>
      <trkpt lat="37.357926" lon="128.248531">
        <ele>890.41046</ele>
        <time>2024-11-02T03:15:44Z</time>
      </trkpt>
      <trkpt lat="37.358020" lon="128.248537">
        <ele>889.33624</ele>
        <time>2024-11-02T03:15:59Z</time>
      </trkpt>
      <trkpt lat="37.358110" lon="128.248587">
        <ele>890.32574</ele>
        <time>2024-11-02T03:16:12Z</time>
      </trkpt>
      <trkpt lat="37.358213" lon="128.248581">
        <ele>890.6181</ele>
        <time>2024-11-02T03:16:32Z</time>
      </trkpt>
      <trkpt lat="37.358276" lon="128.248498">
        <ele>888.15643</ele>
        <time>2024-11-02T03:16:48Z</time>
      </trkpt>
      <trkpt lat="37.358368" lon="128.248472">
        <ele>879.36346</ele>
        <time>2024-11-02T03:17:35Z</time>
      </trkpt>
      <trkpt lat="37.358452" lon="128.248425">
        <ele>877.9194</ele>
        <time>2024-11-02T03:18:18Z</time>
      </trkpt>
      <trkpt lat="37.358536" lon="128.248478">
        <ele>879.47565</ele>
        <time>2024-11-02T03:18:31Z</time>
      </trkpt>
      <trkpt lat="37.358591" lon="128.248383">
        <ele>877.65643</ele>
        <time>2024-11-02T03:19:32Z</time>
      </trkpt>
      <trkpt lat="37.358686" lon="128.248357">
        <ele>873.7929</ele>
        <time>2024-11-02T03:19:41Z</time>
      </trkpt>
      <trkpt lat="37.358779" lon="128.248328">
        <ele>876.0805</ele>
        <time>2024-11-02T03:19:51Z</time>
      </trkpt>
      <trkpt lat="37.358860" lon="128.248257">
        <ele>880.0103</ele>
        <time>2024-11-02T03:20:03Z</time>
      </trkpt>
      <trkpt lat="37.358953" lon="128.248241">
        <ele>876.977</ele>
        <time>2024-11-02T03:20:17Z</time>
      </trkpt>
      <trkpt lat="37.359044" lon="128.248280">
        <ele>871.08636</ele>
        <time>2024-11-02T03:20:46Z</time>
      </trkpt>
      <trkpt lat="37.359138" lon="128.248296">
        <ele>869.415</ele>
        <time>2024-11-02T03:21:03Z</time>
      </trkpt>
      <trkpt lat="37.359235" lon="128.248292">
        <ele>863.66034</ele>
        <time>2024-11-02T03:22:19Z</time>
      </trkpt>
      <trkpt lat="37.359326" lon="128.248292">
        <ele>861.65985</ele>
        <time>2024-11-02T03:22:39Z</time>
      </trkpt>
      <trkpt lat="37.359417" lon="128.248292">
        <ele>857.67316</ele>
        <time>2024-11-02T03:23:16Z</time>
      </trkpt>
      <trkpt lat="37.359461" lon="128.248191">
        <ele>850.7148</ele>
        <time>2024-11-02T03:24:03Z</time>
      </trkpt>
      <trkpt lat="37.359550" lon="128.248164">
        <ele>844.9805</ele>
        <time>2024-11-02T03:24:35Z</time>
      </trkpt>
      <trkpt lat="37.359618" lon="128.248089">
        <ele>837.12103</ele>
        <time>2024-11-02T03:25:34Z</time>
      </trkpt>
      <trkpt lat="37.359699" lon="128.247991">
        <ele>836.24347</ele>
        <time>2024-11-02T03:26:16Z</time>
      </trkpt>
      <trkpt lat="37.359786" lon="128.248050">
        <ele>833.736</ele>
        <time>2024-11-02T03:26:47Z</time>
      </trkpt>
      <trkpt lat="37.359880" lon="128.248066">
        <ele>831.90375</ele>
        <time>2024-11-02T03:27:28Z</time>
      </trkpt>
      <trkpt lat="37.359971" lon="128.248083">
        <ele>825.48346</ele>
        <time>2024-11-02T03:27:58Z</time>
      </trkpt>
      <trkpt lat="37.360060" lon="128.248101">
        <ele>826.7985</ele>
        <time>2024-11-02T03:28:10Z</time>
      </trkpt>
      <trkpt lat="37.360151" lon="128.248082">
        <ele>827.2045</ele>
        <time>2024-11-02T03:28:23Z</time>
      </trkpt>
      <trkpt lat="37.360232" lon="128.248031">
        <ele>824.7424</ele>
        <time>2024-11-02T03:28:34Z</time>
      </trkpt>
      <trkpt lat="37.360315" lon="128.247979">
        <ele>823.8504</ele>
        <time>2024-11-02T03:28:47Z</time>
      </trkpt>
      <trkpt lat="37.360407" lon="128.248002">
        <ele>827.47186</ele>
        <time>2024-11-02T03:29:28Z</time>
      </trkpt>
      <trkpt lat="37.360497" lon="128.248022">
        <ele>834.13666</ele>
        <time>2024-11-02T03:30:14Z</time>
      </trkpt>
      <trkpt lat="37.360577" lon="128.247960">
        <ele>838.29</ele>
        <time>2024-11-02T03:31:21Z</time>
      </trkpt>
      <trkpt lat="37.360664" lon="128.247992">
        <ele>849.7651</ele>
        <time>2024-11-02T03:34:02Z</time>
      </trkpt>
      <trkpt lat="37.360752" lon="128.247962">
        <ele>855.16205</ele>
        <time>2024-11-02T03:34:43Z</time>
      </trkpt>
      <trkpt lat="37.360837" lon="128.247919">
        <ele>860.0318</ele>
        <time>2024-11-02T03:35:22Z</time>
      </trkpt>
      <trkpt lat="37.360924" lon="128.247888">
        <ele>863.1287</ele>
        <time>2024-11-02T03:35:47Z</time>
      </trkpt>
      <trkpt lat="37.361019" lon="128.247895">
        <ele>866.18036</ele>
        <time>2024-11-02T03:36:31Z</time>
      </trkpt>
      <trkpt lat="37.360933" lon="128.247939">
        <ele>874.44867</ele>
        <time>2024-11-02T03:37:31Z</time>
      </trkpt>
      <trkpt lat="37.360857" lon="128.248004">
        <ele>876.4499</ele>
        <time>2024-11-02T03:37:40Z</time>
      </trkpt>
      <trkpt lat="37.360844" lon="128.248126">
        <ele>876.8774</ele>
        <time>2024-11-02T03:37:57Z</time>
      </trkpt>
      <trkpt lat="37.360934" lon="128.248098">
        <ele>872.75165</ele>
        <time>2024-11-02T03:39:00Z</time>
      </trkpt>
      <trkpt lat="37.360851" lon="128.248052">
        <ele>870.5462</ele>
        <time>2024-11-02T03:43:06Z</time>
      </trkpt>
      <trkpt lat="37.360933" lon="128.248000">
        <ele>870.5008</ele>
        <time>2024-11-02T03:43:35Z</time>
      </trkpt>
      <trkpt lat="37.361010" lon="128.247936">
        <ele>870.2746</ele>
        <time>2024-11-02T03:44:04Z</time>
      </trkpt>
      <trkpt lat="37.361085" lon="128.247869">
        <ele>869.11444</ele>
        <time>2024-11-02T03:44:39Z</time>
      </trkpt>
      <trkpt lat="37.361086" lon="128.247756">
        <ele>865.3803</ele>
        <time>2024-11-02T03:45:14Z</time>
      </trkpt>
      <trkpt lat="37.361110" lon="128.247641">
        <ele>860.7482</ele>
        <time>2024-11-02T03:45:51Z</time>
      </trkpt>
      <trkpt lat="37.361156" lon="128.247533">
        <ele>856.64935</ele>
        <time>2024-11-02T03:46:25Z</time>
      </trkpt>
      <trkpt lat="37.361166" lon="128.247414">
        <ele>860.742</ele>
        <time>2024-11-02T03:46:37Z</time>
      </trkpt>
      <trkpt lat="37.361145" lon="128.247291">
        <ele>863.26263</ele>
        <time>2024-11-02T03:46:48Z</time>
      </trkpt>
      <trkpt lat="37.361123" lon="128.247174">
        <ele>864.33624</ele>
        <time>2024-11-02T03:47:02Z</time>
      </trkpt>
      <trkpt lat="37.361119" lon="128.247057">
        <ele>869.1125</ele>
        <time>2024-11-02T03:47:19Z</time>
      </trkpt>
      <trkpt lat="37.361187" lon="128.247134">
        <ele>867.57416</ele>
        <time>2024-11-02T03:47:32Z</time>
      </trkpt>
      <trkpt lat="37.361249" lon="128.247228">
        <ele>872.21246</ele>
        <time>2024-11-02T03:48:12Z</time>
      </trkpt>
      <trkpt lat="37.361269" lon="128.247116">
        <ele>871.79926</ele>
        <time>2024-11-02T03:48:52Z</time>
      </trkpt>
      <trkpt lat="37.361308" lon="128.247011">
        <ele>873.88654</ele>
        <time>2024-11-02T03:49:03Z</time>
      </trkpt>
      <trkpt lat="37.361400" lon="128.247006">
        <ele>877.37933</ele>
        <time>2024-11-02T03:49:20Z</time>
      </trkpt>
      <trkpt lat="37.361473" lon="128.246932">
        <ele>876.3674</ele>
        <time>2024-11-02T03:49:55Z</time>
      </trkpt>
      <trkpt lat="37.361543" lon="128.247003">
        <ele>874.8355</ele>
        <time>2024-11-02T03:50:13Z</time>
      </trkpt>
      <trkpt lat="37.361627" lon="128.246947">
        <ele>870.9367</ele>
        <time>2024-11-02T03:50:46Z</time>
      </trkpt>
      <trkpt lat="37.361604" lon="128.246837">
        <ele>863.414</ele>
        <time>2024-11-02T03:52:21Z</time>
      </trkpt>
      <trkpt lat="37.361697" lon="128.246806">
        <ele>863.30804</ele>
        <time>2024-11-02T03:52:40Z</time>
      </trkpt>
      <trkpt lat="37.361780" lon="128.246852">
        <ele>861.7153</ele>
        <time>2024-11-02T03:52:59Z</time>
      </trkpt>
      <trkpt lat="37.361863" lon="128.246901">
        <ele>851.0782</ele>
        <time>2024-11-02T03:53:45Z</time>
      </trkpt>
      <trkpt lat="37.361947" lon="128.246850">
        <ele>846.9715</ele>
        <time>2024-11-02T03:54:21Z</time>
      </trkpt>
      <trkpt lat="37.362038" lon="128.246837">
        <ele>849.5539</ele>
        <time>2024-11-02T03:54:44Z</time>
      </trkpt>
      <trkpt lat="37.362090" lon="128.246743">
        <ele>848.17426</ele>
        <time>2024-11-02T03:55:12Z</time>
      </trkpt>
      <trkpt lat="37.362141" lon="128.246638">
        <ele>838.686</ele>
        <time>2024-11-02T03:56:07Z</time>
      </trkpt>
      <trkpt lat="37.362244" lon="128.246622">
        <ele>841.184</ele>
        <time>2024-11-02T03:56:22Z</time>
      </trkpt>
      <trkpt lat="37.362309" lon="128.246542">
        <ele>840.7602</ele>
        <time>2024-11-02T03:56:50Z</time>
      </trkpt>
      <trkpt lat="37.362394" lon="128.246497">
        <ele>839.5483</ele>
        <time>2024-11-02T03:57:27Z</time>
      </trkpt>
      <trkpt lat="37.362491" lon="128.246486">
        <ele>843.01227</ele>
        <time>2024-11-02T03:57:52Z</time>
      </trkpt>
      <trkpt lat="37.362561" lon="128.246410">
        <ele>847.1657</ele>
        <time>2024-11-02T03:58:51Z</time>
      </trkpt>
      <trkpt lat="37.362656" lon="128.246429">
        <ele>847.9316</ele>
        <time>2024-11-02T03:59:24Z</time>
      </trkpt>
      <trkpt lat="37.362747" lon="128.246416">
        <ele>850.06</ele>
        <time>2024-11-02T03:59:37Z</time>
      </trkpt>
      <trkpt lat="37.362823" lon="128.246337">
        <ele>851.6789</ele>
        <time>2024-11-02T03:59:52Z</time>
      </trkpt>
      <trkpt lat="37.362873" lon="128.246242">
        <ele>854.07294</ele>
        <time>2024-11-02T04:00:06Z</time>
      </trkpt>
      <trkpt lat="37.362893" lon="128.246123">
        <ele>855.61566</ele>
        <time>2024-11-02T04:00:20Z</time>
      </trkpt>
      <trkpt lat="37.362960" lon="128.246044">
        <ele>856.83124</ele>
        <time>2024-11-02T04:00:42Z</time>
      </trkpt>
      <trkpt lat="37.363036" lon="128.245960">
        <ele>858.00214</ele>
        <time>2024-11-02T04:01:12Z</time>
      </trkpt>
      <trkpt lat="37.363094" lon="128.245867">
        <ele>860.2901</ele>
        <time>2024-11-02T04:01:19Z</time>
      </trkpt>
      <trkpt lat="37.363085" lon="128.245986">
        <ele>851.12006</ele>
        <time>2024-11-02T04:01:28Z</time>
      </trkpt>
      <trkpt lat="37.363148" lon="128.245890">
        <ele>855.4428</ele>
        <time>2024-11-02T04:01:45Z</time>
      </trkpt>
      <trkpt lat="37.363178" lon="128.245768">
        <ele>856.8355</ele>
        <time>2024-11-02T04:02:56Z</time>
      </trkpt>
      <trkpt lat="37.363244" lon="128.245680">
        <ele>852.03754</ele>
        <time>2024-11-02T04:04:42Z</time>
      </trkpt>
      <trkpt lat="37.363328" lon="128.245637">
        <ele>849.65094</ele>
        <time>2024-11-02T04:05:00Z</time>
      </trkpt>
      <trkpt lat="37.363414" lon="128.245682">
        <ele>850.01544</ele>
        <time>2024-11-02T04:05:24Z</time>
      </trkpt>
      <trkpt lat="37.363504" lon="128.245724">
        <ele>854.78424</ele>
        <time>2024-11-02T04:05:50Z</time>
      </trkpt>
      <trkpt lat="37.363550" lon="128.245627">
        <ele>850.7664</ele>
        <time>2024-11-02T04:07:18Z</time>
      </trkpt>
      <trkpt lat="37.363579" lon="128.245518">
        <ele>845.9969</ele>
        <time>2024-11-02T04:08:16Z</time>
      </trkpt>
      <trkpt lat="37.363674" lon="128.245498">
        <ele>839.53705</ele>
        <time>2024-11-02T04:08:57Z</time>
      </trkpt>
      <trkpt lat="37.363765" lon="128.245510">
        <ele>838.05035</ele>
        <time>2024-11-02T04:09:21Z</time>
      </trkpt>
      <trkpt lat="37.363853" lon="128.245475">
        <ele>833.0439</ele>
        <time>2024-11-02T04:09:42Z</time>
      </trkpt>
      <trkpt lat="37.363919" lon="128.245391">
        <ele>822.15753</ele>
        <time>2024-11-02T04:10:24Z</time>
      </trkpt>
      <trkpt lat="37.364000" lon="128.245332">
        <ele>820.3261</ele>
        <time>2024-11-02T04:10:40Z</time>
      </trkpt>
      <trkpt lat="37.364093" lon="128.245296">
        <ele>817.1989</ele>
        <time>2024-11-02T04:10:58Z</time>
      </trkpt>
      <trkpt lat="37.364181" lon="128.245340">
        <ele>817.40656</ele>
        <time>2024-11-02T04:11:06Z</time>
      </trkpt>
      <trkpt lat="37.364269" lon="128.245369">
        <ele>823.7995</ele>
        <time>2024-11-02T04:11:20Z</time>
      </trkpt>
      <trkpt lat="37.364362" lon="128.245360">
        <ele>821.7326</ele>
        <time>2024-11-02T04:11:35Z</time>
      </trkpt>
      <trkpt lat="37.364456" lon="128.245355">
        <ele>823.8754</ele>
        <time>2024-11-02T04:11:44Z</time>
      </trkpt>
      <trkpt lat="37.364448" lon="128.245241">
        <ele>800.91644</ele>
        <time>2024-11-02T04:12:53Z</time>
      </trkpt>
      <trkpt lat="37.364476" lon="128.245118">
        <ele>789.5573</ele>
        <time>2024-11-02T04:13:01Z</time>
      </trkpt>
      <trkpt lat="37.364532" lon="128.245207">
        <ele>748.4913</ele>
        <time>2024-11-02T04:13:48Z</time>
      </trkpt>
      <trkpt lat="37.364606" lon="128.245283">
        <ele>751.82684</ele>
        <time>2024-11-02T04:13:57Z</time>
      </trkpt>
      <trkpt lat="37.364703" lon="128.245327">
        <ele>760.8715</ele>
        <time>2024-11-02T04:14:11Z</time>
      </trkpt>
      <trkpt lat="37.364769" lon="128.245426">
        <ele>770.49115</ele>
        <time>2024-11-02T04:14:19Z</time>
      </trkpt>
      <trkpt lat="37.364851" lon="128.245506">
        <ele>778.8194</ele>
        <time>2024-11-02T04:14:28Z</time>
      </trkpt>
      <trkpt lat="37.364948" lon="128.245591">
        <ele>796.55707</ele>
        <time>2024-11-02T04:14:32Z</time>
      </trkpt>
      <trkpt lat="37.365027" lon="128.245507">
        <ele>809.70245</ele>
        <time>2024-11-02T04:15:09Z</time>
      </trkpt>
      <trkpt lat="37.365121" lon="128.245505">
        <ele>814.0097</ele>
        <time>2024-11-02T04:15:18Z</time>
      </trkpt>
      <trkpt lat="37.365194" lon="128.245428">
        <ele>812.51605</ele>
        <time>2024-11-02T04:15:35Z</time>
      </trkpt>
      <trkpt lat="37.365220" lon="128.245316">
        <ele>810.4599</ele>
        <time>2024-11-02T04:15:53Z</time>
      </trkpt>
      <trkpt lat="37.365274" lon="128.245223">
        <ele>805.4301</ele>
        <time>2024-11-02T04:16:06Z</time>
      </trkpt>
      <trkpt lat="37.365307" lon="128.245118">
        <ele>803.9106</ele>
        <time>2024-11-02T04:16:19Z</time>
      </trkpt>
      <trkpt lat="37.365396" lon="128.245057">
        <ele>803.84015</ele>
        <time>2024-11-02T04:16:42Z</time>
      </trkpt>
      <trkpt lat="37.365402" lon="128.244934">
        <ele>806.091</ele>
        <time>2024-11-02T04:16:50Z</time>
      </trkpt>
      <trkpt lat="37.365474" lon="128.244851">
        <ele>805.83746</ele>
        <time>2024-11-02T04:17:05Z</time>
      </trkpt>
      <trkpt lat="37.365539" lon="128.244766">
        <ele>805.46295</ele>
        <time>2024-11-02T04:17:18Z</time>
      </trkpt>
      <trkpt lat="37.365607" lon="128.244689">
        <ele>811.16144</ele>
        <time>2024-11-02T04:17:43Z</time>
      </trkpt>
      <trkpt lat="37.365650" lon="128.244583">
        <ele>811.6923</ele>
        <time>2024-11-02T04:18:22Z</time>
      </trkpt>
      <trkpt lat="37.365684" lon="128.244471">
        <ele>811.4465</ele>
        <time>2024-11-02T04:18:35Z</time>
      </trkpt>
      <trkpt lat="37.365756" lon="128.244399">
        <ele>811.09796</ele>
        <time>2024-11-02T04:18:49Z</time>
      </trkpt>
      <trkpt lat="37.365825" lon="128.244316">
        <ele>815.8637</ele>
        <time>2024-11-02T04:19:03Z</time>
      </trkpt>
      <trkpt lat="37.365917" lon="128.244293">
        <ele>814.59357</ele>
        <time>2024-11-02T04:19:21Z</time>
      </trkpt>
      <trkpt lat="37.365992" lon="128.244228">
        <ele>813.6413</ele>
        <time>2024-11-02T04:19:33Z</time>
      </trkpt>
      <trkpt lat="37.366037" lon="128.244127">
        <ele>809.2548</ele>
        <time>2024-11-02T04:19:45Z</time>
      </trkpt>
      <trkpt lat="37.366078" lon="128.244026">
        <ele>806.5046</ele>
        <time>2024-11-02T04:19:56Z</time>
      </trkpt>
      <trkpt lat="37.366170" lon="128.244012">
        <ele>814.3703</ele>
        <time>2024-11-02T04:20:21Z</time>
      </trkpt>
      <trkpt lat="37.366252" lon="128.244058">
        <ele>817.2724</ele>
        <time>2024-11-02T04:20:49Z</time>
      </trkpt>
      <trkpt lat="37.366338" lon="128.244098">
        <ele>819.63666</ele>
        <time>2024-11-02T04:21:26Z</time>
      </trkpt>
      <trkpt lat="37.366386" lon="128.244201">
        <ele>827.13837</ele>
        <time>2024-11-02T04:22:11Z</time>
      </trkpt>
      <trkpt lat="37.366477" lon="128.244218">
        <ele>829.4108</ele>
        <time>2024-11-02T04:22:29Z</time>
      </trkpt>
      <trkpt lat="37.366417" lon="128.244307">
        <ele>827.0224</ele>
        <time>2024-11-02T04:23:33Z</time>
      </trkpt>
      <trkpt lat="37.366470" lon="128.244211">
        <ele>823.98724</ele>
        <time>2024-11-02T04:26:11Z</time>
      </trkpt>
      <trkpt lat="37.366555" lon="128.244171">
        <ele>824.403</ele>
        <time>2024-11-02T04:27:51Z</time>
      </trkpt>
      <trkpt lat="37.366640" lon="128.244117">
        <ele>823.22614</ele>
        <time>2024-11-02T04:28:01Z</time>
      </trkpt>
      <trkpt lat="37.366732" lon="128.244086">
        <ele>824.4787</ele>
        <time>2024-11-02T04:28:11Z</time>
      </trkpt>
      <trkpt lat="37.366822" lon="128.244115">
        <ele>824.2553</ele>
        <time>2024-11-02T04:28:45Z</time>
      </trkpt>
      <trkpt lat="37.366906" lon="128.244056">
        <ele>818.68304</ele>
        <time>2024-11-02T04:29:59Z</time>
      </trkpt>
      <trkpt lat="37.366975" lon="128.243976">
        <ele>817.2132</ele>
        <time>2024-11-02T04:30:20Z</time>
      </trkpt>
      <trkpt lat="37.367045" lon="128.243900">
        <ele>812.04767</ele>
        <time>2024-11-02T04:30:46Z</time>
      </trkpt>
      <trkpt lat="37.367141" lon="128.243881">
        <ele>811.8355</ele>
        <time>2024-11-02T04:30:55Z</time>
      </trkpt>
      <trkpt lat="37.367220" lon="128.243815">
        <ele>810.1496</ele>
        <time>2024-11-02T04:31:05Z</time>
      </trkpt>
      <trkpt lat="37.367297" lon="128.243745">
        <ele>808.2768</ele>
        <time>2024-11-02T04:31:15Z</time>
      </trkpt>
      <trkpt lat="37.367332" lon="128.243626">
        <ele>807.9338</ele>
        <time>2024-11-02T04:31:24Z</time>
      </trkpt>
      <trkpt lat="37.367367" lon="128.243522">
        <ele>806.02167</ele>
        <time>2024-11-02T04:31:34Z</time>
      </trkpt>
      <trkpt lat="37.367454" lon="128.243471">
        <ele>806.9372</ele>
        <time>2024-11-02T04:31:44Z</time>
      </trkpt>
      <trkpt lat="37.367524" lon="128.243398">
        <ele>807.9091</ele>
        <time>2024-11-02T04:31:55Z</time>
      </trkpt>
      <trkpt lat="37.367573" lon="128.243292">
        <ele>803.82623</ele>
        <time>2024-11-02T04:32:09Z</time>
      </trkpt>
      <trkpt lat="37.367634" lon="128.243205">
        <ele>801.29193</ele>
        <time>2024-11-02T04:32:20Z</time>
      </trkpt>
      <trkpt lat="37.367722" lon="128.243171">
        <ele>801.571</ele>
        <time>2024-11-02T04:32:33Z</time>
      </trkpt>
      <trkpt lat="37.367787" lon="128.243084">
        <ele>803.383</ele>
        <time>2024-11-02T04:32:48Z</time>
      </trkpt>
      <trkpt lat="37.367817" lon="128.243193">
        <ele>804.3243</ele>
        <time>2024-11-02T04:33:35Z</time>
      </trkpt>
      <trkpt lat="37.367824" lon="128.243079">
        <ele>806.3841</ele>
        <time>2024-11-02T04:34:34Z</time>
      </trkpt>
      <trkpt lat="37.367883" lon="128.242989">
        <ele>804.4826</ele>
        <time>2024-11-02T04:34:45Z</time>
      </trkpt>
      <trkpt lat="37.367946" lon="128.242899">
        <ele>804.7585</ele>
        <time>2024-11-02T04:34:55Z</time>
      </trkpt>
      <trkpt lat="37.367997" lon="128.242803">
        <ele>799.1962</ele>
        <time>2024-11-02T04:35:06Z</time>
      </trkpt>
      <trkpt lat="37.368046" lon="128.242702">
        <ele>798.9533</ele>
        <time>2024-11-02T04:35:16Z</time>
      </trkpt>
      <trkpt lat="37.368070" lon="128.242592">
        <ele>799.23956</ele>
        <time>2024-11-02T04:35:25Z</time>
      </trkpt>
      <trkpt lat="37.368163" lon="128.242586">
        <ele>800.0041</ele>
        <time>2024-11-02T04:36:30Z</time>
      </trkpt>
      <trkpt lat="37.368256" lon="128.242609">
        <ele>803.7918</ele>
        <time>2024-11-02T04:36:43Z</time>
      </trkpt>
      <trkpt lat="37.368350" lon="128.242661">
        <ele>801.2055</ele>
        <time>2024-11-02T04:37:04Z</time>
      </trkpt>
      <trkpt lat="37.368429" lon="128.242722">
        <ele>780.6176</ele>
        <time>2024-11-02T04:37:44Z</time>
      </trkpt>
      <trkpt lat="37.368402" lon="128.242832">
        <ele>778.83563</ele>
        <time>2024-11-02T04:38:05Z</time>
      </trkpt>
      <trkpt lat="37.368495" lon="128.242867">
        <ele>777.79</ele>
        <time>2024-11-02T04:38:20Z</time>
      </trkpt>
      <trkpt lat="37.368533" lon="128.242985">
        <ele>764.3359</ele>
        <time>2024-11-02T04:39:25Z</time>
      </trkpt>
      <trkpt lat="37.368609" lon="128.243049">
        <ele>760.17523</ele>
        <time>2024-11-02T04:39:57Z</time>
      </trkpt>
      <trkpt lat="37.368668" lon="128.243147">
        <ele>754.9079</ele>
        <time>2024-11-02T04:40:35Z</time>
      </trkpt>
      <trkpt lat="37.368764" lon="128.243133">
        <ele>753.7658</ele>
        <time>2024-11-02T04:41:26Z</time>
      </trkpt>
      <trkpt lat="37.368796" lon="128.243247">
        <ele>745.8068</ele>
        <time>2024-11-02T04:42:10Z</time>
      </trkpt>
      <trkpt lat="37.368774" lon="128.243358">
        <ele>745.571</ele>
        <time>2024-11-02T04:42:26Z</time>
      </trkpt>
      <trkpt lat="37.368767" lon="128.243483">
        <ele>735.6071</ele>
        <time>2024-11-02T04:43:04Z</time>
      </trkpt>
      <trkpt lat="37.368826" lon="128.243574">
        <ele>731.4754</ele>
        <time>2024-11-02T04:43:14Z</time>
      </trkpt>
      <trkpt lat="37.368806" lon="128.243699">
        <ele>731.30414</ele>
        <time>2024-11-02T04:43:24Z</time>
      </trkpt>
      <trkpt lat="37.368809" lon="128.243820">
        <ele>739.189</ele>
        <time>2024-11-02T04:43:37Z</time>
      </trkpt>
      <trkpt lat="37.368900" lon="128.243848">
        <ele>733.37665</ele>
        <time>2024-11-02T04:43:57Z</time>
      </trkpt>
      <trkpt lat="37.368908" lon="128.243961">
        <ele>721.9465</ele>
        <time>2024-11-02T04:44:38Z</time>
      </trkpt>
      <trkpt lat="37.368949" lon="128.244066">
        <ele>718.7868</ele>
        <time>2024-11-02T04:45:10Z</time>
      </trkpt>
      <trkpt lat="37.369039" lon="128.244091">
        <ele>712.28876</ele>
        <time>2024-11-02T04:45:29Z</time>
      </trkpt>
      <trkpt lat="37.369019" lon="128.244207">
        <ele>707.39105</ele>
        <time>2024-11-02T04:45:52Z</time>
      </trkpt>
      <trkpt lat="37.369039" lon="128.244317">
        <ele>694.61127</ele>
        <time>2024-11-02T04:47:28Z</time>
      </trkpt>
      <trkpt lat="37.369133" lon="128.244313">
        <ele>688.7592</ele>
        <time>2024-11-02T04:47:57Z</time>
      </trkpt>
      <trkpt lat="37.369143" lon="128.244427">
        <ele>685.57587</ele>
        <time>2024-11-02T04:48:17Z</time>
      </trkpt>
      <trkpt lat="37.369172" lon="128.244539">
        <ele>682.05927</ele>
        <time>2024-11-02T04:48:39Z</time>
      </trkpt>
      <trkpt lat="37.369114" lon="128.244628">
        <ele>677.5893</ele>
        <time>2024-11-02T04:49:00Z</time>
      </trkpt>
      <trkpt lat="37.369203" lon="128.244649">
        <ele>683.3182</ele>
        <time>2024-11-02T04:49:11Z</time>
      </trkpt>
      <trkpt lat="37.369238" lon="128.244774">
        <ele>674.8647</ele>
        <time>2024-11-02T04:49:37Z</time>
      </trkpt>
      <trkpt lat="37.369316" lon="128.244838">
        <ele>676.07855</ele>
        <time>2024-11-02T04:50:08Z</time>
      </trkpt>
      <trkpt lat="37.369351" lon="128.244947">
        <ele>667.2751</ele>
        <time>2024-11-02T04:50:45Z</time>
      </trkpt>
      <trkpt lat="37.369320" lon="128.245055">
        <ele>664.67865</ele>
        <time>2024-11-02T04:51:06Z</time>
      </trkpt>
      <trkpt lat="37.369407" lon="128.245091">
        <ele>665.18646</ele>
        <time>2024-11-02T04:51:25Z</time>
      </trkpt>
      <trkpt lat="37.369472" lon="128.245002">
        <ele>661.498</ele>
        <time>2024-11-02T04:51:41Z</time>
      </trkpt>
      <trkpt lat="37.369444" lon="128.245111">
        <ele>657.48456</ele>
        <time>2024-11-02T04:52:47Z</time>
      </trkpt>
      <trkpt lat="37.369343" lon="128.245145">
        <ele>654.936</ele>
        <time>2024-11-02T04:53:39Z</time>
      </trkpt>
      <trkpt lat="37.369325" lon="128.245260">
        <ele>648.9538</ele>
        <time>2024-11-02T04:53:53Z</time>
      </trkpt>
      <trkpt lat="37.369373" lon="128.245361">
        <ele>646.2011</ele>
        <time>2024-11-02T04:54:06Z</time>
      </trkpt>
      <trkpt lat="37.369463" lon="128.245389">
        <ele>642.5153</ele>
        <time>2024-11-02T04:54:27Z</time>
      </trkpt>
      <trkpt lat="37.369529" lon="128.245471">
        <ele>642.49725</ele>
        <time>2024-11-02T04:54:58Z</time>
      </trkpt>
      <trkpt lat="37.369497" lon="128.245586">
        <ele>640.8177</ele>
        <time>2024-11-02T04:55:37Z</time>
      </trkpt>
      <trkpt lat="37.369564" lon="128.245680">
        <ele>640.0108</ele>
        <time>2024-11-02T04:55:43Z</time>
      </trkpt>
      <trkpt lat="37.369554" lon="128.245806">
        <ele>640.633</ele>
        <time>2024-11-02T04:55:50Z</time>
      </trkpt>
      <trkpt lat="37.369551" lon="128.245925">
        <ele>644.4816</ele>
        <time>2024-11-02T04:56:00Z</time>
      </trkpt>
      <trkpt lat="37.369576" lon="128.246040">
        <ele>640.99896</ele>
        <time>2024-11-02T04:56:10Z</time>
      </trkpt>
      <trkpt lat="37.369597" lon="128.246156">
        <ele>638.0915</ele>
        <time>2024-11-02T04:56:26Z</time>
      </trkpt>
      <trkpt lat="37.369628" lon="128.246267">
        <ele>636.9118</ele>
        <time>2024-11-02T04:56:36Z</time>
      </trkpt>
      <trkpt lat="37.369682" lon="128.246382">
        <ele>635.56464</ele>
        <time>2024-11-02T04:56:45Z</time>
      </trkpt>
      <trkpt lat="37.369730" lon="128.246486">
        <ele>635.13763</ele>
        <time>2024-11-02T04:56:52Z</time>
      </trkpt>
      <trkpt lat="37.369755" lon="128.246595">
        <ele>634.0181</ele>
        <time>2024-11-02T04:57:00Z</time>
      </trkpt>
      <trkpt lat="37.369767" lon="128.246711">
        <ele>634.98553</ele>
        <time>2024-11-02T04:57:10Z</time>
      </trkpt>
      <trkpt lat="37.369819" lon="128.246807">
        <ele>629.38837</ele>
        <time>2024-11-02T04:57:19Z</time>
      </trkpt>
      <trkpt lat="37.369844" lon="128.246920">
        <ele>626.6939</ele>
        <time>2024-11-02T04:57:29Z</time>
      </trkpt>
      <trkpt lat="37.369827" lon="128.247034">
        <ele>626.87103</ele>
        <time>2024-11-02T04:57:39Z</time>
      </trkpt>
      <trkpt lat="37.369867" lon="128.247139">
        <ele>624.9819</ele>
        <time>2024-11-02T04:58:03Z</time>
      </trkpt>
      <trkpt lat="37.369850" lon="128.247253">
        <ele>626.17596</ele>
        <time>2024-11-02T04:58:15Z</time>
      </trkpt>
      <trkpt lat="37.369946" lon="128.247295">
        <ele>623.6611</ele>
        <time>2024-11-02T04:58:29Z</time>
      </trkpt>
      <trkpt lat="37.369983" lon="128.247408">
        <ele>621.0025</ele>
        <time>2024-11-02T04:58:42Z</time>
      </trkpt>
      <trkpt lat="37.370031" lon="128.247507">
        <ele>620.94403</ele>
        <time>2024-11-02T04:58:50Z</time>
      </trkpt>
      <trkpt lat="37.370039" lon="128.247627">
        <ele>620.71967</ele>
        <time>2024-11-02T04:59:00Z</time>
      </trkpt>
      <trkpt lat="37.370053" lon="128.247742">
        <ele>619.2703</ele>
        <time>2024-11-02T04:59:10Z</time>
      </trkpt>
      <trkpt lat="37.370063" lon="128.247857">
        <ele>618.69794</ele>
        <time>2024-11-02T04:59:20Z</time>
      </trkpt>
      <trkpt lat="37.370087" lon="128.247973">
        <ele>616.436</ele>
        <time>2024-11-02T04:59:30Z</time>
      </trkpt>
      <trkpt lat="37.370108" lon="128.248096">
        <ele>612.9787</ele>
        <time>2024-11-02T04:59:40Z</time>
      </trkpt>
      <trkpt lat="37.370148" lon="128.248206">
        <ele>610.7929</ele>
        <time>2024-11-02T04:59:51Z</time>
      </trkpt>
      <trkpt lat="37.370171" lon="128.248323">
        <ele>606.18866</ele>
        <time>2024-11-02T05:00:04Z</time>
      </trkpt>
      <trkpt lat="37.370191" lon="128.248436">
        <ele>602.3991</ele>
        <time>2024-11-02T05:00:15Z</time>
      </trkpt>
      <trkpt lat="37.370224" lon="128.248547">
        <ele>600.4216</ele>
        <time>2024-11-02T05:00:27Z</time>
      </trkpt>
      <trkpt lat="37.370275" lon="128.248647">
        <ele>600.8378</ele>
        <time>2024-11-02T05:00:38Z</time>
      </trkpt>
      <trkpt lat="37.370327" lon="128.248742">
        <ele>600.03094</ele>
        <time>2024-11-02T05:00:49Z</time>
      </trkpt>
      <trkpt lat="37.370348" lon="128.248865">
        <ele>599.7646</ele>
        <time>2024-11-02T05:01:02Z</time>
      </trkpt>
      <trkpt lat="37.370366" lon="128.248976">
        <ele>597.80707</ele>
        <time>2024-11-02T05:01:15Z</time>
      </trkpt>
      <trkpt lat="37.370352" lon="128.249088">
        <ele>597.89496</ele>
        <time>2024-11-02T05:01:28Z</time>
      </trkpt>
      <trkpt lat="37.370342" lon="128.249203">
        <ele>595.16766</ele>
        <time>2024-11-02T05:01:40Z</time>
      </trkpt>
      <trkpt lat="37.370321" lon="128.249315">
        <ele>594.46564</ele>
        <time>2024-11-02T05:01:51Z</time>
      </trkpt>
      <trkpt lat="37.370305" lon="128.249434">
        <ele>593.36017</ele>
        <time>2024-11-02T05:02:02Z</time>
      </trkpt>
      <trkpt lat="37.370298" lon="128.249556">
        <ele>589.8498</ele>
        <time>2024-11-02T05:02:14Z</time>
      </trkpt>
      <trkpt lat="37.370322" lon="128.249673">
        <ele>585.0645</ele>
        <time>2024-11-02T05:02:29Z</time>
      </trkpt>
      <trkpt lat="37.370284" lon="128.249783">
        <ele>584.4755</ele>
        <time>2024-11-02T05:02:41Z</time>
      </trkpt>
      <trkpt lat="37.370256" lon="128.249897">
        <ele>580.9428</ele>
        <time>2024-11-02T05:02:52Z</time>
      </trkpt>
      <trkpt lat="37.370244" lon="128.250014">
        <ele>576.18646</ele>
        <time>2024-11-02T05:03:01Z</time>
      </trkpt>
      <trkpt lat="37.370229" lon="128.250131">
        <ele>577.5827</ele>
        <time>2024-11-02T05:03:11Z</time>
      </trkpt>
      <trkpt lat="37.370229" lon="128.250252">
        <ele>575.10284</ele>
        <time>2024-11-02T05:03:21Z</time>
      </trkpt>
      <trkpt lat="37.370228" lon="128.250376">
        <ele>576.0146</ele>
        <time>2024-11-02T05:03:31Z</time>
      </trkpt>
      <trkpt lat="37.370209" lon="128.250491">
        <ele>577.5905</ele>
        <time>2024-11-02T05:03:43Z</time>
      </trkpt>
      <trkpt lat="37.370212" lon="128.250616">
        <ele>572.0339</ele>
        <time>2024-11-02T05:03:53Z</time>
      </trkpt>
      <trkpt lat="37.370252" lon="128.250722">
        <ele>564.89996</ele>
        <time>2024-11-02T05:04:02Z</time>
      </trkpt>
      <trkpt lat="37.370312" lon="128.250810">
        <ele>560.07684</ele>
        <time>2024-11-02T05:04:33Z</time>
      </trkpt>
      <trkpt lat="37.370331" lon="128.250921">
        <ele>561.33246</ele>
        <time>2024-11-02T05:04:42Z</time>
      </trkpt>
      <trkpt lat="37.370374" lon="128.251029">
        <ele>562.1989</ele>
        <time>2024-11-02T05:04:52Z</time>
      </trkpt>
      <trkpt lat="37.370359" lon="128.251146">
        <ele>562.71014</ele>
        <time>2024-11-02T05:05:05Z</time>
      </trkpt>
      <trkpt lat="37.370391" lon="128.251255">
        <ele>561.1984</ele>
        <time>2024-11-02T05:05:15Z</time>
      </trkpt>
      <trkpt lat="37.370429" lon="128.251371">
        <ele>558.9003</ele>
        <time>2024-11-02T05:05:25Z</time>
      </trkpt>
      <trkpt lat="37.370437" lon="128.251492">
        <ele>556.2902</ele>
        <time>2024-11-02T05:05:37Z</time>
      </trkpt>
      <trkpt lat="37.370446" lon="128.251607">
        <ele>553.9891</ele>
        <time>2024-11-02T05:05:47Z</time>
      </trkpt>
      <trkpt lat="37.370468" lon="128.251721">
        <ele>553.43036</ele>
        <time>2024-11-02T05:05:58Z</time>
      </trkpt>
      <trkpt lat="37.370439" lon="128.251833">
        <ele>552.1015</ele>
        <time>2024-11-02T05:06:09Z</time>
      </trkpt>
      <trkpt lat="37.370396" lon="128.251938">
        <ele>550.28925</ele>
        <time>2024-11-02T05:06:19Z</time>
      </trkpt>
      <trkpt lat="37.370405" lon="128.252052">
        <ele>548.1855</ele>
        <time>2024-11-02T05:06:29Z</time>
      </trkpt>
      <trkpt lat="37.370414" lon="128.252177">
        <ele>547.4462</ele>
        <time>2024-11-02T05:06:39Z</time>
      </trkpt>
      <trkpt lat="37.370436" lon="128.252288">
        <ele>543.41705</ele>
        <time>2024-11-02T05:06:49Z</time>
      </trkpt>
      <trkpt lat="37.370455" lon="128.252400">
        <ele>542.9711</ele>
        <time>2024-11-02T05:06:59Z</time>
      </trkpt>
      <trkpt lat="37.370483" lon="128.252517">
        <ele>539.69354</ele>
        <time>2024-11-02T05:07:10Z</time>
      </trkpt>
      <trkpt lat="37.370521" lon="128.252623">
        <ele>537.93805</ele>
        <time>2024-11-02T05:07:20Z</time>
      </trkpt>
      <trkpt lat="37.370558" lon="128.252731">
        <ele>536.335</ele>
        <time>2024-11-02T05:07:31Z</time>
      </trkpt>
      <trkpt lat="37.370597" lon="128.252839">
        <ele>535.85614</ele>
        <time>2024-11-02T05:07:41Z</time>
      </trkpt>
      <trkpt lat="37.370646" lon="128.252943">
        <ele>533.36993</ele>
        <time>2024-11-02T05:07:50Z</time>
      </trkpt>
      <trkpt lat="37.370706" lon="128.253033">
        <ele>529.6899</ele>
        <time>2024-11-02T05:07:59Z</time>
      </trkpt>
      <trkpt lat="37.370779" lon="128.253114">
        <ele>524.19037</ele>
        <time>2024-11-02T05:08:09Z</time>
      </trkpt>
      <trkpt lat="37.370838" lon="128.253215">
        <ele>522.7171</ele>
        <time>2024-11-02T05:08:19Z</time>
      </trkpt>
      <trkpt lat="37.370882" lon="128.253321">
        <ele>523.4334</ele>
        <time>2024-11-02T05:08:29Z</time>
      </trkpt>
      <trkpt lat="37.370919" lon="128.253433">
        <ele>523.51117</ele>
        <time>2024-11-02T05:08:40Z</time>
      </trkpt>
      <trkpt lat="37.370964" lon="128.253542">
        <ele>521.814</ele>
        <time>2024-11-02T05:08:49Z</time>
      </trkpt>
      <trkpt lat="37.371014" lon="128.253643">
        <ele>521.0651</ele>
        <time>2024-11-02T05:08:58Z</time>
      </trkpt>
      <trkpt lat="37.371029" lon="128.253759">
        <ele>522.1269</ele>
        <time>2024-11-02T05:09:08Z</time>
      </trkpt>
      <trkpt lat="37.371028" lon="128.253877">
        <ele>520.06256</ele>
        <time>2024-11-02T05:09:18Z</time>
      </trkpt>
      <trkpt lat="37.371057" lon="128.253993">
        <ele>519.342</ele>
        <time>2024-11-02T05:09:27Z</time>
      </trkpt>
      <trkpt lat="37.371083" lon="128.254109">
        <ele>517.48773</ele>
        <time>2024-11-02T05:09:36Z</time>
      </trkpt>
      <trkpt lat="37.371124" lon="128.254218">
        <ele>517.5191</ele>
        <time>2024-11-02T05:09:45Z</time>
      </trkpt>
      <trkpt lat="37.371178" lon="128.254310">
        <ele>516.4183</ele>
        <time>2024-11-02T05:09:54Z</time>
      </trkpt>
      <trkpt lat="37.371234" lon="128.254411">
        <ele>514.51654</ele>
        <time>2024-11-02T05:10:03Z</time>
      </trkpt>
      <trkpt lat="37.371288" lon="128.254509">
        <ele>511.54245</ele>
        <time>2024-11-02T05:10:12Z</time>
      </trkpt>
      <trkpt lat="37.371352" lon="128.254590">
        <ele>510.32455</ele>
        <time>2024-11-02T05:10:20Z</time>
      </trkpt>
      <trkpt lat="37.371421" lon="128.254674">
        <ele>506.12338</ele>
        <time>2024-11-02T05:10:29Z</time>
      </trkpt>
      <trkpt lat="37.371500" lon="128.254752">
        <ele>504.54904</ele>
        <time>2024-11-02T05:10:39Z</time>
      </trkpt>
      <trkpt lat="37.371594" lon="128.254782">
        <ele>505.62766</ele>
        <time>2024-11-02T05:10:48Z</time>
      </trkpt>
      <trkpt lat="37.371628" lon="128.254664">
        <ele>500.94626</ele>
        <time>2024-11-02T05:10:56Z</time>
      </trkpt>
      <trkpt lat="37.371548" lon="128.254725">
        <ele>509.09128</ele>
        <time>2024-11-02T05:11:35Z</time>
      </trkpt>
      <trkpt lat="37.371580" lon="128.254842">
        <ele>507.8298</ele>
        <time>2024-11-02T05:11:44Z</time>
      </trkpt>
      <trkpt lat="37.371646" lon="128.254936">
        <ele>502.42307</ele>
        <time>2024-11-02T05:11:55Z</time>
      </trkpt>
      <trkpt lat="37.371695" lon="128.255039">
        <ele>498.88535</ele>
        <time>2024-11-02T05:12:09Z</time>
      </trkpt>
      <trkpt lat="37.371715" lon="128.255155">
        <ele>497.8386</ele>
        <time>2024-11-02T05:12:26Z</time>
      </trkpt>
      <trkpt lat="37.371741" lon="128.255266">
        <ele>494.65707</ele>
        <time>2024-11-02T05:13:13Z</time>
      </trkpt>
      <trkpt lat="37.371836" lon="128.255321">
        <ele>496.77182</ele>
        <time>2024-11-02T05:13:19Z</time>
      </trkpt>
      <trkpt lat="37.371879" lon="128.255423">
        <ele>489.76913</ele>
        <time>2024-11-02T05:13:28Z</time>
      </trkpt>
      <trkpt lat="37.371847" lon="128.255529">
        <ele>486.23477</ele>
        <time>2024-11-02T05:13:35Z</time>
      </trkpt>
      <trkpt lat="37.371805" lon="128.255639">
        <ele>487.34988</ele>
        <time>2024-11-02T05:13:44Z</time>
      </trkpt>
      <trkpt lat="37.371845" lon="128.255754">
        <ele>481.07224</ele>
        <time>2024-11-02T05:13:55Z</time>
      </trkpt>
      <trkpt lat="37.371944" lon="128.255770">
        <ele>473.74936</ele>
        <time>2024-11-02T05:14:08Z</time>
      </trkpt>
      <trkpt lat="37.372037" lon="128.255782">
        <ele>471.67343</ele>
        <time>2024-11-02T05:14:16Z</time>
      </trkpt>
      <trkpt lat="37.372136" lon="128.255774">
        <ele>474.61533</ele>
        <time>2024-11-02T05:14:24Z</time>
      </trkpt>
      <trkpt lat="37.372225" lon="128.255821">
        <ele>472.27975</ele>
        <time>2024-11-02T05:14:32Z</time>
      </trkpt>
      <trkpt lat="37.372312" lon="128.255876">
        <ele>471.60165</ele>
        <time>2024-11-02T05:14:40Z</time>
      </trkpt>
      <trkpt lat="37.372382" lon="128.255950">
        <ele>471.67197</ele>
        <time>2024-11-02T05:14:49Z</time>
      </trkpt>
      <trkpt lat="37.372449" lon="128.256032">
        <ele>467.68503</ele>
        <time>2024-11-02T05:15:05Z</time>
      </trkpt>
      <trkpt lat="37.372446" lon="128.256152">
        <ele>468.40585</ele>
        <time>2024-11-02T05:15:17Z</time>
      </trkpt>
      <trkpt lat="37.372380" lon="128.256244">
        <ele>465.48654</ele>
        <time>2024-11-02T05:15:27Z</time>
      </trkpt>
      <trkpt lat="37.372333" lon="128.256351">
        <ele>464.92166</ele>
        <time>2024-11-02T05:15:36Z</time>
      </trkpt>
      <trkpt lat="37.372332" lon="128.256469">
        <ele>465.525</ele>
        <time>2024-11-02T05:15:45Z</time>
      </trkpt>
      <trkpt lat="37.372361" lon="128.256577">
        <ele>460.11874</ele>
        <time>2024-11-02T05:15:53Z</time>
      </trkpt>
      <trkpt lat="37.372419" lon="128.256682">
        <ele>463.75925</ele>
        <time>2024-11-02T05:16:02Z</time>
      </trkpt>
      <trkpt lat="37.372445" lon="128.256792">
        <ele>465.23178</ele>
        <time>2024-11-02T05:16:10Z</time>
      </trkpt>
      <trkpt lat="37.372471" lon="128.256911">
        <ele>467.06308</ele>
        <time>2024-11-02T05:16:18Z</time>
      </trkpt>
      <trkpt lat="37.372468" lon="128.257030">
        <ele>469.72263</ele>
        <time>2024-11-02T05:16:26Z</time>
      </trkpt>
      <trkpt lat="37.372441" lon="128.257140">
        <ele>468.78098</ele>
        <time>2024-11-02T05:16:34Z</time>
      </trkpt>
      <trkpt lat="37.372415" lon="128.257250">
        <ele>469.5034</ele>
        <time>2024-11-02T05:16:41Z</time>
      </trkpt>
      <trkpt lat="37.372373" lon="128.257362">
        <ele>472.3884</ele>
        <time>2024-11-02T05:16:51Z</time>
      </trkpt>
      <trkpt lat="37.372292" lon="128.257422">
        <ele>472.00455</ele>
        <time>2024-11-02T05:16:59Z</time>
      </trkpt>
      <trkpt lat="37.372201" lon="128.257448">
        <ele>471.83737</ele>
        <time>2024-11-02T05:17:08Z</time>
      </trkpt>
      <trkpt lat="37.372109" lon="128.257461">
        <ele>472.10226</ele>
        <time>2024-11-02T05:17:16Z</time>
      </trkpt>
      <trkpt lat="37.372023" lon="128.257524">
        <ele>471.88626</ele>
        <time>2024-11-02T05:17:24Z</time>
      </trkpt>
      <trkpt lat="37.371932" lon="128.257573">
        <ele>472.05002</ele>
        <time>2024-11-02T05:17:34Z</time>
      </trkpt>
      <trkpt lat="37.371890" lon="128.257674">
        <ele>468.22342</ele>
        <time>2024-11-02T05:17:43Z</time>
      </trkpt>
      <trkpt lat="37.371912" lon="128.257785">
        <ele>467.55936</ele>
        <time>2024-11-02T05:17:51Z</time>
      </trkpt>
      <trkpt lat="37.371927" lon="128.257897">
        <ele>464.62845</ele>
        <time>2024-11-02T05:17:59Z</time>
      </trkpt>
      <trkpt lat="37.371976" lon="128.257994">
        <ele>460.91037</ele>
        <time>2024-11-02T05:18:06Z</time>
      </trkpt>
      <trkpt lat="37.372000" lon="128.258105">
        <ele>459.62857</ele>
        <time>2024-11-02T05:18:14Z</time>
      </trkpt>
      <trkpt lat="37.371977" lon="128.258224">
        <ele>459.059</ele>
        <time>2024-11-02T05:18:23Z</time>
      </trkpt>
      <trkpt lat="37.371949" lon="128.258332">
        <ele>458.67526</ele>
        <time>2024-11-02T05:18:31Z</time>
      </trkpt>
      <trkpt lat="37.371928" lon="128.258446">
        <ele>460.63425</ele>
        <time>2024-11-02T05:18:39Z</time>
      </trkpt>
      <trkpt lat="37.371876" lon="128.258552">
        <ele>461.34952</ele>
        <time>2024-11-02T05:18:48Z</time>
      </trkpt>
      <trkpt lat="37.371855" lon="128.258663">
        <ele>462.36264</ele>
        <time>2024-11-02T05:18:56Z</time>
      </trkpt>
      <trkpt lat="37.371887" lon="128.258783">
        <ele>460.73666</ele>
        <time>2024-11-02T05:19:05Z</time>
      </trkpt>
      <trkpt lat="37.371924" lon="128.258889">
        <ele>461.19498</ele>
        <time>2024-11-02T05:19:15Z</time>
      </trkpt>
      <trkpt lat="37.371991" lon="128.258980">
        <ele>458.08078</ele>
        <time>2024-11-02T05:19:32Z</time>
      </trkpt>
      <trkpt lat="37.372090" lon="128.259007">
        <ele>455.5057</ele>
        <time>2024-11-02T05:19:42Z</time>
      </trkpt>
      <trkpt lat="37.372181" lon="128.258989">
        <ele>460.57608</ele>
        <time>2024-11-02T05:20:19Z</time>
      </trkpt>
      <trkpt lat="37.372084" lon="128.258942">
        <ele>457.09885</ele>
        <time>2024-11-02T05:21:25Z</time>
      </trkpt>
      <trkpt lat="37.371992" lon="128.258984">
        <ele>459.08707</ele>
        <time>2024-11-02T05:21:34Z</time>
      </trkpt>
      <trkpt lat="37.372025" lon="128.258875">
        <ele>454.25955</ele>
        <time>2024-11-02T05:22:14Z</time>
      </trkpt>
      <trkpt lat="37.371990" lon="128.258982">
        <ele>456.40097</ele>
        <time>2024-11-02T05:22:31Z</time>
      </trkpt>
      <trkpt lat="37.371960" lon="128.259096">
        <ele>452.86752</ele>
        <time>2024-11-02T05:23:02Z</time>
      </trkpt>
      <trkpt lat="37.371932" lon="128.259215">
        <ele>452.2711</ele>
        <time>2024-11-02T05:23:10Z</time>
      </trkpt>
      <trkpt lat="37.371882" lon="128.259324">
        <ele>448.42752</ele>
        <time>2024-11-02T05:23:19Z</time>
      </trkpt>
      <trkpt lat="37.371859" lon="128.259436">
        <ele>448.16257</ele>
        <time>2024-11-02T05:23:26Z</time>
      </trkpt>
      <trkpt lat="37.371946" lon="128.259396">
        <ele>450.25192</ele>
        <time>2024-11-02T05:24:19Z</time>
      </trkpt>
      <trkpt lat="37.371959" lon="128.259509">
        <ele>452.71567</ele>
        <time>2024-11-02T05:25:12Z</time>
      </trkpt>
      <trkpt lat="37.371918" lon="128.259620">
        <ele>453.51846</ele>
        <time>2024-11-02T05:25:23Z</time>
      </trkpt>
    </trkseg>
  </trk>
</gpx>