<?xml version="1.0" encoding="UTF-8"?>
<gpx version="1.1" creator="gaja-trail-editor" xmlns="http://www.topografix.com/GPX/1/1" xmlns:xsi="http://www.w3.org/2001/XMLSchema-instance" xsi:schemaLocation="http://www.topografix.com/GPX/1/1 http://www.topografix.com/GPX/1/1/gpx.xsd">
  <metadata>
    <name>월평동_코스</name>
    <time>2026-09-06T13:11:02.937Z</time>
  </metadata>
  <trk>
    <name>월평동_코스</name>
    <trkseg>
      <trkpt lat="36.357928" lon="127.374807">
        <ele>0</ele>
        <time>2026-09-06T13:11:02.937Z</time>
      </trkpt>
      <trkpt lat="36.357928" lon="127.374578">
        <ele>0</ele>
        <time>2026-09-06T13:11:02.937Z</time>
      </trkpt>
      <trkpt lat="36.357961" lon="127.374490">
        <ele>0</ele>
        <time>2026-09-06T13:11:02.937Z</time>
      </trkpt>
      <trkpt lat="36.358008" lon="127.374441">
        <ele>0</ele>
        <time>2026-09-06T13:11:02.937Z</time>
      </trkpt>
      <trkpt lat="36.358044" lon="127.374429">
        <ele>0</ele>
        <time>2026-09-06T13:11:02.937Z</time>
      </trkpt>
      <trkpt lat="36.358270" lon="127.374429">
        <ele>0</ele>
        <time>2026-09-06T13:11:02.937Z</time>
      </trkpt>
      <trkpt lat="36.358044" lon="127.374429">
        <ele>0</ele>
        <time>2026-09-06T13:11:02.937Z</time>
      </trkpt>
      <trkpt lat="36.358008" lon="127.374441">
        <ele>0</ele>
        <time>2026-09-06T13:11:02.937Z</time>
      </trkpt>
      <trkpt lat="36.357961" lon="127.374490">
        <ele>0</ele>
        <time>2026-09-06T13:11:02.937Z</time>
      </trkpt>
      <trkpt lat="36.357928" lon="127.374578">
        <ele>0</ele>
        <time>2026-09-06T13:11:02.937Z</time>
      </trkpt>
      <trkpt lat="36.357928" lon="127.374826">
        <ele>0</ele>
        <time>2026-09-06T13:11:02.937Z</time>
      </trkpt>
      <trkpt lat="36.357930" lon="127.375485">
        <ele>0</ele>
        <time>2026-09-06T13:11:02.937Z</time>
      </trkpt>
      <trkpt lat="36.357928" lon="127.374826">
        <ele>0</ele>
        <time>2026-09-06T13:11:02.937Z</time>
      </trkpt>
      <trkpt lat="36.357928" lon="127.374578">
        <ele>0</ele>
        <time>2026-09-06T13:11:02.937Z</time>
      </trkpt>
      <trkpt lat="36.357961" lon="127.374490">
        <ele>0</ele>
        <time>2026-09-06T13:11:02.937Z</time>
      </trkpt>
      <trkpt lat="36.358008" lon="127.374441">
        <ele>0</ele>
        <time>2026-09-06T13:11:02.937Z</time>
      </trkpt>
      <trkpt lat="36.358044" lon="127.374429">
        <ele>0</ele>
        <time>2026-09-06T13:11:02.937Z</time>
      </trkpt>
      <trkpt lat="36.358771" lon="127.374430">
        <ele>0</ele>
        <time>2026-09-06T13:11:02.937Z</time>
      </trkpt>
      <trkpt lat="36.358825" lon="127.374430">
        <ele>0</ele>
        <time>2026-09-06T13:11:02.937Z</time>
      </trkpt>
      <trkpt lat="36.358808" lon="127.375492">
        <ele>0</ele>
        <time>2026-09-06T13:11:02.937Z</time>
      </trkpt>
      <trkpt lat="36.358844" lon="127.375492">
        <ele>0</ele>
        <time>2026-09-06T13:11:02.937Z</time>
      </trkpt>
      <trkpt lat="36.358808" lon="127.375492">
        <ele>0</ele>
        <time>2026-09-06T13:11:02.937Z</time>
      </trkpt>
      <trkpt lat="36.358808" lon="127.376615">
        <ele>0</ele>
        <time>2026-09-06T13:11:02.937Z</time>
      </trkpt>
      <trkpt lat="36.358808" lon="127.376646">
        <ele>0</ele>
        <time>2026-09-06T13:11:02.937Z</time>
      </trkpt>
      <trkpt lat="36.358455" lon="127.376647">
        <ele>0</ele>
        <time>2026-09-06T13:11:02.937Z</time>
      </trkpt>
      <trkpt lat="36.357911" lon="127.376649">
        <ele>0</ele>
        <time>2026-09-06T13:11:02.937Z</time>
      </trkpt>
      <trkpt lat="36.357859" lon="127.376649">
        <ele>0</ele>
        <time>2026-09-06T13:11:02.937Z</time>
      </trkpt>
      <trkpt lat="36.357864" lon="127.377474">
        <ele>0</ele>
        <time>2026-09-06T13:11:02.937Z</time>
      </trkpt>
      <trkpt lat="36.357860" lon="127.377938">
        <ele>0</ele>
        <time>2026-09-06T13:11:02.937Z</time>
      </trkpt>
      <trkpt lat="36.357901" lon="127.378014">
        <ele>0</ele>
        <time>2026-09-06T13:11:02.937Z</time>
      </trkpt>
      <trkpt lat="36.357902" lon="127.378085">
        <ele>0</ele>
        <time>2026-09-06T13:11:02.937Z</time>
      </trkpt>
      <trkpt lat="36.357926" lon="127.378133">
        <ele>0</ele>
        <time>2026-09-06T13:11:02.937Z</time>
      </trkpt>
      <trkpt lat="36.357956" lon="127.378160">
        <ele>0</ele>
        <time>2026-09-06T13:11:02.937Z</time>
      </trkpt>
      <trkpt lat="36.357956" lon="127.378210">
        <ele>0</ele>
        <time>2026-09-06T13:11:02.937Z</time>
      </trkpt>
      <trkpt lat="36.357953" lon="127.378213">
        <ele>0</ele>
        <time>2026-09-06T13:11:02.937Z</time>
      </trkpt>
      <trkpt lat="36.357913" lon="127.378253">
        <ele>0</ele>
        <time>2026-09-06T13:11:02.937Z</time>
      </trkpt>
      <trkpt lat="36.357898" lon="127.378331">
        <ele>0</ele>
        <time>2026-09-06T13:11:02.937Z</time>
      </trkpt>
      <trkpt lat="36.357898" lon="127.378375">
        <ele>0</ele>
        <time>2026-09-06T13:11:02.937Z</time>
      </trkpt>
      <trkpt lat="36.357859" lon="127.378441">
        <ele>0</ele>
        <time>2026-09-06T13:11:02.937Z</time>
      </trkpt>
      <trkpt lat="36.357859" lon="127.379079">
        <ele>0</ele>
        <time>2026-09-06T13:11:02.937Z</time>
      </trkpt>
      <trkpt lat="36.357859" lon="127.379256">
        <ele>0</ele>
        <time>2026-09-06T13:11:02.937Z</time>
      </trkpt>
      <trkpt lat="36.357860" lon="127.379434">
        <ele>0</ele>
        <time>2026-09-06T13:11:02.937Z</time>
      </trkpt>
      <trkpt lat="36.357932" lon="127.379435">
        <ele>0</ele>
        <time>2026-09-06T13:11:02.937Z</time>
      </trkpt>
      <trkpt lat="36.357933" lon="127.379592">
        <ele>0</ele>
        <time>2026-09-06T13:11:02.937Z</time>
      </trkpt>
      <trkpt lat="36.358243" lon="127.379592">
        <ele>0</ele>
        <time>2026-09-06T13:11:02.937Z</time>
      </trkpt>
      <trkpt lat="36.358068" lon="127.379631">
        <ele>0</ele>
        <time>2026-09-06T13:11:02.937Z</time>
      </trkpt>
      <trkpt lat="36.358000" lon="127.379650">
        <ele>0</ele>
        <time>2026-09-06T13:11:02.937Z</time>
      </trkpt>
      <trkpt lat="36.357940" lon="127.379713">
        <ele>0</ele>
        <time>2026-09-06T13:11:02.937Z</time>
      </trkpt>
      <trkpt lat="36.357975" lon="127.379757">
        <ele>0</ele>
        <time>2026-09-06T13:11:02.937Z</time>
      </trkpt>
      <trkpt lat="36.357944" lon="127.379840">
        <ele>0</ele>
        <time>2026-09-06T13:11:02.937Z</time>
      </trkpt>
      <trkpt lat="36.357944" lon="127.379984">
        <ele>0</ele>
        <time>2026-09-06T13:11:02.937Z</time>
      </trkpt>
      <trkpt lat="36.357944" lon="127.379840">
        <ele>0</ele>
        <time>2026-09-06T13:11:02.937Z</time>
      </trkpt>
      <trkpt lat="36.357975" lon="127.379757">
        <ele>0</ele>
        <time>2026-09-06T13:11:02.937Z</time>
      </trkpt>
      <trkpt lat="36.357940" lon="127.379713">
        <ele>0</ele>
        <time>2026-09-06T13:11:02.937Z</time>
      </trkpt>
      <trkpt lat="36.357900" lon="127.379798">
        <ele>0</ele>
        <time>2026-09-06T13:11:02.937Z</time>
      </trkpt>
      <trkpt lat="36.357891" lon="127.379933">
        <ele>0</ele>
        <time>2026-09-06T13:11:02.937Z</time>
      </trkpt>
      <trkpt lat="36.357862" lon="127.380050">
        <ele>0</ele>
        <time>2026-09-06T13:11:02.937Z</time>
      </trkpt>
      <trkpt lat="36.357860" lon="127.379778">
        <ele>0</ele>
        <time>2026-09-06T13:11:02.937Z</time>
      </trkpt>
      <trkpt lat="36.357860" lon="127.379709">
        <ele>0</ele>
        <time>2026-09-06T13:11:02.937Z</time>
      </trkpt>
      <trkpt lat="36.357616" lon="127.379706">
        <ele>0</ele>
        <time>2026-09-06T13:11:02.937Z</time>
      </trkpt>
      <trkpt lat="36.357567" lon="127.379705">
        <ele>0</ele>
        <time>2026-09-06T13:11:02.937Z</time>
      </trkpt>
      <trkpt lat="36.357551" lon="127.379742">
        <ele>0</ele>
        <time>2026-09-06T13:11:02.937Z</time>
      </trkpt>
      <trkpt lat="36.357512" lon="127.379698">
        <ele>0</ele>
        <time>2026-09-06T13:11:02.937Z</time>
      </trkpt>
      <trkpt lat="36.357385" lon="127.379697">
        <ele>0</ele>
        <time>2026-09-06T13:11:02.937Z</time>
      </trkpt>
      <trkpt lat="36.357382" lon="127.379840">
        <ele>0</ele>
        <time>2026-09-06T13:11:02.937Z</time>
      </trkpt>
      <trkpt lat="36.357381" lon="127.379883">
        <ele>0</ele>
        <time>2026-09-06T13:11:02.937Z</time>
      </trkpt>
      <trkpt lat="36.357370" lon="127.380580">
        <ele>0</ele>
        <time>2026-09-06T13:11:02.937Z</time>
      </trkpt>
    </trkseg>
  </trk>
</gpx>