<?xml version="1.0" encoding="UTF-8"?>
<gpx version="1.1" creator="gajago-nav" xmlns="http://www.topografix.com/GPX/1/1">
  <metadata><name>재약산_C코스_nav</name></metadata>
  <wpt lat="35.568453" lon="128.992248">
    <name>들머리 (상부승강장)</name>
    <ele>1003</ele>
  </wpt>
  <wpt lat="35.566714" lon="128.991247">
    <name>갈림길</name>
  </wpt>
  <wpt lat="35.565510" lon="128.988737">
    <name>갈림길</name>
  </wpt>
  <wpt lat="35.565309" lon="128.988233">
    <name>갈림길</name>
  </wpt>
  <wpt lat="35.565459" lon="128.986093">
    <name>샘물상회</name>
  </wpt>
  <wpt lat="35.564805" lon="128.981373">
    <name>얼음골 삼거리</name>
  </wpt>
  <wpt lat="35.564750" lon="128.981366">
    <name>얼음골삼거리</name>
  </wpt>
  <wpt lat="35.563459" lon="128.976281">
    <name>갈림길</name>
  </wpt>
  <wpt lat="35.561050" lon="128.971646">
    <name>갈림길</name>
  </wpt>
  <wpt lat="35.557930" lon="128.972200">
    <name>천황산</name>
    <ele>1189</ele>
  </wpt>
  <wpt lat="35.551390" lon="128.976890">
    <name>천황재</name>
  </wpt>
  <wpt lat="35.551243" lon="128.977779">
    <name>갈림길</name>
  </wpt>
  <wpt lat="35.549458" lon="128.978963">
    <name>갈림길</name>
  </wpt>
  <wpt lat="35.547050" lon="128.981101">
    <name>갈림길</name>
  </wpt>
  <wpt lat="35.545420" lon="128.980620">
    <name>재약산</name>
    <ele>1119</ele>
  </wpt>
  <wpt lat="35.540401" lon="128.983153">
    <name>갈림길</name>
  </wpt>
  <wpt lat="35.540252" lon="128.983580">
    <name>갈림길</name>
  </wpt>
  <wpt lat="35.535639" lon="128.985336">
    <name>갈림길</name>
  </wpt>
  <wpt lat="35.535560" lon="128.986087">
    <name>갈림길</name>
  </wpt>
  <wpt lat="35.535881" lon="128.986859">
    <name>사자교</name>
  </wpt>
  <wpt lat="35.533203" lon="128.986795">
    <name>갈림길</name>
  </wpt>
  <wpt lat="35.533220" lon="128.985786">
    <name>층층폭포</name>
  </wpt>
  <wpt lat="35.529894" lon="128.979794">
    <name>조망점</name>
  </wpt>
  <wpt lat="35.529911" lon="128.977278">
    <name>흑룡폭포</name>
  </wpt>
  <wpt lat="35.528226" lon="128.970721">
    <name>갈림길</name>
  </wpt>
  <wpt lat="35.531754" lon="128.960831">
    <name>표충사</name>
  </wpt>
  <wpt lat="35.532677" lon="128.957022">
    <name>날머리 (상가주차장)</name>
  </wpt>
  <trk>
    <name>재약산_C코스_nav</name>
    <trkseg>
      <trkpt lat="35.568453" lon="128.992248"><ele>1003.1</ele><time>2026-09-20T11:36:11.415Z</time></trkpt>
      <trkpt lat="35.568453" lon="128.992247"><time>2026-09-20T11:36:11.545Z</time></trkpt>
      <trkpt lat="35.568142" lon="128.991938"><time>2026-09-20T11:37:15.572Z</time></trkpt>
      <trkpt lat="35.567950" lon="128.991723"><time>2026-09-20T11:37:57.157Z</time></trkpt>
      <trkpt lat="35.567753" lon="128.991591"><time>2026-09-20T11:38:33.082Z</time></trkpt>
      <trkpt lat="35.567265" lon="128.991428"><time>2026-09-20T11:39:54.054Z</time></trkpt>
      <trkpt lat="35.566774" lon="128.991323"><time>2026-09-20T11:41:13.854Z</time></trkpt>
      <trkpt lat="35.566726" lon="128.991237"><time>2026-09-20T11:41:27.438Z</time></trkpt>
      <trkpt lat="35.566613" lon="128.991036"><time>2026-09-20T11:41:59.262Z</time></trkpt>
      <trkpt lat="35.566605" lon="128.991027"><time>2026-09-20T11:42:00.999Z</time></trkpt>
      <trkpt lat="35.566422" lon="128.990833"><time>2026-09-20T11:42:39.691Z</time></trkpt>
      <trkpt lat="35.566404" lon="128.990802"><time>2026-09-20T11:42:44.652Z</time></trkpt>
      <trkpt lat="35.566352" lon="128.990711"><time>2026-09-20T11:42:59.137Z</time></trkpt>
      <trkpt lat="35.566304" lon="128.990528"><time>2026-09-20T11:43:24.181Z</time></trkpt>
      <trkpt lat="35.566302" lon="128.990514"><time>2026-09-20T11:43:26.032Z</time></trkpt>
      <trkpt lat="35.566277" lon="128.990286"><time>2026-09-20T11:43:55.998Z</time></trkpt>
      <trkpt lat="35.566273" lon="128.990278"><time>2026-09-20T11:43:57.221Z</time></trkpt>
      <trkpt lat="35.566190" lon="128.990120"><time>2026-09-20T11:44:21.718Z</time></trkpt>
      <trkpt lat="35.566157" lon="128.989925"><time>2026-09-20T11:44:47.661Z</time></trkpt>
      <trkpt lat="35.566181" lon="128.989503"><time>2026-09-20T11:45:42.760Z</time></trkpt>
      <trkpt lat="35.566169" lon="128.989473"><time>2026-09-20T11:45:47.115Z</time></trkpt>
      <trkpt lat="35.566001" lon="128.989060"><time>2026-09-20T11:46:47.259Z</time></trkpt>
      <trkpt lat="35.565998" lon="128.989052"><time>2026-09-20T11:46:48.406Z</time></trkpt>
      <trkpt lat="35.565651" lon="128.988820"><time>2026-09-20T11:47:51.654Z</time></trkpt>
      <trkpt lat="35.565614" lon="128.988795"><time>2026-09-20T11:47:58.414Z</time></trkpt>
      <trkpt lat="35.565578" lon="128.988719"><time>2026-09-20T11:48:09.869Z</time></trkpt>
      <trkpt lat="35.565569" lon="128.988700"><time>2026-09-20T11:48:12.733Z</time></trkpt>
      <trkpt lat="35.565389" lon="128.988361"><time>2026-09-20T11:49:05.462Z</time></trkpt>
      <trkpt lat="35.565363" lon="128.988312"><time>2026-09-20T11:49:13.082Z</time></trkpt>
      <trkpt lat="35.565354" lon="128.987687"><time>2026-09-20T11:50:34.501Z</time></trkpt>
      <trkpt lat="35.565355" lon="128.987680"><time>2026-09-20T11:50:35.427Z</time></trkpt>
      <trkpt lat="35.565377" lon="128.987513"><time>2026-09-20T11:50:57.462Z</time></trkpt>
      <trkpt lat="35.565397" lon="128.987456"><time>2026-09-20T11:51:05.548Z</time></trkpt>
      <trkpt lat="35.565414" lon="128.987407"><time>2026-09-20T11:51:12.486Z</time></trkpt>
      <trkpt lat="35.565515" lon="128.987077"><time>2026-09-20T11:51:58.410Z</time></trkpt>
      <trkpt lat="35.565520" lon="128.987032"><time>2026-09-20T11:52:04.326Z</time></trkpt>
      <trkpt lat="35.565516" lon="128.986917"><ele>1010.3</ele><time>2026-09-20T11:52:19.319Z</time></trkpt>
      <trkpt lat="35.565510" lon="128.986689"><ele>1009.9</ele><time>2026-09-20T11:52:49.031Z</time></trkpt>
      <trkpt lat="35.565548" lon="128.986348"><ele>1009.6</ele><time>2026-09-20T11:53:33.829Z</time></trkpt>
      <trkpt lat="35.565517" lon="128.986243"><ele>1009.1</ele><time>2026-09-20T11:53:48.417Z</time></trkpt>
      <trkpt lat="35.565530" lon="128.986211"><ele>1009.0</ele><time>2026-09-20T11:53:53.140Z</time></trkpt>
      <trkpt lat="35.565522" lon="128.986101"><ele>1009.5</ele><time>2026-09-20T11:54:07.544Z</time></trkpt>
      <trkpt lat="35.565509" lon="128.985769"><ele>1010.8</ele><time>2026-09-20T11:54:50.821Z</time></trkpt>
      <trkpt lat="35.565594" lon="128.985559"><ele>1013.0</ele><time>2026-09-20T11:55:21.372Z</time></trkpt>
      <trkpt lat="35.565596" lon="128.985318"><ele>1016.0</ele><time>2026-09-20T11:55:52.764Z</time></trkpt>
      <trkpt lat="35.565618" lon="128.985115"><ele>1019.7</ele><time>2026-09-20T11:56:19.439Z</time></trkpt>
      <trkpt lat="35.565437" lon="128.984629"><ele>1023.8</ele><time>2026-09-20T11:57:29.060Z</time></trkpt>
      <trkpt lat="35.565221" lon="128.984213"><ele>1028.2</ele><time>2026-09-20T11:58:33.341Z</time></trkpt>
      <trkpt lat="35.565258" lon="128.983401"><ele>1032.4</ele><time>2026-09-20T12:00:19.271Z</time></trkpt>
      <trkpt lat="35.565279" lon="128.983218"><ele>1036.3</ele><time>2026-09-20T12:00:43.343Z</time></trkpt>
      <trkpt lat="35.565343" lon="128.982979"><ele>1039.6</ele><time>2026-09-20T12:01:16.116Z</time></trkpt>
      <trkpt lat="35.565346" lon="128.982827"><ele>1042.4</ele><time>2026-09-20T12:01:35.920Z</time></trkpt>
      <trkpt lat="35.565395" lon="128.982615"><ele>1044.7</ele><time>2026-09-20T12:02:04.626Z</time></trkpt>
      <trkpt lat="35.565325" lon="128.982386"><ele>1046.4</ele><time>2026-09-20T12:02:36.490Z</time></trkpt>
      <trkpt lat="35.565308" lon="128.982215"><ele>1047.6</ele><time>2026-09-20T12:02:58.928Z</time></trkpt>
      <trkpt lat="35.565271" lon="128.982105"><ele>1048.6</ele><time>2026-09-20T12:03:14.432Z</time></trkpt>
      <trkpt lat="35.565227" lon="128.981925"><ele>1049.4</ele><time>2026-09-20T12:03:38.913Z</time></trkpt>
      <trkpt lat="35.565212" lon="128.981703"><ele>1050.2</ele><time>2026-09-20T12:04:07.929Z</time></trkpt>
      <trkpt lat="35.565048" lon="128.981512"><ele>1051.0</ele><time>2026-09-20T12:04:44.102Z</time></trkpt>
      <trkpt lat="35.564924" lon="128.981314"><ele>1051.9</ele><time>2026-09-20T12:05:16.649Z</time></trkpt>
      <trkpt lat="35.564823" lon="128.981115"><ele>1054.4</ele><time>2026-09-20T12:05:47.200Z</time></trkpt>
      <trkpt lat="35.564599" lon="128.980790"><ele>1056.0</ele><time>2026-09-20T12:06:42.684Z</time></trkpt>
      <trkpt lat="35.564424" lon="128.980532"><ele>1057.8</ele><time>2026-09-20T12:07:26.439Z</time></trkpt>
      <trkpt lat="35.564336" lon="128.980399"><ele>1059.6</ele><time>2026-09-20T12:07:48.769Z</time></trkpt>
      <trkpt lat="35.564255" lon="128.980270"><ele>1061.3</ele><time>2026-09-20T12:08:09.995Z</time></trkpt>
      <trkpt lat="35.564208" lon="128.980082"><ele>1062.8</ele><time>2026-09-20T12:08:35.613Z</time></trkpt>
      <trkpt lat="35.564175" lon="128.979819"><ele>1064.1</ele><time>2026-09-20T12:09:10.274Z</time></trkpt>
      <trkpt lat="35.564164" lon="128.979465"><ele>1065.2</ele><time>2026-09-20T12:09:56.417Z</time></trkpt>
      <trkpt lat="35.564155" lon="128.979349"><ele>1066.1</ele><time>2026-09-20T12:10:11.595Z</time></trkpt>
      <trkpt lat="35.564097" lon="128.979184"><ele>1066.9</ele><time>2026-09-20T12:10:35.008Z</time></trkpt>
      <trkpt lat="35.564099" lon="128.979028"><ele>1067.7</ele><time>2026-09-20T12:10:55.330Z</time></trkpt>
      <trkpt lat="35.564043" lon="128.978860"><ele>1068.7</ele><time>2026-09-20T12:11:18.978Z</time></trkpt>
      <trkpt lat="35.563971" lon="128.978505"><ele>1069.8</ele><time>2026-09-20T12:12:06.633Z</time></trkpt>
      <trkpt lat="35.563894" lon="128.978237"><ele>1071.1</ele><time>2026-09-20T12:12:43.654Z</time></trkpt>
      <trkpt lat="35.563756" lon="128.978020"><ele>1072.5</ele><time>2026-09-20T12:13:19.531Z</time></trkpt>
      <trkpt lat="35.563704" lon="128.977883"><ele>1074.0</ele><time>2026-09-20T12:13:39.223Z</time></trkpt>
      <trkpt lat="35.563689" lon="128.977768"><ele>1075.5</ele><time>2026-09-20T12:13:54.394Z</time></trkpt>
      <trkpt lat="35.563689" lon="128.977682"><ele>1076.8</ele><time>2026-09-20T12:14:05.595Z</time></trkpt>
      <trkpt lat="35.563732" lon="128.977564"><ele>1078.0</ele><time>2026-09-20T12:14:22.437Z</time></trkpt>
      <trkpt lat="35.563746" lon="128.977424"><ele>1079.1</ele><time>2026-09-20T12:14:40.810Z</time></trkpt>
      <trkpt lat="35.563764" lon="128.977332"><ele>1080.0</ele><time>2026-09-20T12:14:53.135Z</time></trkpt>
      <trkpt lat="35.563711" lon="128.977169"><ele>1080.8</ele><time>2026-09-20T12:15:15.999Z</time></trkpt>
      <trkpt lat="35.563704" lon="128.977027"><ele>1081.5</ele><time>2026-09-20T12:15:34.529Z</time></trkpt>
      <trkpt lat="35.563682" lon="128.976867"><ele>1082.3</ele><time>2026-09-20T12:15:55.665Z</time></trkpt>
      <trkpt lat="35.563663" lon="128.976787"><ele>1083.2</ele><time>2026-09-20T12:16:06.521Z</time></trkpt>
      <trkpt lat="35.563631" lon="128.976650"><ele>1084.2</ele><time>2026-09-20T12:16:25.086Z</time></trkpt>
      <trkpt lat="35.563570" lon="128.976459"><ele>1085.3</ele><time>2026-09-20T12:16:51.813Z</time></trkpt>
      <trkpt lat="35.563548" lon="128.976322"><ele>1086.6</ele><time>2026-09-20T12:17:10.002Z</time></trkpt>
      <trkpt lat="35.563493" lon="128.976210"><ele>1088.0</ele><time>2026-09-20T12:17:27.043Z</time></trkpt>
      <trkpt lat="35.563294" lon="128.975952"><ele>1089.7</ele><time>2026-09-20T12:18:13.353Z</time></trkpt>
      <trkpt lat="35.563139" lon="128.975611"><ele>1091.5</ele><time>2026-09-20T12:19:04.234Z</time></trkpt>
      <trkpt lat="35.563079" lon="128.975509"><ele>1093.5</ele><time>2026-09-20T12:19:20.629Z</time></trkpt>
      <trkpt lat="35.563004" lon="128.975448"><ele>1095.9</ele><time>2026-09-20T12:19:35.029Z</time></trkpt>
      <trkpt lat="35.562832" lon="128.975281"><ele>1098.5</ele><time>2026-09-20T12:20:10.124Z</time></trkpt>
      <trkpt lat="35.562718" lon="128.975104"><ele>1101.3</ele><time>2026-09-20T12:20:39.530Z</time></trkpt>
      <trkpt lat="35.562563" lon="128.974942"><ele>1104.3</ele><time>2026-09-20T12:21:12.107Z</time></trkpt>
      <trkpt lat="35.562467" lon="128.974777"><ele>1107.4</ele><time>2026-09-20T12:21:38.530Z</time></trkpt>
      <trkpt lat="35.562356" lon="128.974707"><ele>1110.4</ele><time>2026-09-20T12:21:58.506Z</time></trkpt>
      <trkpt lat="35.562288" lon="128.974493"><ele>1113.3</ele><time>2026-09-20T12:22:28.432Z</time></trkpt>
      <trkpt lat="35.562241" lon="128.974266"><ele>1116.0</ele><time>2026-09-20T12:22:58.942Z</time></trkpt>
      <trkpt lat="35.562209" lon="128.973991"><ele>1118.5</ele><time>2026-09-20T12:23:35.127Z</time></trkpt>
      <trkpt lat="35.562154" lon="128.973610"><ele>1120.8</ele><time>2026-09-20T12:24:25.530Z</time></trkpt>
      <trkpt lat="35.562149" lon="128.973420"><ele>1122.9</ele><time>2026-09-20T12:24:50.292Z</time></trkpt>
      <trkpt lat="35.562088" lon="128.973244"><ele>1124.9</ele><time>2026-09-20T12:25:15.211Z</time></trkpt>
      <trkpt lat="35.561993" lon="128.973060"><ele>1126.9</ele><time>2026-09-20T12:25:43.598Z</time></trkpt>
      <trkpt lat="35.561914" lon="128.972907"><ele>1129.1</ele><time>2026-09-20T12:26:07.202Z</time></trkpt>
      <trkpt lat="35.561883" lon="128.972766"><ele>1131.4</ele><time>2026-09-20T12:26:26.227Z</time></trkpt>
      <trkpt lat="35.561638" lon="128.972395"><ele>1133.9</ele><time>2026-09-20T12:27:28.471Z</time></trkpt>
      <trkpt lat="35.561494" lon="128.972144"><ele>1136.5</ele><time>2026-09-20T12:28:08.478Z</time></trkpt>
      <trkpt lat="35.561439" lon="128.972030"><ele>1139.3</ele><time>2026-09-20T12:28:25.742Z</time></trkpt>
      <trkpt lat="35.561295" lon="128.971898"><ele>1142.0</ele><time>2026-09-20T12:28:54.505Z</time></trkpt>
      <trkpt lat="35.561047" lon="128.971727"><ele>1144.6</ele><time>2026-09-20T12:29:40.035Z</time></trkpt>
      <trkpt lat="35.560910" lon="128.971669"><ele>1147.0</ele><time>2026-09-20T12:30:03.236Z</time></trkpt>
      <trkpt lat="35.560735" lon="128.971661"><ele>1149.1</ele><time>2026-09-20T12:30:31.277Z</time></trkpt>
      <trkpt lat="35.560642" lon="128.971654"><ele>1151.0</ele><time>2026-09-20T12:30:46.196Z</time></trkpt>
      <trkpt lat="35.560542" lon="128.971635"><ele>1152.6</ele><time>2026-09-20T12:31:02.398Z</time></trkpt>
      <trkpt lat="35.560485" lon="128.971623"><ele>1154.0</ele><time>2026-09-20T12:31:11.658Z</time></trkpt>
      <trkpt lat="35.560420" lon="128.971629"><ele>1155.3</ele><time>2026-09-20T12:31:22.095Z</time></trkpt>
      <trkpt lat="35.560270" lon="128.971631"><ele>1156.5</ele><time>2026-09-20T12:31:46.114Z</time></trkpt>
      <trkpt lat="35.560118" lon="128.971655"><ele>1157.7</ele><time>2026-09-20T12:32:10.653Z</time></trkpt>
      <trkpt lat="35.559865" lon="128.971653"><ele>1159.0</ele><time>2026-09-20T12:32:51.164Z</time></trkpt>
      <trkpt lat="35.559760" lon="128.971662"><ele>1160.2</ele><time>2026-09-20T12:33:08.018Z</time></trkpt>
      <trkpt lat="35.559651" lon="128.971715"><ele>1161.5</ele><time>2026-09-20T12:33:26.787Z</time></trkpt>
      <trkpt lat="35.559459" lon="128.971715"><ele>1162.8</ele><time>2026-09-20T12:33:57.530Z</time></trkpt>
      <trkpt lat="35.559367" lon="128.971733"><ele>1164.0</ele><time>2026-09-20T12:34:12.446Z</time></trkpt>
      <trkpt lat="35.559259" lon="128.971769"><ele>1165.3</ele><time>2026-09-20T12:34:30.364Z</time></trkpt>
      <trkpt lat="35.559136" lon="128.971816"><ele>1166.6</ele><time>2026-09-20T12:34:50.988Z</time></trkpt>
      <trkpt lat="35.559054" lon="128.971859"><ele>1167.9</ele><time>2026-09-20T12:35:05.263Z</time></trkpt>
      <trkpt lat="35.558935" lon="128.971950"><ele>1169.3</ele><time>2026-09-20T12:35:27.704Z</time></trkpt>
      <trkpt lat="35.558816" lon="128.971982"><ele>1170.7</ele><time>2026-09-20T12:35:47.209Z</time></trkpt>
      <trkpt lat="35.558747" lon="128.971983"><ele>1172.0</ele><time>2026-09-20T12:35:58.258Z</time></trkpt>
      <trkpt lat="35.558579" lon="128.971974"><ele>1173.4</ele><time>2026-09-20T12:36:25.184Z</time></trkpt>
      <trkpt lat="35.558489" lon="128.971985"><ele>1174.6</ele><time>2026-09-20T12:36:39.666Z</time></trkpt>
      <trkpt lat="35.558395" lon="128.972014"><ele>1175.7</ele><time>2026-09-20T12:36:55.184Z</time></trkpt>
      <trkpt lat="35.558193" lon="128.972105"><ele>1176.5</ele><time>2026-09-20T12:37:29.632Z</time></trkpt>
      <trkpt lat="35.558102" lon="128.972145"><ele>1176.9</ele><time>2026-09-20T12:37:45.106Z</time></trkpt>
      <trkpt lat="35.558078" lon="128.972167"><ele>1176.9</ele><time>2026-09-20T12:37:49.831Z</time></trkpt>
      <trkpt lat="35.557955" lon="128.972248"><ele>1176.5</ele><time>2026-09-20T12:38:12.241Z</time></trkpt>
      <trkpt lat="35.557857" lon="128.972275"><ele>1175.5</ele><time>2026-09-20T12:38:28.322Z</time></trkpt>
      <trkpt lat="35.557721" lon="128.972261"><ele>1174.1</ele><time>2026-09-20T12:38:50.174Z</time></trkpt>
      <trkpt lat="35.557593" lon="128.972315"><ele>1172.3</ele><time>2026-09-20T12:39:11.843Z</time></trkpt>
      <trkpt lat="35.557531" lon="128.972300"><ele>1170.2</ele><time>2026-09-20T12:39:21.961Z</time></trkpt>
      <trkpt lat="35.557440" lon="128.972293"><ele>1167.8</ele><time>2026-09-20T12:39:36.561Z</time></trkpt>
      <trkpt lat="35.557224" lon="128.972340"><ele>1165.2</ele><time>2026-09-20T12:40:11.685Z</time></trkpt>
      <trkpt lat="35.557042" lon="128.972349"><ele>1162.5</ele><time>2026-09-20T12:40:40.850Z</time></trkpt>
      <trkpt lat="35.556994" lon="128.972359"><ele>1159.7</ele><time>2026-09-20T12:40:48.646Z</time></trkpt>
      <trkpt lat="35.556974" lon="128.972392"><ele>1156.9</ele><time>2026-09-20T12:40:54.006Z</time></trkpt>
      <trkpt lat="35.556945" lon="128.972442"><ele>1154.0</ele><time>2026-09-20T12:41:02.005Z</time></trkpt>
      <trkpt lat="35.556662" lon="128.972491"><ele>1151.2</ele><time>2026-09-20T12:41:47.766Z</time></trkpt>
      <trkpt lat="35.556568" lon="128.972534"><ele>1148.5</ele><time>2026-09-20T12:42:03.826Z</time></trkpt>
      <trkpt lat="35.556414" lon="128.972505"><ele>1145.7</ele><time>2026-09-20T12:42:28.773Z</time></trkpt>
      <trkpt lat="35.556340" lon="128.972479"><ele>1142.8</ele><time>2026-09-20T12:42:41.096Z</time></trkpt>
      <trkpt lat="35.556302" lon="128.972471"><ele>1139.8</ele><time>2026-09-20T12:42:47.269Z</time></trkpt>
      <trkpt lat="35.556204" lon="128.972516"><ele>1136.3</ele><time>2026-09-20T12:43:04.020Z</time></trkpt>
      <trkpt lat="35.556191" lon="128.972488"><ele>1132.3</ele><time>2026-09-20T12:43:08.220Z</time></trkpt>
      <trkpt lat="35.556112" lon="128.972529"><ele>1127.5</ele><time>2026-09-20T12:43:21.951Z</time></trkpt>
      <trkpt lat="35.555986" lon="128.972510"><ele>1121.8</ele><time>2026-09-20T12:43:42.277Z</time></trkpt>
      <trkpt lat="35.555924" lon="128.972498"><ele>1115.2</ele><time>2026-09-20T12:43:52.327Z</time></trkpt>
      <trkpt lat="35.555788" lon="128.972722"><ele>1107.8</ele><time>2026-09-20T12:44:28.737Z</time></trkpt>
      <trkpt lat="35.555677" lon="128.973039"><ele>1100.0</ele><time>2026-09-20T12:45:13.693Z</time></trkpt>
      <trkpt lat="35.555367" lon="128.973270"><ele>1092.2</ele><time>2026-09-20T12:46:11.740Z</time></trkpt>
      <trkpt lat="35.555059" lon="128.973392"><ele>1084.6</ele><time>2026-09-20T12:47:03.554Z</time></trkpt>
      <trkpt lat="35.554745" lon="128.973463"><ele>1077.7</ele><time>2026-09-20T12:47:54.676Z</time></trkpt>
      <trkpt lat="35.554686" lon="128.973559"><ele>1071.7</ele><time>2026-09-20T12:48:10.349Z</time></trkpt>
      <trkpt lat="35.554568" lon="128.973536"><ele>1066.7</ele><time>2026-09-20T12:48:29.479Z</time></trkpt>
      <trkpt lat="35.554489" lon="128.973497"><ele>1062.6</ele><time>2026-09-20T12:48:43.111Z</time></trkpt>
      <trkpt lat="35.554370" lon="128.973493"><ele>1059.1</ele><time>2026-09-20T12:49:02.172Z</time></trkpt>
      <trkpt lat="35.554261" lon="128.973501"><ele>1056.0</ele><time>2026-09-20T12:49:19.657Z</time></trkpt>
      <trkpt lat="35.554183" lon="128.973549"><ele>1053.1</ele><time>2026-09-20T12:49:33.624Z</time></trkpt>
      <trkpt lat="35.554097" lon="128.973587"><ele>1050.2</ele><time>2026-09-20T12:49:48.257Z</time></trkpt>
      <trkpt lat="35.553999" lon="128.973573"><ele>1046.9</ele><time>2026-09-20T12:50:04.054Z</time></trkpt>
      <trkpt lat="35.553892" lon="128.973597"><ele>1043.4</ele><time>2026-09-20T12:50:21.470Z</time></trkpt>
      <trkpt lat="35.553679" lon="128.973798"><ele>1039.4</ele><time>2026-09-20T12:51:04.468Z</time></trkpt>
      <trkpt lat="35.553561" lon="128.973853"><ele>1035.2</ele><time>2026-09-20T12:51:24.675Z</time></trkpt>
      <trkpt lat="35.553148" lon="128.973954"><ele>1031.2</ele><time>2026-09-20T12:52:32.101Z</time></trkpt>
      <trkpt lat="35.553010" lon="128.974087"><ele>1027.4</ele><time>2026-09-20T12:53:00.181Z</time></trkpt>
      <trkpt lat="35.552868" lon="128.974295"><ele>1025.4</ele><time>2026-09-20T12:53:35.553Z</time></trkpt>
      <trkpt lat="35.552750" lon="128.974392"><ele>1023.6</ele><time>2026-09-20T12:53:58.283Z</time></trkpt>
      <trkpt lat="35.552670" lon="128.974482"><time>2026-09-20T12:54:15.648Z</time></trkpt>
      <trkpt lat="35.552492" lon="128.974727"><time>2026-09-20T12:54:58.438Z</time></trkpt>
      <trkpt lat="35.552464" lon="128.974884"><time>2026-09-20T12:55:19.377Z</time></trkpt>
      <trkpt lat="35.552463" lon="128.975039"><time>2026-09-20T12:55:39.569Z</time></trkpt>
      <trkpt lat="35.552397" lon="128.975127"><time>2026-09-20T12:55:55.161Z</time></trkpt>
      <trkpt lat="35.552347" lon="128.975182"><time>2026-09-20T12:56:05.905Z</time></trkpt>
      <trkpt lat="35.552138" lon="128.975225"><time>2026-09-20T12:56:39.836Z</time></trkpt>
      <trkpt lat="35.552054" lon="128.975421"><time>2026-09-20T12:57:08.695Z</time></trkpt>
      <trkpt lat="35.551888" lon="128.975525"><time>2026-09-20T12:57:38.529Z</time></trkpt>
      <trkpt lat="35.551783" lon="128.975703"><ele>985.7</ele><time>2026-09-20T12:58:07.171Z</time></trkpt>
      <trkpt lat="35.551783" lon="128.975966"><ele>989.4</ele><time>2026-09-20T12:58:41.433Z</time></trkpt>
      <trkpt lat="35.551696" lon="128.976131"><ele>985.7</ele><time>2026-09-20T12:59:07.047Z</time></trkpt>
      <trkpt lat="35.551644" lon="128.976231"><ele>983.9</ele><time>2026-09-20T12:59:22.508Z</time></trkpt>
      <trkpt lat="35.551575" lon="128.976406"><ele>982.7</ele><time>2026-09-20T12:59:47.842Z</time></trkpt>
      <trkpt lat="35.551529" lon="128.976534"><ele>976.7</ele><time>2026-09-20T13:00:06.071Z</time></trkpt>
      <trkpt lat="35.551498" lon="128.976752"><ele>970.8</ele><time>2026-09-20T13:00:34.901Z</time></trkpt>
      <trkpt lat="35.551477" lon="128.976820"><ele>970.7</ele><time>2026-09-20T13:00:44.376Z</time></trkpt>
      <trkpt lat="35.551458" lon="128.976885"><ele>970.7</ele><time>2026-09-20T13:00:53.374Z</time></trkpt>
      <trkpt lat="35.551393" lon="128.976880"><ele>970.8</ele><time>2026-09-20T13:01:03.802Z</time></trkpt>
      <trkpt lat="35.551458" lon="128.976885"><ele>970.9</ele><time>2026-09-20T13:01:14.231Z</time></trkpt>
      <trkpt lat="35.551381" lon="128.977141"><ele>970.9</ele><time>2026-09-20T13:01:49.787Z</time></trkpt>
      <trkpt lat="35.551337" lon="128.977298"><ele>970.9</ele><time>2026-09-20T13:02:11.419Z</time></trkpt>
      <trkpt lat="35.551390" lon="128.977355"><ele>971.0</ele><time>2026-09-20T13:02:22.695Z</time></trkpt>
      <trkpt lat="35.551441" lon="128.977552"><ele>971.1</ele><time>2026-09-20T13:02:49.627Z</time></trkpt>
      <trkpt lat="35.551339" lon="128.977645"><ele>971.3</ele><time>2026-09-20T13:03:09.962Z</time></trkpt>
      <trkpt lat="35.551289" lon="128.977696"><ele>971.7</ele><time>2026-09-20T13:03:20.366Z</time></trkpt>
      <trkpt lat="35.551243" lon="128.977779"><ele>972.2</ele><time>2026-09-20T13:03:33.449Z</time></trkpt>
      <trkpt lat="35.551158" lon="128.977921"><ele>973.7</ele><time>2026-09-20T13:03:56.415Z</time></trkpt>
      <trkpt lat="35.551123" lon="128.977985"><ele>976.3</ele><time>2026-09-20T13:04:06.461Z</time></trkpt>
      <trkpt lat="35.550966" lon="128.978200"><ele>980.1</ele><time>2026-09-20T13:04:44.097Z</time></trkpt>
      <trkpt lat="35.550808" lon="128.978416"><ele>985.3</ele><time>2026-09-20T13:05:21.937Z</time></trkpt>
      <trkpt lat="35.550597" lon="128.978579"><ele>992.1</ele><time>2026-09-20T13:06:01.842Z</time></trkpt>
      <trkpt lat="35.550296" lon="128.978733"><ele>999.1</ele><time>2026-09-20T13:06:54.047Z</time></trkpt>
      <trkpt lat="35.549995" lon="128.978887"><ele>1005.9</ele><time>2026-09-20T13:07:46.252Z</time></trkpt>
      <trkpt lat="35.549826" lon="128.978945"><ele>1011.4</ele><time>2026-09-20T13:08:14.348Z</time></trkpt>
      <trkpt lat="35.549657" lon="128.978967"><ele>1015.6</ele><time>2026-09-20T13:08:41.559Z</time></trkpt>
      <trkpt lat="35.549494" lon="128.978929"><ele>1018.3</ele><time>2026-09-20T13:09:08.125Z</time></trkpt>
      <trkpt lat="35.549445" lon="128.979017"><ele>1019.7</ele><time>2026-09-20T13:09:22.017Z</time></trkpt>
      <trkpt lat="35.549395" lon="128.979141"><ele>1020.0</ele><time>2026-09-20T13:09:40.046Z</time></trkpt>
      <trkpt lat="35.549312" lon="128.979357"><ele>1020.6</ele><time>2026-09-20T13:10:11.166Z</time></trkpt>
      <trkpt lat="35.549173" lon="128.979579"><ele>1020.9</ele><time>2026-09-20T13:10:47.660Z</time></trkpt>
      <trkpt lat="35.549034" lon="128.979800"><ele>1022.7</ele><time>2026-09-20T13:11:24.051Z</time></trkpt>
      <trkpt lat="35.548846" lon="128.979948"><ele>1027.0</ele><time>2026-09-20T13:11:59.799Z</time></trkpt>
      <trkpt lat="35.548834" lon="128.980105"><ele>1031.3</ele><time>2026-09-20T13:12:20.343Z</time></trkpt>
      <trkpt lat="35.548787" lon="128.980207"><ele>1034.6</ele><time>2026-09-20T13:12:35.614Z</time></trkpt>
      <trkpt lat="35.548712" lon="128.980269"><ele>1036.2</ele><time>2026-09-20T13:12:50.087Z</time></trkpt>
      <trkpt lat="35.548631" lon="128.980314"><time>2026-09-20T13:13:04.320Z</time></trkpt>
      <trkpt lat="35.548541" lon="128.980277"><time>2026-09-20T13:13:19.516Z</time></trkpt>
      <trkpt lat="35.548387" lon="128.980163"><time>2026-09-20T13:13:48.302Z</time></trkpt>
      <trkpt lat="35.548348" lon="128.980141"><time>2026-09-20T13:13:55.173Z</time></trkpt>
      <trkpt lat="35.548347" lon="128.980141"><time>2026-09-20T13:13:55.333Z</time></trkpt>
      <trkpt lat="35.548305" lon="128.980161"><time>2026-09-20T13:14:02.545Z</time></trkpt>
      <trkpt lat="35.548193" lon="128.980256"><time>2026-09-20T13:14:24.334Z</time></trkpt>
      <trkpt lat="35.547991" lon="128.980401"><time>2026-09-20T13:15:01.791Z</time></trkpt>
      <trkpt lat="35.547787" lon="128.980333"><ele>1073.5</ele><time>2026-09-20T13:15:35.636Z</time></trkpt>
      <trkpt lat="35.547714" lon="128.980373"><ele>1074.5</ele><time>2026-09-20T13:15:48.434Z</time></trkpt>
      <trkpt lat="35.547645" lon="128.980614"><ele>1076.4</ele><time>2026-09-20T13:16:21.718Z</time></trkpt>
      <trkpt lat="35.547551" lon="128.980648"><ele>1078.1</ele><time>2026-09-20T13:16:37.408Z</time></trkpt>
      <trkpt lat="35.547475" lon="128.980638"><ele>1080.0</ele><time>2026-09-20T13:16:49.646Z</time></trkpt>
      <trkpt lat="35.547298" lon="128.980653"><ele>1081.5</ele><time>2026-09-20T13:17:18.055Z</time></trkpt>
      <trkpt lat="35.547267" lon="128.980687"><ele>1082.9</ele><time>2026-09-20T13:17:24.708Z</time></trkpt>
      <trkpt lat="35.547260" lon="128.980811"><ele>1084.2</ele><time>2026-09-20T13:17:40.901Z</time></trkpt>
      <trkpt lat="35.547171" lon="128.980894"><ele>1085.5</ele><time>2026-09-20T13:17:58.790Z</time></trkpt>
      <trkpt lat="35.547115" lon="128.981016"><ele>1086.9</ele><time>2026-09-20T13:18:17.039Z</time></trkpt>
      <trkpt lat="35.547050" lon="128.981101"><ele>1088.2</ele><time>2026-09-20T13:18:32.236Z</time></trkpt>
      <trkpt lat="35.546833" lon="128.981223"><ele>1089.5</ele><time>2026-09-20T13:19:10.445Z</time></trkpt>
      <trkpt lat="35.546691" lon="128.981136"><ele>1090.8</ele><time>2026-09-20T13:19:35.851Z</time></trkpt>
      <trkpt lat="35.546604" lon="128.981068"><ele>1092.0</ele><time>2026-09-20T13:19:52.360Z</time></trkpt>
      <trkpt lat="35.546514" lon="128.981019"><ele>1093.1</ele><time>2026-09-20T13:20:08.121Z</time></trkpt>
      <trkpt lat="35.546431" lon="128.981020"><ele>1094.0</ele><time>2026-09-20T13:20:21.412Z</time></trkpt>
      <trkpt lat="35.546348" lon="128.981044"><ele>1094.8</ele><time>2026-09-20T13:20:35.065Z</time></trkpt>
      <trkpt lat="35.546286" lon="128.981015"><ele>1095.5</ele><time>2026-09-20T13:20:45.687Z</time></trkpt>
      <trkpt lat="35.545960" lon="128.980833"><ele>1096.1</ele><time>2026-09-20T13:21:43.019Z</time></trkpt>
      <trkpt lat="35.545912" lon="128.980785"><ele>1096.7</ele><time>2026-09-20T13:21:52.928Z</time></trkpt>
      <trkpt lat="35.545838" lon="128.980764"><ele>1097.2</ele><time>2026-09-20T13:22:05.089Z</time></trkpt>
      <trkpt lat="35.545829" lon="128.980706"><ele>1097.9</ele><time>2026-09-20T13:22:12.781Z</time></trkpt>
      <trkpt lat="35.545609" lon="128.980700"><ele>1098.7</ele><time>2026-09-20T13:22:48.016Z</time></trkpt>
      <trkpt lat="35.545458" lon="128.980699"><ele>1099.7</ele><time>2026-09-20T13:23:12.195Z</time></trkpt>
      <trkpt lat="35.545390" lon="128.980672"><ele>1100.8</ele><time>2026-09-20T13:23:23.637Z</time></trkpt>
      <trkpt lat="35.545391" lon="128.980596"><ele>1101.9</ele><time>2026-09-20T13:23:33.540Z</time></trkpt>
      <trkpt lat="35.545387" lon="128.980590"><ele>1103.0</ele><time>2026-09-20T13:23:34.551Z</time></trkpt>
      <trkpt lat="35.545391" lon="128.980596"><ele>1103.8</ele><time>2026-09-20T13:23:35.561Z</time></trkpt>
      <trkpt lat="35.545364" lon="128.980600"><ele>1104.4</ele><time>2026-09-20T13:23:39.916Z</time></trkpt>
      <trkpt lat="35.545303" lon="128.980600"><ele>1104.4</ele><time>2026-09-20T13:23:49.635Z</time></trkpt>
      <trkpt lat="35.545277" lon="128.980650"><ele>1104.0</ele><time>2026-09-20T13:23:57.403Z</time></trkpt>
      <trkpt lat="35.545240" lon="128.980650"><ele>1103.1</ele><time>2026-09-20T13:24:03.327Z</time></trkpt>
      <trkpt lat="35.545223" lon="128.980650"><ele>1101.6</ele><time>2026-09-20T13:24:06.049Z</time></trkpt>
      <trkpt lat="35.545177" lon="128.980590"><ele>1099.8</ele><time>2026-09-20T13:24:16.790Z</time></trkpt>
      <trkpt lat="35.545110" lon="128.980600"><ele>1095.4</ele><time>2026-09-20T13:24:27.597Z</time></trkpt>
      <trkpt lat="35.545033" lon="128.980700"><ele>1092.9</ele><time>2026-09-20T13:24:45.534Z</time></trkpt>
      <trkpt lat="35.545006" lon="128.980800"><ele>1090.4</ele><time>2026-09-20T13:24:59.261Z</time></trkpt>
      <trkpt lat="35.544914" lon="128.980870"><ele>1087.7</ele><time>2026-09-20T13:25:16.587Z</time></trkpt>
      <trkpt lat="35.544777" lon="128.980930"><ele>1085.1</ele><time>2026-09-20T13:25:39.874Z</time></trkpt>
      <trkpt lat="35.544624" lon="128.980930"><ele>1079.6</ele><time>2026-09-20T13:26:04.373Z</time></trkpt>
      <trkpt lat="35.544453" lon="128.980960"><ele>1073.7</ele><time>2026-09-20T13:26:32.031Z</time></trkpt>
      <trkpt lat="35.544280" lon="128.981020"><ele>1070.6</ele><time>2026-09-20T13:27:00.814Z</time></trkpt>
      <trkpt lat="35.544228" lon="128.981200"><ele>1063.9</ele><time>2026-09-20T13:27:25.699Z</time></trkpt>
      <trkpt lat="35.544212" lon="128.981370"><ele>1057.0</ele><time>2026-09-20T13:27:47.995Z</time></trkpt>
      <trkpt lat="35.544136" lon="128.981500"><ele>1050.0</ele><time>2026-09-20T13:28:08.851Z</time></trkpt>
      <trkpt lat="35.544070" lon="128.981570"><ele>1046.4</ele><time>2026-09-20T13:28:22.810Z</time></trkpt>
      <trkpt lat="35.544064" lon="128.981700"><ele>1042.7</ele><time>2026-09-20T13:28:39.774Z</time></trkpt>
      <trkpt lat="35.544064" lon="128.981570"><ele>1028.6</ele><time>2026-09-20T13:28:56.711Z</time></trkpt>
      <trkpt lat="35.543810" lon="128.981740"><ele>1022.3</ele><time>2026-09-20T13:29:43.022Z</time></trkpt>
      <trkpt lat="35.543648" lon="128.981810"><ele>1015.1</ele><time>2026-09-20T13:30:10.518Z</time></trkpt>
      <trkpt lat="35.543587" lon="128.981950"><ele>1007.1</ele><time>2026-09-20T13:30:31.209Z</time></trkpt>
      <trkpt lat="35.543280" lon="128.982210"><ele>998.5</ele><time>2026-09-20T13:31:30.907Z</time></trkpt>
      <trkpt lat="35.542890" lon="128.982740"><ele>989.6</ele><time>2026-09-20T13:33:04.008Z</time></trkpt>
      <trkpt lat="35.542810" lon="128.982850"><ele>980.6</ele><time>2026-09-20T13:33:23.230Z</time></trkpt>
      <trkpt lat="35.542637" lon="128.982910"><ele>971.7</ele><time>2026-09-20T13:33:52.013Z</time></trkpt>
      <trkpt lat="35.542545" lon="128.983100"><ele>962.9</ele><time>2026-09-20T13:34:20.819Z</time></trkpt>
      <trkpt lat="35.542470" lon="128.983220"><ele>954.1</ele><time>2026-09-20T13:34:40.533Z</time></trkpt>
      <trkpt lat="35.542366" lon="128.983300"><ele>945.0</ele><time>2026-09-20T13:35:00.179Z</time></trkpt>
      <trkpt lat="35.542190" lon="128.983230"><ele>935.5</ele><time>2026-09-20T13:35:29.799Z</time></trkpt>
      <trkpt lat="35.541813" lon="128.983250"><ele>925.6</ele><time>2026-09-20T13:36:30.221Z</time></trkpt>
      <trkpt lat="35.541668" lon="128.983170"><ele>915.4</ele><time>2026-09-20T13:36:55.671Z</time></trkpt>
      <trkpt lat="35.541565" lon="128.983170"><ele>904.9</ele><time>2026-09-20T13:37:12.163Z</time></trkpt>
      <trkpt lat="35.541233" lon="128.983110"><ele>894.7</ele><time>2026-09-20T13:38:05.895Z</time></trkpt>
      <trkpt lat="35.540974" lon="128.983120"><ele>885.0</ele><time>2026-09-20T13:38:47.387Z</time></trkpt>
      <trkpt lat="35.540630" lon="128.983060"><ele>876.3</ele><time>2026-09-20T13:39:43.020Z</time></trkpt>
      <trkpt lat="35.540493" lon="128.983200"><ele>869.2</ele><time>2026-09-20T13:40:11.550Z</time></trkpt>
      <trkpt lat="35.540400" lon="128.983260"><ele>863.6</ele><time>2026-09-20T13:40:28.368Z</time></trkpt>
      <trkpt lat="35.540245" lon="128.983520"><ele>860.8</ele><time>2026-09-20T13:41:10.362Z</time></trkpt>
      <trkpt lat="35.539663" lon="128.983770"><time>2026-09-20T13:42:49.081Z</time></trkpt>
      <trkpt lat="35.539358" lon="128.983803"><time>2026-09-20T13:43:38.107Z</time></trkpt>
      <trkpt lat="35.539161" lon="128.983851"><time>2026-09-20T13:44:10.265Z</time></trkpt>
      <trkpt lat="35.539063" lon="128.983999"><time>2026-09-20T13:44:35.126Z</time></trkpt>
      <trkpt lat="35.538628" lon="128.984138"><time>2026-09-20T13:45:47.095Z</time></trkpt>
      <trkpt lat="35.538492" lon="128.984209"><time>2026-09-20T13:46:10.755Z</time></trkpt>
      <trkpt lat="35.538330" lon="128.984389"><time>2026-09-20T13:46:45.725Z</time></trkpt>
      <trkpt lat="35.538203" lon="128.984485"><time>2026-09-20T13:47:09.599Z</time></trkpt>
      <trkpt lat="35.538095" lon="128.984593"><time>2026-09-20T13:47:31.894Z</time></trkpt>
      <trkpt lat="35.538018" lon="128.984653"><time>2026-09-20T13:47:46.493Z</time></trkpt>
      <trkpt lat="35.537798" lon="128.984720"><time>2026-09-20T13:48:22.785Z</time></trkpt>
      <trkpt lat="35.537576" lon="128.984767"><time>2026-09-20T13:48:58.855Z</time></trkpt>
      <trkpt lat="35.537485" lon="128.984751"><time>2026-09-20T13:49:13.575Z</time></trkpt>
      <trkpt lat="35.537403" lon="128.984782"><time>2026-09-20T13:49:27.312Z</time></trkpt>
      <trkpt lat="35.537316" lon="128.984717"><time>2026-09-20T13:49:43.615Z</time></trkpt>
      <trkpt lat="35.537253" lon="128.984720"><time>2026-09-20T13:49:53.710Z</time></trkpt>
      <trkpt lat="35.537128" lon="128.984785"><time>2026-09-20T13:50:15.443Z</time></trkpt>
      <trkpt lat="35.537037" lon="128.984774"><time>2026-09-20T13:50:30.085Z</time></trkpt>
      <trkpt lat="35.536934" lon="128.984840"><time>2026-09-20T13:50:48.684Z</time></trkpt>
      <trkpt lat="35.536850" lon="128.984867"><time>2026-09-20T13:51:02.587Z</time></trkpt>
      <trkpt lat="35.536783" lon="128.984930"><time>2026-09-20T13:51:16.095Z</time></trkpt>
      <trkpt lat="35.536608" lon="128.985003"><time>2026-09-20T13:51:45.687Z</time></trkpt>
      <trkpt lat="35.536423" lon="128.984929"><time>2026-09-20T13:52:16.839Z</time></trkpt>
      <trkpt lat="35.536338" lon="128.984892"><time>2026-09-20T13:52:31.278Z</time></trkpt>
      <trkpt lat="35.536180" lon="128.985105"><time>2026-09-20T13:53:08.832Z</time></trkpt>
      <trkpt lat="35.536030" lon="128.985410"><ele>727.8</ele><time>2026-09-20T13:53:55.267Z</time></trkpt>
      <trkpt lat="35.535873" lon="128.985380"><ele>727.5</ele><time>2026-09-20T13:54:20.708Z</time></trkpt>
      <trkpt lat="35.535660" lon="128.985320"><ele>726.6</ele><time>2026-09-20T13:54:55.698Z</time></trkpt>
      <trkpt lat="35.535540" lon="128.985600"><ele>725.0</ele><time>2026-09-20T13:55:36.932Z</time></trkpt>
      <trkpt lat="35.535583" lon="128.985960"><ele>720.2</ele><time>2026-09-20T13:56:24.342Z</time></trkpt>
      <trkpt lat="35.535763" lon="128.986300"><ele>714.6</ele><time>2026-09-20T13:57:17.194Z</time></trkpt>
      <trkpt lat="35.535946" lon="128.986770"><ele>712.4</ele><time>2026-09-20T13:58:25.084Z</time></trkpt>
      <trkpt lat="35.535720" lon="128.987030"><ele>710.0</ele><time>2026-09-20T13:59:14.654Z</time></trkpt>
      <trkpt lat="35.535385" lon="128.986900"><ele>707.6</ele><time>2026-09-20T14:00:10.906Z</time></trkpt>
      <trkpt lat="35.535046" lon="128.986710"><ele>705.3</ele><time>2026-09-20T14:01:10.566Z</time></trkpt>
      <trkpt lat="35.534420" lon="128.986420"><ele>703.1</ele><time>2026-09-20T14:02:57.687Z</time></trkpt>
      <trkpt lat="35.534077" lon="128.986420"><ele>696.4</ele><time>2026-09-20T14:03:52.609Z</time></trkpt>
      <trkpt lat="35.533770" lon="128.986530"><ele>694.0</ele><time>2026-09-20T14:04:43.813Z</time></trkpt>
      <trkpt lat="35.533443" lon="128.986570"><ele>692.8</ele><time>2026-09-20T14:05:36.431Z</time></trkpt>
      <trkpt lat="35.533207" lon="128.986880"><ele>689.6</ele><time>2026-09-20T14:06:31.745Z</time></trkpt>
      <trkpt lat="35.533080" lon="128.986830"><ele>684.3</ele><time>2026-09-20T14:06:53.098Z</time></trkpt>
      <trkpt lat="35.533195" lon="128.986540"><ele>676.0</ele><time>2026-09-20T14:07:35.134Z</time></trkpt>
      <trkpt lat="35.533154" lon="128.986370"><ele>671.0</ele><time>2026-09-20T14:07:58.238Z</time></trkpt>
      <trkpt lat="35.533283" lon="128.986240"><ele>665.6</ele><time>2026-09-20T14:08:24.951Z</time></trkpt>
      <trkpt lat="35.533318" lon="128.986130"><ele>660.1</ele><time>2026-09-20T14:08:40.341Z</time></trkpt>
      <trkpt lat="35.533463" lon="128.985720"><ele>654.7</ele><time>2026-09-20T14:09:38.592Z</time></trkpt>
      <trkpt lat="35.533436" lon="128.985720"><ele>649.7</ele><time>2026-09-20T14:09:42.915Z</time></trkpt>
      <trkpt lat="35.533470" lon="128.985630"><ele>645.1</ele><time>2026-09-20T14:09:55.844Z</time></trkpt>
      <trkpt lat="35.533066" lon="128.985260"><ele>634.5</ele><time>2026-09-20T14:11:16.523Z</time></trkpt>
      <trkpt lat="35.533100" lon="128.985060"><ele>631.9</ele><time>2026-09-20T14:11:43.146Z</time></trkpt>
      <trkpt lat="35.533120" lon="128.984880"><ele>629.7</ele><time>2026-09-20T14:12:06.818Z</time></trkpt>
      <trkpt lat="35.533092" lon="128.984700"><ele>627.6</ele><time>2026-09-20T14:12:30.698Z</time></trkpt>
      <trkpt lat="35.532818" lon="128.984570"><ele>620.7</ele><time>2026-09-20T14:13:17.727Z</time></trkpt>
      <trkpt lat="35.532536" lon="128.984540"><ele>614.8</ele><time>2026-09-20T14:14:03.050Z</time></trkpt>
      <trkpt lat="35.532430" lon="128.984560"><ele>611.8</ele><time>2026-09-20T14:14:20.222Z</time></trkpt>
      <trkpt lat="35.532160" lon="128.984280"><ele>609.0</ele><time>2026-09-20T14:15:16.792Z</time></trkpt>
      <trkpt lat="35.532104" lon="128.984000"><ele>606.4</ele><time>2026-09-20T14:15:54.363Z</time></trkpt>
      <trkpt lat="35.532030" lon="128.983660"><ele>602.1</ele><time>2026-09-20T14:16:40.224Z</time></trkpt>
      <trkpt lat="35.532097" lon="128.983440"><ele>599.9</ele><time>2026-09-20T14:17:10.833Z</time></trkpt>
      <trkpt lat="35.531948" lon="128.983030"><ele>594.2</ele><time>2026-09-20T14:18:09.343Z</time></trkpt>
      <trkpt lat="35.531880" lon="128.982990"><ele>590.5</ele><time>2026-09-20T14:18:21.414Z</time></trkpt>
      <trkpt lat="35.531876" lon="128.982960"><ele>586.1</ele><time>2026-09-20T14:18:25.376Z</time></trkpt>
      <trkpt lat="35.531826" lon="128.982700"><ele>581.1</ele><time>2026-09-20T14:19:00.188Z</time></trkpt>
      <trkpt lat="35.531815" lon="128.982570"><ele>570.1</ele><time>2026-09-20T14:19:17.219Z</time></trkpt>
      <trkpt lat="35.531826" lon="128.982450"><ele>564.5</ele><time>2026-09-20T14:19:32.954Z</time></trkpt>
      <trkpt lat="35.531870" lon="128.982220"><ele>558.9</ele><time>2026-09-20T14:20:03.742Z</time></trkpt>
      <trkpt lat="35.531902" lon="128.982130"><ele>553.6</ele><time>2026-09-20T14:20:16.540Z</time></trkpt>
      <trkpt lat="35.531906" lon="128.982000"><ele>548.6</ele><time>2026-09-20T14:20:33.491Z</time></trkpt>
      <trkpt lat="35.531760" lon="128.981670"><ele>539.6</ele><time>2026-09-20T14:21:22.436Z</time></trkpt>
      <trkpt lat="35.531754" lon="128.981610"><ele>535.6</ele><time>2026-09-20T14:21:30.313Z</time></trkpt>
      <trkpt lat="35.531403" lon="128.981480"><ele>531.8</ele><time>2026-09-20T14:22:29.013Z</time></trkpt>
      <trkpt lat="35.531013" lon="128.981350"><ele>524.2</ele><time>2026-09-20T14:23:33.717Z</time></trkpt>
      <trkpt lat="35.530740" lon="128.981200"><ele>515.8</ele><time>2026-09-20T14:24:21.600Z</time></trkpt>
      <trkpt lat="35.530420" lon="128.981020"><ele>511.1</ele><time>2026-09-20T14:25:17.952Z</time></trkpt>
      <trkpt lat="35.530178" lon="128.980710"><ele>500.9</ele><time>2026-09-20T14:26:13.928Z</time></trkpt>
      <trkpt lat="35.530090" lon="128.980470"><ele>495.4</ele><time>2026-09-20T14:26:48.230Z</time></trkpt>
      <trkpt lat="35.529987" lon="128.980270"><ele>483.6</ele><time>2026-09-20T14:27:19.071Z</time></trkpt>
      <trkpt lat="35.530040" lon="128.980010"><ele>470.9</ele><time>2026-09-20T14:27:53.998Z</time></trkpt>
      <trkpt lat="35.529950" lon="128.979750"><ele>464.4</ele><time>2026-09-20T14:28:30.816Z</time></trkpt>
      <trkpt lat="35.529860" lon="128.979500"><ele>451.8</ele><time>2026-09-20T14:29:06.438Z</time></trkpt>
      <trkpt lat="35.529740" lon="128.979000"><ele>441.6</ele><time>2026-09-20T14:30:14.366Z</time></trkpt>
      <trkpt lat="35.529920" lon="128.978710"><ele>434.8</ele><time>2026-09-20T14:31:01.892Z</time></trkpt>
      <trkpt lat="35.530018" lon="128.978420"><ele>429.0</ele><time>2026-09-20T14:31:42.810Z</time></trkpt>
      <trkpt lat="35.530087" lon="128.977950"><ele>425.1</ele><time>2026-09-20T14:32:45.044Z</time></trkpt>
      <trkpt lat="35.530140" lon="128.977620"><ele>419.6</ele><time>2026-09-20T14:33:28.875Z</time></trkpt>
      <trkpt lat="35.530212" lon="128.977070"><ele>416.3</ele><time>2026-09-20T14:34:41.465Z</time></trkpt>
      <trkpt lat="35.530357" lon="128.976730"><ele>408.9</ele><time>2026-09-20T14:35:31.485Z</time></trkpt>
      <trkpt lat="35.530487" lon="128.976490"><ele>401.6</ele><time>2026-09-20T14:36:09.052Z</time></trkpt>
      <trkpt lat="35.530340" lon="128.976100"><ele>398.3</ele><time>2026-09-20T14:37:05.059Z</time></trkpt>
      <trkpt lat="35.530315" lon="128.975780"><ele>395.3</ele><time>2026-09-20T14:37:46.949Z</time></trkpt>
      <trkpt lat="35.530083" lon="128.975740"><ele>390.0</ele><time>2026-09-20T14:38:24.461Z</time></trkpt>
      <trkpt lat="35.530037" lon="128.975570"><ele>387.4</ele><time>2026-09-20T14:38:47.805Z</time></trkpt>
      <trkpt lat="35.530045" lon="128.975390"><ele>381.5</ele><time>2026-09-20T14:39:11.296Z</time></trkpt>
      <trkpt lat="35.529903" lon="128.975170"><ele>373.3</ele><time>2026-09-20T14:39:47.886Z</time></trkpt>
      <trkpt lat="35.529873" lon="128.974960"><ele>368.2</ele><time>2026-09-20T14:40:15.669Z</time></trkpt>
      <trkpt lat="35.529697" lon="128.974800"><ele>362.4</ele><time>2026-09-20T14:40:50.724Z</time></trkpt>
      <trkpt lat="35.529575" lon="128.974530"><ele>349.2</ele><time>2026-09-20T14:41:30.967Z</time></trkpt>
      <trkpt lat="35.529575" lon="128.974170"><ele>342.1</ele><time>2026-09-20T14:42:17.878Z</time></trkpt>
      <trkpt lat="35.529410" lon="128.974010"><ele>327.8</ele><time>2026-09-20T14:42:51.534Z</time></trkpt>
      <trkpt lat="35.529236" lon="128.973570"><ele>321.1</ele><time>2026-09-20T14:43:55.280Z</time></trkpt>
      <trkpt lat="35.529310" lon="128.973250"><ele>308.8</ele><time>2026-09-20T14:44:38.630Z</time></trkpt>
      <trkpt lat="35.529236" lon="128.972690"><ele>303.5</ele><time>2026-09-20T14:45:52.559Z</time></trkpt>
      <trkpt lat="35.529095" lon="128.972090"><ele>298.7</ele><time>2026-09-20T14:47:13.939Z</time></trkpt>
      <trkpt lat="35.528862" lon="128.971480"><ele>290.7</ele><time>2026-09-20T14:48:41.748Z</time></trkpt>
      <trkpt lat="35.528595" lon="128.971120"><ele>287.5</ele><time>2026-09-20T14:49:45.218Z</time></trkpt>
      <trkpt lat="35.528316" lon="128.970760"><ele>284.7</ele><time>2026-09-20T14:50:49.998Z</time></trkpt>
      <trkpt lat="35.528050" lon="128.970140"><ele>278.0</ele><time>2026-09-20T14:52:21.330Z</time></trkpt>
      <trkpt lat="35.527687" lon="128.969510"><ele>277.3</ele><time>2026-09-20T14:54:01.919Z</time></trkpt>
      <trkpt lat="35.527430" lon="128.969000"><ele>276.8</ele><time>2026-09-20T14:55:20.087Z</time></trkpt>
      <trkpt lat="35.527500" lon="128.968300"><ele>276.1</ele><time>2026-09-20T14:56:51.992Z</time></trkpt>
      <trkpt lat="35.527344" lon="128.967820"><ele>273.8</ele><time>2026-09-20T14:57:59.345Z</time></trkpt>
      <trkpt lat="35.527767" lon="128.967360"><ele>264.1</ele><time>2026-09-20T14:59:29.792Z</time></trkpt>
      <trkpt lat="35.528034" lon="128.966870"><ele>260.6</ele><time>2026-09-20T15:00:46.636Z</time></trkpt>
      <trkpt lat="35.528160" lon="128.966340"><ele>256.8</ele><time>2026-09-20T15:01:58.587Z</time></trkpt>
      <trkpt lat="35.528313" lon="128.965440"><ele>253.0</ele><time>2026-09-20T15:03:58.398Z</time></trkpt>
      <trkpt lat="35.528637" lon="128.964800"><ele>239.0</ele><time>2026-09-20T15:05:36.616Z</time></trkpt>
      <trkpt lat="35.528843" lon="128.964220"><ele>235.7</ele><time>2026-09-20T15:06:59.080Z</time></trkpt>
      <trkpt lat="35.529260" lon="128.963750"><ele>232.4</ele><time>2026-09-20T15:08:29.685Z</time></trkpt>
      <trkpt lat="35.529780" lon="128.963360"><ele>225.8</ele><time>2026-09-20T15:10:07.232Z</time></trkpt>
      <trkpt lat="35.530110" lon="128.962770"><ele>222.6</ele><time>2026-09-20T15:11:40.521Z</time></trkpt>
      <trkpt lat="35.530266" lon="128.962360"><ele>219.6</ele><time>2026-09-20T15:12:39.499Z</time></trkpt>
      <trkpt lat="35.530754" lon="128.961790"><ele>214.4</ele><time>2026-09-20T15:14:27.306Z</time></trkpt>
      <trkpt lat="35.531380" lon="128.961620"><ele>210.2</ele><time>2026-09-20T15:16:09.960Z</time></trkpt>
      <trkpt lat="35.531754" lon="128.960940"><ele>207.0</ele><time>2026-09-20T15:17:56.907Z</time></trkpt>
      <trkpt lat="35.531630" lon="128.960190"><ele>202.6</ele><time>2026-09-20T15:19:36.632Z</time></trkpt>
      <trkpt lat="35.531870" lon="128.959660"><ele>201.9</ele><time>2026-09-20T15:20:55.666Z</time></trkpt>
      <trkpt lat="35.531669" lon="128.959255"><time>2026-09-20T15:21:57.479Z</time></trkpt>
      <trkpt lat="35.531640" lon="128.959132"><time>2026-09-20T15:22:14.166Z</time></trkpt>
      <trkpt lat="35.531636" lon="128.958988"><time>2026-09-20T15:22:32.941Z</time></trkpt>
      <trkpt lat="35.531661" lon="128.958867"><time>2026-09-20T15:22:49.208Z</time></trkpt>
      <trkpt lat="35.531720" lon="128.958676"><time>2026-09-20T15:23:15.829Z</time></trkpt>
      <trkpt lat="35.531959" lon="128.958131"><time>2026-09-20T15:24:36.500Z</time></trkpt>
      <trkpt lat="35.531960" lon="128.958020"><time>2026-09-20T15:24:50.965Z</time></trkpt>
      <trkpt lat="35.532043" lon="128.957847"><time>2026-09-20T15:25:17.133Z</time></trkpt>
      <trkpt lat="35.532333" lon="128.957416"><time>2026-09-20T15:26:30.005Z</time></trkpt>
      <trkpt lat="35.532652" lon="128.957050"><time>2026-09-20T15:27:39.887Z</time></trkpt>
      <trkpt lat="35.532677" lon="128.957022"><time>2026-09-20T15:27:45.303Z</time></trkpt>
    </trkseg>
  </trk>
</gpx>