<?xml version="1.0" encoding="UTF-8"?>
<gpx version="1.1" creator="gajago-nav" xmlns="http://www.topografix.com/GPX/1/1">
  <metadata><name>재약산_B코스_nav</name></metadata>
  <wpt lat="35.581002" lon="129.027054">
    <name>들머리 (배내고개)</name>
    <ele>734</ele>
  </wpt>
  <wpt lat="35.584317" lon="129.019913">
    <name>갈림길</name>
  </wpt>
  <wpt lat="35.583720" lon="129.018380">
    <name>능동산</name>
    <ele>983</ele>
  </wpt>
  <wpt lat="35.583148" lon="129.016632">
    <name>갈림길</name>
  </wpt>
  <wpt lat="35.582504" lon="129.014322">
    <name>약수터</name>
  </wpt>
  <wpt lat="35.582042" lon="129.012279">
    <name>갈림길</name>
  </wpt>
  <wpt lat="35.580390" lon="129.008800">
    <name>능동2봉</name>
    <ele>969</ele>
  </wpt>
  <wpt lat="35.568799" lon="128.994866">
    <name>갈림길</name>
  </wpt>
  <wpt lat="35.568415" lon="128.992377">
    <name>얼음골</name>
  </wpt>
  <wpt lat="35.566740" lon="128.991250">
    <name>갈림길</name>
  </wpt>
  <wpt lat="35.565317" lon="128.988246">
    <name>갈림길</name>
  </wpt>
  <wpt lat="35.565492" lon="128.986106">
    <name>샘물상회</name>
  </wpt>
  <wpt lat="35.564824" lon="128.981428">
    <name>얼음골삼거리</name>
  </wpt>
  <wpt lat="35.563445" lon="128.976353">
    <name>갈림길</name>
  </wpt>
  <wpt lat="35.561010" lon="128.971675">
    <name>갈림길</name>
  </wpt>
  <wpt lat="35.559334" lon="128.971718">
    <name>갈림길</name>
  </wpt>
  <wpt lat="35.557930" lon="128.972200">
    <name>천황산</name>
    <ele>1189</ele>
  </wpt>
  <wpt lat="35.551390" lon="128.976890">
    <name>천황재</name>
  </wpt>
  <wpt lat="35.548532" lon="128.973915">
    <name>갈림길</name>
  </wpt>
  <wpt lat="35.544466" lon="128.976355">
    <name>갈림길</name>
  </wpt>
  <wpt lat="35.543790" lon="128.977490">
    <name>진불암</name>
  </wpt>
  <wpt lat="35.539129" lon="128.965434">
    <name>갈림길</name>
  </wpt>
  <wpt lat="35.537232" lon="128.962888">
    <name>갈림길</name>
  </wpt>
  <wpt lat="35.535927" lon="128.960045">
    <name>갈림길</name>
  </wpt>
  <wpt lat="35.533919" lon="128.959809">
    <name>표충사</name>
  </wpt>
  <wpt lat="35.532893" lon="128.959064">
    <name>갈림길</name>
  </wpt>
  <wpt lat="35.532671" lon="128.956897">
    <name>날머리 (상가주차장)</name>
    <ele>209</ele>
  </wpt>
  <trk>
    <name>재약산_B코스_nav</name>
    <trkseg>
      <trkpt lat="35.581002" lon="129.027054"><ele>734.3</ele><time>2026-09-20T13:12:08.444Z</time></trkpt>
      <trkpt lat="35.581059" lon="129.026962"><ele>735.8</ele><time>2026-09-20T13:12:23.505Z</time></trkpt>
      <trkpt lat="35.581123" lon="129.026871"><ele>736.8</ele><time>2026-09-20T13:12:39.171Z</time></trkpt>
      <trkpt lat="35.581191" lon="129.026789"><ele>739.9</ele><time>2026-09-20T13:12:54.422Z</time></trkpt>
      <trkpt lat="35.581342" lon="129.026708"><ele>746.0</ele><time>2026-09-20T13:13:20.801Z</time></trkpt>
      <trkpt lat="35.581422" lon="129.026687"><ele>749.3</ele><time>2026-09-20T13:13:33.899Z</time></trkpt>
      <trkpt lat="35.581508" lon="129.026649"><ele>753.1</ele><time>2026-09-20T13:13:48.532Z</time></trkpt>
      <trkpt lat="35.581683" lon="129.026622"><ele>756.0</ele><time>2026-09-20T13:14:16.773Z</time></trkpt>
      <trkpt lat="35.581772" lon="129.026620"><ele>759.3</ele><time>2026-09-20T13:14:31.026Z</time></trkpt>
      <trkpt lat="35.581855" lon="129.026595"><ele>762.5</ele><time>2026-09-20T13:14:44.709Z</time></trkpt>
      <trkpt lat="35.581985" lon="129.026449"><ele>765.4</ele><time>2026-09-20T13:15:12.901Z</time></trkpt>
      <trkpt lat="35.582035" lon="129.026346"><ele>768.4</ele><time>2026-09-20T13:15:28.521Z</time></trkpt>
      <trkpt lat="35.582090" lon="129.026251"><ele>771.7</ele><time>2026-09-20T13:15:43.707Z</time></trkpt>
      <trkpt lat="35.582138" lon="129.026155"><ele>774.0</ele><time>2026-09-20T13:15:58.382Z</time></trkpt>
      <trkpt lat="35.582193" lon="129.026056"><ele>776.5</ele><time>2026-09-20T13:16:13.995Z</time></trkpt>
      <trkpt lat="35.582236" lon="129.025958"><ele>783.2</ele><time>2026-09-20T13:16:28.496Z</time></trkpt>
      <trkpt lat="35.582350" lon="129.025801"><ele>786.8</ele><time>2026-09-20T13:16:55.904Z</time></trkpt>
      <trkpt lat="35.582423" lon="129.025724"><ele>792.5</ele><time>2026-09-20T13:17:11.304Z</time></trkpt>
      <trkpt lat="35.582495" lon="129.025647"><ele>799.1</ele><time>2026-09-20T13:17:26.583Z</time></trkpt>
      <trkpt lat="35.582645" lon="129.025508"><ele>806.7</ele><time>2026-09-20T13:17:56.658Z</time></trkpt>
      <trkpt lat="35.582776" lon="129.025375"><ele>815.4</ele><time>2026-09-20T13:18:23.860Z</time></trkpt>
      <trkpt lat="35.582972" lon="129.025215"><ele>824.3</ele><time>2026-09-20T13:19:01.531Z</time></trkpt>
      <trkpt lat="35.583118" lon="129.025119"><ele>832.3</ele><time>2026-09-20T13:19:28.041Z</time></trkpt>
      <trkpt lat="35.583201" lon="129.025079"><ele>839.5</ele><time>2026-09-20T13:19:42.315Z</time></trkpt>
      <trkpt lat="35.583280" lon="129.025034"><ele>845.7</ele><time>2026-09-20T13:19:56.256Z</time></trkpt>
      <trkpt lat="35.583351" lon="129.024966"><ele>851.1</ele><time>2026-09-20T13:20:10.667Z</time></trkpt>
      <trkpt lat="35.583466" lon="129.024844"><ele>856.3</ele><time>2026-09-20T13:20:34.987Z</time></trkpt>
      <trkpt lat="35.583534" lon="129.024800"><ele>861.2</ele><time>2026-09-20T13:20:47.291Z</time></trkpt>
      <trkpt lat="35.583606" lon="129.024743"><ele>866.2</ele><time>2026-09-20T13:21:01.002Z</time></trkpt>
      <trkpt lat="35.583679" lon="129.024670"><ele>869.6</ele><time>2026-09-20T13:21:16.068Z</time></trkpt>
      <trkpt lat="35.583752" lon="129.024601"><ele>872.9</ele><time>2026-09-20T13:21:30.812Z</time></trkpt>
      <trkpt lat="35.583827" lon="129.024542"><ele>878.3</ele><time>2026-09-20T13:21:45.068Z</time></trkpt>
      <trkpt lat="35.583878" lon="129.024481"><ele>880.4</ele><time>2026-09-20T13:21:56.460Z</time></trkpt>
      <trkpt lat="35.583927" lon="129.024414"><ele>887.8</ele><time>2026-09-20T13:22:08.194Z</time></trkpt>
      <trkpt lat="35.584009" lon="129.024249"><ele>891.3</ele><time>2026-09-20T13:22:33.375Z</time></trkpt>
      <trkpt lat="35.584038" lon="129.024156"><ele>895.5</ele><time>2026-09-20T13:22:46.345Z</time></trkpt>
      <trkpt lat="35.584061" lon="129.024064"><ele>898.9</ele><time>2026-09-20T13:22:58.878Z</time></trkpt>
      <trkpt lat="35.584110" lon="129.023987"><ele>901.3</ele><time>2026-09-20T13:23:11.610Z</time></trkpt>
      <trkpt lat="35.584159" lon="129.023906"><ele>907.5</ele><time>2026-09-20T13:23:24.756Z</time></trkpt>
      <trkpt lat="35.584245" lon="129.023733"><ele>909.9</ele><time>2026-09-20T13:23:51.159Z</time></trkpt>
      <trkpt lat="35.584284" lon="129.023648"><ele>913.0</ele><time>2026-09-20T13:24:03.868Z</time></trkpt>
      <trkpt lat="35.584306" lon="129.023564"><ele>918.9</ele><time>2026-09-20T13:24:15.360Z</time></trkpt>
      <trkpt lat="35.584334" lon="129.023474"><ele>921.8</ele><time>2026-09-20T13:24:27.908Z</time></trkpt>
      <trkpt lat="35.584384" lon="129.023276"><ele>924.7</ele><time>2026-09-20T13:24:54.906Z</time></trkpt>
      <trkpt lat="35.584410" lon="129.023175"><ele>927.5</ele><time>2026-09-20T13:25:08.701Z</time></trkpt>
      <trkpt lat="35.584430" lon="129.023073"><ele>933.5</ele><time>2026-09-20T13:25:22.364Z</time></trkpt>
      <trkpt lat="35.584470" lon="129.022869"><ele>936.5</ele><time>2026-09-20T13:25:49.690Z</time></trkpt>
      <trkpt lat="35.584495" lon="129.022772"><ele>939.7</ele><time>2026-09-20T13:26:02.940Z</time></trkpt>
      <trkpt lat="35.584621" lon="129.022646"><ele>942.8</ele><time>2026-09-20T13:26:28.945Z</time></trkpt>
      <trkpt lat="35.584660" lon="129.022596"><ele>945.4</ele><time>2026-09-20T13:26:37.967Z</time></trkpt>
      <trkpt lat="35.584677" lon="129.022522"><ele>948.5</ele><time>2026-09-20T13:26:47.980Z</time></trkpt>
      <trkpt lat="35.584671" lon="129.022427"><ele>951.5</ele><time>2026-09-20T13:27:00.388Z</time></trkpt>
      <trkpt lat="35.584674" lon="129.022213"><ele>955.2</ele><time>2026-09-20T13:27:28.259Z</time></trkpt>
      <trkpt lat="35.584607" lon="129.021999"><ele>959.2</ele><time>2026-09-20T13:27:58.120Z</time></trkpt>
      <trkpt lat="35.584513" lon="129.021815"><ele>963.2</ele><time>2026-09-20T13:28:26.416Z</time></trkpt>
      <trkpt lat="35.584444" lon="129.021610"><ele>966.5</ele><time>2026-09-20T13:28:55.307Z</time></trkpt>
      <trkpt lat="35.584364" lon="129.021391"><ele>969.9</ele><time>2026-09-20T13:29:26.569Z</time></trkpt>
      <trkpt lat="35.584310" lon="129.021295"><ele>972.9</ele><time>2026-09-20T13:29:41.769Z</time></trkpt>
      <trkpt lat="35.584231" lon="129.021113"><ele>976.0</ele><time>2026-09-20T13:30:08.634Z</time></trkpt>
      <trkpt lat="35.584202" lon="129.021018"><ele>979.6</ele><time>2026-09-20T13:30:21.848Z</time></trkpt>
      <trkpt lat="35.584104" lon="129.020853"><ele>983.8</ele><time>2026-09-20T13:30:48.454Z</time></trkpt>
      <trkpt lat="35.584057" lon="129.020661"><ele>987.9</ele><time>2026-09-20T13:31:14.564Z</time></trkpt>
      <trkpt lat="35.584077" lon="129.020448"><ele>991.8</ele><time>2026-09-20T13:31:42.485Z</time></trkpt>
      <trkpt lat="35.584109" lon="129.020251"><ele>995.4</ele><time>2026-09-20T13:32:08.645Z</time></trkpt>
      <trkpt lat="35.584131" lon="129.020161"><ele>987.7</ele><time>2026-09-20T13:32:20.883Z</time></trkpt>
      <trkpt lat="35.584173" lon="129.020075"><ele>979.2</ele><time>2026-09-20T13:32:33.946Z</time></trkpt>
      <trkpt lat="35.584298" lon="129.019954"><ele>980.8</ele><time>2026-09-20T13:32:59.419Z</time></trkpt>
      <trkpt lat="35.584245" lon="129.019814"><ele>963.2</ele><time>2026-09-20T13:33:19.528Z</time></trkpt>
      <trkpt lat="35.584246" lon="129.019718"><ele>966.1</ele><time>2026-09-20T13:33:32.031Z</time></trkpt>
      <trkpt lat="35.584133" lon="129.019464"><ele>977.3</ele><time>2026-09-20T13:34:09.732Z</time></trkpt>
      <trkpt lat="35.584048" lon="129.019297"><ele>970.4</ele><time>2026-09-20T13:34:35.387Z</time></trkpt>
      <trkpt lat="35.583961" lon="129.019124"><ele>974.1</ele><time>2026-09-20T13:35:01.874Z</time></trkpt>
      <trkpt lat="35.583918" lon="129.018831"><ele>976.5</ele><time>2026-09-20T13:35:40.645Z</time></trkpt>
      <trkpt lat="35.583880" lon="129.018746"><ele>978.0</ele><time>2026-09-20T13:35:53.276Z</time></trkpt>
      <trkpt lat="35.583798" lon="129.018587"><ele>971.3</ele><time>2026-09-20T13:36:17.793Z</time></trkpt>
      <trkpt lat="35.583785" lon="129.018475"><ele>979.0</ele><time>2026-09-20T13:36:32.525Z</time></trkpt>
      <trkpt lat="35.583752" lon="129.018374"><ele>981.3</ele><time>2026-09-20T13:36:46.699Z</time></trkpt>
      <trkpt lat="35.583707" lon="129.018283"><ele>981.3</ele><time>2026-09-20T13:37:00.568Z</time></trkpt>
      <trkpt lat="35.583631" lon="129.017970"><ele>982.0</ele><time>2026-09-20T13:37:43.105Z</time></trkpt>
      <trkpt lat="35.583677" lon="129.017822"><ele>982.0</ele><time>2026-09-20T13:38:03.737Z</time></trkpt>
      <trkpt lat="35.583597" lon="129.017637"><ele>974.4</ele><time>2026-09-20T13:38:31.022Z</time></trkpt>
      <trkpt lat="35.583575" lon="129.017426"><ele>969.5</ele><time>2026-09-20T13:38:58.723Z</time></trkpt>
      <trkpt lat="35.583604" lon="129.017249"><ele>968.6</ele><time>2026-09-20T13:39:22.236Z</time></trkpt>
      <trkpt lat="35.583616" lon="129.017131"><ele>966.5</ele><time>2026-09-20T13:39:37.721Z</time></trkpt>
      <trkpt lat="35.583494" lon="129.016947"><ele>961.1</ele><time>2026-09-20T13:40:08.636Z</time></trkpt>
      <trkpt lat="35.583438" lon="129.016861"><ele>956.0</ele><time>2026-09-20T13:40:22.983Z</time></trkpt>
      <trkpt lat="35.583168" lon="129.016641"><ele>952.9</ele><time>2026-09-20T13:41:14.846Z</time></trkpt>
      <trkpt lat="35.583081" lon="129.016478"><ele>941.8</ele><time>2026-09-20T13:41:40.235Z</time></trkpt>
      <trkpt lat="35.583005" lon="129.016277"><ele>939.8</ele><time>2026-09-20T13:42:09.100Z</time></trkpt>
      <trkpt lat="35.582977" lon="129.016174"><ele>936.1</ele><time>2026-09-20T13:42:23.243Z</time></trkpt>
      <trkpt lat="35.583030" lon="129.016092"><ele>931.5</ele><time>2026-09-20T13:42:36.882Z</time></trkpt>
      <trkpt lat="35.582890" lon="129.015610"><ele>923.9</ele><time>2026-09-20T13:43:43.532Z</time></trkpt>
      <trkpt lat="35.582813" lon="129.015375"><ele>915.4</ele><time>2026-09-20T13:44:16.525Z</time></trkpt>
      <trkpt lat="35.582500" lon="129.014748"><ele>907.2</ele><time>2026-09-20T13:45:52.329Z</time></trkpt>
      <trkpt lat="35.582434" lon="129.014445"><ele>900.7</ele><time>2026-09-20T13:46:33.177Z</time></trkpt>
      <trkpt lat="35.582465" lon="129.014360"><ele>896.3</ele><time>2026-09-20T13:46:45.308Z</time></trkpt>
      <trkpt lat="35.582525" lon="129.014206"><ele>899.7</ele><time>2026-09-20T13:47:07.545Z</time></trkpt>
      <trkpt lat="35.582473" lon="129.012994"><ele>901.9</ele><time>2026-09-20T13:49:45.594Z</time></trkpt>
      <trkpt lat="35.582342" lon="129.012543"><ele>904.2</ele><time>2026-09-20T13:50:47.958Z</time></trkpt>
      <trkpt lat="35.582064" lon="129.012271"><ele>906.5</ele><time>2026-09-20T13:51:44.845Z</time></trkpt>
      <trkpt lat="35.581984" lon="129.012064"><ele>911.1</ele><time>2026-09-20T13:52:14.690Z</time></trkpt>
      <trkpt lat="35.581800" lon="129.011951"><ele>915.7</ele><time>2026-09-20T13:52:47.622Z</time></trkpt>
      <trkpt lat="35.581547" lon="129.011831"><ele>921.6</ele><time>2026-09-20T13:53:31.043Z</time></trkpt>
      <trkpt lat="35.581403" lon="129.011654"><ele>927.4</ele><time>2026-09-20T13:54:03.645Z</time></trkpt>
      <trkpt lat="35.581286" lon="129.011450"><ele>932.8</ele><time>2026-09-20T13:54:36.152Z</time></trkpt>
      <trkpt lat="35.581236" lon="129.011363"><ele>936.0</ele><time>2026-09-20T13:54:50.025Z</time></trkpt>
      <trkpt lat="35.581190" lon="129.011073"><ele>938.2</ele><time>2026-09-20T13:55:28.502Z</time></trkpt>
      <trkpt lat="35.581149" lon="129.010712"><ele>940.1</ele><time>2026-09-20T13:56:15.969Z</time></trkpt>
      <trkpt lat="35.580896" lon="129.010479"><ele>942.9</ele><time>2026-09-20T13:57:06.583Z</time></trkpt>
      <trkpt lat="35.580637" lon="129.010217"><ele>945.9</ele><time>2026-09-20T13:58:00.286Z</time></trkpt>
      <trkpt lat="35.580453" lon="129.009672"><ele>949.6</ele><time>2026-09-20T13:59:17.131Z</time></trkpt>
      <trkpt lat="35.580366" lon="129.009268"><ele>953.6</ele><time>2026-09-20T14:00:11.556Z</time></trkpt>
      <trkpt lat="35.580389" lon="129.008858"><ele>956.6</ele><time>2026-09-20T14:01:05.075Z</time></trkpt>
      <trkpt lat="35.580194" lon="129.008617"><ele>957.8</ele><time>2026-09-20T14:01:49.346Z</time></trkpt>
      <trkpt lat="35.580075" lon="129.008479"><ele>957.2</ele><time>2026-09-20T14:02:15.538Z</time></trkpt>
      <trkpt lat="35.579954" lon="129.008407"><ele>955.4</ele><time>2026-09-20T14:02:37.062Z</time></trkpt>
      <trkpt lat="35.579844" lon="129.008339"><ele>953.3</ele><time>2026-09-20T14:02:56.776Z</time></trkpt>
      <trkpt lat="35.579686" lon="129.008287"><ele>952.6</ele><time>2026-09-20T14:03:22.966Z</time></trkpt>
      <trkpt lat="35.579537" lon="129.008214"><ele>952.4</ele><time>2026-09-20T14:03:48.648Z</time></trkpt>
      <trkpt lat="35.578939" lon="129.007966"><ele>952.2</ele><time>2026-09-20T14:05:29.701Z</time></trkpt>
      <trkpt lat="35.578795" lon="129.007902"><ele>952.0</ele><time>2026-09-20T14:05:54.218Z</time></trkpt>
      <trkpt lat="35.578501" lon="129.007555"><ele>951.5</ele><time>2026-09-20T14:06:59.473Z</time></trkpt>
      <trkpt lat="35.578375" lon="129.007364"><ele>949.6</ele><time>2026-09-20T14:07:31.500Z</time></trkpt>
      <trkpt lat="35.578150" lon="129.007201"><ele>947.5</ele><time>2026-09-20T14:08:13.316Z</time></trkpt>
      <trkpt lat="35.578099" lon="129.006981"><ele>945.2</ele><time>2026-09-20T14:08:43.108Z</time></trkpt>
      <trkpt lat="35.578049" lon="129.006833"><ele>942.8</ele><time>2026-09-20T14:09:03.978Z</time></trkpt>
      <trkpt lat="35.577963" lon="129.006664"><ele>940.2</ele><time>2026-09-20T14:09:29.940Z</time></trkpt>
      <trkpt lat="35.577874" lon="129.006550"><ele>937.4</ele><time>2026-09-20T14:09:50.519Z</time></trkpt>
      <trkpt lat="35.577778" lon="129.006424"><ele>934.3</ele><time>2026-09-20T14:10:13.003Z</time></trkpt>
      <trkpt lat="35.577692" lon="129.006340"><ele>930.9</ele><time>2026-09-20T14:10:30.590Z</time></trkpt>
      <trkpt lat="35.577641" lon="129.006255"><ele>927.5</ele><time>2026-09-20T14:10:44.346Z</time></trkpt>
      <trkpt lat="35.577619" lon="129.006137"><ele>923.9</ele><time>2026-09-20T14:11:00.112Z</time></trkpt>
      <trkpt lat="35.577573" lon="129.005983"><ele>921.0</ele><time>2026-09-20T14:11:21.477Z</time></trkpt>
      <trkpt lat="35.577489" lon="129.005848"><ele>918.1</ele><time>2026-09-20T14:11:43.613Z</time></trkpt>
      <trkpt lat="35.577434" lon="129.005783"><ele>911.7</ele><time>2026-09-20T14:11:55.828Z</time></trkpt>
      <trkpt lat="35.577363" lon="129.005774"><ele>908.4</ele><time>2026-09-20T14:12:07.257Z</time></trkpt>
      <trkpt lat="35.577237" lon="129.005569"><ele>905.0</ele><time>2026-09-20T14:12:40.720Z</time></trkpt>
      <trkpt lat="35.577024" lon="129.005349"><ele>901.9</ele><time>2026-09-20T14:13:25.263Z</time></trkpt>
      <trkpt lat="35.576788" lon="129.005162"><ele>899.0</ele><time>2026-09-20T14:14:10.219Z</time></trkpt>
      <trkpt lat="35.576333" lon="129.004702"><ele>896.1</ele><time>2026-09-20T14:15:44.542Z</time></trkpt>
      <trkpt lat="35.576192" lon="129.004537"><ele>892.5</ele><time>2026-09-20T14:16:15.710Z</time></trkpt>
      <trkpt lat="35.576038" lon="129.004238"><ele>888.9</ele><time>2026-09-20T14:17:01.801Z</time></trkpt>
      <trkpt lat="35.575726" lon="129.003776"><ele>885.7</ele><time>2026-09-20T14:18:20.005Z</time></trkpt>
      <trkpt lat="35.575418" lon="129.003452"><ele>883.8</ele><time>2026-09-20T14:19:24.910Z</time></trkpt>
      <trkpt lat="35.575181" lon="129.003277"><ele>883.9</ele><time>2026-09-20T14:20:09.177Z</time></trkpt>
      <trkpt lat="35.574908" lon="129.003153"><ele>885.8</ele><time>2026-09-20T14:20:55.777Z</time></trkpt>
      <trkpt lat="35.574670" lon="129.002926"><ele>887.9</ele><time>2026-09-20T14:21:44.009Z</time></trkpt>
      <trkpt lat="35.574512" lon="129.002850"><ele>890.0</ele><time>2026-09-20T14:22:11.175Z</time></trkpt>
      <trkpt lat="35.574311" lon="129.002814"><ele>891.1</ele><time>2026-09-20T14:22:43.699Z</time></trkpt>
      <trkpt lat="35.574131" lon="129.002729"><ele>891.7</ele><time>2026-09-20T14:23:14.574Z</time></trkpt>
      <trkpt lat="35.573915" lon="129.002237"><ele>892.8</ele><time>2026-09-20T14:24:27.388Z</time></trkpt>
      <trkpt lat="35.573607" lon="129.001892"><ele>893.5</ele><time>2026-09-20T14:25:34.104Z</time></trkpt>
      <trkpt lat="35.573110" lon="129.001259"><ele>894.1</ele><time>2026-09-20T14:27:28.688Z</time></trkpt>
      <trkpt lat="35.572901" lon="129.000770"><ele>895.4</ele><time>2026-09-20T14:28:40.632Z</time></trkpt>
      <trkpt lat="35.572816" lon="129.000412"><ele>896.8</ele><time>2026-09-20T14:29:29.203Z</time></trkpt>
      <trkpt lat="35.572694" lon="129.000270"><ele>897.8</ele><time>2026-09-20T14:29:56.103Z</time></trkpt>
      <trkpt lat="35.572444" lon="129.000113"><ele>899.4</ele><time>2026-09-20T14:30:41.053Z</time></trkpt>
      <trkpt lat="35.572234" lon="128.999872"><ele>900.8</ele><time>2026-09-20T14:31:27.052Z</time></trkpt>
      <trkpt lat="35.572105" lon="128.999577"><ele>901.5</ele><time>2026-09-20T14:32:10.673Z</time></trkpt>
      <trkpt lat="35.571923" lon="128.999105"><ele>902.3</ele><time>2026-09-20T14:33:18.704Z</time></trkpt>
      <trkpt lat="35.571757" lon="128.998768"><ele>903.3</ele><time>2026-09-20T14:34:10.016Z</time></trkpt>
      <trkpt lat="35.571589" lon="128.998577"><ele>904.6</ele><time>2026-09-20T14:34:46.655Z</time></trkpt>
      <trkpt lat="35.571507" lon="128.998482"><ele>906.6</ele><time>2026-09-20T14:35:04.696Z</time></trkpt>
      <trkpt lat="35.571458" lon="128.998363"><ele>909.2</ele><time>2026-09-20T14:35:22.067Z</time></trkpt>
      <trkpt lat="35.571537" lon="128.998313"><ele>911.7</ele><time>2026-09-20T14:35:36.295Z</time></trkpt>
      <trkpt lat="35.571569" lon="128.998185"><ele>914.5</ele><time>2026-09-20T14:35:53.735Z</time></trkpt>
      <trkpt lat="35.571544" lon="128.998092"><ele>917.2</ele><time>2026-09-20T14:36:06.492Z</time></trkpt>
      <trkpt lat="35.571494" lon="128.997962"><ele>920.3</ele><time>2026-09-20T14:36:25.221Z</time></trkpt>
      <trkpt lat="35.571420" lon="128.997876"><ele>924.0</ele><time>2026-09-20T14:36:41.526Z</time></trkpt>
      <trkpt lat="35.571350" lon="128.997769"><ele>927.9</ele><time>2026-09-20T14:36:59.410Z</time></trkpt>
      <trkpt lat="35.571195" lon="128.997600"><ele>931.4</ele><time>2026-09-20T14:37:32.582Z</time></trkpt>
      <trkpt lat="35.571101" lon="128.997506"><ele>934.4</ele><time>2026-09-20T14:37:51.984Z</time></trkpt>
      <trkpt lat="35.571072" lon="128.997419"><ele>936.9</ele><time>2026-09-20T14:38:04.230Z</time></trkpt>
      <trkpt lat="35.570996" lon="128.997307"><ele>938.3</ele><time>2026-09-20T14:38:23.226Z</time></trkpt>
      <trkpt lat="35.570939" lon="128.997235"><ele>939.3</ele><time>2026-09-20T14:38:36.312Z</time></trkpt>
      <trkpt lat="35.570904" lon="128.997105"><ele>940.1</ele><time>2026-09-20T14:38:54.147Z</time></trkpt>
      <trkpt lat="35.570849" lon="128.996963"><ele>940.7</ele><time>2026-09-20T14:39:14.631Z</time></trkpt>
      <trkpt lat="35.570810" lon="128.996913"><ele>941.4</ele><time>2026-09-20T14:39:23.653Z</time></trkpt>
      <trkpt lat="35.570738" lon="128.996873"><ele>941.9</ele><time>2026-09-20T14:39:36.304Z</time></trkpt>
      <trkpt lat="35.570651" lon="128.996766"><ele>942.5</ele><time>2026-09-20T14:39:56.009Z</time></trkpt>
      <trkpt lat="35.570582" lon="128.996728"><ele>943.2</ele><time>2026-09-20T14:40:08.115Z</time></trkpt>
      <trkpt lat="35.570440" lon="128.996630"><ele>943.9</ele><time>2026-09-20T14:40:34.190Z</time></trkpt>
      <trkpt lat="35.570376" lon="128.996606"><ele>944.5</ele><time>2026-09-20T14:40:44.904Z</time></trkpt>
      <trkpt lat="35.570328" lon="128.996536"><ele>945.5</ele><time>2026-09-20T14:40:56.828Z</time></trkpt>
      <trkpt lat="35.570294" lon="128.996489"><ele>946.6</ele><time>2026-09-20T14:41:05.020Z</time></trkpt>
      <trkpt lat="35.570200" lon="128.996397"><ele>948.0</ele><time>2026-09-20T14:41:24.258Z</time></trkpt>
      <trkpt lat="35.570104" lon="128.996324"><ele>949.7</ele><time>2026-09-20T14:41:42.333Z</time></trkpt>
      <trkpt lat="35.570008" lon="128.996253"><ele>952.1</ele><time>2026-09-20T14:42:00.272Z</time></trkpt>
      <trkpt lat="35.569894" lon="128.996182"><ele>954.5</ele><time>2026-09-20T14:42:20.734Z</time></trkpt>
      <trkpt lat="35.569760" lon="128.996086"><ele>957.1</ele><time>2026-09-20T14:42:45.567Z</time></trkpt>
      <trkpt lat="35.569667" lon="128.996041"><ele>959.5</ele><time>2026-09-20T14:43:01.571Z</time></trkpt>
      <trkpt lat="35.569524" lon="128.995968"><ele>961.8</ele><time>2026-09-20T14:43:26.363Z</time></trkpt>
      <trkpt lat="35.569487" lon="128.995915"><ele>963.4</ele><time>2026-09-20T14:43:35.460Z</time></trkpt>
      <trkpt lat="35.569413" lon="128.995807"><ele>964.8</ele><time>2026-09-20T14:43:53.852Z</time></trkpt>
      <trkpt lat="35.569374" lon="128.995765"><ele>965.9</ele><time>2026-09-20T14:44:02.154Z</time></trkpt>
      <trkpt lat="35.569299" lon="128.995683"><ele>967.0</ele><time>2026-09-20T14:44:18.225Z</time></trkpt>
      <trkpt lat="35.569227" lon="128.995603"><ele>967.9</ele><time>2026-09-20T14:44:33.764Z</time></trkpt>
      <trkpt lat="35.569151" lon="128.995538"><ele>968.7</ele><time>2026-09-20T14:44:48.589Z</time></trkpt>
      <trkpt lat="35.569080" lon="128.995510"><ele>969.4</ele><time>2026-09-20T14:45:00.528Z</time></trkpt>
      <trkpt lat="35.569065" lon="128.995470"><ele>969.8</ele><time>2026-09-20T14:45:06.265Z</time></trkpt>
      <trkpt lat="35.569042" lon="128.995394"><ele>969.9</ele><time>2026-09-20T14:45:16.826Z</time></trkpt>
      <trkpt lat="35.569007" lon="128.995274"><ele>969.8</ele><time>2026-09-20T14:45:33.430Z</time></trkpt>
      <trkpt lat="35.568993" lon="128.995143"><ele>969.7</ele><time>2026-09-20T14:45:50.638Z</time></trkpt>
      <trkpt lat="35.569007" lon="128.995026"><ele>969.7</ele><time>2026-09-20T14:46:06.041Z</time></trkpt>
      <trkpt lat="35.568947" lon="128.994979"><ele>969.7</ele><time>2026-09-20T14:46:17.433Z</time></trkpt>
      <trkpt lat="35.568907" lon="128.994967"><ele>969.7</ele><time>2026-09-20T14:46:24.026Z</time></trkpt>
      <trkpt lat="35.568832" lon="128.994936"><ele>970.0</ele><time>2026-09-20T14:46:36.695Z</time></trkpt>
      <trkpt lat="35.568815" lon="128.994676"><ele>976.4</ele><time>2026-09-20T14:47:10.668Z</time></trkpt>
      <trkpt lat="35.568788" lon="128.994409"><ele>982.7</ele><time>2026-09-20T14:47:45.711Z</time></trkpt>
      <trkpt lat="35.568606" lon="128.994160"><ele>989.1</ele><time>2026-09-20T14:48:29.312Z</time></trkpt>
      <trkpt lat="35.568387" lon="128.993974"><ele>995.8</ele><time>2026-09-20T14:49:11.933Z</time></trkpt>
      <trkpt lat="35.568238" lon="128.993830"><ele>1002.1</ele><time>2026-09-20T14:49:42.280Z</time></trkpt>
      <trkpt lat="35.567959" lon="128.993669"><ele>1003.0</ele><time>2026-09-20T14:50:31.631Z</time></trkpt>
      <trkpt lat="35.567547" lon="128.992921"><ele>1003.4</ele><time>2026-09-20T14:52:29.289Z</time></trkpt>
      <trkpt lat="35.567466" lon="128.992747"><ele>1003.5</ele><time>2026-09-20T14:52:55.401Z</time></trkpt>
      <trkpt lat="35.567384" lon="128.992532"><ele>1003.4</ele><time>2026-09-20T14:53:26.330Z</time></trkpt>
      <trkpt lat="35.567293" lon="128.992175"><ele>1003.6</ele><time>2026-09-20T14:54:15.058Z</time></trkpt>
      <trkpt lat="35.567181" lon="128.991976"><ele>1004.3</ele><time>2026-09-20T14:54:46.576Z</time></trkpt>
      <trkpt lat="35.566899" lon="128.991650"><ele>1005.3</ele><time>2026-09-20T14:55:48.558Z</time></trkpt>
      <trkpt lat="35.566717" lon="128.991376"><ele>1006.8</ele><time>2026-09-20T14:56:34.633Z</time></trkpt>
      <trkpt lat="35.566666" lon="128.991287"><ele>1008.9</ele><time>2026-09-20T14:56:48.813Z</time></trkpt>
      <trkpt lat="35.566571" lon="128.991075"><ele>1011.0</ele><time>2026-09-20T14:57:20.338Z</time></trkpt>
      <trkpt lat="35.566406" lon="128.990801"><ele>1012.7</ele><time>2026-09-20T14:58:04.742Z</time></trkpt>
      <trkpt lat="35.566343" lon="128.990718"><ele>1014.7</ele><time>2026-09-20T14:58:19.528Z</time></trkpt>
      <trkpt lat="35.566266" lon="128.990520"><ele>1016.4</ele><time>2026-09-20T14:58:48.113Z</time></trkpt>
      <trkpt lat="35.566280" lon="128.990272"><ele>1017.5</ele><time>2026-09-20T14:59:20.492Z</time></trkpt>
      <trkpt lat="35.566170" lon="128.990131"><ele>1018.6</ele><time>2026-09-20T14:59:45.938Z</time></trkpt>
      <trkpt lat="35.566138" lon="128.989932"><ele>1019.7</ele><time>2026-09-20T15:00:12.360Z</time></trkpt>
      <trkpt lat="35.566136" lon="128.989493"><ele>1021.0</ele><time>2026-09-20T15:01:09.540Z</time></trkpt>
      <trkpt lat="35.565997" lon="128.989063"><ele>1022.2</ele><time>2026-09-20T15:02:09.807Z</time></trkpt>
      <trkpt lat="35.565665" lon="128.988789"><ele>1023.7</ele><time>2026-09-20T15:03:13.836Z</time></trkpt>
      <trkpt lat="35.565592" lon="128.988709"><ele>1025.1</ele><time>2026-09-20T15:03:29.495Z</time></trkpt>
      <trkpt lat="35.565406" lon="128.988347"><ele>1026.1</ele><time>2026-09-20T15:04:25.264Z</time></trkpt>
      <trkpt lat="35.565388" lon="128.988249"><ele>1026.9</ele><time>2026-09-20T15:04:38.350Z</time></trkpt>
      <trkpt lat="35.565406" lon="128.988347"><ele>1027.4</ele><time>2026-09-20T15:04:51.436Z</time></trkpt>
      <trkpt lat="35.565399" lon="128.987689"><ele>1027.7</ele><time>2026-09-20T15:06:17.148Z</time></trkpt>
      <trkpt lat="35.565413" lon="128.987464"><ele>1027.9</ele><time>2026-09-20T15:06:46.540Z</time></trkpt>
      <trkpt lat="35.565518" lon="128.987032"><ele>1028.5</ele><time>2026-09-20T15:07:45.266Z</time></trkpt>
      <trkpt lat="35.565516" lon="128.986917"><ele>1021.0</ele><time>2026-09-20T15:08:00.248Z</time></trkpt>
      <trkpt lat="35.565510" lon="128.986689"><ele>1013.3</ele><time>2026-09-20T15:08:29.961Z</time></trkpt>
      <trkpt lat="35.565548" lon="128.986348"><ele>1007.3</ele><time>2026-09-20T15:09:14.759Z</time></trkpt>
      <trkpt lat="35.565517" lon="128.986243"><ele>1007.3</ele><time>2026-09-20T15:09:29.347Z</time></trkpt>
      <trkpt lat="35.565530" lon="128.986211"><ele>1001.6</ele><time>2026-09-20T15:09:34.069Z</time></trkpt>
      <trkpt lat="35.565516" lon="128.986073"><ele>1004.5</ele><time>2026-09-20T15:09:52.220Z</time></trkpt>
      <trkpt lat="35.565509" lon="128.985769"><ele>1008.5</ele><time>2026-09-20T15:10:31.795Z</time></trkpt>
      <trkpt lat="35.565594" lon="128.985559"><ele>1011.5</ele><time>2026-09-20T15:11:02.347Z</time></trkpt>
      <trkpt lat="35.565596" lon="128.985318"><ele>1010.2</ele><time>2026-09-20T15:11:33.739Z</time></trkpt>
      <trkpt lat="35.565618" lon="128.985115"><ele>1015.8</ele><time>2026-09-20T15:12:00.413Z</time></trkpt>
      <trkpt lat="35.565437" lon="128.984629"><ele>1022.8</ele><time>2026-09-20T15:13:10.034Z</time></trkpt>
      <trkpt lat="35.565221" lon="128.984213"><ele>1029.3</ele><time>2026-09-20T15:14:14.316Z</time></trkpt>
      <trkpt lat="35.565258" lon="128.983401"><ele>1035.4</ele><time>2026-09-20T15:16:00.245Z</time></trkpt>
      <trkpt lat="35.565279" lon="128.983218"><ele>1040.0</ele><time>2026-09-20T15:16:24.317Z</time></trkpt>
      <trkpt lat="35.565343" lon="128.982979"><ele>1043.5</ele><time>2026-09-20T15:16:57.090Z</time></trkpt>
      <trkpt lat="35.565346" lon="128.982827"><ele>1045.1</ele><time>2026-09-20T15:17:16.894Z</time></trkpt>
      <trkpt lat="35.565395" lon="128.982615"><ele>1046.4</ele><time>2026-09-20T15:17:45.600Z</time></trkpt>
      <trkpt lat="35.565325" lon="128.982386"><ele>1047.4</ele><time>2026-09-20T15:18:17.464Z</time></trkpt>
      <trkpt lat="35.565308" lon="128.982215"><ele>1048.6</ele><time>2026-09-20T15:18:39.903Z</time></trkpt>
      <trkpt lat="35.565271" lon="128.982105"><ele>1049.5</ele><time>2026-09-20T15:18:55.407Z</time></trkpt>
      <trkpt lat="35.565227" lon="128.981925"><ele>1050.1</ele><time>2026-09-20T15:19:19.888Z</time></trkpt>
      <trkpt lat="35.565212" lon="128.981703"><ele>1049.0</ele><time>2026-09-20T15:19:48.903Z</time></trkpt>
      <trkpt lat="35.565048" lon="128.981512"><ele>1049.2</ele><time>2026-09-20T15:20:25.076Z</time></trkpt>
      <trkpt lat="35.564925" lon="128.981318"><ele>1049.1</ele><time>2026-09-20T15:20:57.083Z</time></trkpt>
      <trkpt lat="35.564924" lon="128.981314"><ele>1049.6</ele><time>2026-09-20T15:20:57.665Z</time></trkpt>
      <trkpt lat="35.564823" lon="128.981115"><ele>1051.3</ele><time>2026-09-20T15:21:28.216Z</time></trkpt>
      <trkpt lat="35.564599" lon="128.980790"><ele>1054.8</ele><time>2026-09-20T15:22:23.700Z</time></trkpt>
      <trkpt lat="35.564424" lon="128.980532"><ele>1057.5</ele><time>2026-09-20T15:23:07.455Z</time></trkpt>
      <trkpt lat="35.564336" lon="128.980399"><ele>1060.5</ele><time>2026-09-20T15:23:29.785Z</time></trkpt>
      <trkpt lat="35.564255" lon="128.980270"><ele>1062.9</ele><time>2026-09-20T15:23:51.011Z</time></trkpt>
      <trkpt lat="35.564208" lon="128.980082"><ele>1064.6</ele><time>2026-09-20T15:24:16.629Z</time></trkpt>
      <trkpt lat="35.564175" lon="128.979819"><ele>1065.7</ele><time>2026-09-20T15:24:51.291Z</time></trkpt>
      <trkpt lat="35.564164" lon="128.979465"><ele>1066.4</ele><time>2026-09-20T15:25:37.434Z</time></trkpt>
      <trkpt lat="35.564155" lon="128.979349"><ele>1066.6</ele><time>2026-09-20T15:25:52.611Z</time></trkpt>
      <trkpt lat="35.564097" lon="128.979184"><ele>1066.7</ele><time>2026-09-20T15:26:16.024Z</time></trkpt>
      <trkpt lat="35.564099" lon="128.979028"><ele>1066.4</ele><time>2026-09-20T15:26:36.346Z</time></trkpt>
      <trkpt lat="35.564043" lon="128.978860"><ele>1067.0</ele><time>2026-09-20T15:26:59.994Z</time></trkpt>
      <trkpt lat="35.563971" lon="128.978505"><ele>1068.5</ele><time>2026-09-20T15:27:47.649Z</time></trkpt>
      <trkpt lat="35.563894" lon="128.978237"><ele>1070.2</ele><time>2026-09-20T15:28:24.671Z</time></trkpt>
      <trkpt lat="35.563756" lon="128.978020"><ele>1072.2</ele><time>2026-09-20T15:29:00.548Z</time></trkpt>
      <trkpt lat="35.563704" lon="128.977883"><ele>1074.6</ele><time>2026-09-20T15:29:20.239Z</time></trkpt>
      <trkpt lat="35.563689" lon="128.977768"><ele>1076.5</ele><time>2026-09-20T15:29:35.410Z</time></trkpt>
      <trkpt lat="35.563689" lon="128.977682"><ele>1077.8</ele><time>2026-09-20T15:29:46.611Z</time></trkpt>
      <trkpt lat="35.563732" lon="128.977564"><ele>1078.9</ele><time>2026-09-20T15:30:03.453Z</time></trkpt>
      <trkpt lat="35.563746" lon="128.977424"><ele>1079.9</ele><time>2026-09-20T15:30:21.826Z</time></trkpt>
      <trkpt lat="35.563764" lon="128.977332"><ele>1080.6</ele><time>2026-09-20T15:30:34.151Z</time></trkpt>
      <trkpt lat="35.563711" lon="128.977169"><ele>1081.1</ele><time>2026-09-20T15:30:57.015Z</time></trkpt>
      <trkpt lat="35.563704" lon="128.977027"><ele>1081.3</ele><time>2026-09-20T15:31:15.545Z</time></trkpt>
      <trkpt lat="35.563682" lon="128.976867"><ele>1081.5</ele><time>2026-09-20T15:31:36.681Z</time></trkpt>
      <trkpt lat="35.563663" lon="128.976787"><ele>1082.4</ele><time>2026-09-20T15:31:47.537Z</time></trkpt>
      <trkpt lat="35.563631" lon="128.976650"><ele>1083.4</ele><time>2026-09-20T15:32:06.102Z</time></trkpt>
      <trkpt lat="35.563570" lon="128.976459"><ele>1084.5</ele><time>2026-09-20T15:32:32.830Z</time></trkpt>
      <trkpt lat="35.563548" lon="128.976322"><ele>1086.1</ele><time>2026-09-20T15:32:51.019Z</time></trkpt>
      <trkpt lat="35.563493" lon="128.976210"><ele>1087.9</ele><time>2026-09-20T15:33:08.059Z</time></trkpt>
      <trkpt lat="35.563294" lon="128.975952"><ele>1089.2</ele><time>2026-09-20T15:33:54.369Z</time></trkpt>
      <trkpt lat="35.563139" lon="128.975611"><ele>1090.5</ele><time>2026-09-20T15:34:45.250Z</time></trkpt>
      <trkpt lat="35.563079" lon="128.975509"><ele>1092.3</ele><time>2026-09-20T15:35:01.645Z</time></trkpt>
      <trkpt lat="35.563004" lon="128.975448"><ele>1094.1</ele><time>2026-09-20T15:35:16.045Z</time></trkpt>
      <trkpt lat="35.562832" lon="128.975281"><ele>1096.7</ele><time>2026-09-20T15:35:51.140Z</time></trkpt>
      <trkpt lat="35.562718" lon="128.975104"><ele>1100.1</ele><time>2026-09-20T15:36:20.546Z</time></trkpt>
      <trkpt lat="35.562563" lon="128.974942"><ele>1103.9</ele><time>2026-09-20T15:36:53.123Z</time></trkpt>
      <trkpt lat="35.562467" lon="128.974777"><ele>1107.7</ele><time>2026-09-20T15:37:19.546Z</time></trkpt>
      <trkpt lat="35.562356" lon="128.974707"><ele>1111.6</ele><time>2026-09-20T15:37:39.522Z</time></trkpt>
      <trkpt lat="35.562288" lon="128.974493"><ele>1114.9</ele><time>2026-09-20T15:38:09.448Z</time></trkpt>
      <trkpt lat="35.562241" lon="128.974266"><ele>1117.4</ele><time>2026-09-20T15:38:39.959Z</time></trkpt>
      <trkpt lat="35.562209" lon="128.973991"><ele>1119.8</ele><time>2026-09-20T15:39:16.144Z</time></trkpt>
      <trkpt lat="35.562154" lon="128.973610"><ele>1121.7</ele><time>2026-09-20T15:40:06.546Z</time></trkpt>
      <trkpt lat="35.562149" lon="128.973420"><ele>1123.2</ele><time>2026-09-20T15:40:31.308Z</time></trkpt>
      <trkpt lat="35.562088" lon="128.973244"><ele>1124.6</ele><time>2026-09-20T15:40:56.227Z</time></trkpt>
      <trkpt lat="35.561993" lon="128.973060"><ele>1126.1</ele><time>2026-09-20T15:41:24.614Z</time></trkpt>
      <trkpt lat="35.561914" lon="128.972907"><ele>1128.1</ele><time>2026-09-20T15:41:48.218Z</time></trkpt>
      <trkpt lat="35.561883" lon="128.972766"><ele>1130.3</ele><time>2026-09-20T15:42:07.243Z</time></trkpt>
      <trkpt lat="35.561638" lon="128.972395"><ele>1132.7</ele><time>2026-09-20T15:43:09.487Z</time></trkpt>
      <trkpt lat="35.561494" lon="128.972144"><ele>1135.5</ele><time>2026-09-20T15:43:49.494Z</time></trkpt>
      <trkpt lat="35.561439" lon="128.972030"><ele>1139.2</ele><time>2026-09-20T15:44:06.759Z</time></trkpt>
      <trkpt lat="35.561295" lon="128.971898"><ele>1149.0</ele><time>2026-09-20T15:44:35.521Z</time></trkpt>
      <trkpt lat="35.561047" lon="128.971727"><ele>1151.5</ele><time>2026-09-20T15:45:21.051Z</time></trkpt>
      <trkpt lat="35.560998" lon="128.971711"><ele>1154.1</ele><time>2026-09-20T15:45:29.221Z</time></trkpt>
      <trkpt lat="35.561047" lon="128.971727"><ele>1156.1</ele><time>2026-09-20T15:45:37.391Z</time></trkpt>
      <trkpt lat="35.560910" lon="128.971669"><ele>1157.0</ele><time>2026-09-20T15:46:00.592Z</time></trkpt>
      <trkpt lat="35.560735" lon="128.971661"><ele>1151.2</ele><time>2026-09-20T15:46:28.633Z</time></trkpt>
      <trkpt lat="35.560642" lon="128.971654"><ele>1152.4</ele><time>2026-09-20T15:46:43.552Z</time></trkpt>
      <trkpt lat="35.560542" lon="128.971635"><ele>1153.3</ele><time>2026-09-20T15:46:59.754Z</time></trkpt>
      <trkpt lat="35.560485" lon="128.971623"><ele>1154.1</ele><time>2026-09-20T15:47:09.014Z</time></trkpt>
      <trkpt lat="35.560420" lon="128.971629"><ele>1155.0</ele><time>2026-09-20T15:47:19.451Z</time></trkpt>
      <trkpt lat="35.560270" lon="128.971631"><ele>1156.2</ele><time>2026-09-20T15:47:43.471Z</time></trkpt>
      <trkpt lat="35.560118" lon="128.971655"><ele>1157.5</ele><time>2026-09-20T15:48:08.009Z</time></trkpt>
      <trkpt lat="35.559865" lon="128.971653"><ele>1158.9</ele><time>2026-09-20T15:48:48.520Z</time></trkpt>
      <trkpt lat="35.559760" lon="128.971662"><ele>1160.3</ele><time>2026-09-20T15:49:05.374Z</time></trkpt>
      <trkpt lat="35.559651" lon="128.971715"><ele>1161.7</ele><time>2026-09-20T15:49:24.143Z</time></trkpt>
      <trkpt lat="35.559459" lon="128.971715"><ele>1162.8</ele><time>2026-09-20T15:49:54.886Z</time></trkpt>
      <trkpt lat="35.559367" lon="128.971733"><ele>1164.0</ele><time>2026-09-20T15:50:09.802Z</time></trkpt>
      <trkpt lat="35.559259" lon="128.971769"><ele>1165.2</ele><time>2026-09-20T15:50:27.720Z</time></trkpt>
      <trkpt lat="35.559136" lon="128.971816"><ele>1166.5</ele><time>2026-09-20T15:50:48.345Z</time></trkpt>
      <trkpt lat="35.559054" lon="128.971859"><ele>1167.8</ele><time>2026-09-20T15:51:02.619Z</time></trkpt>
      <trkpt lat="35.558935" lon="128.971950"><ele>1169.1</ele><time>2026-09-20T15:51:25.060Z</time></trkpt>
      <trkpt lat="35.558816" lon="128.971982"><ele>1170.6</ele><time>2026-09-20T15:51:44.565Z</time></trkpt>
      <trkpt lat="35.558747" lon="128.971983"><ele>1172.0</ele><time>2026-09-20T15:51:55.614Z</time></trkpt>
      <trkpt lat="35.558579" lon="128.971974"><ele>1173.3</ele><time>2026-09-20T15:52:22.540Z</time></trkpt>
      <trkpt lat="35.558489" lon="128.971985"><ele>1174.9</ele><time>2026-09-20T15:52:37.022Z</time></trkpt>
      <trkpt lat="35.558395" lon="128.972014"><ele>1176.5</ele><time>2026-09-20T15:52:52.540Z</time></trkpt>
      <trkpt lat="35.558193" lon="128.972105"><ele>1177.6</ele><time>2026-09-20T15:53:26.988Z</time></trkpt>
      <trkpt lat="35.558102" lon="128.972145"><ele>1178.1</ele><time>2026-09-20T15:53:42.463Z</time></trkpt>
      <trkpt lat="35.557955" lon="128.972248"><ele>1178.0</ele><time>2026-09-20T15:54:09.556Z</time></trkpt>
      <trkpt lat="35.557857" lon="128.972275"><ele>1177.0</ele><time>2026-09-20T15:54:25.637Z</time></trkpt>
      <trkpt lat="35.557721" lon="128.972261"><ele>1175.5</ele><time>2026-09-20T15:54:47.490Z</time></trkpt>
      <trkpt lat="35.557593" lon="128.972315"><ele>1173.7</ele><time>2026-09-20T15:55:09.158Z</time></trkpt>
      <trkpt lat="35.557531" lon="128.972300"><ele>1171.3</ele><time>2026-09-20T15:55:19.276Z</time></trkpt>
      <trkpt lat="35.557440" lon="128.972293"><ele>1168.3</ele><time>2026-09-20T15:55:33.876Z</time></trkpt>
      <trkpt lat="35.557224" lon="128.972340"><ele>1165.5</ele><time>2026-09-20T15:56:09.000Z</time></trkpt>
      <trkpt lat="35.557042" lon="128.972349"><ele>1162.7</ele><time>2026-09-20T15:56:38.165Z</time></trkpt>
      <trkpt lat="35.556994" lon="128.972359"><ele>1160.0</ele><time>2026-09-20T15:56:45.961Z</time></trkpt>
      <trkpt lat="35.556974" lon="128.972392"><ele>1156.7</ele><time>2026-09-20T15:56:51.321Z</time></trkpt>
      <trkpt lat="35.556945" lon="128.972442"><ele>1154.0</ele><time>2026-09-20T15:56:59.320Z</time></trkpt>
      <trkpt lat="35.556662" lon="128.972491"><ele>1151.1</ele><time>2026-09-20T15:57:45.082Z</time></trkpt>
      <trkpt lat="35.556568" lon="128.972534"><ele>1148.0</ele><time>2026-09-20T15:58:01.141Z</time></trkpt>
      <trkpt lat="35.556414" lon="128.972505"><ele>1145.0</ele><time>2026-09-20T15:58:26.088Z</time></trkpt>
      <trkpt lat="35.556340" lon="128.972479"><ele>1142.7</ele><time>2026-09-20T15:58:38.411Z</time></trkpt>
      <trkpt lat="35.556302" lon="128.972471"><ele>1140.9</ele><time>2026-09-20T15:58:44.584Z</time></trkpt>
      <trkpt lat="35.556204" lon="128.972516"><ele>1138.7</ele><time>2026-09-20T15:59:01.335Z</time></trkpt>
      <trkpt lat="35.556191" lon="128.972488"><ele>1135.6</ele><time>2026-09-20T15:59:05.535Z</time></trkpt>
      <trkpt lat="35.556112" lon="128.972529"><ele>1132.1</ele><time>2026-09-20T15:59:19.266Z</time></trkpt>
      <trkpt lat="35.555986" lon="128.972510"><ele>1127.2</ele><time>2026-09-20T15:59:39.592Z</time></trkpt>
      <trkpt lat="35.555924" lon="128.972498"><ele>1120.7</ele><time>2026-09-20T15:59:49.642Z</time></trkpt>
      <trkpt lat="35.555788" lon="128.972722"><ele>1112.1</ele><time>2026-09-20T16:00:26.052Z</time></trkpt>
      <trkpt lat="35.555677" lon="128.973039"><ele>1101.2</ele><time>2026-09-20T16:01:11.009Z</time></trkpt>
      <trkpt lat="35.555367" lon="128.973270"><ele>1089.5</ele><time>2026-09-20T16:02:09.055Z</time></trkpt>
      <trkpt lat="35.555059" lon="128.973392"><ele>1079.7</ele><time>2026-09-20T16:03:00.870Z</time></trkpt>
      <trkpt lat="35.554745" lon="128.973463"><ele>1071.1</ele><time>2026-09-20T16:03:51.991Z</time></trkpt>
      <trkpt lat="35.554686" lon="128.973559"><ele>1065.2</ele><time>2026-09-20T16:04:07.664Z</time></trkpt>
      <trkpt lat="35.554568" lon="128.973536"><ele>1062.2</ele><time>2026-09-20T16:04:26.794Z</time></trkpt>
      <trkpt lat="35.554489" lon="128.973497"><ele>1060.3</ele><time>2026-09-20T16:04:40.426Z</time></trkpt>
      <trkpt lat="35.554370" lon="128.973493"><ele>1058.2</ele><time>2026-09-20T16:04:59.487Z</time></trkpt>
      <trkpt lat="35.554261" lon="128.973501"><ele>1056.0</ele><time>2026-09-20T16:05:16.972Z</time></trkpt>
      <trkpt lat="35.554183" lon="128.973549"><ele>1053.7</ele><time>2026-09-20T16:05:30.939Z</time></trkpt>
      <trkpt lat="35.554097" lon="128.973587"><ele>1051.5</ele><time>2026-09-20T16:05:45.572Z</time></trkpt>
      <trkpt lat="35.553999" lon="128.973573"><ele>1048.9</ele><time>2026-09-20T16:06:01.370Z</time></trkpt>
      <trkpt lat="35.553892" lon="128.973597"><ele>1046.1</ele><time>2026-09-20T16:06:18.785Z</time></trkpt>
      <trkpt lat="35.553679" lon="128.973798"><ele>1041.6</ele><time>2026-09-20T16:07:01.783Z</time></trkpt>
      <trkpt lat="35.553561" lon="128.973853"><ele>1036.6</ele><time>2026-09-20T16:07:21.990Z</time></trkpt>
      <trkpt lat="35.553148" lon="128.973954"><ele>1031.1</ele><time>2026-09-20T16:08:29.416Z</time></trkpt>
      <trkpt lat="35.553010" lon="128.974087"><ele>1025.6</ele><time>2026-09-20T16:08:57.496Z</time></trkpt>
      <trkpt lat="35.552868" lon="128.974295"><ele>1020.2</ele><time>2026-09-20T16:09:32.868Z</time></trkpt>
      <trkpt lat="35.552750" lon="128.974392"><ele>1015.6</ele><time>2026-09-20T16:09:55.598Z</time></trkpt>
      <trkpt lat="35.552670" lon="128.974482"><ele>1011.3</ele><time>2026-09-20T16:10:12.963Z</time></trkpt>
      <trkpt lat="35.552492" lon="128.974727"><ele>1007.7</ele><time>2026-09-20T16:10:55.753Z</time></trkpt>
      <trkpt lat="35.552464" lon="128.974884"><ele>1004.5</ele><time>2026-09-20T16:11:16.692Z</time></trkpt>
      <trkpt lat="35.552463" lon="128.975039"><ele>1001.6</ele><time>2026-09-20T16:11:36.884Z</time></trkpt>
      <trkpt lat="35.552397" lon="128.975127"><ele>999.4</ele><time>2026-09-20T16:11:52.476Z</time></trkpt>
      <trkpt lat="35.552347" lon="128.975182"><ele>996.6</ele><time>2026-09-20T16:12:03.220Z</time></trkpt>
      <trkpt lat="35.552138" lon="128.975224"><ele>993.2</ele><time>2026-09-20T16:12:37.130Z</time></trkpt>
      <trkpt lat="35.552054" lon="128.975421"><ele>989.3</ele><time>2026-09-20T16:13:06.104Z</time></trkpt>
      <trkpt lat="35.551888" lon="128.975525"><ele>984.9</ele><time>2026-09-20T16:13:35.938Z</time></trkpt>
      <trkpt lat="35.551783" lon="128.975703"><ele>980.8</ele><time>2026-09-20T16:14:04.580Z</time></trkpt>
      <trkpt lat="35.551783" lon="128.975966"><ele>977.4</ele><time>2026-09-20T16:14:38.842Z</time></trkpt>
      <trkpt lat="35.551723" lon="128.976112"><ele>974.8</ele><time>2026-09-20T16:15:00.150Z</time></trkpt>
      <trkpt lat="35.551665" lon="128.976262"><ele>973.0</ele><time>2026-09-20T16:15:21.786Z</time></trkpt>
      <trkpt lat="35.551575" lon="128.976406"><ele>971.8</ele><time>2026-09-20T16:15:45.442Z</time></trkpt>
      <trkpt lat="35.551529" lon="128.976534"><ele>971.1</ele><time>2026-09-20T16:16:03.671Z</time></trkpt>
      <trkpt lat="35.551498" lon="128.976752"><ele>970.8</ele><time>2026-09-20T16:16:32.501Z</time></trkpt>
      <trkpt lat="35.551477" lon="128.976820"><ele>970.7</ele><time>2026-09-20T16:16:41.976Z</time></trkpt>
      <trkpt lat="35.551460" lon="128.976820"><time>2026-09-20T16:16:44.698Z</time></trkpt>
      <trkpt lat="35.551406" lon="128.976843"><ele>970.7</ele><time>2026-09-20T16:16:53.849Z</time></trkpt>
      <trkpt lat="35.551393" lon="128.976880"><ele>970.7</ele><time>2026-09-20T16:16:59.100Z</time></trkpt>
      <trkpt lat="35.551173" lon="128.976675"><time>2026-09-20T16:17:43.305Z</time></trkpt>
      <trkpt lat="35.551130" lon="128.976595"><time>2026-09-20T16:17:55.796Z</time></trkpt>
      <trkpt lat="35.551113" lon="128.976585"><time>2026-09-20T16:17:58.814Z</time></trkpt>
      <trkpt lat="35.551032" lon="128.976537"><time>2026-09-20T16:18:13.212Z</time></trkpt>
      <trkpt lat="35.550881" lon="128.976466"><time>2026-09-20T16:18:39.099Z</time></trkpt>
      <trkpt lat="35.550736" lon="128.976365"><time>2026-09-20T16:19:05.786Z</time></trkpt>
      <trkpt lat="35.550623" lon="128.976312"><time>2026-09-20T16:19:25.152Z</time></trkpt>
      <trkpt lat="35.550514" lon="128.976219"><time>2026-09-20T16:19:46.398Z</time></trkpt>
      <trkpt lat="35.550347" lon="128.976063"><time>2026-09-20T16:20:19.985Z</time></trkpt>
      <trkpt lat="35.550265" lon="128.975989"><time>2026-09-20T16:20:36.274Z</time></trkpt>
      <trkpt lat="35.550216" lon="128.975967"><time>2026-09-20T16:20:44.627Z</time></trkpt>
      <trkpt lat="35.550175" lon="128.975932"><time>2026-09-20T16:20:52.620Z</time></trkpt>
      <trkpt lat="35.550092" lon="128.975791"><time>2026-09-20T16:21:15.292Z</time></trkpt>
      <trkpt lat="35.549824" lon="128.975528"><time>2026-09-20T16:22:10.205Z</time></trkpt>
      <trkpt lat="35.549408" lon="128.975220"><time>2026-09-20T16:23:27.967Z</time></trkpt>
      <trkpt lat="35.549223" lon="128.974979"><time>2026-09-20T16:24:11.132Z</time></trkpt>
      <trkpt lat="35.549005" lon="128.974470"><time>2026-09-20T16:25:26.069Z</time></trkpt>
      <trkpt lat="35.548544" lon="128.973960"><time>2026-09-20T16:27:05.383Z</time></trkpt>
      <trkpt lat="35.548532" lon="128.973915"><time>2026-09-20T16:27:11.552Z</time></trkpt>
      <trkpt lat="35.548416" lon="128.973955"><time>2026-09-20T16:27:30.844Z</time></trkpt>
      <trkpt lat="35.548307" lon="128.974225"><time>2026-09-20T16:28:10.111Z</time></trkpt>
      <trkpt lat="35.548285" lon="128.974401"><time>2026-09-20T16:28:33.309Z</time></trkpt>
      <trkpt lat="35.548272" lon="128.974658"><time>2026-09-20T16:29:06.855Z</time></trkpt>
      <trkpt lat="35.548224" lon="128.974812"><time>2026-09-20T16:29:28.339Z</time></trkpt>
      <trkpt lat="35.548116" lon="128.975140"><time>2026-09-20T16:30:14.437Z</time></trkpt>
      <trkpt lat="35.548015" lon="128.975320"><time>2026-09-20T16:30:42.923Z</time></trkpt>
      <trkpt lat="35.547942" lon="128.975477"><time>2026-09-20T16:31:06.481Z</time></trkpt>
      <trkpt lat="35.547925" lon="128.975625"><time>2026-09-20T16:31:25.954Z</time></trkpt>
      <trkpt lat="35.547785" lon="128.975885"><time>2026-09-20T16:32:06.572Z</time></trkpt>
      <trkpt lat="35.547726" lon="128.975973"><time>2026-09-20T16:32:21.428Z</time></trkpt>
      <trkpt lat="35.547588" lon="128.976109"><time>2026-09-20T16:32:49.751Z</time></trkpt>
      <trkpt lat="35.547524" lon="128.976201"><time>2026-09-20T16:33:05.520Z</time></trkpt>
      <trkpt lat="35.547451" lon="128.976440"><time>2026-09-20T16:33:38.779Z</time></trkpt>
      <trkpt lat="35.547521" lon="128.976492"><time>2026-09-20T16:33:51.876Z</time></trkpt>
      <trkpt lat="35.547388" lon="128.976650"><time>2026-09-20T16:34:21.494Z</time></trkpt>
      <trkpt lat="35.547264" lon="128.976799"><time>2026-09-20T16:34:49.261Z</time></trkpt>
      <trkpt lat="35.547146" lon="128.976879"><time>2026-09-20T16:35:10.839Z</time></trkpt>
      <trkpt lat="35.547059" lon="128.976901"><time>2026-09-20T16:35:25.062Z</time></trkpt>
      <trkpt lat="35.546987" lon="128.977022"><time>2026-09-20T16:35:44.591Z</time></trkpt>
      <trkpt lat="35.546849" lon="128.977045"><time>2026-09-20T16:36:06.890Z</time></trkpt>
      <trkpt lat="35.546795" lon="128.977062"><time>2026-09-20T16:36:15.816Z</time></trkpt>
      <trkpt lat="35.546699" lon="128.977003"><time>2026-09-20T16:36:33.002Z</time></trkpt>
      <trkpt lat="35.546587" lon="128.977088"><time>2026-09-20T16:36:54.079Z</time></trkpt>
      <trkpt lat="35.546430" lon="128.977314"><time>2026-09-20T16:37:32.795Z</time></trkpt>
      <trkpt lat="35.546369" lon="128.977491"><time>2026-09-20T16:37:57.838Z</time></trkpt>
      <trkpt lat="35.546282" lon="128.977576"><time>2026-09-20T16:38:15.634Z</time></trkpt>
      <trkpt lat="35.546007" lon="128.977798"><time>2026-09-20T16:39:08.316Z</time></trkpt>
      <trkpt lat="35.545941" lon="128.977825"><time>2026-09-20T16:39:19.454Z</time></trkpt>
      <trkpt lat="35.545884" lon="128.977733"><time>2026-09-20T16:39:34.519Z</time></trkpt>
      <trkpt lat="35.545653" lon="128.977535"><time>2026-09-20T16:40:19.614Z</time></trkpt>
      <trkpt lat="35.545431" lon="128.977229"><time>2026-09-20T16:41:13.027Z</time></trkpt>
      <trkpt lat="35.545212" lon="128.977057"><time>2026-09-20T16:41:54.642Z</time></trkpt>
      <trkpt lat="35.545042" lon="128.977036"><time>2026-09-20T16:42:21.999Z</time></trkpt>
      <trkpt lat="35.544915" lon="128.976843"><time>2026-09-20T16:42:54.338Z</time></trkpt>
      <trkpt lat="35.544466" lon="128.976355"><time>2026-09-20T16:44:30.312Z</time></trkpt>
      <trkpt lat="35.544283" lon="128.976521"><time>2026-09-20T16:45:06.731Z</time></trkpt>
      <trkpt lat="35.544125" lon="128.976816"><time>2026-09-20T16:45:52.744Z</time></trkpt>
      <trkpt lat="35.543835" lon="128.977240"><ele>927.7</ele><time>2026-09-20T16:47:04.971Z</time></trkpt>
      <trkpt lat="35.543681" lon="128.977482"><ele>929.0</ele><time>2026-09-20T16:47:44.938Z</time></trkpt>
      <trkpt lat="35.543641" lon="128.977564"><ele>929.8</ele><time>2026-09-20T16:47:57.416Z</time></trkpt>
      <trkpt lat="35.543615" lon="128.977698"><ele>931.4</ele><time>2026-09-20T16:48:15.259Z</time></trkpt>
      <trkpt lat="35.543539" lon="128.977758"><ele>935.6</ele><time>2026-09-20T16:48:29.826Z</time></trkpt>
      <trkpt lat="35.543448" lon="128.977737"><ele>937.8</ele><time>2026-09-20T16:48:44.612Z</time></trkpt>
      <trkpt lat="35.543393" lon="128.977739"><ele>939.2</ele><time>2026-09-20T16:48:53.519Z</time></trkpt>
      <trkpt lat="35.543341" lon="128.977753"><ele>941.0</ele><time>2026-09-20T16:49:01.909Z</time></trkpt>
      <trkpt lat="35.543145" lon="128.977712"><ele>943.0</ele><time>2026-09-20T16:49:33.760Z</time></trkpt>
      <trkpt lat="35.542956" lon="128.977752"><ele>937.8</ele><time>2026-09-20T16:50:04.448Z</time></trkpt>
      <trkpt lat="35.542848" lon="128.977668"><ele>933.8</ele><time>2026-09-20T16:50:24.967Z</time></trkpt>
      <trkpt lat="35.542947" lon="128.977180"><ele>928.4</ele><time>2026-09-20T16:51:30.457Z</time></trkpt>
      <trkpt lat="35.542781" lon="128.977147"><ele>923.2</ele><time>2026-09-20T16:51:57.399Z</time></trkpt>
      <trkpt lat="35.542746" lon="128.977108"><ele>915.6</ele><time>2026-09-20T16:52:05.080Z</time></trkpt>
      <trkpt lat="35.542713" lon="128.977058"><ele>909.6</ele><time>2026-09-20T16:52:13.438Z</time></trkpt>
      <trkpt lat="35.542633" lon="128.976869"><ele>899.8</ele><time>2026-09-20T16:52:41.183Z</time></trkpt>
      <trkpt lat="35.542515" lon="128.976370"><ele>890.0</ele><time>2026-09-20T16:53:48.896Z</time></trkpt>
      <trkpt lat="35.542625" lon="128.976239"><ele>878.4</ele><time>2026-09-20T16:54:13.443Z</time></trkpt>
      <trkpt lat="35.542657" lon="128.976075"><ele>867.0</ele><time>2026-09-20T16:54:35.421Z</time></trkpt>
      <trkpt lat="35.542608" lon="128.975963"><ele>857.6</ele><time>2026-09-20T16:54:52.016Z</time></trkpt>
      <trkpt lat="35.542646" lon="128.975811"><ele>850.6</ele><time>2026-09-20T16:55:12.766Z</time></trkpt>
      <trkpt lat="35.542685" lon="128.975664"><ele>841.4</ele><time>2026-09-20T16:55:32.802Z</time></trkpt>
      <trkpt lat="35.542633" lon="128.975599"><ele>829.6</ele><time>2026-09-20T16:55:44.648Z</time></trkpt>
      <trkpt lat="35.542617" lon="128.975412"><ele>820.0</ele><time>2026-09-20T16:56:09.157Z</time></trkpt>
      <trkpt lat="35.542498" lon="128.975286"><ele>810.8</ele><time>2026-09-20T16:56:34.485Z</time></trkpt>
      <trkpt lat="35.542484" lon="128.975221"><ele>798.6</ele><time>2026-09-20T16:56:43.151Z</time></trkpt>
      <trkpt lat="35.542400" lon="128.974948"><ele>788.4</ele><time>2026-09-20T16:57:21.217Z</time></trkpt>
      <trkpt lat="35.542380" lon="128.974793"><ele>780.6</ele><time>2026-09-20T16:57:41.649Z</time></trkpt>
      <trkpt lat="35.542342" lon="128.974755"><ele>772.4</ele><time>2026-09-20T16:57:49.469Z</time></trkpt>
      <trkpt lat="35.542268" lon="128.974619"><ele>767.4</ele><time>2026-09-20T16:58:10.704Z</time></trkpt>
      <trkpt lat="35.542254" lon="128.974510"><ele>762.6</ele><time>2026-09-20T16:58:25.163Z</time></trkpt>
      <trkpt lat="35.542280" lon="128.974439"><ele>758.6</ele><time>2026-09-20T16:58:35.271Z</time></trkpt>
      <trkpt lat="35.542218" lon="128.974345"><ele>752.6</ele><time>2026-09-20T16:58:51.027Z</time></trkpt>
      <trkpt lat="35.542157" lon="128.974165"><ele>746.0</ele><time>2026-09-20T16:59:16.491Z</time></trkpt>
      <trkpt lat="35.542073" lon="128.973984"><ele>739.4</ele><time>2026-09-20T16:59:43.616Z</time></trkpt>
      <trkpt lat="35.542051" lon="128.973929"><ele>732.6</ele><time>2026-09-20T16:59:51.512Z</time></trkpt>
      <trkpt lat="35.542035" lon="128.973868"><ele>728.0</ele><time>2026-09-20T17:00:00.006Z</time></trkpt>
      <trkpt lat="35.542011" lon="128.973639"><ele>724.4</ele><time>2026-09-20T17:00:29.947Z</time></trkpt>
      <trkpt lat="35.542032" lon="128.973589"><ele>721.0</ele><time>2026-09-20T17:00:37.305Z</time></trkpt>
      <trkpt lat="35.542077" lon="128.973486"><ele>717.8</ele><time>2026-09-20T17:00:52.507Z</time></trkpt>
      <trkpt lat="35.542091" lon="128.973430"><ele>713.4</ele><time>2026-09-20T17:01:00.219Z</time></trkpt>
      <trkpt lat="35.542109" lon="128.973376"><ele>709.0</ele><time>2026-09-20T17:01:07.840Z</time></trkpt>
      <trkpt lat="35.542043" lon="128.973138"><ele>705.4</ele><time>2026-09-20T17:01:40.575Z</time></trkpt>
      <trkpt lat="35.541997" lon="128.973128"><ele>700.2</ele><time>2026-09-20T17:01:48.118Z</time></trkpt>
      <trkpt lat="35.541971" lon="128.973077"><ele>695.0</ele><time>2026-09-20T17:01:55.981Z</time></trkpt>
      <trkpt lat="35.541884" lon="128.972947"><ele>690.2</ele><time>2026-09-20T17:02:17.891Z</time></trkpt>
      <trkpt lat="35.541911" lon="128.972902"><ele>685.8</ele><time>2026-09-20T17:02:25.234Z</time></trkpt>
      <trkpt lat="35.541797" lon="128.972807"><ele>681.4</ele><time>2026-09-20T17:02:47.381Z</time></trkpt>
      <trkpt lat="35.541818" lon="128.972756"><ele>675.0</ele><time>2026-09-20T17:02:54.888Z</time></trkpt>
      <trkpt lat="35.541834" lon="128.972698"><ele>673.8</ele><time>2026-09-20T17:03:02.727Z</time></trkpt>
      <trkpt lat="35.541773" lon="128.972613"><ele>671.6</ele><time>2026-09-20T17:03:17.520Z</time></trkpt>
      <trkpt lat="35.541786" lon="128.972559"><ele>669.2</ele><time>2026-09-20T17:03:24.826Z</time></trkpt>
      <trkpt lat="35.541780" lon="128.972498"><ele>666.4</ele><time>2026-09-20T17:03:32.790Z</time></trkpt>
      <trkpt lat="35.541802" lon="128.972416"><ele>663.6</ele><time>2026-09-20T17:03:44.111Z</time></trkpt>
      <trkpt lat="35.541757" lon="128.972391"><ele>661.8</ele><time>2026-09-20T17:03:52.056Z</time></trkpt>
      <trkpt lat="35.541706" lon="128.972331"><ele>659.6</ele><time>2026-09-20T17:04:03.280Z</time></trkpt>
      <trkpt lat="35.541757" lon="128.972335"><ele>657.4</ele><time>2026-09-20T17:04:11.443Z</time></trkpt>
      <trkpt lat="35.541706" lon="128.972331"><ele>654.6</ele><time>2026-09-20T17:04:19.607Z</time></trkpt>
      <trkpt lat="35.541714" lon="128.972224"><ele>653.2</ele><time>2026-09-20T17:04:33.624Z</time></trkpt>
      <trkpt lat="35.541708" lon="128.972169"><ele>649.4</ele><time>2026-09-20T17:04:40.833Z</time></trkpt>
      <trkpt lat="35.541701" lon="128.972111"><ele>645.0</ele><time>2026-09-20T17:04:48.510Z</time></trkpt>
      <trkpt lat="35.541711" lon="128.972002"><ele>636.8</ele><time>2026-09-20T17:05:02.796Z</time></trkpt>
      <trkpt lat="35.541674" lon="128.971969"><ele>634.2</ele><time>2026-09-20T17:05:10.227Z</time></trkpt>
      <trkpt lat="35.541698" lon="128.971921"><ele>630.6</ele><time>2026-09-20T17:05:17.600Z</time></trkpt>
      <trkpt lat="35.541656" lon="128.971817"><ele>626.6</ele><time>2026-09-20T17:05:32.681Z</time></trkpt>
      <trkpt lat="35.541658" lon="128.971757"><ele>623.0</ele><time>2026-09-20T17:05:40.580Z</time></trkpt>
      <trkpt lat="35.541613" lon="128.971742"><ele>622.4</ele><time>2026-09-20T17:05:48.069Z</time></trkpt>
      <trkpt lat="35.541599" lon="128.971682"><ele>621.6</ele><time>2026-09-20T17:05:56.201Z</time></trkpt>
      <trkpt lat="35.541609" lon="128.971623"><ele>620.8</ele><time>2026-09-20T17:06:04.031Z</time></trkpt>
      <trkpt lat="35.541565" lon="128.971611"><ele>619.8</ele><time>2026-09-20T17:06:11.271Z</time></trkpt>
      <trkpt lat="35.541578" lon="128.971552"><ele>617.0</ele><time>2026-09-20T17:06:19.232Z</time></trkpt>
      <trkpt lat="35.541545" lon="128.971509"><ele>606.8</ele><time>2026-09-20T17:06:26.877Z</time></trkpt>
      <trkpt lat="35.541540" lon="128.971447"><ele>600.4</ele><time>2026-09-20T17:06:34.940Z</time></trkpt>
      <trkpt lat="35.541447" lon="128.971232"><ele>590.8</ele><time>2026-09-20T17:07:06.645Z</time></trkpt>
      <trkpt lat="35.541391" lon="128.971011"><ele>581.2</ele><time>2026-09-20T17:07:36.893Z</time></trkpt>
      <trkpt lat="35.541232" lon="128.970891"><ele>570.6</ele><time>2026-09-20T17:08:06.770Z</time></trkpt>
      <trkpt lat="35.541146" lon="128.970846"><ele>561.0</ele><time>2026-09-20T17:08:21.741Z</time></trkpt>
      <trkpt lat="35.541092" lon="128.970644"><ele>549.8</ele><time>2026-09-20T17:08:49.352Z</time></trkpt>
      <trkpt lat="35.540932" lon="128.970354"><ele>537.4</ele><time>2026-09-20T17:09:35.004Z</time></trkpt>
      <trkpt lat="35.540897" lon="128.969964"><ele>526.8</ele><time>2026-09-20T17:10:26.168Z</time></trkpt>
      <trkpt lat="35.541019" lon="128.969650"><ele>513.2</ele><time>2026-09-20T17:11:11.467Z</time></trkpt>
      <trkpt lat="35.541075" lon="128.969546"><ele>502.6</ele><time>2026-09-20T17:11:27.663Z</time></trkpt>
      <trkpt lat="35.541075" lon="128.969360"><ele>493.2</ele><time>2026-09-20T17:11:51.897Z</time></trkpt>
      <trkpt lat="35.541045" lon="128.969315"><ele>526.8</ele><time>2026-09-20T17:11:59.487Z</time></trkpt>
      <trkpt lat="35.540960" lon="128.969174"><ele>520.4</ele><time>2026-09-20T17:12:22.374Z</time></trkpt>
      <trkpt lat="35.540935" lon="128.969124"><ele>518.2</ele><time>2026-09-20T17:12:29.929Z</time></trkpt>
      <trkpt lat="35.540678" lon="128.968694"><ele>516.4</ele><time>2026-09-20T17:13:39.439Z</time></trkpt>
      <trkpt lat="35.540639" lon="128.968650"><ele>474.8</ele><time>2026-09-20T17:13:47.908Z</time></trkpt>
      <trkpt lat="35.540610" lon="128.968499"><ele>468.0</ele><time>2026-09-20T17:14:08.166Z</time></trkpt>
      <trkpt lat="35.540473" lon="128.968330"><ele>464.8</ele><time>2026-09-20T17:14:39.294Z</time></trkpt>
      <trkpt lat="35.540319" lon="128.968066"><ele>461.0</ele><time>2026-09-20T17:15:21.548Z</time></trkpt>
      <trkpt lat="35.540325" lon="128.967837"><ele>454.4</ele><time>2026-09-20T17:15:51.531Z</time></trkpt>
      <trkpt lat="35.540313" lon="128.967782"><ele>452.4</ele><time>2026-09-20T17:15:58.943Z</time></trkpt>
      <trkpt lat="35.540231" lon="128.967613"><ele>450.4</ele><time>2026-09-20T17:16:24.513Z</time></trkpt>
      <trkpt lat="35.539982" lon="128.967204"><ele>436.0</ele><time>2026-09-20T17:17:31.076Z</time></trkpt>
      <trkpt lat="35.539889" lon="128.967047"><ele>429.4</ele><time>2026-09-20T17:17:56.375Z</time></trkpt>
      <trkpt lat="35.539723" lon="128.966650"><ele>417.8</ele><time>2026-09-20T17:18:54.537Z</time></trkpt>
      <trkpt lat="35.539576" lon="128.966392"><ele>407.6</ele><time>2026-09-20T17:19:35.634Z</time></trkpt>
      <trkpt lat="35.539498" lon="128.966293"><ele>404.8</ele><time>2026-09-20T17:19:53.614Z</time></trkpt>
      <trkpt lat="35.539443" lon="128.966193"><ele>401.4</ele><time>2026-09-20T17:20:09.280Z</time></trkpt>
      <trkpt lat="35.539321" lon="128.965992"><ele>399.0</ele><time>2026-09-20T17:20:42.020Z</time></trkpt>
      <trkpt lat="35.539299" lon="128.965941"><ele>395.4</ele><time>2026-09-20T17:20:49.521Z</time></trkpt>
      <trkpt lat="35.539246" lon="128.965830"><ele>390.8</ele><time>2026-09-20T17:21:06.238Z</time></trkpt>
      <trkpt lat="35.539121" lon="128.965338"><ele>384.4</ele><time>2026-09-20T17:22:13.390Z</time></trkpt>
      <trkpt lat="35.538960" lon="128.965168"><ele>378.6</ele><time>2026-09-20T17:22:47.488Z</time></trkpt>
      <trkpt lat="35.538863" lon="128.964989"><ele>372.8</ele><time>2026-09-20T17:23:15.420Z</time></trkpt>
      <trkpt lat="35.538611" lon="128.964388"><ele>366.0</ele><time>2026-09-20T17:24:43.564Z</time></trkpt>
      <trkpt lat="35.538518" lon="128.964187"><ele>359.2</ele><time>2026-09-20T17:25:13.686Z</time></trkpt>
      <trkpt lat="35.538490" lon="128.964129"><ele>353.6</ele><time>2026-09-20T17:25:22.451Z</time></trkpt>
      <trkpt lat="35.538314" lon="128.963878"><ele>350.0</ele><time>2026-09-20T17:26:05.543Z</time></trkpt>
      <trkpt lat="35.538171" lon="128.963679"><ele>343.8</ele><time>2026-09-20T17:26:40.154Z</time></trkpt>
      <trkpt lat="35.538029" lon="128.963373"><ele>335.0</ele><time>2026-09-20T17:27:26.156Z</time></trkpt>
      <trkpt lat="35.537894" lon="128.963038"><ele>326.0</ele><time>2026-09-20T17:28:14.862Z</time></trkpt>
      <trkpt lat="35.537887" lon="128.962816"><ele>318.0</ele><time>2026-09-20T17:28:43.782Z</time></trkpt>
      <trkpt lat="35.537848" lon="128.962771"><ele>311.6</ele><time>2026-09-20T17:28:52.403Z</time></trkpt>
      <trkpt lat="35.537604" lon="128.962463"><ele>308.5</ele><time>2026-09-20T17:29:48.320Z</time></trkpt>
      <trkpt lat="35.537521" lon="128.962380"><ele>306.7</ele><time>2026-09-20T17:30:05.458Z</time></trkpt>
      <trkpt lat="35.537455" lon="128.962300"><ele>295.5</ele><time>2026-09-20T17:30:20.387Z</time></trkpt>
      <trkpt lat="35.537282" lon="128.962071"><ele>294.0</ele><time>2026-09-20T17:31:01.108Z</time></trkpt>
      <trkpt lat="35.537193" lon="128.962010"><ele>289.0</ele><time>2026-09-20T17:31:17.407Z</time></trkpt>
      <trkpt lat="35.537145" lon="128.961897"><ele>285.0</ele><time>2026-09-20T17:31:34.055Z</time></trkpt>
      <trkpt lat="35.536962" lon="128.961505"><ele>282.2</ele><time>2026-09-20T17:32:32.854Z</time></trkpt>
      <trkpt lat="35.536879" lon="128.961351"><ele>278.8</ele><time>2026-09-20T17:32:56.959Z</time></trkpt>
      <trkpt lat="35.536812" lon="128.961183"><ele>275.2</ele><time>2026-09-20T17:33:21.381Z</time></trkpt>
      <trkpt lat="35.536733" lon="128.961029"><ele>272.8</ele><time>2026-09-20T17:33:45.050Z</time></trkpt>
      <trkpt lat="35.536634" lon="128.960883"><ele>269.4</ele><time>2026-09-20T17:34:09.833Z</time></trkpt>
      <trkpt lat="35.536558" lon="128.960813"><ele>265.8</ele><time>2026-09-20T17:34:25.036Z</time></trkpt>
      <trkpt lat="35.536272" lon="128.960551"><ele>261.6</ele><time>2026-09-20T17:35:22.182Z</time></trkpt>
      <trkpt lat="35.536217" lon="128.960495"><ele>257.6</ele><time>2026-09-20T17:35:33.565Z</time></trkpt>
      <trkpt lat="35.536022" lon="128.960196"><ele>255.0</ele><time>2026-09-20T17:36:23.533Z</time></trkpt>
      <trkpt lat="35.535942" lon="128.960100"><ele>253.0</ele><time>2026-09-20T17:36:41.394Z</time></trkpt>
      <trkpt lat="35.535927" lon="128.960040"><time>2026-09-20T17:36:49.622Z</time></trkpt>
      <trkpt lat="35.535807" lon="128.960011"><ele>243.5</ele><time>2026-09-20T17:37:09.265Z</time></trkpt>
      <trkpt lat="35.535608" lon="128.959957"><ele>239.7</ele><time>2026-09-20T17:37:41.820Z</time></trkpt>
      <trkpt lat="35.535350" lon="128.959950"><time>2026-09-20T17:38:23.172Z</time></trkpt>
      <trkpt lat="35.535198" lon="128.960019"><ele>234.3</ele><time>2026-09-20T17:38:49.152Z</time></trkpt>
      <trkpt lat="35.535090" lon="128.959993"><ele>231.5</ele><time>2026-09-20T17:39:06.813Z</time></trkpt>
      <trkpt lat="35.534931" lon="128.959949"><ele>231.0</ele><time>2026-09-20T17:39:32.800Z</time></trkpt>
      <trkpt lat="35.534602" lon="128.959810"><ele>222.7</ele><time>2026-09-20T17:40:28.487Z</time></trkpt>
      <trkpt lat="35.534498" lon="128.959806"><ele>220.6</ele><time>2026-09-20T17:40:45.195Z</time></trkpt>
      <trkpt lat="35.534073" lon="128.959780"><ele>208.6</ele><time>2026-09-20T17:41:53.347Z</time></trkpt>
      <trkpt lat="35.533894" lon="128.959810"><time>2026-09-20T17:42:22.274Z</time></trkpt>
      <trkpt lat="35.533733" lon="128.959810"><ele>200.5</ele><time>2026-09-20T17:42:48.054Z</time></trkpt>
      <trkpt lat="35.533690" lon="128.959780"><time>2026-09-20T17:42:55.971Z</time></trkpt>
      <trkpt lat="35.533691" lon="128.959790"><ele>214.7</ele><time>2026-09-20T17:42:57.226Z</time></trkpt>
      <trkpt lat="35.533603" lon="128.959654"><ele>224.0</ele><time>2026-09-20T17:43:19.856Z</time></trkpt>
      <trkpt lat="35.533584" lon="128.959601"><ele>223.8</ele><time>2026-09-20T17:43:27.383Z</time></trkpt>
      <trkpt lat="35.533494" lon="128.959367"><ele>223.4</ele><time>2026-09-20T17:44:01.045Z</time></trkpt>
      <trkpt lat="35.533375" lon="128.959267"><ele>222.6</ele><time>2026-09-20T17:44:24.200Z</time></trkpt>
      <trkpt lat="35.533342" lon="128.959226"><ele>221.8</ele><time>2026-09-20T17:44:31.697Z</time></trkpt>
      <trkpt lat="35.533254" lon="128.959170"><ele>220.8</ele><time>2026-09-20T17:44:47.564Z</time></trkpt>
      <trkpt lat="35.533200" lon="128.959152"><ele>220.0</ele><time>2026-09-20T17:44:56.559Z</time></trkpt>
      <trkpt lat="35.533161" lon="128.959120"><ele>219.4</ele><time>2026-09-20T17:45:03.995Z</time></trkpt>
      <trkpt lat="35.533038" lon="128.959014"><ele>219.2</ele><time>2026-09-20T17:45:28.105Z</time></trkpt>
      <trkpt lat="35.532943" lon="128.958971"><ele>219.0</ele><time>2026-09-20T17:45:44.250Z</time></trkpt>
      <trkpt lat="35.532889" lon="128.958808"><ele>215.0</ele><time>2026-09-20T17:46:07.242Z</time></trkpt>
      <trkpt lat="35.532888" lon="128.958490"><ele>214.0</ele><time>2026-09-20T17:46:48.653Z</time></trkpt>
      <trkpt lat="35.532806" lon="128.958082"><ele>212.6</ele><time>2026-09-20T17:47:43.409Z</time></trkpt>
      <trkpt lat="35.532788" lon="128.957830"><ele>211.2</ele><time>2026-09-20T17:48:16.427Z</time></trkpt>
      <trkpt lat="35.532756" lon="128.957163"><ele>210.8</ele><time>2026-09-20T17:49:43.458Z</time></trkpt>
      <trkpt lat="35.532751" lon="128.957056"><ele>210.4</ele><time>2026-09-20T17:49:57.428Z</time></trkpt>
      <trkpt lat="35.532728" lon="128.957001"><ele>209.5</ele><time>2026-09-20T17:50:05.415Z</time></trkpt>
      <trkpt lat="35.532671" lon="128.956897"><ele>208.7</ele><time>2026-09-20T17:50:21.747Z</time></trkpt>
    </trkseg>
  </trk>
</gpx>