<?xml version="1.0" encoding="UTF-8"?>
<gpx version="1.1" creator="gajago-nav" xmlns="http://www.topografix.com/GPX/1/1">
  <metadata><name>재약산 D코스_nav</name></metadata>
  <wpt lat="35.568453" lon="128.992248">
    <name>들머리 (상부승강장)</name>
    <ele>1003</ele>
  </wpt>
  <wpt lat="35.566735" lon="128.991256">
    <name>갈림길</name>
  </wpt>
  <wpt lat="35.565522" lon="128.988724">
    <name>갈림길</name>
  </wpt>
  <wpt lat="35.565295" lon="128.988241">
    <name>갈림길(샘물상회)</name>
  </wpt>
  <wpt lat="35.565493" lon="128.986103">
    <name>샘물상회</name>
  </wpt>
  <wpt lat="35.564803" lon="128.981409">
    <name>얼음골삼거리</name>
  </wpt>
  <wpt lat="35.563462" lon="128.976353">
    <name>갈림길</name>
  </wpt>
  <wpt lat="35.561036" lon="128.971665">
    <name>갈림길</name>
  </wpt>
  <wpt lat="35.559351" lon="128.971686">
    <name>갈림길</name>
  </wpt>
  <wpt lat="35.557930" lon="128.972200">
    <name>천황산</name>
    <ele>1189</ele>
  </wpt>
  <wpt lat="35.551390" lon="128.976890">
    <name>천황재</name>
  </wpt>
  <wpt lat="35.548532" lon="128.973915">
    <name>갈림길(진불암)</name>
  </wpt>
  <wpt lat="35.543790" lon="128.977490">
    <name>진불암</name>
  </wpt>
  <wpt lat="35.542493" lon="128.975390">
    <name>조망점</name>
  </wpt>
  <wpt lat="35.539129" lon="128.965434">
    <name>갈림길</name>
  </wpt>
  <wpt lat="35.538566" lon="128.964235">
    <name>갈림길</name>
  </wpt>
  <wpt lat="35.537450" lon="128.963103">
    <name>내원암</name>
  </wpt>
  <wpt lat="35.535874" lon="128.960040">
    <name>갈림길</name>
  </wpt>
  <wpt lat="35.533867" lon="128.959780">
    <name>표충사</name>
  </wpt>
  <wpt lat="35.532892" lon="128.959053">
    <name>갈림길</name>
  </wpt>
  <wpt lat="35.532671" lon="128.956897">
    <name>날머리 (상가주차장)</name>
    <ele>209</ele>
  </wpt>
  <trk>
    <name>재약산 D코스_nav</name>
    <trkseg>
      <trkpt lat="35.568453" lon="128.992248"><ele>1003.1</ele><time>2026-09-20T15:04:29.578Z</time></trkpt>
      <trkpt lat="35.568288" lon="128.991883"><ele>1015.3</ele><time>2026-09-20T15:05:23.908Z</time></trkpt>
      <trkpt lat="35.568218" lon="128.991719"><ele>1017.8</ele><time>2026-09-20T15:05:48.044Z</time></trkpt>
      <trkpt lat="35.567753" lon="128.991591"><time>2026-09-20T15:07:04.332Z</time></trkpt>
      <trkpt lat="35.567265" lon="128.991428"><time>2026-09-20T15:08:25.304Z</time></trkpt>
      <trkpt lat="35.566717" lon="128.991376"><ele>1008.7</ele><time>2026-09-20T15:09:53.311Z</time></trkpt>
      <trkpt lat="35.566666" lon="128.991287"><ele>1010.0</ele><time>2026-09-20T15:10:07.491Z</time></trkpt>
      <trkpt lat="35.566571" lon="128.991075"><ele>1011.0</ele><time>2026-09-20T15:10:39.016Z</time></trkpt>
      <trkpt lat="35.566406" lon="128.990801"><ele>1012.7</ele><time>2026-09-20T15:11:23.420Z</time></trkpt>
      <trkpt lat="35.566343" lon="128.990718"><ele>1014.7</ele><time>2026-09-20T15:11:38.206Z</time></trkpt>
      <trkpt lat="35.566266" lon="128.990520"><ele>1016.4</ele><time>2026-09-20T15:12:06.791Z</time></trkpt>
      <trkpt lat="35.566280" lon="128.990272"><ele>1017.5</ele><time>2026-09-20T15:12:39.170Z</time></trkpt>
      <trkpt lat="35.566170" lon="128.990131"><ele>1018.6</ele><time>2026-09-20T15:13:04.616Z</time></trkpt>
      <trkpt lat="35.566138" lon="128.989932"><ele>1019.7</ele><time>2026-09-20T15:13:31.037Z</time></trkpt>
      <trkpt lat="35.566136" lon="128.989493"><ele>1021.0</ele><time>2026-09-20T15:14:28.218Z</time></trkpt>
      <trkpt lat="35.565997" lon="128.989063"><ele>1022.2</ele><time>2026-09-20T15:15:28.485Z</time></trkpt>
      <trkpt lat="35.565665" lon="128.988789"><ele>1023.7</ele><time>2026-09-20T15:16:32.514Z</time></trkpt>
      <trkpt lat="35.565592" lon="128.988709"><ele>1025.1</ele><time>2026-09-20T15:16:48.173Z</time></trkpt>
      <trkpt lat="35.565406" lon="128.988347"><ele>1026.1</ele><time>2026-09-20T15:17:43.942Z</time></trkpt>
      <trkpt lat="35.565388" lon="128.988249"><ele>1026.9</ele><time>2026-09-20T15:17:57.028Z</time></trkpt>
      <trkpt lat="35.565406" lon="128.988347"><ele>1027.4</ele><time>2026-09-20T15:18:10.114Z</time></trkpt>
      <trkpt lat="35.565399" lon="128.987689"><ele>1027.7</ele><time>2026-09-20T15:19:35.826Z</time></trkpt>
      <trkpt lat="35.565413" lon="128.987464"><ele>1027.9</ele><time>2026-09-20T15:20:05.218Z</time></trkpt>
      <trkpt lat="35.565518" lon="128.987032"><ele>1028.5</ele><time>2026-09-20T15:21:03.944Z</time></trkpt>
      <trkpt lat="35.565516" lon="128.986917"><ele>1021.0</ele><time>2026-09-20T15:21:18.926Z</time></trkpt>
      <trkpt lat="35.565510" lon="128.986689"><ele>1013.3</ele><time>2026-09-20T15:21:48.639Z</time></trkpt>
      <trkpt lat="35.565548" lon="128.986348"><ele>1007.3</ele><time>2026-09-20T15:22:33.437Z</time></trkpt>
      <trkpt lat="35.565517" lon="128.986243"><ele>1007.3</ele><time>2026-09-20T15:22:48.025Z</time></trkpt>
      <trkpt lat="35.565530" lon="128.986211"><ele>1001.6</ele><time>2026-09-20T15:22:52.747Z</time></trkpt>
      <trkpt lat="35.565516" lon="128.986073"><ele>1004.5</ele><time>2026-09-20T15:23:10.898Z</time></trkpt>
      <trkpt lat="35.565509" lon="128.985769"><ele>1008.5</ele><time>2026-09-20T15:23:50.473Z</time></trkpt>
      <trkpt lat="35.565594" lon="128.985559"><ele>1011.5</ele><time>2026-09-20T15:24:21.025Z</time></trkpt>
      <trkpt lat="35.565596" lon="128.985318"><ele>1010.2</ele><time>2026-09-20T15:24:52.417Z</time></trkpt>
      <trkpt lat="35.565618" lon="128.985115"><ele>1015.8</ele><time>2026-09-20T15:25:19.091Z</time></trkpt>
      <trkpt lat="35.565437" lon="128.984629"><ele>1022.8</ele><time>2026-09-20T15:26:28.712Z</time></trkpt>
      <trkpt lat="35.565221" lon="128.984213"><ele>1029.3</ele><time>2026-09-20T15:27:32.994Z</time></trkpt>
      <trkpt lat="35.565258" lon="128.983401"><ele>1035.4</ele><time>2026-09-20T15:29:18.923Z</time></trkpt>
      <trkpt lat="35.565279" lon="128.983218"><ele>1040.0</ele><time>2026-09-20T15:29:42.995Z</time></trkpt>
      <trkpt lat="35.565343" lon="128.982979"><ele>1043.5</ele><time>2026-09-20T15:30:15.768Z</time></trkpt>
      <trkpt lat="35.565346" lon="128.982827"><ele>1045.1</ele><time>2026-09-20T15:30:35.572Z</time></trkpt>
      <trkpt lat="35.565395" lon="128.982615"><ele>1046.4</ele><time>2026-09-20T15:31:04.278Z</time></trkpt>
      <trkpt lat="35.565325" lon="128.982386"><ele>1047.4</ele><time>2026-09-20T15:31:36.142Z</time></trkpt>
      <trkpt lat="35.565308" lon="128.982215"><ele>1048.6</ele><time>2026-09-20T15:31:58.581Z</time></trkpt>
      <trkpt lat="35.565271" lon="128.982105"><ele>1049.5</ele><time>2026-09-20T15:32:14.085Z</time></trkpt>
      <trkpt lat="35.565227" lon="128.981925"><ele>1050.1</ele><time>2026-09-20T15:32:38.566Z</time></trkpt>
      <trkpt lat="35.565212" lon="128.981703"><ele>1049.0</ele><time>2026-09-20T15:33:07.581Z</time></trkpt>
      <trkpt lat="35.565048" lon="128.981512"><ele>1049.2</ele><time>2026-09-20T15:33:43.754Z</time></trkpt>
      <trkpt lat="35.564925" lon="128.981318"><ele>1049.1</ele><time>2026-09-20T15:34:15.760Z</time></trkpt>
      <trkpt lat="35.564924" lon="128.981314"><ele>1049.6</ele><time>2026-09-20T15:34:16.343Z</time></trkpt>
      <trkpt lat="35.564823" lon="128.981115"><ele>1051.3</ele><time>2026-09-20T15:34:46.894Z</time></trkpt>
      <trkpt lat="35.564599" lon="128.980790"><ele>1054.8</ele><time>2026-09-20T15:35:42.378Z</time></trkpt>
      <trkpt lat="35.564424" lon="128.980532"><ele>1057.5</ele><time>2026-09-20T15:36:26.133Z</time></trkpt>
      <trkpt lat="35.564336" lon="128.980399"><ele>1060.5</ele><time>2026-09-20T15:36:48.463Z</time></trkpt>
      <trkpt lat="35.564255" lon="128.980270"><ele>1062.9</ele><time>2026-09-20T15:37:09.689Z</time></trkpt>
      <trkpt lat="35.564208" lon="128.980082"><ele>1064.6</ele><time>2026-09-20T15:37:35.307Z</time></trkpt>
      <trkpt lat="35.564175" lon="128.979819"><ele>1065.7</ele><time>2026-09-20T15:38:09.968Z</time></trkpt>
      <trkpt lat="35.564164" lon="128.979465"><ele>1066.4</ele><time>2026-09-20T15:38:56.111Z</time></trkpt>
      <trkpt lat="35.564155" lon="128.979349"><ele>1066.6</ele><time>2026-09-20T15:39:11.289Z</time></trkpt>
      <trkpt lat="35.564097" lon="128.979184"><ele>1066.7</ele><time>2026-09-20T15:39:34.702Z</time></trkpt>
      <trkpt lat="35.564099" lon="128.979028"><ele>1066.4</ele><time>2026-09-20T15:39:55.024Z</time></trkpt>
      <trkpt lat="35.564043" lon="128.978860"><ele>1067.0</ele><time>2026-09-20T15:40:18.672Z</time></trkpt>
      <trkpt lat="35.563971" lon="128.978505"><ele>1068.5</ele><time>2026-09-20T15:41:06.327Z</time></trkpt>
      <trkpt lat="35.563894" lon="128.978237"><ele>1070.2</ele><time>2026-09-20T15:41:43.348Z</time></trkpt>
      <trkpt lat="35.563756" lon="128.978020"><ele>1072.2</ele><time>2026-09-20T15:42:19.226Z</time></trkpt>
      <trkpt lat="35.563704" lon="128.977883"><ele>1074.6</ele><time>2026-09-20T15:42:38.917Z</time></trkpt>
      <trkpt lat="35.563689" lon="128.977768"><ele>1076.5</ele><time>2026-09-20T15:42:54.088Z</time></trkpt>
      <trkpt lat="35.563689" lon="128.977682"><ele>1077.8</ele><time>2026-09-20T15:43:05.289Z</time></trkpt>
      <trkpt lat="35.563732" lon="128.977564"><ele>1078.9</ele><time>2026-09-20T15:43:22.131Z</time></trkpt>
      <trkpt lat="35.563746" lon="128.977424"><ele>1079.9</ele><time>2026-09-20T15:43:40.504Z</time></trkpt>
      <trkpt lat="35.563764" lon="128.977332"><ele>1080.6</ele><time>2026-09-20T15:43:52.829Z</time></trkpt>
      <trkpt lat="35.563711" lon="128.977169"><ele>1081.1</ele><time>2026-09-20T15:44:15.693Z</time></trkpt>
      <trkpt lat="35.563704" lon="128.977027"><ele>1081.3</ele><time>2026-09-20T15:44:34.223Z</time></trkpt>
      <trkpt lat="35.563682" lon="128.976867"><ele>1081.5</ele><time>2026-09-20T15:44:55.359Z</time></trkpt>
      <trkpt lat="35.563663" lon="128.976787"><ele>1082.4</ele><time>2026-09-20T15:45:06.215Z</time></trkpt>
      <trkpt lat="35.563631" lon="128.976650"><ele>1083.4</ele><time>2026-09-20T15:45:24.780Z</time></trkpt>
      <trkpt lat="35.563570" lon="128.976459"><ele>1084.5</ele><time>2026-09-20T15:45:51.507Z</time></trkpt>
      <trkpt lat="35.563548" lon="128.976322"><ele>1086.1</ele><time>2026-09-20T15:46:09.697Z</time></trkpt>
      <trkpt lat="35.563493" lon="128.976210"><ele>1087.9</ele><time>2026-09-20T15:46:26.737Z</time></trkpt>
      <trkpt lat="35.563294" lon="128.975952"><ele>1089.2</ele><time>2026-09-20T15:47:13.047Z</time></trkpt>
      <trkpt lat="35.563139" lon="128.975611"><ele>1090.5</ele><time>2026-09-20T15:48:03.928Z</time></trkpt>
      <trkpt lat="35.563079" lon="128.975509"><ele>1092.3</ele><time>2026-09-20T15:48:20.323Z</time></trkpt>
      <trkpt lat="35.563004" lon="128.975448"><ele>1094.1</ele><time>2026-09-20T15:48:34.723Z</time></trkpt>
      <trkpt lat="35.562832" lon="128.975281"><ele>1096.7</ele><time>2026-09-20T15:49:09.818Z</time></trkpt>
      <trkpt lat="35.562718" lon="128.975104"><ele>1100.1</ele><time>2026-09-20T15:49:39.224Z</time></trkpt>
      <trkpt lat="35.562563" lon="128.974942"><ele>1103.9</ele><time>2026-09-20T15:50:11.801Z</time></trkpt>
      <trkpt lat="35.562467" lon="128.974777"><ele>1107.7</ele><time>2026-09-20T15:50:38.224Z</time></trkpt>
      <trkpt lat="35.562356" lon="128.974707"><ele>1111.6</ele><time>2026-09-20T15:50:58.200Z</time></trkpt>
      <trkpt lat="35.562288" lon="128.974493"><ele>1114.9</ele><time>2026-09-20T15:51:28.126Z</time></trkpt>
      <trkpt lat="35.562241" lon="128.974266"><ele>1117.4</ele><time>2026-09-20T15:51:58.637Z</time></trkpt>
      <trkpt lat="35.562209" lon="128.973991"><ele>1119.8</ele><time>2026-09-20T15:52:34.821Z</time></trkpt>
      <trkpt lat="35.562154" lon="128.973610"><ele>1121.7</ele><time>2026-09-20T15:53:25.224Z</time></trkpt>
      <trkpt lat="35.562149" lon="128.973420"><ele>1123.2</ele><time>2026-09-20T15:53:49.986Z</time></trkpt>
      <trkpt lat="35.562088" lon="128.973244"><ele>1124.6</ele><time>2026-09-20T15:54:14.905Z</time></trkpt>
      <trkpt lat="35.561993" lon="128.973060"><ele>1126.1</ele><time>2026-09-20T15:54:43.292Z</time></trkpt>
      <trkpt lat="35.561914" lon="128.972907"><ele>1128.1</ele><time>2026-09-20T15:55:06.896Z</time></trkpt>
      <trkpt lat="35.561883" lon="128.972766"><ele>1130.3</ele><time>2026-09-20T15:55:25.921Z</time></trkpt>
      <trkpt lat="35.561638" lon="128.972395"><ele>1132.7</ele><time>2026-09-20T15:56:28.165Z</time></trkpt>
      <trkpt lat="35.561494" lon="128.972144"><ele>1135.5</ele><time>2026-09-20T15:57:08.172Z</time></trkpt>
      <trkpt lat="35.561439" lon="128.972030"><ele>1139.2</ele><time>2026-09-20T15:57:25.437Z</time></trkpt>
      <trkpt lat="35.561295" lon="128.971898"><ele>1149.0</ele><time>2026-09-20T15:57:54.199Z</time></trkpt>
      <trkpt lat="35.561047" lon="128.971727"><ele>1151.5</ele><time>2026-09-20T15:58:39.729Z</time></trkpt>
      <trkpt lat="35.560998" lon="128.971711"><ele>1154.1</ele><time>2026-09-20T15:58:47.899Z</time></trkpt>
      <trkpt lat="35.561047" lon="128.971727"><ele>1156.1</ele><time>2026-09-20T15:58:56.069Z</time></trkpt>
      <trkpt lat="35.560910" lon="128.971669"><ele>1157.0</ele><time>2026-09-20T15:59:19.270Z</time></trkpt>
      <trkpt lat="35.560735" lon="128.971661"><ele>1151.2</ele><time>2026-09-20T15:59:47.311Z</time></trkpt>
      <trkpt lat="35.560642" lon="128.971654"><ele>1152.4</ele><time>2026-09-20T16:00:02.230Z</time></trkpt>
      <trkpt lat="35.560542" lon="128.971635"><ele>1153.3</ele><time>2026-09-20T16:00:18.432Z</time></trkpt>
      <trkpt lat="35.560485" lon="128.971623"><ele>1154.1</ele><time>2026-09-20T16:00:27.692Z</time></trkpt>
      <trkpt lat="35.560420" lon="128.971629"><ele>1155.0</ele><time>2026-09-20T16:00:38.129Z</time></trkpt>
      <trkpt lat="35.560270" lon="128.971631"><ele>1156.2</ele><time>2026-09-20T16:01:02.149Z</time></trkpt>
      <trkpt lat="35.560118" lon="128.971655"><ele>1157.5</ele><time>2026-09-20T16:01:26.687Z</time></trkpt>
      <trkpt lat="35.559865" lon="128.971653"><ele>1158.9</ele><time>2026-09-20T16:02:07.198Z</time></trkpt>
      <trkpt lat="35.559760" lon="128.971662"><ele>1160.3</ele><time>2026-09-20T16:02:24.052Z</time></trkpt>
      <trkpt lat="35.559651" lon="128.971715"><ele>1161.7</ele><time>2026-09-20T16:02:42.821Z</time></trkpt>
      <trkpt lat="35.559459" lon="128.971715"><ele>1162.8</ele><time>2026-09-20T16:03:13.564Z</time></trkpt>
      <trkpt lat="35.559367" lon="128.971733"><ele>1164.0</ele><time>2026-09-20T16:03:28.480Z</time></trkpt>
      <trkpt lat="35.559259" lon="128.971769"><ele>1165.2</ele><time>2026-09-20T16:03:46.398Z</time></trkpt>
      <trkpt lat="35.559136" lon="128.971816"><ele>1166.5</ele><time>2026-09-20T16:04:07.022Z</time></trkpt>
      <trkpt lat="35.559054" lon="128.971859"><ele>1167.8</ele><time>2026-09-20T16:04:21.297Z</time></trkpt>
      <trkpt lat="35.558935" lon="128.971950"><ele>1169.1</ele><time>2026-09-20T16:04:43.738Z</time></trkpt>
      <trkpt lat="35.558816" lon="128.971982"><ele>1170.6</ele><time>2026-09-20T16:05:03.243Z</time></trkpt>
      <trkpt lat="35.558747" lon="128.971983"><ele>1172.0</ele><time>2026-09-20T16:05:14.292Z</time></trkpt>
      <trkpt lat="35.558579" lon="128.971974"><ele>1173.3</ele><time>2026-09-20T16:05:41.218Z</time></trkpt>
      <trkpt lat="35.558489" lon="128.971985"><ele>1174.9</ele><time>2026-09-20T16:05:55.700Z</time></trkpt>
      <trkpt lat="35.558395" lon="128.972014"><ele>1176.5</ele><time>2026-09-20T16:06:11.218Z</time></trkpt>
      <trkpt lat="35.558193" lon="128.972105"><ele>1177.6</ele><time>2026-09-20T16:06:45.666Z</time></trkpt>
      <trkpt lat="35.558102" lon="128.972145"><ele>1178.1</ele><time>2026-09-20T16:07:01.140Z</time></trkpt>
      <trkpt lat="35.557955" lon="128.972248"><ele>1178.0</ele><time>2026-09-20T16:07:28.234Z</time></trkpt>
      <trkpt lat="35.557857" lon="128.972275"><ele>1177.0</ele><time>2026-09-20T16:07:44.315Z</time></trkpt>
      <trkpt lat="35.557721" lon="128.972261"><ele>1175.5</ele><time>2026-09-20T16:08:06.167Z</time></trkpt>
      <trkpt lat="35.557593" lon="128.972315"><ele>1173.7</ele><time>2026-09-20T16:08:27.836Z</time></trkpt>
      <trkpt lat="35.557531" lon="128.972300"><ele>1171.3</ele><time>2026-09-20T16:08:37.954Z</time></trkpt>
      <trkpt lat="35.557440" lon="128.972293"><ele>1168.3</ele><time>2026-09-20T16:08:52.554Z</time></trkpt>
      <trkpt lat="35.557224" lon="128.972340"><ele>1165.5</ele><time>2026-09-20T16:09:27.678Z</time></trkpt>
      <trkpt lat="35.557042" lon="128.972349"><ele>1162.7</ele><time>2026-09-20T16:09:56.843Z</time></trkpt>
      <trkpt lat="35.556994" lon="128.972359"><ele>1160.0</ele><time>2026-09-20T16:10:04.639Z</time></trkpt>
      <trkpt lat="35.556974" lon="128.972392"><ele>1156.7</ele><time>2026-09-20T16:10:09.999Z</time></trkpt>
      <trkpt lat="35.556945" lon="128.972442"><ele>1154.0</ele><time>2026-09-20T16:10:17.998Z</time></trkpt>
      <trkpt lat="35.556662" lon="128.972491"><ele>1151.1</ele><time>2026-09-20T16:11:03.760Z</time></trkpt>
      <trkpt lat="35.556568" lon="128.972534"><ele>1148.0</ele><time>2026-09-20T16:11:19.819Z</time></trkpt>
      <trkpt lat="35.556414" lon="128.972505"><ele>1145.0</ele><time>2026-09-20T16:11:44.766Z</time></trkpt>
      <trkpt lat="35.556340" lon="128.972479"><ele>1142.7</ele><time>2026-09-20T16:11:57.089Z</time></trkpt>
      <trkpt lat="35.556302" lon="128.972471"><ele>1140.9</ele><time>2026-09-20T16:12:03.262Z</time></trkpt>
      <trkpt lat="35.556204" lon="128.972516"><ele>1138.7</ele><time>2026-09-20T16:12:20.013Z</time></trkpt>
      <trkpt lat="35.556191" lon="128.972488"><ele>1135.6</ele><time>2026-09-20T16:12:24.213Z</time></trkpt>
      <trkpt lat="35.556112" lon="128.972529"><ele>1132.1</ele><time>2026-09-20T16:12:37.944Z</time></trkpt>
      <trkpt lat="35.555986" lon="128.972510"><ele>1127.2</ele><time>2026-09-20T16:12:58.270Z</time></trkpt>
      <trkpt lat="35.555924" lon="128.972498"><ele>1120.7</ele><time>2026-09-20T16:13:08.320Z</time></trkpt>
      <trkpt lat="35.555788" lon="128.972722"><ele>1112.1</ele><time>2026-09-20T16:13:44.730Z</time></trkpt>
      <trkpt lat="35.555677" lon="128.973039"><ele>1101.2</ele><time>2026-09-20T16:14:29.686Z</time></trkpt>
      <trkpt lat="35.555367" lon="128.973270"><ele>1089.5</ele><time>2026-09-20T16:15:27.733Z</time></trkpt>
      <trkpt lat="35.555059" lon="128.973392"><ele>1079.7</ele><time>2026-09-20T16:16:19.547Z</time></trkpt>
      <trkpt lat="35.554745" lon="128.973463"><ele>1071.1</ele><time>2026-09-20T16:17:10.669Z</time></trkpt>
      <trkpt lat="35.554686" lon="128.973559"><ele>1065.2</ele><time>2026-09-20T16:17:26.342Z</time></trkpt>
      <trkpt lat="35.554568" lon="128.973536"><ele>1062.2</ele><time>2026-09-20T16:17:45.472Z</time></trkpt>
      <trkpt lat="35.554489" lon="128.973497"><ele>1060.3</ele><time>2026-09-20T16:17:59.104Z</time></trkpt>
      <trkpt lat="35.554370" lon="128.973493"><ele>1058.2</ele><time>2026-09-20T16:18:18.165Z</time></trkpt>
      <trkpt lat="35.554261" lon="128.973501"><ele>1056.0</ele><time>2026-09-20T16:18:35.650Z</time></trkpt>
      <trkpt lat="35.554183" lon="128.973549"><ele>1053.7</ele><time>2026-09-20T16:18:49.617Z</time></trkpt>
      <trkpt lat="35.554097" lon="128.973587"><ele>1051.5</ele><time>2026-09-20T16:19:04.250Z</time></trkpt>
      <trkpt lat="35.553999" lon="128.973573"><ele>1048.9</ele><time>2026-09-20T16:19:20.047Z</time></trkpt>
      <trkpt lat="35.553892" lon="128.973597"><ele>1046.1</ele><time>2026-09-20T16:19:37.463Z</time></trkpt>
      <trkpt lat="35.553679" lon="128.973798"><ele>1041.6</ele><time>2026-09-20T16:20:20.461Z</time></trkpt>
      <trkpt lat="35.553561" lon="128.973853"><ele>1036.6</ele><time>2026-09-20T16:20:40.668Z</time></trkpt>
      <trkpt lat="35.553148" lon="128.973954"><ele>1031.1</ele><time>2026-09-20T16:21:48.094Z</time></trkpt>
      <trkpt lat="35.553010" lon="128.974087"><ele>1025.6</ele><time>2026-09-20T16:22:16.174Z</time></trkpt>
      <trkpt lat="35.552868" lon="128.974295"><ele>1020.2</ele><time>2026-09-20T16:22:51.546Z</time></trkpt>
      <trkpt lat="35.552750" lon="128.974392"><ele>1015.6</ele><time>2026-09-20T16:23:14.276Z</time></trkpt>
      <trkpt lat="35.552670" lon="128.974482"><ele>1011.3</ele><time>2026-09-20T16:23:31.641Z</time></trkpt>
      <trkpt lat="35.552492" lon="128.974727"><ele>1007.7</ele><time>2026-09-20T16:24:14.431Z</time></trkpt>
      <trkpt lat="35.552464" lon="128.974884"><ele>1004.5</ele><time>2026-09-20T16:24:35.370Z</time></trkpt>
      <trkpt lat="35.552463" lon="128.975039"><ele>1001.6</ele><time>2026-09-20T16:24:55.562Z</time></trkpt>
      <trkpt lat="35.552397" lon="128.975127"><ele>999.4</ele><time>2026-09-20T16:25:11.154Z</time></trkpt>
      <trkpt lat="35.552347" lon="128.975182"><ele>996.6</ele><time>2026-09-20T16:25:21.898Z</time></trkpt>
      <trkpt lat="35.552138" lon="128.975224"><ele>993.2</ele><time>2026-09-20T16:25:55.808Z</time></trkpt>
      <trkpt lat="35.552054" lon="128.975421"><ele>989.3</ele><time>2026-09-20T16:26:24.782Z</time></trkpt>
      <trkpt lat="35.551888" lon="128.975525"><ele>984.9</ele><time>2026-09-20T16:26:54.616Z</time></trkpt>
      <trkpt lat="35.551783" lon="128.975703"><ele>980.8</ele><time>2026-09-20T16:27:23.258Z</time></trkpt>
      <trkpt lat="35.551783" lon="128.975966"><ele>977.4</ele><time>2026-09-20T16:27:57.520Z</time></trkpt>
      <trkpt lat="35.551723" lon="128.976112"><ele>974.8</ele><time>2026-09-20T16:28:18.828Z</time></trkpt>
      <trkpt lat="35.551665" lon="128.976262"><ele>973.0</ele><time>2026-09-20T16:28:40.464Z</time></trkpt>
      <trkpt lat="35.551575" lon="128.976406"><ele>971.8</ele><time>2026-09-20T16:29:04.119Z</time></trkpt>
      <trkpt lat="35.551529" lon="128.976534"><ele>971.1</ele><time>2026-09-20T16:29:22.349Z</time></trkpt>
      <trkpt lat="35.551498" lon="128.976752"><ele>970.8</ele><time>2026-09-20T16:29:51.179Z</time></trkpt>
      <trkpt lat="35.551477" lon="128.976820"><ele>970.7</ele><time>2026-09-20T16:30:00.654Z</time></trkpt>
      <trkpt lat="35.551460" lon="128.976820"><time>2026-09-20T16:30:03.376Z</time></trkpt>
      <trkpt lat="35.551406" lon="128.976843"><ele>970.7</ele><time>2026-09-20T16:30:12.527Z</time></trkpt>
      <trkpt lat="35.551393" lon="128.976880"><ele>970.7</ele><time>2026-09-20T16:30:17.777Z</time></trkpt>
      <trkpt lat="35.551173" lon="128.976675"><time>2026-09-20T16:31:01.983Z</time></trkpt>
      <trkpt lat="35.551130" lon="128.976595"><time>2026-09-20T16:31:14.474Z</time></trkpt>
      <trkpt lat="35.551113" lon="128.976585"><time>2026-09-20T16:31:17.492Z</time></trkpt>
      <trkpt lat="35.551032" lon="128.976537"><time>2026-09-20T16:31:31.890Z</time></trkpt>
      <trkpt lat="35.550881" lon="128.976466"><time>2026-09-20T16:31:57.777Z</time></trkpt>
      <trkpt lat="35.550736" lon="128.976365"><time>2026-09-20T16:32:24.464Z</time></trkpt>
      <trkpt lat="35.550623" lon="128.976312"><time>2026-09-20T16:32:43.830Z</time></trkpt>
      <trkpt lat="35.550514" lon="128.976219"><time>2026-09-20T16:33:05.076Z</time></trkpt>
      <trkpt lat="35.550347" lon="128.976063"><time>2026-09-20T16:33:38.663Z</time></trkpt>
      <trkpt lat="35.550265" lon="128.975989"><time>2026-09-20T16:33:54.952Z</time></trkpt>
      <trkpt lat="35.550216" lon="128.975967"><time>2026-09-20T16:34:03.305Z</time></trkpt>
      <trkpt lat="35.550175" lon="128.975932"><time>2026-09-20T16:34:11.298Z</time></trkpt>
      <trkpt lat="35.550092" lon="128.975791"><time>2026-09-20T16:34:33.970Z</time></trkpt>
      <trkpt lat="35.549824" lon="128.975528"><time>2026-09-20T16:35:28.883Z</time></trkpt>
      <trkpt lat="35.549408" lon="128.975220"><time>2026-09-20T16:36:46.645Z</time></trkpt>
      <trkpt lat="35.549223" lon="128.974979"><time>2026-09-20T16:37:29.810Z</time></trkpt>
      <trkpt lat="35.549005" lon="128.974470"><time>2026-09-20T16:38:44.747Z</time></trkpt>
      <trkpt lat="35.548544" lon="128.973960"><time>2026-09-20T16:40:24.061Z</time></trkpt>
      <trkpt lat="35.548532" lon="128.973915"><time>2026-09-20T16:40:30.230Z</time></trkpt>
      <trkpt lat="35.548416" lon="128.973955"><time>2026-09-20T16:40:49.522Z</time></trkpt>
      <trkpt lat="35.548307" lon="128.974225"><time>2026-09-20T16:41:28.789Z</time></trkpt>
      <trkpt lat="35.548285" lon="128.974401"><time>2026-09-20T16:41:51.987Z</time></trkpt>
      <trkpt lat="35.548272" lon="128.974658"><time>2026-09-20T16:42:25.533Z</time></trkpt>
      <trkpt lat="35.548224" lon="128.974812"><time>2026-09-20T16:42:47.017Z</time></trkpt>
      <trkpt lat="35.548116" lon="128.975140"><time>2026-09-20T16:43:33.115Z</time></trkpt>
      <trkpt lat="35.548015" lon="128.975320"><time>2026-09-20T16:44:01.601Z</time></trkpt>
      <trkpt lat="35.547942" lon="128.975477"><time>2026-09-20T16:44:25.159Z</time></trkpt>
      <trkpt lat="35.547925" lon="128.975625"><time>2026-09-20T16:44:44.632Z</time></trkpt>
      <trkpt lat="35.547785" lon="128.975885"><time>2026-09-20T16:45:25.250Z</time></trkpt>
      <trkpt lat="35.547726" lon="128.975973"><time>2026-09-20T16:45:40.106Z</time></trkpt>
      <trkpt lat="35.547588" lon="128.976109"><time>2026-09-20T16:46:08.429Z</time></trkpt>
      <trkpt lat="35.547524" lon="128.976201"><time>2026-09-20T16:46:24.198Z</time></trkpt>
      <trkpt lat="35.547451" lon="128.976440"><time>2026-09-20T16:46:57.457Z</time></trkpt>
      <trkpt lat="35.547521" lon="128.976492"><time>2026-09-20T16:47:10.553Z</time></trkpt>
      <trkpt lat="35.547388" lon="128.976650"><time>2026-09-20T16:47:40.172Z</time></trkpt>
      <trkpt lat="35.547264" lon="128.976799"><time>2026-09-20T16:48:07.939Z</time></trkpt>
      <trkpt lat="35.547146" lon="128.976879"><time>2026-09-20T16:48:29.517Z</time></trkpt>
      <trkpt lat="35.547059" lon="128.976901"><time>2026-09-20T16:48:43.740Z</time></trkpt>
      <trkpt lat="35.546987" lon="128.977022"><time>2026-09-20T16:49:03.269Z</time></trkpt>
      <trkpt lat="35.546849" lon="128.977045"><time>2026-09-20T16:49:25.568Z</time></trkpt>
      <trkpt lat="35.546795" lon="128.977062"><time>2026-09-20T16:49:34.494Z</time></trkpt>
      <trkpt lat="35.546699" lon="128.977003"><time>2026-09-20T16:49:51.680Z</time></trkpt>
      <trkpt lat="35.546587" lon="128.977088"><time>2026-09-20T16:50:12.757Z</time></trkpt>
      <trkpt lat="35.546430" lon="128.977314"><time>2026-09-20T16:50:51.473Z</time></trkpt>
      <trkpt lat="35.546369" lon="128.977491"><time>2026-09-20T16:51:16.516Z</time></trkpt>
      <trkpt lat="35.546282" lon="128.977576"><time>2026-09-20T16:51:34.312Z</time></trkpt>
      <trkpt lat="35.546007" lon="128.977798"><time>2026-09-20T16:52:26.994Z</time></trkpt>
      <trkpt lat="35.545941" lon="128.977825"><time>2026-09-20T16:52:38.132Z</time></trkpt>
      <trkpt lat="35.545884" lon="128.977733"><time>2026-09-20T16:52:53.197Z</time></trkpt>
      <trkpt lat="35.545653" lon="128.977535"><time>2026-09-20T16:53:38.292Z</time></trkpt>
      <trkpt lat="35.545431" lon="128.977229"><time>2026-09-20T16:54:31.705Z</time></trkpt>
      <trkpt lat="35.545212" lon="128.977057"><time>2026-09-20T16:55:13.320Z</time></trkpt>
      <trkpt lat="35.545042" lon="128.977036"><time>2026-09-20T16:55:40.677Z</time></trkpt>
      <trkpt lat="35.544915" lon="128.976843"><time>2026-09-20T16:56:13.016Z</time></trkpt>
      <trkpt lat="35.544466" lon="128.976355"><time>2026-09-20T16:57:48.990Z</time></trkpt>
      <trkpt lat="35.544283" lon="128.976521"><time>2026-09-20T16:58:25.409Z</time></trkpt>
      <trkpt lat="35.544125" lon="128.976816"><time>2026-09-20T16:59:11.422Z</time></trkpt>
      <trkpt lat="35.543835" lon="128.977240"><ele>927.7</ele><time>2026-09-20T17:00:23.648Z</time></trkpt>
      <trkpt lat="35.543681" lon="128.977482"><ele>929.0</ele><time>2026-09-20T17:01:03.616Z</time></trkpt>
      <trkpt lat="35.543641" lon="128.977564"><ele>929.8</ele><time>2026-09-20T17:01:16.094Z</time></trkpt>
      <trkpt lat="35.543615" lon="128.977698"><ele>931.4</ele><time>2026-09-20T17:01:33.937Z</time></trkpt>
      <trkpt lat="35.543539" lon="128.977758"><ele>935.6</ele><time>2026-09-20T17:01:48.504Z</time></trkpt>
      <trkpt lat="35.543448" lon="128.977737"><ele>937.8</ele><time>2026-09-20T17:02:03.289Z</time></trkpt>
      <trkpt lat="35.543393" lon="128.977739"><ele>939.2</ele><time>2026-09-20T17:02:12.197Z</time></trkpt>
      <trkpt lat="35.543341" lon="128.977753"><ele>941.0</ele><time>2026-09-20T17:02:20.587Z</time></trkpt>
      <trkpt lat="35.543145" lon="128.977712"><ele>943.0</ele><time>2026-09-20T17:02:52.438Z</time></trkpt>
      <trkpt lat="35.542956" lon="128.977752"><ele>937.8</ele><time>2026-09-20T17:03:23.126Z</time></trkpt>
      <trkpt lat="35.542848" lon="128.977668"><ele>933.8</ele><time>2026-09-20T17:03:43.645Z</time></trkpt>
      <trkpt lat="35.542947" lon="128.977180"><ele>928.4</ele><time>2026-09-20T17:04:49.135Z</time></trkpt>
      <trkpt lat="35.542781" lon="128.977147"><ele>923.2</ele><time>2026-09-20T17:05:16.077Z</time></trkpt>
      <trkpt lat="35.542746" lon="128.977108"><ele>915.6</ele><time>2026-09-20T17:05:23.757Z</time></trkpt>
      <trkpt lat="35.542713" lon="128.977058"><ele>909.6</ele><time>2026-09-20T17:05:32.116Z</time></trkpt>
      <trkpt lat="35.542633" lon="128.976869"><ele>899.8</ele><time>2026-09-20T17:05:59.861Z</time></trkpt>
      <trkpt lat="35.542515" lon="128.976370"><ele>890.0</ele><time>2026-09-20T17:07:07.573Z</time></trkpt>
      <trkpt lat="35.542625" lon="128.976239"><ele>878.4</ele><time>2026-09-20T17:07:32.121Z</time></trkpt>
      <trkpt lat="35.542657" lon="128.976075"><ele>867.0</ele><time>2026-09-20T17:07:54.099Z</time></trkpt>
      <trkpt lat="35.542608" lon="128.975963"><ele>857.6</ele><time>2026-09-20T17:08:10.694Z</time></trkpt>
      <trkpt lat="35.542646" lon="128.975811"><ele>850.6</ele><time>2026-09-20T17:08:31.444Z</time></trkpt>
      <trkpt lat="35.542685" lon="128.975664"><ele>841.4</ele><time>2026-09-20T17:08:51.480Z</time></trkpt>
      <trkpt lat="35.542633" lon="128.975599"><ele>829.6</ele><time>2026-09-20T17:09:03.326Z</time></trkpt>
      <trkpt lat="35.542617" lon="128.975412"><ele>820.0</ele><time>2026-09-20T17:09:27.835Z</time></trkpt>
      <trkpt lat="35.542498" lon="128.975286"><ele>810.8</ele><time>2026-09-20T17:09:53.163Z</time></trkpt>
      <trkpt lat="35.542484" lon="128.975221"><ele>798.6</ele><time>2026-09-20T17:10:01.829Z</time></trkpt>
      <trkpt lat="35.542400" lon="128.974948"><ele>788.4</ele><time>2026-09-20T17:10:39.895Z</time></trkpt>
      <trkpt lat="35.542380" lon="128.974793"><ele>780.6</ele><time>2026-09-20T17:11:00.327Z</time></trkpt>
      <trkpt lat="35.542342" lon="128.974755"><ele>772.4</ele><time>2026-09-20T17:11:08.146Z</time></trkpt>
      <trkpt lat="35.542268" lon="128.974619"><ele>767.4</ele><time>2026-09-20T17:11:29.381Z</time></trkpt>
      <trkpt lat="35.542254" lon="128.974510"><ele>762.6</ele><time>2026-09-20T17:11:43.841Z</time></trkpt>
      <trkpt lat="35.542280" lon="128.974439"><ele>758.6</ele><time>2026-09-20T17:11:53.949Z</time></trkpt>
      <trkpt lat="35.542218" lon="128.974345"><ele>752.6</ele><time>2026-09-20T17:12:09.705Z</time></trkpt>
      <trkpt lat="35.542157" lon="128.974165"><ele>746.0</ele><time>2026-09-20T17:12:35.169Z</time></trkpt>
      <trkpt lat="35.542073" lon="128.973984"><ele>739.4</ele><time>2026-09-20T17:13:02.294Z</time></trkpt>
      <trkpt lat="35.542051" lon="128.973929"><ele>732.6</ele><time>2026-09-20T17:13:10.190Z</time></trkpt>
      <trkpt lat="35.542035" lon="128.973868"><ele>728.0</ele><time>2026-09-20T17:13:18.684Z</time></trkpt>
      <trkpt lat="35.542011" lon="128.973639"><ele>724.4</ele><time>2026-09-20T17:13:48.625Z</time></trkpt>
      <trkpt lat="35.542032" lon="128.973589"><ele>721.0</ele><time>2026-09-20T17:13:55.983Z</time></trkpt>
      <trkpt lat="35.542077" lon="128.973486"><ele>717.8</ele><time>2026-09-20T17:14:11.184Z</time></trkpt>
      <trkpt lat="35.542091" lon="128.973430"><ele>713.4</ele><time>2026-09-20T17:14:18.897Z</time></trkpt>
      <trkpt lat="35.542109" lon="128.973376"><ele>709.0</ele><time>2026-09-20T17:14:26.518Z</time></trkpt>
      <trkpt lat="35.542043" lon="128.973138"><ele>705.4</ele><time>2026-09-20T17:14:59.253Z</time></trkpt>
      <trkpt lat="35.541997" lon="128.973128"><ele>700.2</ele><time>2026-09-20T17:15:06.796Z</time></trkpt>
      <trkpt lat="35.541971" lon="128.973077"><ele>695.0</ele><time>2026-09-20T17:15:14.659Z</time></trkpt>
      <trkpt lat="35.541884" lon="128.972947"><ele>690.2</ele><time>2026-09-20T17:15:36.569Z</time></trkpt>
      <trkpt lat="35.541911" lon="128.972902"><ele>685.8</ele><time>2026-09-20T17:15:43.911Z</time></trkpt>
      <trkpt lat="35.541797" lon="128.972807"><ele>681.4</ele><time>2026-09-20T17:16:06.059Z</time></trkpt>
      <trkpt lat="35.541818" lon="128.972756"><ele>675.0</ele><time>2026-09-20T17:16:13.566Z</time></trkpt>
      <trkpt lat="35.541834" lon="128.972698"><ele>673.8</ele><time>2026-09-20T17:16:21.405Z</time></trkpt>
      <trkpt lat="35.541773" lon="128.972613"><ele>671.6</ele><time>2026-09-20T17:16:36.198Z</time></trkpt>
      <trkpt lat="35.541786" lon="128.972559"><ele>669.2</ele><time>2026-09-20T17:16:43.504Z</time></trkpt>
      <trkpt lat="35.541780" lon="128.972498"><ele>666.4</ele><time>2026-09-20T17:16:51.468Z</time></trkpt>
      <trkpt lat="35.541802" lon="128.972416"><ele>663.6</ele><time>2026-09-20T17:17:02.789Z</time></trkpt>
      <trkpt lat="35.541757" lon="128.972391"><ele>661.8</ele><time>2026-09-20T17:17:10.734Z</time></trkpt>
      <trkpt lat="35.541706" lon="128.972331"><ele>659.6</ele><time>2026-09-20T17:17:21.958Z</time></trkpt>
      <trkpt lat="35.541757" lon="128.972335"><ele>657.4</ele><time>2026-09-20T17:17:30.121Z</time></trkpt>
      <trkpt lat="35.541706" lon="128.972331"><ele>654.6</ele><time>2026-09-20T17:17:38.285Z</time></trkpt>
      <trkpt lat="35.541714" lon="128.972224"><ele>653.2</ele><time>2026-09-20T17:17:52.302Z</time></trkpt>
      <trkpt lat="35.541708" lon="128.972169"><ele>649.4</ele><time>2026-09-20T17:17:59.511Z</time></trkpt>
      <trkpt lat="35.541701" lon="128.972111"><ele>645.0</ele><time>2026-09-20T17:18:07.188Z</time></trkpt>
      <trkpt lat="35.541711" lon="128.972002"><ele>636.8</ele><time>2026-09-20T17:18:21.474Z</time></trkpt>
      <trkpt lat="35.541674" lon="128.971969"><ele>634.2</ele><time>2026-09-20T17:18:28.905Z</time></trkpt>
      <trkpt lat="35.541698" lon="128.971921"><ele>630.6</ele><time>2026-09-20T17:18:36.278Z</time></trkpt>
      <trkpt lat="35.541656" lon="128.971817"><ele>626.6</ele><time>2026-09-20T17:18:51.358Z</time></trkpt>
      <trkpt lat="35.541658" lon="128.971757"><ele>623.0</ele><time>2026-09-20T17:18:59.258Z</time></trkpt>
      <trkpt lat="35.541613" lon="128.971742"><ele>622.4</ele><time>2026-09-20T17:19:06.747Z</time></trkpt>
      <trkpt lat="35.541599" lon="128.971682"><ele>621.6</ele><time>2026-09-20T17:19:14.879Z</time></trkpt>
      <trkpt lat="35.541609" lon="128.971623"><ele>620.8</ele><time>2026-09-20T17:19:22.708Z</time></trkpt>
      <trkpt lat="35.541565" lon="128.971611"><ele>619.8</ele><time>2026-09-20T17:19:29.949Z</time></trkpt>
      <trkpt lat="35.541578" lon="128.971552"><ele>617.0</ele><time>2026-09-20T17:19:37.910Z</time></trkpt>
      <trkpt lat="35.541545" lon="128.971509"><ele>606.8</ele><time>2026-09-20T17:19:45.555Z</time></trkpt>
      <trkpt lat="35.541540" lon="128.971447"><ele>600.4</ele><time>2026-09-20T17:19:53.618Z</time></trkpt>
      <trkpt lat="35.541447" lon="128.971232"><ele>590.8</ele><time>2026-09-20T17:20:25.323Z</time></trkpt>
      <trkpt lat="35.541391" lon="128.971011"><ele>581.2</ele><time>2026-09-20T17:20:55.571Z</time></trkpt>
      <trkpt lat="35.541232" lon="128.970891"><ele>570.6</ele><time>2026-09-20T17:21:25.448Z</time></trkpt>
      <trkpt lat="35.541146" lon="128.970846"><ele>561.0</ele><time>2026-09-20T17:21:40.419Z</time></trkpt>
      <trkpt lat="35.541092" lon="128.970644"><ele>549.8</ele><time>2026-09-20T17:22:08.030Z</time></trkpt>
      <trkpt lat="35.540932" lon="128.970354"><ele>537.4</ele><time>2026-09-20T17:22:53.682Z</time></trkpt>
      <trkpt lat="35.540897" lon="128.969964"><ele>526.8</ele><time>2026-09-20T17:23:44.846Z</time></trkpt>
      <trkpt lat="35.541019" lon="128.969650"><ele>513.2</ele><time>2026-09-20T17:24:30.145Z</time></trkpt>
      <trkpt lat="35.541075" lon="128.969546"><ele>502.6</ele><time>2026-09-20T17:24:46.341Z</time></trkpt>
      <trkpt lat="35.541075" lon="128.969360"><ele>493.2</ele><time>2026-09-20T17:25:10.575Z</time></trkpt>
      <trkpt lat="35.541045" lon="128.969315"><ele>526.8</ele><time>2026-09-20T17:25:18.165Z</time></trkpt>
      <trkpt lat="35.540960" lon="128.969174"><ele>520.4</ele><time>2026-09-20T17:25:41.052Z</time></trkpt>
      <trkpt lat="35.540935" lon="128.969124"><ele>518.2</ele><time>2026-09-20T17:25:48.607Z</time></trkpt>
      <trkpt lat="35.540678" lon="128.968694"><ele>516.4</ele><time>2026-09-20T17:26:58.117Z</time></trkpt>
      <trkpt lat="35.540639" lon="128.968650"><ele>474.8</ele><time>2026-09-20T17:27:06.586Z</time></trkpt>
      <trkpt lat="35.540610" lon="128.968499"><ele>468.0</ele><time>2026-09-20T17:27:26.843Z</time></trkpt>
      <trkpt lat="35.540473" lon="128.968330"><ele>464.8</ele><time>2026-09-20T17:27:57.972Z</time></trkpt>
      <trkpt lat="35.540319" lon="128.968066"><ele>461.0</ele><time>2026-09-20T17:28:40.226Z</time></trkpt>
      <trkpt lat="35.540325" lon="128.967837"><ele>454.4</ele><time>2026-09-20T17:29:10.209Z</time></trkpt>
      <trkpt lat="35.540313" lon="128.967782"><ele>452.4</ele><time>2026-09-20T17:29:17.620Z</time></trkpt>
      <trkpt lat="35.540231" lon="128.967613"><ele>450.4</ele><time>2026-09-20T17:29:43.191Z</time></trkpt>
      <trkpt lat="35.539982" lon="128.967204"><ele>436.0</ele><time>2026-09-20T17:30:49.754Z</time></trkpt>
      <trkpt lat="35.539889" lon="128.967047"><ele>429.4</ele><time>2026-09-20T17:31:15.053Z</time></trkpt>
      <trkpt lat="35.539723" lon="128.966650"><ele>417.8</ele><time>2026-09-20T17:32:13.215Z</time></trkpt>
      <trkpt lat="35.539576" lon="128.966392"><ele>407.6</ele><time>2026-09-20T17:32:54.311Z</time></trkpt>
      <trkpt lat="35.539498" lon="128.966293"><ele>404.8</ele><time>2026-09-20T17:33:12.292Z</time></trkpt>
      <trkpt lat="35.539443" lon="128.966193"><ele>401.4</ele><time>2026-09-20T17:33:27.958Z</time></trkpt>
      <trkpt lat="35.539321" lon="128.965992"><ele>399.0</ele><time>2026-09-20T17:34:00.698Z</time></trkpt>
      <trkpt lat="35.539299" lon="128.965941"><ele>395.4</ele><time>2026-09-20T17:34:08.199Z</time></trkpt>
      <trkpt lat="35.539246" lon="128.965830"><ele>390.8</ele><time>2026-09-20T17:34:24.916Z</time></trkpt>
      <trkpt lat="35.539121" lon="128.965338"><ele>384.4</ele><time>2026-09-20T17:35:32.068Z</time></trkpt>
      <trkpt lat="35.538960" lon="128.965168"><ele>378.6</ele><time>2026-09-20T17:36:06.166Z</time></trkpt>
      <trkpt lat="35.538863" lon="128.964989"><ele>372.8</ele><time>2026-09-20T17:36:34.098Z</time></trkpt>
      <trkpt lat="35.538611" lon="128.964388"><ele>366.0</ele><time>2026-09-20T17:38:02.241Z</time></trkpt>
      <trkpt lat="35.538518" lon="128.964187"><ele>359.2</ele><time>2026-09-20T17:38:32.364Z</time></trkpt>
      <trkpt lat="35.538490" lon="128.964129"><ele>353.6</ele><time>2026-09-20T17:38:41.129Z</time></trkpt>
      <trkpt lat="35.538314" lon="128.963878"><ele>350.0</ele><time>2026-09-20T17:39:24.221Z</time></trkpt>
      <trkpt lat="35.538171" lon="128.963679"><ele>343.8</ele><time>2026-09-20T17:39:58.832Z</time></trkpt>
      <trkpt lat="35.538029" lon="128.963373"><ele>335.0</ele><time>2026-09-20T17:40:44.834Z</time></trkpt>
      <trkpt lat="35.537894" lon="128.963038"><ele>326.0</ele><time>2026-09-20T17:41:33.540Z</time></trkpt>
      <trkpt lat="35.537887" lon="128.962816"><ele>318.0</ele><time>2026-09-20T17:42:02.460Z</time></trkpt>
      <trkpt lat="35.537848" lon="128.962771"><ele>311.6</ele><time>2026-09-20T17:42:11.081Z</time></trkpt>
      <trkpt lat="35.537604" lon="128.962463"><ele>306.4</ele><time>2026-09-20T17:43:06.998Z</time></trkpt>
      <trkpt lat="35.537521" lon="128.962380"><ele>301.6</ele><time>2026-09-20T17:43:24.136Z</time></trkpt>
      <trkpt lat="35.537455" lon="128.962300"><ele>297.4</ele><time>2026-09-20T17:43:39.065Z</time></trkpt>
      <trkpt lat="35.537282" lon="128.962071"><ele>294.0</ele><time>2026-09-20T17:44:19.785Z</time></trkpt>
      <trkpt lat="35.537193" lon="128.962010"><ele>289.0</ele><time>2026-09-20T17:44:36.085Z</time></trkpt>
      <trkpt lat="35.537145" lon="128.961897"><ele>285.0</ele><time>2026-09-20T17:44:52.733Z</time></trkpt>
      <trkpt lat="35.536962" lon="128.961505"><ele>282.2</ele><time>2026-09-20T17:45:51.532Z</time></trkpt>
      <trkpt lat="35.536879" lon="128.961351"><ele>278.8</ele><time>2026-09-20T17:46:15.637Z</time></trkpt>
      <trkpt lat="35.536812" lon="128.961183"><ele>275.2</ele><time>2026-09-20T17:46:40.059Z</time></trkpt>
      <trkpt lat="35.536733" lon="128.961029"><ele>272.8</ele><time>2026-09-20T17:47:03.728Z</time></trkpt>
      <trkpt lat="35.536634" lon="128.960883"><ele>269.4</ele><time>2026-09-20T17:47:28.511Z</time></trkpt>
      <trkpt lat="35.536558" lon="128.960813"><ele>265.8</ele><time>2026-09-20T17:47:43.714Z</time></trkpt>
      <trkpt lat="35.536272" lon="128.960551"><ele>261.6</ele><time>2026-09-20T17:48:40.860Z</time></trkpt>
      <trkpt lat="35.536217" lon="128.960495"><ele>257.6</ele><time>2026-09-20T17:48:52.243Z</time></trkpt>
      <trkpt lat="35.536022" lon="128.960196"><ele>255.0</ele><time>2026-09-20T17:49:42.211Z</time></trkpt>
      <trkpt lat="35.535942" lon="128.960100"><ele>253.0</ele><time>2026-09-20T17:50:00.072Z</time></trkpt>
      <trkpt lat="35.535927" lon="128.960040"><time>2026-09-20T17:50:08.300Z</time></trkpt>
      <trkpt lat="35.535807" lon="128.960011"><ele>243.5</ele><time>2026-09-20T17:50:27.943Z</time></trkpt>
      <trkpt lat="35.535608" lon="128.959957"><ele>239.7</ele><time>2026-09-20T17:51:00.498Z</time></trkpt>
      <trkpt lat="35.535350" lon="128.959950"><time>2026-09-20T17:51:41.850Z</time></trkpt>
      <trkpt lat="35.535198" lon="128.960019"><ele>234.3</ele><time>2026-09-20T17:52:07.830Z</time></trkpt>
      <trkpt lat="35.535090" lon="128.959993"><ele>231.5</ele><time>2026-09-20T17:52:25.491Z</time></trkpt>
      <trkpt lat="35.534931" lon="128.959949"><ele>231.0</ele><time>2026-09-20T17:52:51.478Z</time></trkpt>
      <trkpt lat="35.534602" lon="128.959810"><ele>222.7</ele><time>2026-09-20T17:53:47.165Z</time></trkpt>
      <trkpt lat="35.534498" lon="128.959806"><ele>220.6</ele><time>2026-09-20T17:54:03.873Z</time></trkpt>
      <trkpt lat="35.534073" lon="128.959780"><ele>208.6</ele><time>2026-09-20T17:55:12.025Z</time></trkpt>
      <trkpt lat="35.533894" lon="128.959810"><time>2026-09-20T17:55:40.952Z</time></trkpt>
      <trkpt lat="35.533733" lon="128.959810"><ele>200.5</ele><time>2026-09-20T17:56:06.732Z</time></trkpt>
      <trkpt lat="35.533690" lon="128.959780"><time>2026-09-20T17:56:14.649Z</time></trkpt>
      <trkpt lat="35.533691" lon="128.959790"><ele>214.7</ele><time>2026-09-20T17:56:15.904Z</time></trkpt>
      <trkpt lat="35.533649" lon="128.959755"><ele>224.0</ele><time>2026-09-20T17:56:23.977Z</time></trkpt>
      <trkpt lat="35.533620" lon="128.959708"><ele>224.0</ele><time>2026-09-20T17:56:31.603Z</time></trkpt>
      <trkpt lat="35.533603" lon="128.959654"><ele>224.0</ele><time>2026-09-20T17:56:39.213Z</time></trkpt>
      <trkpt lat="35.533584" lon="128.959601"><ele>223.4</ele><time>2026-09-20T17:56:46.740Z</time></trkpt>
      <trkpt lat="35.533570" lon="128.959548"><ele>223.4</ele><time>2026-09-20T17:56:54.023Z</time></trkpt>
      <trkpt lat="35.533546" lon="128.959482"><ele>223.4</ele><time>2026-09-20T17:57:03.334Z</time></trkpt>
      <trkpt lat="35.533530" lon="128.959413"><ele>223.2</ele><time>2026-09-20T17:57:12.784Z</time></trkpt>
      <trkpt lat="35.533494" lon="128.959367"><ele>223.2</ele><time>2026-09-20T17:57:20.994Z</time></trkpt>
      <trkpt lat="35.533452" lon="128.959337"><ele>223.4</ele><time>2026-09-20T17:57:28.896Z</time></trkpt>
      <trkpt lat="35.533410" lon="128.959304"><ele>223.2</ele><time>2026-09-20T17:57:36.830Z</time></trkpt>
      <trkpt lat="35.533375" lon="128.959267"><ele>222.8</ele><time>2026-09-20T17:57:44.209Z</time></trkpt>
      <trkpt lat="35.533342" lon="128.959226"><ele>222.2</ele><time>2026-09-20T17:57:51.706Z</time></trkpt>
      <trkpt lat="35.533299" lon="128.959198"><ele>221.4</ele><time>2026-09-20T17:57:59.529Z</time></trkpt>
      <trkpt lat="35.533254" lon="128.959170"><ele>220.6</ele><time>2026-09-20T17:58:07.573Z</time></trkpt>
      <trkpt lat="35.533200" lon="128.959152"><ele>219.8</ele><time>2026-09-20T17:58:16.569Z</time></trkpt>
      <trkpt lat="35.533161" lon="128.959120"><ele>219.4</ele><time>2026-09-20T17:58:24.005Z</time></trkpt>
      <trkpt lat="35.533118" lon="128.959091"><ele>219.2</ele><time>2026-09-20T17:58:31.809Z</time></trkpt>
      <trkpt lat="35.533080" lon="128.959045"><ele>219.2</ele><time>2026-09-20T17:58:40.424Z</time></trkpt>
      <trkpt lat="35.533038" lon="128.959014"><ele>219.2</ele><time>2026-09-20T17:58:48.332Z</time></trkpt>
      <trkpt lat="35.532992" lon="128.958990"><ele>219.4</ele><time>2026-09-20T17:58:56.350Z</time></trkpt>
      <trkpt lat="35.532943" lon="128.958971"><ele>219.2</ele><time>2026-09-20T17:59:04.501Z</time></trkpt>
      <trkpt lat="35.532889" lon="128.958808"><ele>215.0</ele><time>2026-09-20T17:59:27.493Z</time></trkpt>
      <trkpt lat="35.532888" lon="128.958490"><ele>214.0</ele><time>2026-09-20T18:00:08.904Z</time></trkpt>
      <trkpt lat="35.532806" lon="128.958082"><ele>212.6</ele><time>2026-09-20T18:01:03.660Z</time></trkpt>
      <trkpt lat="35.532788" lon="128.957830"><ele>211.2</ele><time>2026-09-20T18:01:36.678Z</time></trkpt>
      <trkpt lat="35.532756" lon="128.957163"><ele>210.8</ele><time>2026-09-20T18:03:03.709Z</time></trkpt>
      <trkpt lat="35.532751" lon="128.957056"><ele>210.4</ele><time>2026-09-20T18:03:17.679Z</time></trkpt>
      <trkpt lat="35.532728" lon="128.957001"><ele>209.5</ele><time>2026-09-20T18:03:25.666Z</time></trkpt>
      <trkpt lat="35.532671" lon="128.956897"><ele>208.7</ele><time>2026-09-20T18:03:41.998Z</time></trkpt>
    </trkseg>
  </trk>
</gpx>