<?xml version="1.0" encoding="UTF-8"?>
<gpx version="1.1" creator="gajago-nav" xmlns="http://www.topografix.com/GPX/1/1">
  <metadata><name>천관산연대봉_20221119</name></metadata>
  <wpt lat="34.548632" lon="126.936895">
    <name>들머리 (주차장)</name>
    <ele>74</ele>
  </wpt>
  <wpt lat="34.548620" lon="126.927816">
    <name>장천재</name>
  </wpt>
  <wpt lat="34.543690" lon="126.917260">
    <name>선인봉</name>
    <ele>504</ele>
  </wpt>
  <wpt lat="34.540310" lon="126.913690">
    <name>종봉</name>
    <ele>611</ele>
  </wpt>
  <wpt lat="34.539467" lon="126.912598">
    <name>갈림길</name>
  </wpt>
  <wpt lat="34.538970" lon="126.911940">
    <name>구정봉</name>
    <ele>684</ele>
  </wpt>
  <wpt lat="34.536850" lon="126.912250">
    <name>천주봉</name>
    <ele>695</ele>
  </wpt>
  <wpt lat="34.535580" lon="126.911795">
    <name>환희대</name>
  </wpt>
  <wpt lat="34.535360" lon="126.911330">
    <name>대장봉</name>
    <ele>723</ele>
  </wpt>
  <wpt lat="34.535461" lon="126.911188">
    <name>갈림길</name>
  </wpt>
  <wpt lat="34.533373" lon="126.915292">
    <name>갈림길</name>
  </wpt>
  <wpt lat="34.533467" lon="126.916399">
    <name>갈림길</name>
  </wpt>
  <wpt lat="34.531730" lon="126.919660">
    <name>천관산</name>
    <ele>723</ele>
  </wpt>
  <wpt lat="34.532325" lon="126.922203">
    <name>갈림길</name>
  </wpt>
  <wpt lat="34.537072" lon="126.926901">
    <name>갈림길</name>
  </wpt>
  <wpt lat="34.546162" lon="126.927688">
    <name>갈림길</name>
  </wpt>
  <wpt lat="34.548956" lon="126.936066">
    <name>날머리 (원점회귀)</name>
    <ele>107</ele>
  </wpt>
  <trk>
    <name>천관산연대봉_20221119</name>
    <trkseg>
      <trkpt lat="34.548632" lon="126.936895"><ele>74.0</ele><time>2022-11-19T02:05:20.000Z</time></trkpt>
      <trkpt lat="34.548681" lon="126.936788"><ele>74.0</ele><time>2022-11-19T02:06:06.000Z</time></trkpt>
      <trkpt lat="34.548712" lon="126.936705"><ele>74.0</ele><time>2022-11-19T02:06:14.000Z</time></trkpt>
      <trkpt lat="34.548777" lon="126.936607"><ele>74.0</ele><time>2022-11-19T02:06:26.000Z</time></trkpt>
      <trkpt lat="34.548817" lon="126.936449"><ele>75.0</ele><time>2022-11-19T02:06:40.000Z</time></trkpt>
      <trkpt lat="34.548822" lon="126.936309"><ele>76.0</ele><time>2022-11-19T02:06:52.000Z</time></trkpt>
      <trkpt lat="34.548842" lon="126.936205"><ele>76.0</ele><time>2022-11-19T02:07:00.000Z</time></trkpt>
      <trkpt lat="34.548881" lon="126.936119"><ele>77.0</ele><time>2022-11-19T02:07:08.000Z</time></trkpt>
      <trkpt lat="34.548913" lon="126.935996"><ele>77.0</ele><time>2022-11-19T02:07:20.000Z</time></trkpt>
      <trkpt lat="34.548923" lon="126.935891"><ele>77.0</ele><time>2022-11-19T02:08:02.000Z</time></trkpt>
      <trkpt lat="34.548864" lon="126.935812"><ele>78.0</ele><time>2022-11-19T02:08:15.000Z</time></trkpt>
      <trkpt lat="34.548847" lon="126.935711"><ele>79.0</ele><time>2022-11-19T02:08:25.000Z</time></trkpt>
      <trkpt lat="34.548832" lon="126.935611"><ele>79.0</ele><time>2022-11-19T02:08:34.000Z</time></trkpt>
      <trkpt lat="34.548825" lon="126.935480"><ele>80.0</ele><time>2022-11-19T02:08:43.000Z</time></trkpt>
      <trkpt lat="34.548855" lon="126.935364"><ele>80.0</ele><time>2022-11-19T02:08:55.000Z</time></trkpt>
      <trkpt lat="34.548824" lon="126.935257"><ele>81.0</ele><time>2022-11-19T02:09:04.000Z</time></trkpt>
      <trkpt lat="34.548821" lon="126.935163"><ele>82.0</ele><time>2022-11-19T02:09:12.000Z</time></trkpt>
      <trkpt lat="34.548814" lon="126.935074"><ele>83.0</ele><time>2022-11-19T02:09:20.000Z</time></trkpt>
      <trkpt lat="34.548821" lon="126.934924"><ele>84.0</ele><time>2022-11-19T02:09:32.000Z</time></trkpt>
      <trkpt lat="34.548809" lon="126.934822"><ele>85.0</ele><time>2022-11-19T02:09:40.000Z</time></trkpt>
      <trkpt lat="34.548801" lon="126.934696"><ele>87.0</ele><time>2022-11-19T02:09:52.000Z</time></trkpt>
      <trkpt lat="34.548805" lon="126.934595"><ele>88.0</ele><time>2022-11-19T02:10:00.000Z</time></trkpt>
      <trkpt lat="34.548792" lon="126.934488"><ele>88.0</ele><time>2022-11-19T02:10:10.000Z</time></trkpt>
      <trkpt lat="34.548791" lon="126.934341"><ele>89.0</ele><time>2022-11-19T02:10:23.000Z</time></trkpt>
      <trkpt lat="34.548757" lon="126.934260"><ele>91.0</ele><time>2022-11-19T02:10:31.000Z</time></trkpt>
      <trkpt lat="34.548728" lon="126.934134"><ele>92.0</ele><time>2022-11-19T02:10:39.000Z</time></trkpt>
      <trkpt lat="34.548687" lon="126.934018"><ele>93.0</ele><time>2022-11-19T02:10:55.000Z</time></trkpt>
      <trkpt lat="34.548695" lon="126.933908"><ele>94.0</ele><time>2022-11-19T02:11:02.000Z</time></trkpt>
      <trkpt lat="34.548678" lon="126.933824"><ele>95.0</ele><time>2022-11-19T02:11:12.000Z</time></trkpt>
      <trkpt lat="34.548698" lon="126.933716"><ele>96.0</ele><time>2022-11-19T02:11:21.000Z</time></trkpt>
      <trkpt lat="34.548677" lon="126.933603"><ele>98.0</ele><time>2022-11-19T02:11:32.000Z</time></trkpt>
      <trkpt lat="34.548690" lon="126.933506"><ele>99.0</ele><time>2022-11-19T02:11:40.000Z</time></trkpt>
      <trkpt lat="34.548693" lon="126.933405"><ele>99.0</ele><time>2022-11-19T02:11:50.000Z</time></trkpt>
      <trkpt lat="34.548699" lon="126.933314"><ele>100.0</ele><time>2022-11-19T02:11:57.000Z</time></trkpt>
      <trkpt lat="34.548698" lon="126.933171"><ele>101.0</ele><time>2022-11-19T02:12:10.000Z</time></trkpt>
      <trkpt lat="34.548688" lon="126.933073"><ele>102.0</ele><time>2022-11-19T02:12:18.000Z</time></trkpt>
      <trkpt lat="34.548731" lon="126.932975"><ele>102.0</ele><time>2022-11-19T02:12:26.000Z</time></trkpt>
      <trkpt lat="34.548745" lon="126.932837"><ele>104.0</ele><time>2022-11-19T02:12:38.000Z</time></trkpt>
      <trkpt lat="34.548751" lon="126.932743"><ele>105.0</ele><time>2022-11-19T02:12:46.000Z</time></trkpt>
      <trkpt lat="34.548738" lon="126.932652"><ele>106.0</ele><time>2022-11-19T02:12:54.000Z</time></trkpt>
      <trkpt lat="34.548738" lon="126.932550"><ele>106.0</ele><time>2022-11-19T02:13:03.000Z</time></trkpt>
      <trkpt lat="34.548729" lon="126.932445"><ele>107.0</ele><time>2022-11-19T02:13:12.000Z</time></trkpt>
      <trkpt lat="34.548749" lon="126.932357"><ele>108.0</ele><time>2022-11-19T02:13:24.000Z</time></trkpt>
      <trkpt lat="34.548749" lon="126.932256"><ele>109.0</ele><time>2022-11-19T02:13:31.000Z</time></trkpt>
      <trkpt lat="34.548734" lon="126.932135"><ele>110.0</ele><time>2022-11-19T02:13:39.000Z</time></trkpt>
      <trkpt lat="34.548707" lon="126.932020"><ele>111.0</ele><time>2022-11-19T02:13:49.000Z</time></trkpt>
      <trkpt lat="34.548671" lon="126.931901"><ele>113.0</ele><time>2022-11-19T02:14:01.000Z</time></trkpt>
      <trkpt lat="34.548640" lon="126.931815"><ele>114.0</ele><time>2022-11-19T02:14:09.000Z</time></trkpt>
      <trkpt lat="34.548569" lon="126.931726"><ele>116.0</ele><time>2022-11-19T02:14:22.000Z</time></trkpt>
      <trkpt lat="34.548489" lon="126.931670"><ele>117.0</ele><time>2022-11-19T02:14:34.000Z</time></trkpt>
      <trkpt lat="34.548409" lon="126.931566"><ele>117.0</ele><time>2022-11-19T02:14:43.000Z</time></trkpt>
      <trkpt lat="34.548352" lon="126.931493"><ele>117.0</ele><time>2022-11-19T02:14:50.000Z</time></trkpt>
      <trkpt lat="34.548295" lon="126.931401"><ele>118.0</ele><time>2022-11-19T02:14:59.000Z</time></trkpt>
      <trkpt lat="34.548272" lon="126.931280"><ele>118.0</ele><time>2022-11-19T02:15:08.000Z</time></trkpt>
      <trkpt lat="34.548286" lon="126.931175"><ele>119.0</ele><time>2022-11-19T02:15:16.000Z</time></trkpt>
      <trkpt lat="34.548352" lon="126.931108"><ele>119.0</ele><time>2022-11-19T02:15:24.000Z</time></trkpt>
      <trkpt lat="34.548438" lon="126.931066"><ele>120.0</ele><time>2022-11-19T02:15:33.000Z</time></trkpt>
      <trkpt lat="34.548516" lon="126.930986"><ele>119.0</ele><time>2022-11-19T02:15:45.000Z</time></trkpt>
      <trkpt lat="34.548598" lon="126.930945"><ele>119.0</ele><time>2022-11-19T02:15:52.000Z</time></trkpt>
      <trkpt lat="34.548692" lon="126.930921"><ele>119.0</ele><time>2022-11-19T02:16:05.000Z</time></trkpt>
      <trkpt lat="34.548784" lon="126.930860"><ele>121.0</ele><time>2022-11-19T02:16:14.000Z</time></trkpt>
      <trkpt lat="34.548849" lon="126.930793"><ele>120.0</ele><time>2022-11-19T02:16:22.000Z</time></trkpt>
      <trkpt lat="34.548919" lon="126.930716"><ele>122.0</ele><time>2022-11-19T02:16:34.000Z</time></trkpt>
      <trkpt lat="34.548996" lon="126.930647"><ele>124.0</ele><time>2022-11-19T02:16:47.000Z</time></trkpt>
      <trkpt lat="34.549036" lon="126.930565"><ele>127.0</ele><time>2022-11-19T02:17:02.000Z</time></trkpt>
      <trkpt lat="34.549024" lon="126.930453"><ele>129.0</ele><time>2022-11-19T02:17:20.000Z</time></trkpt>
      <trkpt lat="34.549009" lon="126.930336"><ele>131.0</ele><time>2022-11-19T02:17:33.000Z</time></trkpt>
      <trkpt lat="34.549004" lon="126.930208"><ele>133.0</ele><time>2022-11-19T02:17:49.000Z</time></trkpt>
      <trkpt lat="34.548974" lon="126.930092"><ele>135.0</ele><time>2022-11-19T02:18:02.000Z</time></trkpt>
      <trkpt lat="34.548945" lon="126.929998"><ele>138.0</ele><time>2022-11-19T02:18:17.000Z</time></trkpt>
      <trkpt lat="34.548944" lon="126.929903"><ele>138.0</ele><time>2022-11-19T02:18:25.000Z</time></trkpt>
      <trkpt lat="34.548904" lon="126.929816"><ele>141.0</ele><time>2022-11-19T02:18:34.000Z</time></trkpt>
      <trkpt lat="34.548896" lon="126.929711"><ele>140.0</ele><time>2022-11-19T02:18:43.000Z</time></trkpt>
      <trkpt lat="34.548858" lon="126.929574"><ele>140.0</ele><time>2022-11-19T02:18:55.000Z</time></trkpt>
      <trkpt lat="34.548824" lon="126.929453"><ele>137.0</ele><time>2022-11-19T02:19:05.000Z</time></trkpt>
      <trkpt lat="34.548781" lon="126.929346"><ele>141.0</ele><time>2022-11-19T02:19:17.000Z</time></trkpt>
      <trkpt lat="34.548760" lon="126.929263"><ele>139.0</ele><time>2022-11-19T02:19:25.000Z</time></trkpt>
      <trkpt lat="34.548769" lon="126.929150"><ele>143.0</ele><time>2022-11-19T02:19:36.000Z</time></trkpt>
      <trkpt lat="34.548789" lon="126.929044"><ele>145.0</ele><time>2022-11-19T02:19:49.000Z</time></trkpt>
      <trkpt lat="34.548800" lon="126.928952"><ele>148.0</ele><time>2022-11-19T02:20:01.000Z</time></trkpt>
      <trkpt lat="34.548803" lon="126.928864"><ele>150.0</ele><time>2022-11-19T02:20:12.000Z</time></trkpt>
      <trkpt lat="34.548825" lon="126.928778"><ele>151.0</ele><time>2022-11-19T02:20:22.000Z</time></trkpt>
      <trkpt lat="34.548798" lon="126.928667"><ele>152.0</ele><time>2022-11-19T02:20:33.000Z</time></trkpt>
      <trkpt lat="34.548751" lon="126.928528"><ele>154.0</ele><time>2022-11-19T02:20:49.000Z</time></trkpt>
      <trkpt lat="34.548730" lon="126.928440"><ele>155.0</ele><time>2022-11-19T02:20:55.000Z</time></trkpt>
      <trkpt lat="34.548671" lon="126.928332"><ele>157.0</ele><time>2022-11-19T02:21:15.000Z</time></trkpt>
      <trkpt lat="34.548641" lon="126.928247"><ele>159.0</ele><time>2022-11-19T02:21:24.000Z</time></trkpt>
      <trkpt lat="34.548594" lon="126.928177"><ele>160.0</ele><time>2022-11-19T02:21:32.000Z</time></trkpt>
      <trkpt lat="34.548574" lon="126.928069"><ele>161.0</ele><time>2022-11-19T02:21:43.000Z</time></trkpt>
      <trkpt lat="34.548586" lon="126.927939"><ele>163.0</ele><time>2022-11-19T02:21:57.000Z</time></trkpt>
      <trkpt lat="34.548584" lon="126.927822"><ele>165.0</ele><time>2022-11-19T02:22:10.000Z</time></trkpt>
      <trkpt lat="34.548520" lon="126.927758"><ele>167.0</ele><time>2022-11-19T02:22:22.000Z</time></trkpt>
      <trkpt lat="34.548489" lon="126.927666"><ele>168.0</ele><time>2022-11-19T02:22:34.000Z</time></trkpt>
      <trkpt lat="34.548560" lon="126.927607"><ele>169.0</ele><time>2022-11-19T02:22:42.000Z</time></trkpt>
      <trkpt lat="34.548640" lon="126.927570"><ele>170.0</ele><time>2022-11-19T02:22:50.000Z</time></trkpt>
      <trkpt lat="34.548729" lon="126.927524"><ele>171.0</ele><time>2022-11-19T02:23:03.000Z</time></trkpt>
      <trkpt lat="34.548785" lon="126.927462"><ele>175.0</ele><time>2022-11-19T02:23:19.000Z</time></trkpt>
      <trkpt lat="34.548862" lon="126.927441"><ele>178.0</ele><time>2022-11-19T02:23:40.000Z</time></trkpt>
      <trkpt lat="34.548856" lon="126.927354"><ele>183.0</ele><time>2022-11-19T02:24:04.000Z</time></trkpt>
      <trkpt lat="34.548890" lon="126.927256"><ele>185.0</ele><time>2022-11-19T02:24:16.000Z</time></trkpt>
      <trkpt lat="34.548900" lon="126.927170"><ele>189.0</ele><time>2022-11-19T02:24:38.000Z</time></trkpt>
      <trkpt lat="34.548941" lon="126.927072"><ele>198.0</ele><time>2022-11-19T02:25:30.000Z</time></trkpt>
      <trkpt lat="34.549005" lon="126.926960"><ele>201.0</ele><time>2022-11-19T02:25:49.000Z</time></trkpt>
      <trkpt lat="34.549035" lon="126.926880"><ele>208.0</ele><time>2022-11-19T02:26:24.000Z</time></trkpt>
      <trkpt lat="34.549092" lon="126.926784"><ele>209.0</ele><time>2022-11-19T02:26:33.000Z</time></trkpt>
      <trkpt lat="34.549098" lon="126.926696"><ele>210.0</ele><time>2022-11-19T02:26:42.000Z</time></trkpt>
      <trkpt lat="34.549080" lon="126.926615"><ele>209.0</ele><time>2022-11-19T02:27:02.000Z</time></trkpt>
      <trkpt lat="34.549039" lon="126.926496"><ele>209.0</ele><time>2022-11-19T02:27:15.000Z</time></trkpt>
      <trkpt lat="34.549030" lon="126.926385"><ele>209.0</ele><time>2022-11-19T02:27:23.000Z</time></trkpt>
      <trkpt lat="34.549025" lon="126.926300"><ele>209.0</ele><time>2022-11-19T02:27:31.000Z</time></trkpt>
      <trkpt lat="34.549019" lon="126.926190"><ele>209.0</ele><time>2022-11-19T02:27:40.000Z</time></trkpt>
      <trkpt lat="34.548986" lon="126.926089"><ele>209.0</ele><time>2022-11-19T02:27:48.000Z</time></trkpt>
      <trkpt lat="34.548971" lon="126.926005"><ele>210.0</ele><time>2022-11-19T02:27:56.000Z</time></trkpt>
      <trkpt lat="34.548941" lon="126.925893"><ele>210.0</ele><time>2022-11-19T02:28:08.000Z</time></trkpt>
      <trkpt lat="34.548928" lon="126.925782"><ele>209.0</ele><time>2022-11-19T02:28:17.000Z</time></trkpt>
      <trkpt lat="34.548926" lon="126.925690"><ele>208.0</ele><time>2022-11-19T02:28:24.000Z</time></trkpt>
      <trkpt lat="34.548948" lon="126.925596"><ele>207.0</ele><time>2022-11-19T02:28:34.000Z</time></trkpt>
      <trkpt lat="34.548986" lon="126.925520"><ele>205.0</ele><time>2022-11-19T02:28:42.000Z</time></trkpt>
      <trkpt lat="34.548987" lon="126.925432"><ele>205.0</ele><time>2022-11-19T02:28:50.000Z</time></trkpt>
      <trkpt lat="34.549027" lon="126.925289"><ele>205.0</ele><time>2022-11-19T02:29:02.000Z</time></trkpt>
      <trkpt lat="34.549092" lon="126.925159"><ele>204.0</ele><time>2022-11-19T02:29:15.000Z</time></trkpt>
      <trkpt lat="34.549107" lon="126.925062"><ele>205.0</ele><time>2022-11-19T02:29:23.000Z</time></trkpt>
      <trkpt lat="34.549149" lon="126.924923"><ele>206.0</ele><time>2022-11-19T02:29:36.000Z</time></trkpt>
      <trkpt lat="34.549187" lon="126.924818"><ele>206.0</ele><time>2022-11-19T02:29:44.000Z</time></trkpt>
      <trkpt lat="34.549149" lon="126.924701"><ele>207.0</ele><time>2022-11-19T02:29:57.000Z</time></trkpt>
      <trkpt lat="34.549106" lon="126.924589"><ele>207.0</ele><time>2022-11-19T02:30:07.000Z</time></trkpt>
      <trkpt lat="34.549085" lon="126.924468"><ele>207.0</ele><time>2022-11-19T02:30:17.000Z</time></trkpt>
      <trkpt lat="34.549037" lon="126.924402"><ele>206.0</ele><time>2022-11-19T02:30:28.000Z</time></trkpt>
      <trkpt lat="34.548956" lon="126.924333"><ele>207.0</ele><time>2022-11-19T02:30:38.000Z</time></trkpt>
      <trkpt lat="34.548884" lon="126.924251"><ele>207.0</ele><time>2022-11-19T02:30:47.000Z</time></trkpt>
      <trkpt lat="34.548799" lon="126.924135"><ele>206.0</ele><time>2022-11-19T02:30:59.000Z</time></trkpt>
      <trkpt lat="34.548744" lon="126.924060"><ele>205.0</ele><time>2022-11-19T02:31:08.000Z</time></trkpt>
      <trkpt lat="34.548681" lon="126.923996"><ele>203.0</ele><time>2022-11-19T02:31:14.000Z</time></trkpt>
      <trkpt lat="34.548600" lon="126.923963"><ele>202.0</ele><time>2022-11-19T02:31:23.000Z</time></trkpt>
      <trkpt lat="34.548516" lon="126.923947"><ele>201.0</ele><time>2022-11-19T02:31:34.000Z</time></trkpt>
      <trkpt lat="34.548439" lon="126.923887"><ele>200.0</ele><time>2022-11-19T02:31:43.000Z</time></trkpt>
      <trkpt lat="34.548378" lon="126.923826"><ele>199.0</ele><time>2022-11-19T02:31:52.000Z</time></trkpt>
      <trkpt lat="34.548373" lon="126.923731"><ele>202.0</ele><time>2022-11-19T02:32:12.000Z</time></trkpt>
      <trkpt lat="34.548349" lon="126.923645"><ele>205.0</ele><time>2022-11-19T02:32:30.000Z</time></trkpt>
      <trkpt lat="34.548310" lon="126.923570"><ele>208.0</ele><time>2022-11-19T02:32:45.000Z</time></trkpt>
      <trkpt lat="34.548282" lon="126.923478"><ele>209.0</ele><time>2022-11-19T02:32:58.000Z</time></trkpt>
      <trkpt lat="34.548225" lon="126.923398"><ele>213.0</ele><time>2022-11-19T02:33:17.000Z</time></trkpt>
      <trkpt lat="34.548160" lon="126.923361"><ele>214.0</ele><time>2022-11-19T02:33:27.000Z</time></trkpt>
      <trkpt lat="34.548082" lon="126.923226"><ele>221.0</ele><time>2022-11-19T02:34:07.000Z</time></trkpt>
      <trkpt lat="34.548071" lon="126.923136"><ele>224.0</ele><time>2022-11-19T02:34:20.000Z</time></trkpt>
      <trkpt lat="34.548062" lon="126.923006"><ele>227.0</ele><time>2022-11-19T02:34:37.000Z</time></trkpt>
      <trkpt lat="34.548060" lon="126.922903"><ele>228.0</ele><time>2022-11-19T02:34:49.000Z</time></trkpt>
      <trkpt lat="34.548051" lon="126.922802"><ele>232.0</ele><time>2022-11-19T02:35:06.000Z</time></trkpt>
      <trkpt lat="34.548053" lon="126.922713"><ele>235.0</ele><time>2022-11-19T02:35:22.000Z</time></trkpt>
      <trkpt lat="34.547996" lon="126.922656"><ele>240.0</ele><time>2022-11-19T02:35:51.000Z</time></trkpt>
      <trkpt lat="34.547915" lon="126.922636"><ele>244.0</ele><time>2022-11-19T02:36:18.000Z</time></trkpt>
      <trkpt lat="34.547882" lon="126.922555"><ele>248.0</ele><time>2022-11-19T02:36:40.000Z</time></trkpt>
      <trkpt lat="34.547869" lon="126.922467"><ele>251.0</ele><time>2022-11-19T02:36:59.000Z</time></trkpt>
      <trkpt lat="34.547809" lon="126.922413"><ele>254.0</ele><time>2022-11-19T02:37:22.000Z</time></trkpt>
      <trkpt lat="34.547764" lon="126.922351"><ele>259.0</ele><time>2022-11-19T02:37:47.000Z</time></trkpt>
      <trkpt lat="34.547720" lon="126.922260"><ele>262.0</ele><time>2022-11-19T02:38:08.000Z</time></trkpt>
      <trkpt lat="34.547700" lon="126.922180"><ele>258.0</ele><time>2022-11-19T02:38:41.000Z</time></trkpt>
      <trkpt lat="34.547735" lon="126.922113"><ele>259.0</ele><time>2022-11-19T02:38:56.000Z</time></trkpt>
      <trkpt lat="34.547716" lon="126.922013"><ele>271.0</ele><time>2022-11-19T02:39:34.000Z</time></trkpt>
      <trkpt lat="34.547658" lon="126.921943"><ele>274.0</ele><time>2022-11-19T02:39:51.000Z</time></trkpt>
      <trkpt lat="34.547625" lon="126.921861"><ele>277.0</ele><time>2022-11-19T02:40:07.000Z</time></trkpt>
      <trkpt lat="34.547584" lon="126.921792"><ele>280.0</ele><time>2022-11-19T02:40:24.000Z</time></trkpt>
      <trkpt lat="34.547528" lon="126.921745"><ele>284.0</ele><time>2022-11-19T02:40:44.000Z</time></trkpt>
      <trkpt lat="34.547443" lon="126.921700"><ele>285.0</ele><time>2022-11-19T02:40:57.000Z</time></trkpt>
      <trkpt lat="34.547332" lon="126.921660"><ele>288.0</ele><time>2022-11-19T02:41:19.000Z</time></trkpt>
      <trkpt lat="34.547247" lon="126.921598"><ele>291.0</ele><time>2022-11-19T02:41:42.000Z</time></trkpt>
      <trkpt lat="34.547196" lon="126.921536"><ele>293.0</ele><time>2022-11-19T02:41:54.000Z</time></trkpt>
      <trkpt lat="34.547115" lon="126.921481"><ele>297.0</ele><time>2022-11-19T02:42:21.000Z</time></trkpt>
      <trkpt lat="34.547034" lon="126.921464"><ele>299.0</ele><time>2022-11-19T02:42:36.000Z</time></trkpt>
      <trkpt lat="34.546985" lon="126.921378"><ele>302.0</ele><time>2022-11-19T02:42:53.000Z</time></trkpt>
      <trkpt lat="34.546911" lon="126.921372"><ele>305.0</ele><time>2022-11-19T02:43:13.000Z</time></trkpt>
      <trkpt lat="34.546862" lon="126.921439"><ele>308.0</ele><time>2022-11-19T02:43:30.000Z</time></trkpt>
      <trkpt lat="34.546794" lon="126.921435"><ele>308.0</ele><time>2022-11-19T02:43:42.000Z</time></trkpt>
      <trkpt lat="34.546728" lon="126.921432"><ele>310.0</ele><time>2022-11-19T02:44:02.000Z</time></trkpt>
      <trkpt lat="34.546646" lon="126.921413"><ele>313.0</ele><time>2022-11-19T02:44:19.000Z</time></trkpt>
      <trkpt lat="34.546597" lon="126.921321"><ele>315.0</ele><time>2022-11-19T02:44:34.000Z</time></trkpt>
      <trkpt lat="34.546597" lon="126.921237"><ele>318.0</ele><time>2022-11-19T02:44:47.000Z</time></trkpt>
      <trkpt lat="34.546543" lon="126.921176"><ele>322.0</ele><time>2022-11-19T02:45:07.000Z</time></trkpt>
      <trkpt lat="34.546497" lon="126.921100"><ele>324.0</ele><time>2022-11-19T02:45:29.000Z</time></trkpt>
      <trkpt lat="34.546422" lon="126.921046"><ele>328.0</ele><time>2022-11-19T02:45:50.000Z</time></trkpt>
      <trkpt lat="34.546359" lon="126.920993"><ele>332.0</ele><time>2022-11-19T02:46:10.000Z</time></trkpt>
      <trkpt lat="34.546329" lon="126.920915"><ele>334.0</ele><time>2022-11-19T02:46:23.000Z</time></trkpt>
      <trkpt lat="34.546268" lon="126.920849"><ele>336.0</ele><time>2022-11-19T02:46:40.000Z</time></trkpt>
      <trkpt lat="34.546221" lon="126.920766"><ele>339.0</ele><time>2022-11-19T02:46:57.000Z</time></trkpt>
      <trkpt lat="34.546131" lon="126.920750"><ele>345.0</ele><time>2022-11-19T02:48:19.000Z</time></trkpt>
      <trkpt lat="34.546068" lon="126.920697"><ele>348.0</ele><time>2022-11-19T02:48:35.000Z</time></trkpt>
      <trkpt lat="34.546004" lon="126.920646"><ele>351.0</ele><time>2022-11-19T02:48:52.000Z</time></trkpt>
      <trkpt lat="34.545968" lon="126.920553"><ele>355.0</ele><time>2022-11-19T02:49:09.000Z</time></trkpt>
      <trkpt lat="34.545904" lon="126.920482"><ele>357.0</ele><time>2022-11-19T02:50:02.000Z</time></trkpt>
      <trkpt lat="34.545847" lon="126.920406"><ele>359.0</ele><time>2022-11-19T02:50:16.000Z</time></trkpt>
      <trkpt lat="34.545812" lon="126.920333"><ele>361.0</ele><time>2022-11-19T02:50:26.000Z</time></trkpt>
      <trkpt lat="34.545771" lon="126.920220"><ele>363.0</ele><time>2022-11-19T02:50:44.000Z</time></trkpt>
      <trkpt lat="34.545715" lon="126.920146"><ele>365.0</ele><time>2022-11-19T02:51:00.000Z</time></trkpt>
      <trkpt lat="34.545690" lon="126.920040"><ele>368.0</ele><time>2022-11-19T02:51:17.000Z</time></trkpt>
      <trkpt lat="34.545634" lon="126.919990"><ele>371.0</ele><time>2022-11-19T02:51:32.000Z</time></trkpt>
      <trkpt lat="34.545601" lon="126.919912"><ele>374.0</ele><time>2022-11-19T02:51:50.000Z</time></trkpt>
      <trkpt lat="34.545528" lon="126.919890"><ele>378.0</ele><time>2022-11-19T02:52:14.000Z</time></trkpt>
      <trkpt lat="34.545505" lon="126.919805"><ele>387.0</ele><time>2022-11-19T02:52:30.000Z</time></trkpt>
      <trkpt lat="34.545472" lon="126.919730"><ele>384.0</ele><time>2022-11-19T02:53:09.000Z</time></trkpt>
      <trkpt lat="34.545431" lon="126.919647"><ele>389.0</ele><time>2022-11-19T02:53:57.000Z</time></trkpt>
      <trkpt lat="34.545415" lon="126.919563"><ele>393.0</ele><time>2022-11-19T02:54:17.000Z</time></trkpt>
      <trkpt lat="34.545377" lon="126.919490"><ele>398.0</ele><time>2022-11-19T02:54:49.000Z</time></trkpt>
      <trkpt lat="34.545306" lon="126.919449"><ele>402.0</ele><time>2022-11-19T02:55:15.000Z</time></trkpt>
      <trkpt lat="34.545236" lon="126.919428"><ele>406.0</ele><time>2022-11-19T02:55:35.000Z</time></trkpt>
      <trkpt lat="34.545200" lon="126.919342"><ele>410.0</ele><time>2022-11-19T02:55:59.000Z</time></trkpt>
      <trkpt lat="34.545160" lon="126.919278"><ele>415.0</ele><time>2022-11-19T02:56:28.000Z</time></trkpt>
      <trkpt lat="34.545079" lon="126.919142"><ele>423.0</ele><time>2022-11-19T02:57:16.000Z</time></trkpt>
      <trkpt lat="34.545090" lon="126.919051"><ele>427.0</ele><time>2022-11-19T02:57:49.000Z</time></trkpt>
      <trkpt lat="34.545130" lon="126.918986"><ele>428.0</ele><time>2022-11-19T02:58:01.000Z</time></trkpt>
      <trkpt lat="34.545064" lon="126.918919"><ele>433.0</ele><time>2022-11-19T02:58:39.000Z</time></trkpt>
      <trkpt lat="34.545066" lon="126.918828"><ele>437.0</ele><time>2022-11-19T02:59:03.000Z</time></trkpt>
      <trkpt lat="34.545036" lon="126.918736"><ele>441.0</ele><time>2022-11-19T02:59:29.000Z</time></trkpt>
      <trkpt lat="34.544995" lon="126.918663"><ele>445.0</ele><time>2022-11-19T02:59:48.000Z</time></trkpt>
      <trkpt lat="34.544933" lon="126.918625"><ele>448.0</ele><time>2022-11-19T03:00:04.000Z</time></trkpt>
      <trkpt lat="34.544911" lon="126.918537"><ele>451.0</ele><time>2022-11-19T03:00:24.000Z</time></trkpt>
      <trkpt lat="34.544832" lon="126.918423"><ele>457.0</ele><time>2022-11-19T03:01:18.000Z</time></trkpt>
      <trkpt lat="34.544769" lon="126.918388"><ele>459.0</ele><time>2022-11-19T03:01:31.000Z</time></trkpt>
      <trkpt lat="34.544700" lon="126.918345"><ele>461.0</ele><time>2022-11-19T03:03:17.000Z</time></trkpt>
      <trkpt lat="34.544643" lon="126.918282"><ele>463.0</ele><time>2022-11-19T03:03:28.000Z</time></trkpt>
      <trkpt lat="34.544612" lon="126.918215"><ele>465.0</ele><time>2022-11-19T03:03:37.000Z</time></trkpt>
      <trkpt lat="34.544546" lon="126.918168"><ele>466.0</ele><time>2022-11-19T03:03:49.000Z</time></trkpt>
      <trkpt lat="34.544481" lon="126.918124"><ele>468.0</ele><time>2022-11-19T03:04:01.000Z</time></trkpt>
      <trkpt lat="34.544421" lon="126.918074"><ele>471.0</ele><time>2022-11-19T03:04:18.000Z</time></trkpt>
      <trkpt lat="34.544369" lon="126.918021"><ele>474.0</ele><time>2022-11-19T03:04:35.000Z</time></trkpt>
      <trkpt lat="34.544334" lon="126.917949"><ele>478.0</ele><time>2022-11-19T03:04:55.000Z</time></trkpt>
      <trkpt lat="34.544270" lon="126.917906"><ele>481.0</ele><time>2022-11-19T03:05:15.000Z</time></trkpt>
      <trkpt lat="34.544198" lon="126.917857"><ele>483.0</ele><time>2022-11-19T03:05:37.000Z</time></trkpt>
      <trkpt lat="34.544115" lon="126.917807"><ele>485.0</ele><time>2022-11-19T03:05:57.000Z</time></trkpt>
      <trkpt lat="34.544061" lon="126.917749"><ele>487.0</ele><time>2022-11-19T03:06:08.000Z</time></trkpt>
      <trkpt lat="34.544122" lon="126.917706"><ele>489.0</ele><time>2022-11-19T03:06:38.000Z</time></trkpt>
      <trkpt lat="34.544037" lon="126.917729"><ele>487.0</ele><time>2022-11-19T03:06:58.000Z</time></trkpt>
      <trkpt lat="34.543942" lon="126.917697"><ele>488.0</ele><time>2022-11-19T03:07:14.000Z</time></trkpt>
      <trkpt lat="34.543870" lon="126.917683"><ele>487.0</ele><time>2022-11-19T03:07:27.000Z</time></trkpt>
      <trkpt lat="34.543796" lon="126.917671"><ele>490.0</ele><time>2022-11-19T03:07:39.000Z</time></trkpt>
      <trkpt lat="34.543683" lon="126.917660"><ele>492.0</ele><time>2022-11-19T03:08:11.000Z</time></trkpt>
      <trkpt lat="34.543629" lon="126.917598"><ele>493.0</ele><time>2022-11-19T03:08:31.000Z</time></trkpt>
      <trkpt lat="34.543563" lon="126.917517"><ele>495.0</ele><time>2022-11-19T03:08:44.000Z</time></trkpt>
      <trkpt lat="34.543517" lon="126.917418"><ele>495.0</ele><time>2022-11-19T03:09:04.000Z</time></trkpt>
      <trkpt lat="34.543466" lon="126.917347"><ele>497.0</ele><time>2022-11-19T03:09:16.000Z</time></trkpt>
      <trkpt lat="34.543393" lon="126.917289"><ele>499.0</ele><time>2022-11-19T03:09:29.000Z</time></trkpt>
      <trkpt lat="34.543357" lon="126.917189"><ele>503.0</ele><time>2022-11-19T03:09:45.000Z</time></trkpt>
      <trkpt lat="34.543286" lon="126.917127"><ele>506.0</ele><time>2022-11-19T03:10:13.000Z</time></trkpt>
      <trkpt lat="34.543229" lon="126.917056"><ele>509.0</ele><time>2022-11-19T03:10:31.000Z</time></trkpt>
      <trkpt lat="34.543193" lon="126.916969"><ele>514.0</ele><time>2022-11-19T03:10:53.000Z</time></trkpt>
      <trkpt lat="34.543250" lon="126.916878"><ele>515.0</ele><time>2022-11-19T03:11:11.000Z</time></trkpt>
      <trkpt lat="34.543301" lon="126.916951"><ele>515.0</ele><time>2022-11-19T03:12:39.000Z</time></trkpt>
      <trkpt lat="34.543226" lon="126.916906"><ele>514.0</ele><time>2022-11-19T03:12:57.000Z</time></trkpt>
      <trkpt lat="34.543167" lon="126.916843"><ele>514.0</ele><time>2022-11-19T03:13:12.000Z</time></trkpt>
      <trkpt lat="34.543095" lon="126.916787"><ele>514.0</ele><time>2022-11-19T03:13:20.000Z</time></trkpt>
      <trkpt lat="34.543023" lon="126.916753"><ele>515.0</ele><time>2022-11-19T03:13:29.000Z</time></trkpt>
      <trkpt lat="34.542934" lon="126.916742"><ele>516.0</ele><time>2022-11-19T03:13:40.000Z</time></trkpt>
      <trkpt lat="34.542875" lon="126.916695"><ele>518.0</ele><time>2022-11-19T03:13:50.000Z</time></trkpt>
      <trkpt lat="34.542827" lon="126.916623"><ele>519.0</ele><time>2022-11-19T03:14:02.000Z</time></trkpt>
      <trkpt lat="34.542747" lon="126.916577"><ele>521.0</ele><time>2022-11-19T03:14:17.000Z</time></trkpt>
      <trkpt lat="34.542663" lon="126.916560"><ele>524.0</ele><time>2022-11-19T03:14:35.000Z</time></trkpt>
      <trkpt lat="34.542610" lon="126.916493"><ele>526.0</ele><time>2022-11-19T03:14:50.000Z</time></trkpt>
      <trkpt lat="34.542542" lon="126.916438"><ele>528.0</ele><time>2022-11-19T03:15:10.000Z</time></trkpt>
      <trkpt lat="34.542443" lon="126.916417"><ele>530.0</ele><time>2022-11-19T03:15:26.000Z</time></trkpt>
      <trkpt lat="34.542373" lon="126.916341"><ele>530.0</ele><time>2022-11-19T03:15:37.000Z</time></trkpt>
      <trkpt lat="34.542304" lon="126.916293"><ele>530.0</ele><time>2022-11-19T03:15:49.000Z</time></trkpt>
      <trkpt lat="34.542291" lon="126.916180"><ele>529.0</ele><time>2022-11-19T03:16:40.000Z</time></trkpt>
      <trkpt lat="34.542226" lon="126.916088"><ele>530.0</ele><time>2022-11-19T03:16:53.000Z</time></trkpt>
      <trkpt lat="34.542156" lon="126.916016"><ele>531.0</ele><time>2022-11-19T03:17:04.000Z</time></trkpt>
      <trkpt lat="34.542095" lon="126.915945"><ele>532.0</ele><time>2022-11-19T03:17:14.000Z</time></trkpt>
      <trkpt lat="34.542022" lon="126.915828"><ele>532.0</ele><time>2022-11-19T03:17:25.000Z</time></trkpt>
      <trkpt lat="34.541950" lon="126.915769"><ele>532.0</ele><time>2022-11-19T03:17:38.000Z</time></trkpt>
      <trkpt lat="34.541925" lon="126.915667"><ele>534.0</ele><time>2022-11-19T03:17:50.000Z</time></trkpt>
      <trkpt lat="34.541873" lon="126.915603"><ele>534.0</ele><time>2022-11-19T03:18:10.000Z</time></trkpt>
      <trkpt lat="34.541794" lon="126.915530"><ele>535.0</ele><time>2022-11-19T03:18:22.000Z</time></trkpt>
      <trkpt lat="34.541741" lon="126.915449"><ele>536.0</ele><time>2022-11-19T03:18:31.000Z</time></trkpt>
      <trkpt lat="34.541671" lon="126.915368"><ele>538.0</ele><time>2022-11-19T03:18:43.000Z</time></trkpt>
      <trkpt lat="34.541609" lon="126.915299"><ele>540.0</ele><time>2022-11-19T03:18:55.000Z</time></trkpt>
      <trkpt lat="34.541558" lon="126.915225"><ele>542.0</ele><time>2022-11-19T03:19:11.000Z</time></trkpt>
      <trkpt lat="34.541451" lon="126.915209"><ele>545.0</ele><time>2022-11-19T03:19:28.000Z</time></trkpt>
      <trkpt lat="34.541396" lon="126.915137"><ele>548.0</ele><time>2022-11-19T03:19:44.000Z</time></trkpt>
      <trkpt lat="34.541343" lon="126.915060"><ele>552.0</ele><time>2022-11-19T03:20:01.000Z</time></trkpt>
      <trkpt lat="34.541288" lon="126.914984"><ele>553.0</ele><time>2022-11-19T03:20:17.000Z</time></trkpt>
      <trkpt lat="34.541247" lon="126.914883"><ele>554.0</ele><time>2022-11-19T03:20:36.000Z</time></trkpt>
      <trkpt lat="34.541179" lon="126.914835"><ele>556.0</ele><time>2022-11-19T03:20:49.000Z</time></trkpt>
      <trkpt lat="34.541153" lon="126.914743"><ele>558.0</ele><time>2022-11-19T03:21:02.000Z</time></trkpt>
      <trkpt lat="34.541131" lon="126.914648"><ele>559.0</ele><time>2022-11-19T03:21:22.000Z</time></trkpt>
      <trkpt lat="34.541086" lon="126.914575"><ele>565.0</ele><time>2022-11-19T03:22:10.000Z</time></trkpt>
      <trkpt lat="34.541034" lon="126.914485"><ele>568.0</ele><time>2022-11-19T03:22:56.000Z</time></trkpt>
      <trkpt lat="34.540982" lon="126.914406"><ele>572.0</ele><time>2022-11-19T03:23:11.000Z</time></trkpt>
      <trkpt lat="34.540990" lon="126.914308"><ele>576.0</ele><time>2022-11-19T03:24:46.000Z</time></trkpt>
      <trkpt lat="34.540917" lon="126.914285"><ele>577.0</ele><time>2022-11-19T03:26:13.000Z</time></trkpt>
      <trkpt lat="34.540833" lon="126.914256"><ele>577.0</ele><time>2022-11-19T03:26:27.000Z</time></trkpt>
      <trkpt lat="34.540760" lon="126.914238"><ele>578.0</ele><time>2022-11-19T03:26:35.000Z</time></trkpt>
      <trkpt lat="34.540688" lon="126.914204"><ele>580.0</ele><time>2022-11-19T03:26:50.000Z</time></trkpt>
      <trkpt lat="34.540688" lon="126.914204"><ele>583.0</ele><time>2022-11-19T03:29:54.000Z</time></trkpt>
      <trkpt lat="34.540698" lon="126.914183"><ele>580.0</ele><time>2022-11-19T03:30:13.000Z</time></trkpt>
      <trkpt lat="34.540619" lon="126.914215"><ele>581.0</ele><time>2022-11-19T03:30:22.000Z</time></trkpt>
      <trkpt lat="34.540530" lon="126.914200"><ele>584.0</ele><time>2022-11-19T03:30:38.000Z</time></trkpt>
      <trkpt lat="34.540458" lon="126.914208"><ele>586.0</ele><time>2022-11-19T03:30:51.000Z</time></trkpt>
      <trkpt lat="34.540406" lon="126.914142"><ele>588.0</ele><time>2022-11-19T03:31:03.000Z</time></trkpt>
      <trkpt lat="34.540341" lon="126.914082"><ele>589.0</ele><time>2022-11-19T03:31:16.000Z</time></trkpt>
      <trkpt lat="34.540294" lon="126.913977"><ele>588.0</ele><time>2022-11-19T03:31:28.000Z</time></trkpt>
      <trkpt lat="34.540224" lon="126.913941"><ele>586.0</ele><time>2022-11-19T03:31:39.000Z</time></trkpt>
      <trkpt lat="34.540142" lon="126.913888"><ele>588.0</ele><time>2022-11-19T03:31:53.000Z</time></trkpt>
      <trkpt lat="34.540067" lon="126.913824"><ele>593.0</ele><time>2022-11-19T03:32:39.000Z</time></trkpt>
      <trkpt lat="34.540009" lon="126.913714"><ele>594.0</ele><time>2022-11-19T03:32:51.000Z</time></trkpt>
      <trkpt lat="34.540033" lon="126.913628"><ele>602.0</ele><time>2022-11-19T03:33:24.000Z</time></trkpt>
      <trkpt lat="34.540062" lon="126.913522"><ele>606.0</ele><time>2022-11-19T03:34:14.000Z</time></trkpt>
      <trkpt lat="34.540114" lon="126.913457"><ele>613.0</ele><time>2022-11-19T03:34:47.000Z</time></trkpt>
      <trkpt lat="34.540181" lon="126.913409"><ele>616.0</ele><time>2022-11-19T03:35:04.000Z</time></trkpt>
      <trkpt lat="34.540237" lon="126.913482"><ele>617.0</ele><time>2022-11-19T03:35:19.000Z</time></trkpt>
      <trkpt lat="34.540263" lon="126.913571"><ele>620.0</ele><time>2022-11-19T03:35:32.000Z</time></trkpt>
      <trkpt lat="34.540231" lon="126.913495"><ele>616.0</ele><time>2022-11-19T03:37:36.000Z</time></trkpt>
      <trkpt lat="34.540207" lon="126.913399"><ele>617.0</ele><time>2022-11-19T03:37:44.000Z</time></trkpt>
      <trkpt lat="34.540147" lon="126.913326"><ele>618.0</ele><time>2022-11-19T03:37:54.000Z</time></trkpt>
      <trkpt lat="34.540100" lon="126.913238"><ele>620.0</ele><time>2022-11-19T03:38:00.000Z</time></trkpt>
      <trkpt lat="34.540040" lon="126.913176"><ele>620.0</ele><time>2022-11-19T03:38:45.000Z</time></trkpt>
      <trkpt lat="34.539958" lon="126.913134"><ele>622.0</ele><time>2022-11-19T03:38:57.000Z</time></trkpt>
      <trkpt lat="34.539883" lon="126.913108"><ele>625.0</ele><time>2022-11-19T03:39:10.000Z</time></trkpt>
      <trkpt lat="34.539825" lon="126.913062"><ele>630.0</ele><time>2022-11-19T03:40:23.000Z</time></trkpt>
      <trkpt lat="34.539759" lon="126.913010"><ele>634.0</ele><time>2022-11-19T03:40:45.000Z</time></trkpt>
      <trkpt lat="34.539724" lon="126.912937"><ele>635.0</ele><time>2022-11-19T03:41:00.000Z</time></trkpt>
      <trkpt lat="34.539613" lon="126.912905"><ele>636.0</ele><time>2022-11-19T03:41:13.000Z</time></trkpt>
      <trkpt lat="34.539539" lon="126.912907"><ele>639.0</ele><time>2022-11-19T03:41:25.000Z</time></trkpt>
      <trkpt lat="34.539487" lon="126.912849"><ele>644.0</ele><time>2022-11-19T03:41:49.000Z</time></trkpt>
      <trkpt lat="34.539440" lon="126.912753"><ele>653.0</ele><time>2022-11-19T03:42:36.000Z</time></trkpt>
      <trkpt lat="34.539489" lon="126.912690"><ele>656.0</ele><time>2022-11-19T03:43:07.000Z</time></trkpt>
      <trkpt lat="34.539455" lon="126.912610"><ele>661.0</ele><time>2022-11-19T03:44:11.000Z</time></trkpt>
      <trkpt lat="34.539380" lon="126.912616"><ele>661.0</ele><time>2022-11-19T03:44:36.000Z</time></trkpt>
      <trkpt lat="34.539299" lon="126.912618"><ele>663.0</ele><time>2022-11-19T03:45:01.000Z</time></trkpt>
      <trkpt lat="34.539312" lon="126.912535"><ele>667.0</ele><time>2022-11-19T03:45:13.000Z</time></trkpt>
      <trkpt lat="34.539322" lon="126.912440"><ele>673.0</ele><time>2022-11-19T03:45:35.000Z</time></trkpt>
      <trkpt lat="34.539326" lon="126.912344"><ele>670.0</ele><time>2022-11-19T03:46:11.000Z</time></trkpt>
      <trkpt lat="34.539265" lon="126.912262"><ele>666.0</ele><time>2022-11-19T03:46:37.000Z</time></trkpt>
      <trkpt lat="34.539200" lon="126.912204"><ele>661.0</ele><time>2022-11-19T03:46:57.000Z</time></trkpt>
      <trkpt lat="34.539150" lon="126.912133"><ele>658.0</ele><time>2022-11-19T03:47:13.000Z</time></trkpt>
      <trkpt lat="34.539085" lon="126.912069"><ele>661.0</ele><time>2022-11-19T03:47:26.000Z</time></trkpt>
      <trkpt lat="34.539021" lon="126.911948"><ele>658.0</ele><time>2022-11-19T03:47:47.000Z</time></trkpt>
      <trkpt lat="34.538954" lon="126.911991"><ele>660.0</ele><time>2022-11-19T03:47:59.000Z</time></trkpt>
      <trkpt lat="34.538927" lon="126.912070"><ele>663.0</ele><time>2022-11-19T03:48:11.000Z</time></trkpt>
      <trkpt lat="34.538864" lon="126.912132"><ele>666.0</ele><time>2022-11-19T03:48:22.000Z</time></trkpt>
      <trkpt lat="34.538786" lon="126.912152"><ele>669.0</ele><time>2022-11-19T03:48:47.000Z</time></trkpt>
      <trkpt lat="34.538610" lon="126.912238"><ele>675.0</ele><time>2022-11-19T03:49:20.000Z</time></trkpt>
      <trkpt lat="34.538530" lon="126.912250"><ele>678.0</ele><time>2022-11-19T03:49:36.000Z</time></trkpt>
      <trkpt lat="34.538411" lon="126.912233"><ele>678.0</ele><time>2022-11-19T03:49:50.000Z</time></trkpt>
      <trkpt lat="34.538338" lon="126.912232"><ele>672.0</ele><time>2022-11-19T03:50:01.000Z</time></trkpt>
      <trkpt lat="34.538258" lon="126.912193"><ele>681.0</ele><time>2022-11-19T03:50:14.000Z</time></trkpt>
      <trkpt lat="34.538173" lon="126.912170"><ele>682.0</ele><time>2022-11-19T03:50:26.000Z</time></trkpt>
      <trkpt lat="34.538095" lon="126.912169"><ele>684.0</ele><time>2022-11-19T03:50:38.000Z</time></trkpt>
      <trkpt lat="34.538045" lon="126.912242"><ele>689.0</ele><time>2022-11-19T03:50:54.000Z</time></trkpt>
      <trkpt lat="34.538067" lon="126.912342"><ele>690.0</ele><time>2022-11-19T03:51:10.000Z</time></trkpt>
      <trkpt lat="34.537995" lon="126.912346"><ele>692.0</ele><time>2022-11-19T03:51:32.000Z</time></trkpt>
      <trkpt lat="34.537917" lon="126.912395"><ele>684.0</ele><time>2022-11-19T03:51:52.000Z</time></trkpt>
      <trkpt lat="34.537844" lon="126.912387"><ele>683.0</ele><time>2022-11-19T03:52:01.000Z</time></trkpt>
      <trkpt lat="34.537754" lon="126.912401"><ele>685.0</ele><time>2022-11-19T03:52:12.000Z</time></trkpt>
      <trkpt lat="34.537667" lon="126.912421"><ele>688.0</ele><time>2022-11-19T03:52:25.000Z</time></trkpt>
      <trkpt lat="34.537588" lon="126.912388"><ele>692.0</ele><time>2022-11-19T03:52:42.000Z</time></trkpt>
      <trkpt lat="34.537514" lon="126.912354"><ele>698.0</ele><time>2022-11-19T03:53:02.000Z</time></trkpt>
      <trkpt lat="34.537446" lon="126.912324"><ele>702.0</ele><time>2022-11-19T03:53:20.000Z</time></trkpt>
      <trkpt lat="34.537403" lon="126.912249"><ele>704.0</ele><time>2022-11-19T03:54:23.000Z</time></trkpt>
      <trkpt lat="34.537315" lon="126.912308"><ele>706.0</ele><time>2022-11-19T03:55:38.000Z</time></trkpt>
      <trkpt lat="34.537238" lon="126.912335"><ele>707.0</ele><time>2022-11-19T03:56:38.000Z</time></trkpt>
      <trkpt lat="34.537173" lon="126.912291"><ele>708.0</ele><time>2022-11-19T03:56:47.000Z</time></trkpt>
      <trkpt lat="34.537079" lon="126.912254"><ele>709.0</ele><time>2022-11-19T03:56:59.000Z</time></trkpt>
      <trkpt lat="34.537008" lon="126.912298"><ele>710.0</ele><time>2022-11-19T03:57:12.000Z</time></trkpt>
      <trkpt lat="34.536966" lon="126.912209"><ele>708.0</ele><time>2022-11-19T03:57:57.000Z</time></trkpt>
      <trkpt lat="34.536876" lon="126.912169"><ele>708.0</ele><time>2022-11-19T03:58:10.000Z</time></trkpt>
      <trkpt lat="34.536773" lon="126.912186"><ele>709.0</ele><time>2022-11-19T03:58:23.000Z</time></trkpt>
      <trkpt lat="34.536657" lon="126.912213"><ele>711.0</ele><time>2022-11-19T03:58:35.000Z</time></trkpt>
      <trkpt lat="34.536546" lon="126.912185"><ele>714.0</ele><time>2022-11-19T03:58:55.000Z</time></trkpt>
      <trkpt lat="34.536468" lon="126.912124"><ele>713.0</ele><time>2022-11-19T03:59:04.000Z</time></trkpt>
      <trkpt lat="34.536404" lon="126.912071"><ele>714.0</ele><time>2022-11-19T03:59:12.000Z</time></trkpt>
      <trkpt lat="34.536336" lon="126.912047"><ele>713.0</ele><time>2022-11-19T03:59:24.000Z</time></trkpt>
      <trkpt lat="34.536302" lon="126.911959"><ele>711.0</ele><time>2022-11-19T03:59:52.000Z</time></trkpt>
      <trkpt lat="34.536241" lon="126.911881"><ele>710.0</ele><time>2022-11-19T04:00:01.000Z</time></trkpt>
      <trkpt lat="34.536170" lon="126.911855"><ele>713.0</ele><time>2022-11-19T04:00:09.000Z</time></trkpt>
      <trkpt lat="34.536099" lon="126.911836"><ele>715.0</ele><time>2022-11-19T04:00:19.000Z</time></trkpt>
      <trkpt lat="34.536018" lon="126.911775"><ele>717.0</ele><time>2022-11-19T04:00:30.000Z</time></trkpt>
      <trkpt lat="34.535945" lon="126.911816"><ele>723.0</ele><time>2022-11-19T04:01:00.000Z</time></trkpt>
      <trkpt lat="34.535878" lon="126.911857"><ele>727.0</ele><time>2022-11-19T04:01:24.000Z</time></trkpt>
      <trkpt lat="34.535791" lon="126.911857"><ele>730.0</ele><time>2022-11-19T04:01:40.000Z</time></trkpt>
      <trkpt lat="34.535709" lon="126.911860"><ele>735.0</ele><time>2022-11-19T04:02:10.000Z</time></trkpt>
      <trkpt lat="34.535661" lon="126.911936"><ele>738.0</ele><time>2022-11-19T04:02:34.000Z</time></trkpt>
      <trkpt lat="34.535607" lon="126.911844"><ele>739.0</ele><time>2022-11-19T04:02:51.000Z</time></trkpt>
      <trkpt lat="34.535531" lon="126.911767"><ele>739.0</ele><time>2022-11-19T04:04:21.000Z</time></trkpt>
      <trkpt lat="34.535504" lon="126.911650"><ele>740.0</ele><time>2022-11-19T04:04:29.000Z</time></trkpt>
      <trkpt lat="34.535483" lon="126.911544"><ele>741.0</ele><time>2022-11-19T04:04:37.000Z</time></trkpt>
      <trkpt lat="34.535469" lon="126.911441"><ele>742.0</ele><time>2022-11-19T04:04:46.000Z</time></trkpt>
      <trkpt lat="34.535464" lon="126.911333"><ele>744.0</ele><time>2022-11-19T04:04:54.000Z</time></trkpt>
      <trkpt lat="34.535471" lon="126.911240"><ele>744.0</ele><time>2022-11-19T04:05:01.000Z</time></trkpt>
      <trkpt lat="34.535494" lon="126.911150"><ele>744.0</ele><time>2022-11-19T04:05:10.000Z</time></trkpt>
      <trkpt lat="34.535557" lon="126.911048"><ele>741.0</ele><time>2022-11-19T04:05:28.000Z</time></trkpt>
      <trkpt lat="34.535607" lon="126.910959"><ele>741.0</ele><time>2022-11-19T04:05:36.000Z</time></trkpt>
      <trkpt lat="34.535632" lon="126.910871"><ele>737.0</ele><time>2022-11-19T04:05:57.000Z</time></trkpt>
      <trkpt lat="34.535639" lon="126.910780"><ele>734.0</ele><time>2022-11-19T04:06:04.000Z</time></trkpt>
      <trkpt lat="34.535679" lon="126.910692"><ele>731.0</ele><time>2022-11-19T04:06:17.000Z</time></trkpt>
      <trkpt lat="34.535634" lon="126.910771"><ele>736.0</ele><time>2022-11-19T04:06:38.000Z</time></trkpt>
      <trkpt lat="34.535634" lon="126.910880"><ele>738.0</ele><time>2022-11-19T04:06:49.000Z</time></trkpt>
      <trkpt lat="34.535591" lon="126.910980"><ele>740.0</ele><time>2022-11-19T04:07:55.000Z</time></trkpt>
      <trkpt lat="34.535551" lon="126.911083"><ele>742.0</ele><time>2022-11-19T04:08:08.000Z</time></trkpt>
      <trkpt lat="34.535504" lon="126.911162"><ele>744.0</ele><time>2022-11-19T04:08:20.000Z</time></trkpt>
      <trkpt lat="34.535479" lon="126.911260"><ele>744.0</ele><time>2022-11-19T04:08:44.000Z</time></trkpt>
      <trkpt lat="34.535480" lon="126.911374"><ele>744.0</ele><time>2022-11-19T04:08:48.000Z</time></trkpt>
      <trkpt lat="34.535482" lon="126.911463"><ele>742.0</ele><time>2022-11-19T04:08:57.000Z</time></trkpt>
      <trkpt lat="34.535488" lon="126.911579"><ele>740.0</ele><time>2022-11-19T04:09:08.000Z</time></trkpt>
      <trkpt lat="34.535514" lon="126.911684"><ele>739.0</ele><time>2022-11-19T04:09:16.000Z</time></trkpt>
      <trkpt lat="34.535540" lon="126.911796"><ele>739.0</ele><time>2022-11-19T04:09:24.000Z</time></trkpt>
      <trkpt lat="34.535591" lon="126.911901"><ele>736.0</ele><time>2022-11-19T04:09:33.000Z</time></trkpt>
      <trkpt lat="34.535586" lon="126.912006"><ele>737.0</ele><time>2022-11-19T04:10:59.000Z</time></trkpt>
      <trkpt lat="34.535608" lon="126.912101"><ele>733.0</ele><time>2022-11-19T04:12:00.000Z</time></trkpt>
      <trkpt lat="34.535554" lon="126.912188"><ele>732.0</ele><time>2022-11-19T04:12:11.000Z</time></trkpt>
      <trkpt lat="34.535482" lon="126.912232"><ele>730.0</ele><time>2022-11-19T04:12:20.000Z</time></trkpt>
      <trkpt lat="34.535416" lon="126.912294"><ele>728.0</ele><time>2022-11-19T04:13:29.000Z</time></trkpt>
      <trkpt lat="34.535351" lon="126.912374"><ele>728.0</ele><time>2022-11-19T04:13:38.000Z</time></trkpt>
      <trkpt lat="34.535311" lon="126.912468"><ele>728.0</ele><time>2022-11-19T04:13:46.000Z</time></trkpt>
      <trkpt lat="34.535242" lon="126.912558"><ele>727.0</ele><time>2022-11-19T04:14:28.000Z</time></trkpt>
      <trkpt lat="34.535179" lon="126.912636"><ele>726.0</ele><time>2022-11-19T04:14:43.000Z</time></trkpt>
      <trkpt lat="34.535128" lon="126.912721"><ele>726.0</ele><time>2022-11-19T04:14:51.000Z</time></trkpt>
      <trkpt lat="34.535085" lon="126.912792"><ele>726.0</ele><time>2022-11-19T04:14:59.000Z</time></trkpt>
      <trkpt lat="34.535009" lon="126.912901"><ele>726.0</ele><time>2022-11-19T04:15:09.000Z</time></trkpt>
      <trkpt lat="34.534941" lon="126.912942"><ele>726.0</ele><time>2022-11-19T04:15:16.000Z</time></trkpt>
      <trkpt lat="34.534847" lon="126.912981"><ele>727.0</ele><time>2022-11-19T04:15:25.000Z</time></trkpt>
      <trkpt lat="34.534784" lon="126.913042"><ele>728.0</ele><time>2022-11-19T04:15:33.000Z</time></trkpt>
      <trkpt lat="34.534735" lon="126.913149"><ele>731.0</ele><time>2022-11-19T04:15:49.000Z</time></trkpt>
      <trkpt lat="34.534730" lon="126.913245"><ele>730.0</ele><time>2022-11-19T04:16:26.000Z</time></trkpt>
      <trkpt lat="34.534698" lon="126.913324"><ele>730.0</ele><time>2022-11-19T04:16:33.000Z</time></trkpt>
      <trkpt lat="34.534656" lon="126.913411"><ele>731.0</ele><time>2022-11-19T04:16:51.000Z</time></trkpt>
      <trkpt lat="34.534611" lon="126.913510"><ele>733.0</ele><time>2022-11-19T04:17:02.000Z</time></trkpt>
      <trkpt lat="34.534561" lon="126.913603"><ele>734.0</ele><time>2022-11-19T04:17:12.000Z</time></trkpt>
      <trkpt lat="34.534501" lon="126.913705"><ele>736.0</ele><time>2022-11-19T04:17:23.000Z</time></trkpt>
      <trkpt lat="34.534449" lon="126.913803"><ele>738.0</ele><time>2022-11-19T04:17:36.000Z</time></trkpt>
      <trkpt lat="34.534426" lon="126.913905"><ele>740.0</ele><time>2022-11-19T04:17:47.000Z</time></trkpt>
      <trkpt lat="34.534353" lon="126.914011"><ele>742.0</ele><time>2022-11-19T04:18:04.000Z</time></trkpt>
      <trkpt lat="34.534294" lon="126.914104"><ele>741.0</ele><time>2022-11-19T04:18:13.000Z</time></trkpt>
      <trkpt lat="34.534201" lon="126.914206"><ele>741.0</ele><time>2022-11-19T04:18:25.000Z</time></trkpt>
      <trkpt lat="34.534139" lon="126.914298"><ele>742.0</ele><time>2022-11-19T04:18:34.000Z</time></trkpt>
      <trkpt lat="34.534051" lon="126.914331"><ele>741.0</ele><time>2022-11-19T04:18:45.000Z</time></trkpt>
      <trkpt lat="34.533993" lon="126.914407"><ele>742.0</ele><time>2022-11-19T04:18:58.000Z</time></trkpt>
      <trkpt lat="34.533937" lon="126.914495"><ele>742.0</ele><time>2022-11-19T04:19:05.000Z</time></trkpt>
      <trkpt lat="34.533876" lon="126.914577"><ele>743.0</ele><time>2022-11-19T04:19:18.000Z</time></trkpt>
      <trkpt lat="34.533805" lon="126.914627"><ele>743.0</ele><time>2022-11-19T04:19:27.000Z</time></trkpt>
      <trkpt lat="34.533773" lon="126.914705"><ele>743.0</ele><time>2022-11-19T04:19:35.000Z</time></trkpt>
      <trkpt lat="34.533707" lon="126.914808"><ele>746.0</ele><time>2022-11-19T04:19:47.000Z</time></trkpt>
      <trkpt lat="34.533618" lon="126.914895"><ele>746.0</ele><time>2022-11-19T04:20:02.000Z</time></trkpt>
      <trkpt lat="34.533542" lon="126.914981"><ele>745.0</ele><time>2022-11-19T04:20:11.000Z</time></trkpt>
      <trkpt lat="34.533512" lon="126.915072"><ele>743.0</ele><time>2022-11-19T04:20:19.000Z</time></trkpt>
      <trkpt lat="34.533471" lon="126.915172"><ele>743.0</ele><time>2022-11-19T04:20:27.000Z</time></trkpt>
      <trkpt lat="34.533400" lon="126.915257"><ele>742.0</ele><time>2022-11-19T04:20:36.000Z</time></trkpt>
      <trkpt lat="34.533370" lon="126.915404"><ele>740.0</ele><time>2022-11-19T04:20:55.000Z</time></trkpt>
      <trkpt lat="34.533351" lon="126.915510"><ele>736.0</ele><time>2022-11-19T04:21:08.000Z</time></trkpt>
      <trkpt lat="34.533398" lon="126.915604"><ele>735.0</ele><time>2022-11-19T04:21:16.000Z</time></trkpt>
      <trkpt lat="34.533404" lon="126.915715"><ele>733.0</ele><time>2022-11-19T04:21:25.000Z</time></trkpt>
      <trkpt lat="34.533422" lon="126.915802"><ele>730.0</ele><time>2022-11-19T04:21:32.000Z</time></trkpt>
      <trkpt lat="34.533451" lon="126.915907"><ele>728.0</ele><time>2022-11-19T04:21:41.000Z</time></trkpt>
      <trkpt lat="34.533452" lon="126.916041"><ele>726.0</ele><time>2022-11-19T04:21:50.000Z</time></trkpt>
      <trkpt lat="34.533476" lon="126.916138"><ele>725.0</ele><time>2022-11-19T04:21:57.000Z</time></trkpt>
      <trkpt lat="34.533459" lon="126.916245"><ele>724.0</ele><time>2022-11-19T04:22:06.000Z</time></trkpt>
      <trkpt lat="34.533478" lon="126.916386"><ele>722.0</ele><time>2022-11-19T04:22:27.000Z</time></trkpt>
      <trkpt lat="34.533480" lon="126.916505"><ele>722.0</ele><time>2022-11-19T04:22:35.000Z</time></trkpt>
      <trkpt lat="34.533482" lon="126.916610"><ele>720.0</ele><time>2022-11-19T04:22:43.000Z</time></trkpt>
      <trkpt lat="34.533464" lon="126.916731"><ele>719.0</ele><time>2022-11-19T04:22:52.000Z</time></trkpt>
      <trkpt lat="34.533475" lon="126.916826"><ele>717.0</ele><time>2022-11-19T04:22:59.000Z</time></trkpt>
      <trkpt lat="34.533483" lon="126.916943"><ele>716.0</ele><time>2022-11-19T04:23:08.000Z</time></trkpt>
      <trkpt lat="34.533491" lon="126.917045"><ele>714.0</ele><time>2022-11-19T04:23:16.000Z</time></trkpt>
      <trkpt lat="34.533481" lon="126.917137"><ele>714.0</ele><time>2022-11-19T04:23:28.000Z</time></trkpt>
      <trkpt lat="34.533473" lon="126.917222"><ele>714.0</ele><time>2022-11-19T04:23:34.000Z</time></trkpt>
      <trkpt lat="34.533456" lon="126.917345"><ele>713.0</ele><time>2022-11-19T04:23:42.000Z</time></trkpt>
      <trkpt lat="34.533433" lon="126.917436"><ele>713.0</ele><time>2022-11-19T04:23:49.000Z</time></trkpt>
      <trkpt lat="34.533416" lon="126.917564"><ele>715.0</ele><time>2022-11-19T04:23:59.000Z</time></trkpt>
      <trkpt lat="34.533372" lon="126.917648"><ele>715.0</ele><time>2022-11-19T04:24:14.000Z</time></trkpt>
      <trkpt lat="34.533322" lon="126.917747"><ele>716.0</ele><time>2022-11-19T04:24:39.000Z</time></trkpt>
      <trkpt lat="34.533267" lon="126.917841"><ele>718.0</ele><time>2022-11-19T04:24:51.000Z</time></trkpt>
      <trkpt lat="34.533222" lon="126.917910"><ele>720.0</ele><time>2022-11-19T04:25:00.000Z</time></trkpt>
      <trkpt lat="34.533136" lon="126.917940"><ele>722.0</ele><time>2022-11-19T04:25:11.000Z</time></trkpt>
      <trkpt lat="34.533063" lon="126.917971"><ele>722.0</ele><time>2022-11-19T04:25:26.000Z</time></trkpt>
      <trkpt lat="34.532991" lon="126.918034"><ele>725.0</ele><time>2022-11-19T04:25:50.000Z</time></trkpt>
      <trkpt lat="34.532917" lon="126.918095"><ele>724.0</ele><time>2022-11-19T04:26:06.000Z</time></trkpt>
      <trkpt lat="34.532832" lon="126.918155"><ele>727.0</ele><time>2022-11-19T04:26:18.000Z</time></trkpt>
      <trkpt lat="34.532768" lon="126.918224"><ele>728.0</ele><time>2022-11-19T04:26:28.000Z</time></trkpt>
      <trkpt lat="34.532679" lon="126.918325"><ele>729.0</ele><time>2022-11-19T04:26:40.000Z</time></trkpt>
      <trkpt lat="34.532616" lon="126.918377"><ele>730.0</ele><time>2022-11-19T04:26:47.000Z</time></trkpt>
      <trkpt lat="34.532545" lon="126.918441"><ele>730.0</ele><time>2022-11-19T04:26:55.000Z</time></trkpt>
      <trkpt lat="34.532493" lon="126.918506"><ele>730.0</ele><time>2022-11-19T04:27:01.000Z</time></trkpt>
      <trkpt lat="34.532431" lon="126.918572"><ele>730.0</ele><time>2022-11-19T04:27:08.000Z</time></trkpt>
      <trkpt lat="34.532368" lon="126.918643"><ele>730.0</ele><time>2022-11-19T04:27:16.000Z</time></trkpt>
      <trkpt lat="34.532321" lon="126.918722"><ele>731.0</ele><time>2022-11-19T04:27:24.000Z</time></trkpt>
      <trkpt lat="34.532280" lon="126.918812"><ele>732.0</ele><time>2022-11-19T04:27:33.000Z</time></trkpt>
      <trkpt lat="34.532229" lon="126.918881"><ele>734.0</ele><time>2022-11-19T04:27:41.000Z</time></trkpt>
      <trkpt lat="34.532177" lon="126.918949"><ele>735.0</ele><time>2022-11-19T04:27:50.000Z</time></trkpt>
      <trkpt lat="34.532128" lon="126.919013"><ele>736.0</ele><time>2022-11-19T04:27:58.000Z</time></trkpt>
      <trkpt lat="34.532054" lon="126.919097"><ele>738.0</ele><time>2022-11-19T04:28:09.000Z</time></trkpt>
      <trkpt lat="34.531998" lon="126.919163"><ele>739.0</ele><time>2022-11-19T04:28:18.000Z</time></trkpt>
      <trkpt lat="34.531943" lon="126.919233"><ele>740.0</ele><time>2022-11-19T04:28:27.000Z</time></trkpt>
      <trkpt lat="34.531874" lon="126.919328"><ele>740.0</ele><time>2022-11-19T04:28:38.000Z</time></trkpt>
      <trkpt lat="34.531829" lon="126.919428"><ele>741.0</ele><time>2022-11-19T04:28:47.000Z</time></trkpt>
      <trkpt lat="34.531794" lon="126.919507"><ele>742.0</ele><time>2022-11-19T04:30:51.000Z</time></trkpt>
      <trkpt lat="34.531769" lon="126.919622"><ele>744.0</ele><time>2022-11-19T04:33:24.000Z</time></trkpt>
      <trkpt lat="34.531734" lon="126.919704"><ele>747.0</ele><time>2022-11-19T04:33:32.000Z</time></trkpt>
      <trkpt lat="34.531734" lon="126.919704"><ele>748.0</ele><time>2022-11-19T04:36:35.000Z</time></trkpt>
      <trkpt lat="34.531713" lon="126.919688"><ele>746.0</ele><time>2022-11-19T04:39:05.000Z</time></trkpt>
      <trkpt lat="34.531713" lon="126.919688"><ele>745.0</ele><time>2022-11-19T04:42:05.000Z</time></trkpt>
      <trkpt lat="34.531687" lon="126.919608"><ele>746.0</ele><time>2022-11-19T04:43:03.000Z</time></trkpt>
      <trkpt lat="34.531617" lon="126.919688"><ele>745.0</ele><time>2022-11-19T04:43:16.000Z</time></trkpt>
      <trkpt lat="34.531676" lon="126.919786"><ele>747.0</ele><time>2022-11-19T04:43:57.000Z</time></trkpt>
      <trkpt lat="34.531746" lon="126.919827"><ele>744.0</ele><time>2022-11-19T04:45:32.000Z</time></trkpt>
      <trkpt lat="34.531784" lon="126.919901"><ele>742.0</ele><time>2022-11-19T04:45:40.000Z</time></trkpt>
      <trkpt lat="34.531825" lon="126.919996"><ele>739.0</ele><time>2022-11-19T04:45:49.000Z</time></trkpt>
      <trkpt lat="34.531863" lon="126.920092"><ele>737.0</ele><time>2022-11-19T04:45:57.000Z</time></trkpt>
      <trkpt lat="34.531908" lon="126.920219"><ele>735.0</ele><time>2022-11-19T04:46:07.000Z</time></trkpt>
      <trkpt lat="34.531950" lon="126.920374"><ele>731.0</ele><time>2022-11-19T04:46:19.000Z</time></trkpt>
      <trkpt lat="34.531980" lon="126.920473"><ele>729.0</ele><time>2022-11-19T04:46:27.000Z</time></trkpt>
      <trkpt lat="34.531993" lon="126.920565"><ele>729.0</ele><time>2022-11-19T04:46:34.000Z</time></trkpt>
      <trkpt lat="34.531994" lon="126.920668"><ele>727.0</ele><time>2022-11-19T04:47:49.000Z</time></trkpt>
      <trkpt lat="34.532030" lon="126.920751"><ele>723.0</ele><time>2022-11-19T04:48:26.000Z</time></trkpt>
      <trkpt lat="34.532041" lon="126.920870"><ele>720.0</ele><time>2022-11-19T04:49:00.000Z</time></trkpt>
      <trkpt lat="34.532040" lon="126.920971"><ele>717.0</ele><time>2022-11-19T04:49:13.000Z</time></trkpt>
      <trkpt lat="34.532061" lon="126.921063"><ele>715.0</ele><time>2022-11-19T04:49:20.000Z</time></trkpt>
      <trkpt lat="34.532071" lon="126.921168"><ele>712.0</ele><time>2022-11-19T04:49:28.000Z</time></trkpt>
      <trkpt lat="34.532099" lon="126.921271"><ele>711.0</ele><time>2022-11-19T04:49:37.000Z</time></trkpt>
      <trkpt lat="34.532117" lon="126.921363"><ele>710.0</ele><time>2022-11-19T04:49:46.000Z</time></trkpt>
      <trkpt lat="34.532136" lon="126.921463"><ele>708.0</ele><time>2022-11-19T04:49:55.000Z</time></trkpt>
      <trkpt lat="34.532155" lon="126.921581"><ele>706.0</ele><time>2022-11-19T04:50:01.000Z</time></trkpt>
      <trkpt lat="34.532159" lon="126.921669"><ele>705.0</ele><time>2022-11-19T04:50:09.000Z</time></trkpt>
      <trkpt lat="34.532194" lon="126.921769"><ele>704.0</ele><time>2022-11-19T04:50:21.000Z</time></trkpt>
      <trkpt lat="34.532214" lon="126.921870"><ele>704.0</ele><time>2022-11-19T04:50:30.000Z</time></trkpt>
      <trkpt lat="34.532225" lon="126.921969"><ele>702.0</ele><time>2022-11-19T04:50:39.000Z</time></trkpt>
      <trkpt lat="34.532281" lon="126.922069"><ele>702.0</ele><time>2022-11-19T04:50:51.000Z</time></trkpt>
      <trkpt lat="34.532307" lon="126.922164"><ele>700.0</ele><time>2022-11-19T04:50:59.000Z</time></trkpt>
      <trkpt lat="34.532342" lon="126.922251"><ele>697.0</ele><time>2022-11-19T04:51:11.000Z</time></trkpt>
      <trkpt lat="34.532421" lon="126.922300"><ele>693.0</ele><time>2022-11-19T04:51:24.000Z</time></trkpt>
      <trkpt lat="34.532488" lon="126.922341"><ele>690.0</ele><time>2022-11-19T04:51:37.000Z</time></trkpt>
      <trkpt lat="34.532554" lon="126.922377"><ele>687.0</ele><time>2022-11-19T04:51:49.000Z</time></trkpt>
      <trkpt lat="34.532627" lon="126.922405"><ele>684.0</ele><time>2022-11-19T04:52:00.000Z</time></trkpt>
      <trkpt lat="34.532661" lon="126.922481"><ele>682.0</ele><time>2022-11-19T04:52:09.000Z</time></trkpt>
      <trkpt lat="34.532737" lon="126.922513"><ele>680.0</ele><time>2022-11-19T04:52:19.000Z</time></trkpt>
      <trkpt lat="34.532810" lon="126.922592"><ele>676.0</ele><time>2022-11-19T04:52:31.000Z</time></trkpt>
      <trkpt lat="34.532876" lon="126.922631"><ele>675.0</ele><time>2022-11-19T04:52:41.000Z</time></trkpt>
      <trkpt lat="34.532957" lon="126.922640"><ele>672.0</ele><time>2022-11-19T04:52:55.000Z</time></trkpt>
      <trkpt lat="34.533019" lon="126.922684"><ele>673.0</ele><time>2022-11-19T04:53:02.000Z</time></trkpt>
      <trkpt lat="34.533094" lon="126.922729"><ele>668.0</ele><time>2022-11-19T04:53:11.000Z</time></trkpt>
      <trkpt lat="34.533172" lon="126.922787"><ele>666.0</ele><time>2022-11-19T04:53:20.000Z</time></trkpt>
      <trkpt lat="34.533252" lon="126.922803"><ele>664.0</ele><time>2022-11-19T04:53:27.000Z</time></trkpt>
      <trkpt lat="34.533322" lon="126.922869"><ele>662.0</ele><time>2022-11-19T04:53:35.000Z</time></trkpt>
      <trkpt lat="34.533394" lon="126.922902"><ele>660.0</ele><time>2022-11-19T04:53:43.000Z</time></trkpt>
      <trkpt lat="34.533466" lon="126.922957"><ele>659.0</ele><time>2022-11-19T04:54:00.000Z</time></trkpt>
      <trkpt lat="34.533553" lon="126.923031"><ele>657.0</ele><time>2022-11-19T04:54:08.000Z</time></trkpt>
      <trkpt lat="34.533626" lon="126.923094"><ele>655.0</ele><time>2022-11-19T04:54:15.000Z</time></trkpt>
      <trkpt lat="34.533700" lon="126.923179"><ele>654.0</ele><time>2022-11-19T04:54:23.000Z</time></trkpt>
      <trkpt lat="34.533752" lon="126.923235"><ele>654.0</ele><time>2022-11-19T04:54:28.000Z</time></trkpt>
      <trkpt lat="34.533831" lon="126.923303"><ele>653.0</ele><time>2022-11-19T04:54:35.000Z</time></trkpt>
      <trkpt lat="34.533923" lon="126.923422"><ele>652.0</ele><time>2022-11-19T04:54:45.000Z</time></trkpt>
      <trkpt lat="34.534008" lon="126.923506"><ele>651.0</ele><time>2022-11-19T04:54:54.000Z</time></trkpt>
      <trkpt lat="34.534112" lon="126.923588"><ele>649.0</ele><time>2022-11-19T04:55:03.000Z</time></trkpt>
      <trkpt lat="34.534186" lon="126.923678"><ele>648.0</ele><time>2022-11-19T04:55:09.000Z</time></trkpt>
      <trkpt lat="34.534248" lon="126.923759"><ele>647.0</ele><time>2022-11-19T04:55:17.000Z</time></trkpt>
      <trkpt lat="34.534296" lon="126.923880"><ele>646.0</ele><time>2022-11-19T04:55:29.000Z</time></trkpt>
      <trkpt lat="34.534340" lon="126.923951"><ele>646.0</ele><time>2022-11-19T04:55:35.000Z</time></trkpt>
      <trkpt lat="34.534396" lon="126.924018"><ele>645.0</ele><time>2022-11-19T04:55:42.000Z</time></trkpt>
      <trkpt lat="34.534457" lon="126.924113"><ele>643.0</ele><time>2022-11-19T04:55:50.000Z</time></trkpt>
      <trkpt lat="34.534510" lon="126.924192"><ele>642.0</ele><time>2022-11-19T04:55:58.000Z</time></trkpt>
      <trkpt lat="34.534572" lon="126.924268"><ele>641.0</ele><time>2022-11-19T04:56:05.000Z</time></trkpt>
      <trkpt lat="34.534614" lon="126.924379"><ele>639.0</ele><time>2022-11-19T04:56:14.000Z</time></trkpt>
      <trkpt lat="34.534703" lon="126.924473"><ele>639.0</ele><time>2022-11-19T04:56:23.000Z</time></trkpt>
      <trkpt lat="34.534756" lon="126.924580"><ele>639.0</ele><time>2022-11-19T04:56:31.000Z</time></trkpt>
      <trkpt lat="34.534810" lon="126.924665"><ele>638.0</ele><time>2022-11-19T04:56:39.000Z</time></trkpt>
      <trkpt lat="34.534887" lon="126.924711"><ele>637.0</ele><time>2022-11-19T04:56:47.000Z</time></trkpt>
      <trkpt lat="34.534949" lon="126.924771"><ele>634.0</ele><time>2022-11-19T04:56:59.000Z</time></trkpt>
      <trkpt lat="34.535028" lon="126.924820"><ele>631.0</ele><time>2022-11-19T04:57:10.000Z</time></trkpt>
      <trkpt lat="34.535100" lon="126.924891"><ele>632.0</ele><time>2022-11-19T04:57:25.000Z</time></trkpt>
      <trkpt lat="34.535167" lon="126.924987"><ele>625.0</ele><time>2022-11-19T04:57:37.000Z</time></trkpt>
      <trkpt lat="34.535220" lon="126.925061"><ele>622.0</ele><time>2022-11-19T04:58:00.000Z</time></trkpt>
      <trkpt lat="34.535295" lon="126.925142"><ele>618.0</ele><time>2022-11-19T04:58:12.000Z</time></trkpt>
      <trkpt lat="34.535363" lon="126.925235"><ele>615.0</ele><time>2022-11-19T04:58:26.000Z</time></trkpt>
      <trkpt lat="34.535457" lon="126.925209"><ele>612.0</ele><time>2022-11-19T04:59:13.000Z</time></trkpt>
      <trkpt lat="34.535534" lon="126.925289"><ele>610.0</ele><time>2022-11-19T04:59:58.000Z</time></trkpt>
      <trkpt lat="34.535571" lon="126.925379"><ele>609.0</ele><time>2022-11-19T05:00:13.000Z</time></trkpt>
      <trkpt lat="34.535629" lon="126.925443"><ele>607.0</ele><time>2022-11-19T05:00:28.000Z</time></trkpt>
      <trkpt lat="34.535714" lon="126.925517"><ele>605.0</ele><time>2022-11-19T05:00:40.000Z</time></trkpt>
      <trkpt lat="34.535764" lon="126.925577"><ele>604.0</ele><time>2022-11-19T05:00:47.000Z</time></trkpt>
      <trkpt lat="34.535764" lon="126.925577"><ele>605.0</ele><time>2022-11-19T05:03:50.000Z</time></trkpt>
      <trkpt lat="34.535813" lon="126.925606"><ele>603.0</ele><time>2022-11-19T05:05:09.000Z</time></trkpt>
      <trkpt lat="34.535870" lon="126.925662"><ele>600.0</ele><time>2022-11-19T05:05:19.000Z</time></trkpt>
      <trkpt lat="34.535930" lon="126.925719"><ele>598.0</ele><time>2022-11-19T05:05:34.000Z</time></trkpt>
      <trkpt lat="34.535992" lon="126.925769"><ele>598.0</ele><time>2022-11-19T05:05:45.000Z</time></trkpt>
      <trkpt lat="34.536054" lon="126.925830"><ele>597.0</ele><time>2022-11-19T05:06:01.000Z</time></trkpt>
      <trkpt lat="34.536136" lon="126.925888"><ele>596.0</ele><time>2022-11-19T05:06:22.000Z</time></trkpt>
      <trkpt lat="34.536136" lon="126.925888"><ele>597.0</ele><time>2022-11-19T05:09:24.000Z</time></trkpt>
      <trkpt lat="34.536159" lon="126.925924"><ele>596.0</ele><time>2022-11-19T05:10:20.000Z</time></trkpt>
      <trkpt lat="34.536213" lon="126.925977"><ele>596.0</ele><time>2022-11-19T05:10:29.000Z</time></trkpt>
      <trkpt lat="34.536283" lon="126.926025"><ele>596.0</ele><time>2022-11-19T05:10:42.000Z</time></trkpt>
      <trkpt lat="34.536359" lon="126.926128"><ele>595.0</ele><time>2022-11-19T05:11:11.000Z</time></trkpt>
      <trkpt lat="34.536426" lon="126.926160"><ele>596.0</ele><time>2022-11-19T05:11:36.000Z</time></trkpt>
      <trkpt lat="34.536487" lon="126.926244"><ele>594.0</ele><time>2022-11-19T05:12:14.000Z</time></trkpt>
      <trkpt lat="34.536557" lon="126.926301"><ele>594.0</ele><time>2022-11-19T05:12:24.000Z</time></trkpt>
      <trkpt lat="34.536557" lon="126.926301"><ele>594.0</ele><time>2022-11-19T05:15:25.000Z</time></trkpt>
      <trkpt lat="34.536608" lon="126.926321"><ele>594.0</ele><time>2022-11-19T05:15:35.000Z</time></trkpt>
      <trkpt lat="34.536679" lon="126.926422"><ele>593.0</ele><time>2022-11-19T05:15:48.000Z</time></trkpt>
      <trkpt lat="34.536742" lon="126.926510"><ele>592.0</ele><time>2022-11-19T05:15:57.000Z</time></trkpt>
      <trkpt lat="34.536821" lon="126.926592"><ele>591.0</ele><time>2022-11-19T05:16:08.000Z</time></trkpt>
      <trkpt lat="34.536881" lon="126.926690"><ele>590.0</ele><time>2022-11-19T05:16:17.000Z</time></trkpt>
      <trkpt lat="34.536945" lon="126.926740"><ele>589.0</ele><time>2022-11-19T05:16:24.000Z</time></trkpt>
      <trkpt lat="34.537002" lon="126.926797"><ele>589.0</ele><time>2022-11-19T05:16:31.000Z</time></trkpt>
      <trkpt lat="34.537053" lon="126.926878"><ele>586.0</ele><time>2022-11-19T05:16:45.000Z</time></trkpt>
      <trkpt lat="34.537130" lon="126.926916"><ele>581.0</ele><time>2022-11-19T05:17:09.000Z</time></trkpt>
      <trkpt lat="34.537212" lon="126.926936"><ele>577.0</ele><time>2022-11-19T05:17:30.000Z</time></trkpt>
      <trkpt lat="34.537309" lon="126.926896"><ele>574.0</ele><time>2022-11-19T05:17:42.000Z</time></trkpt>
      <trkpt lat="34.537382" lon="126.926870"><ele>572.0</ele><time>2022-11-19T05:17:54.000Z</time></trkpt>
      <trkpt lat="34.537454" lon="126.926844"><ele>570.0</ele><time>2022-11-19T05:18:07.000Z</time></trkpt>
      <trkpt lat="34.537517" lon="126.926795"><ele>570.0</ele><time>2022-11-19T05:21:05.000Z</time></trkpt>
      <trkpt lat="34.537588" lon="126.926775"><ele>566.0</ele><time>2022-11-19T05:22:30.000Z</time></trkpt>
      <trkpt lat="34.537662" lon="126.926749"><ele>563.0</ele><time>2022-11-19T05:22:56.000Z</time></trkpt>
      <trkpt lat="34.537739" lon="126.926769"><ele>565.0</ele><time>2022-11-19T05:24:30.000Z</time></trkpt>
      <trkpt lat="34.537808" lon="126.926791"><ele>564.0</ele><time>2022-11-19T05:24:58.000Z</time></trkpt>
      <trkpt lat="34.537742" lon="126.926761"><ele>564.0</ele><time>2022-11-19T05:27:16.000Z</time></trkpt>
      <trkpt lat="34.537757" lon="126.926663"><ele>559.0</ele><time>2022-11-19T05:28:00.000Z</time></trkpt>
      <trkpt lat="34.537871" lon="126.926636"><ele>556.0</ele><time>2022-11-19T05:28:18.000Z</time></trkpt>
      <trkpt lat="34.537940" lon="126.926666"><ele>555.0</ele><time>2022-11-19T05:28:25.000Z</time></trkpt>
      <trkpt lat="34.538013" lon="126.926682"><ele>553.0</ele><time>2022-11-19T05:28:37.000Z</time></trkpt>
      <trkpt lat="34.538100" lon="126.926707"><ele>550.0</ele><time>2022-11-19T05:28:49.000Z</time></trkpt>
      <trkpt lat="34.538201" lon="126.926741"><ele>547.0</ele><time>2022-11-19T05:29:06.000Z</time></trkpt>
      <trkpt lat="34.538309" lon="126.926735"><ele>544.0</ele><time>2022-11-19T05:29:18.000Z</time></trkpt>
      <trkpt lat="34.538413" lon="126.926702"><ele>542.0</ele><time>2022-11-19T05:29:30.000Z</time></trkpt>
      <trkpt lat="34.538484" lon="126.926681"><ele>540.0</ele><time>2022-11-19T05:29:38.000Z</time></trkpt>
      <trkpt lat="34.538568" lon="126.926673"><ele>537.0</ele><time>2022-11-19T05:29:50.000Z</time></trkpt>
      <trkpt lat="34.538642" lon="126.926718"><ele>534.0</ele><time>2022-11-19T05:30:06.000Z</time></trkpt>
      <trkpt lat="34.538727" lon="126.926650"><ele>531.0</ele><time>2022-11-19T05:30:20.000Z</time></trkpt>
      <trkpt lat="34.538799" lon="126.926623"><ele>530.0</ele><time>2022-11-19T05:30:36.000Z</time></trkpt>
      <trkpt lat="34.538884" lon="126.926605"><ele>528.0</ele><time>2022-11-19T05:30:51.000Z</time></trkpt>
      <trkpt lat="34.538956" lon="126.926569"><ele>522.0</ele><time>2022-11-19T05:31:12.000Z</time></trkpt>
      <trkpt lat="34.539027" lon="126.926555"><ele>518.0</ele><time>2022-11-19T05:31:36.000Z</time></trkpt>
      <trkpt lat="34.539111" lon="126.926513"><ele>517.0</ele><time>2022-11-19T05:31:48.000Z</time></trkpt>
      <trkpt lat="34.539179" lon="126.926570"><ele>518.0</ele><time>2022-11-19T05:31:56.000Z</time></trkpt>
      <trkpt lat="34.539242" lon="126.926639"><ele>519.0</ele><time>2022-11-19T05:32:22.000Z</time></trkpt>
      <trkpt lat="34.539324" lon="126.926683"><ele>514.0</ele><time>2022-11-19T05:32:45.000Z</time></trkpt>
      <trkpt lat="34.539413" lon="126.926688"><ele>512.0</ele><time>2022-11-19T05:32:57.000Z</time></trkpt>
      <trkpt lat="34.539497" lon="126.926677"><ele>510.0</ele><time>2022-11-19T05:33:14.000Z</time></trkpt>
      <trkpt lat="34.539582" lon="126.926663"><ele>505.0</ele><time>2022-11-19T05:33:34.000Z</time></trkpt>
      <trkpt lat="34.539663" lon="126.926675"><ele>503.0</ele><time>2022-11-19T05:33:51.000Z</time></trkpt>
      <trkpt lat="34.539759" lon="126.926670"><ele>498.0</ele><time>2022-11-19T05:34:10.000Z</time></trkpt>
      <trkpt lat="34.539873" lon="126.926673"><ele>495.0</ele><time>2022-11-19T05:34:24.000Z</time></trkpt>
      <trkpt lat="34.539955" lon="126.926643"><ele>494.0</ele><time>2022-11-19T05:34:36.000Z</time></trkpt>
      <trkpt lat="34.540039" lon="126.926627"><ele>494.0</ele><time>2022-11-19T05:34:47.000Z</time></trkpt>
      <trkpt lat="34.540108" lon="126.926649"><ele>494.0</ele><time>2022-11-19T05:34:59.000Z</time></trkpt>
      <trkpt lat="34.540108" lon="126.926649"><ele>494.0</ele><time>2022-11-19T05:38:00.000Z</time></trkpt>
      <trkpt lat="34.540025" lon="126.926599"><ele>492.0</ele><time>2022-11-19T05:42:57.000Z</time></trkpt>
      <trkpt lat="34.540094" lon="126.926547"><ele>489.0</ele><time>2022-11-19T05:43:15.000Z</time></trkpt>
      <trkpt lat="34.540189" lon="126.926516"><ele>483.0</ele><time>2022-11-19T05:43:35.000Z</time></trkpt>
      <trkpt lat="34.540264" lon="126.926545"><ele>481.0</ele><time>2022-11-19T05:43:50.000Z</time></trkpt>
      <trkpt lat="34.540327" lon="126.926610"><ele>480.0</ele><time>2022-11-19T05:44:02.000Z</time></trkpt>
      <trkpt lat="34.540417" lon="126.926643"><ele>476.0</ele><time>2022-11-19T05:44:15.000Z</time></trkpt>
      <trkpt lat="34.540482" lon="126.926676"><ele>473.0</ele><time>2022-11-19T05:44:27.000Z</time></trkpt>
      <trkpt lat="34.540550" lon="126.926694"><ele>470.0</ele><time>2022-11-19T05:44:38.000Z</time></trkpt>
      <trkpt lat="34.540629" lon="126.926703"><ele>466.0</ele><time>2022-11-19T05:44:56.000Z</time></trkpt>
      <trkpt lat="34.540708" lon="126.926750"><ele>463.0</ele><time>2022-11-19T05:45:07.000Z</time></trkpt>
      <trkpt lat="34.540781" lon="126.926764"><ele>461.0</ele><time>2022-11-19T05:45:17.000Z</time></trkpt>
      <trkpt lat="34.540869" lon="126.926811"><ele>458.0</ele><time>2022-11-19T05:45:29.000Z</time></trkpt>
      <trkpt lat="34.540947" lon="126.926855"><ele>455.0</ele><time>2022-11-19T05:45:39.000Z</time></trkpt>
      <trkpt lat="34.541032" lon="126.926844"><ele>453.0</ele><time>2022-11-19T05:45:50.000Z</time></trkpt>
      <trkpt lat="34.541117" lon="126.926875"><ele>450.0</ele><time>2022-11-19T05:46:02.000Z</time></trkpt>
      <trkpt lat="34.541182" lon="126.926940"><ele>447.0</ele><time>2022-11-19T05:46:09.000Z</time></trkpt>
      <trkpt lat="34.541271" lon="126.926933"><ele>443.0</ele><time>2022-11-19T05:46:24.000Z</time></trkpt>
      <trkpt lat="34.541348" lon="126.926956"><ele>441.0</ele><time>2022-11-19T05:46:33.000Z</time></trkpt>
      <trkpt lat="34.541417" lon="126.926970"><ele>439.0</ele><time>2022-11-19T05:46:42.000Z</time></trkpt>
      <trkpt lat="34.541485" lon="126.926984"><ele>438.0</ele><time>2022-11-19T05:46:50.000Z</time></trkpt>
      <trkpt lat="34.541561" lon="126.926990"><ele>436.0</ele><time>2022-11-19T05:46:58.000Z</time></trkpt>
      <trkpt lat="34.541642" lon="126.927032"><ele>434.0</ele><time>2022-11-19T05:47:06.000Z</time></trkpt>
      <trkpt lat="34.541718" lon="126.927060"><ele>433.0</ele><time>2022-11-19T05:47:13.000Z</time></trkpt>
      <trkpt lat="34.541809" lon="126.927104"><ele>432.0</ele><time>2022-11-19T05:47:22.000Z</time></trkpt>
      <trkpt lat="34.541897" lon="126.927112"><ele>430.0</ele><time>2022-11-19T05:47:32.000Z</time></trkpt>
      <trkpt lat="34.541958" lon="126.927168"><ele>427.0</ele><time>2022-11-19T05:47:43.000Z</time></trkpt>
      <trkpt lat="34.542002" lon="126.927238"><ele>425.0</ele><time>2022-11-19T05:47:51.000Z</time></trkpt>
      <trkpt lat="34.542070" lon="126.927251"><ele>422.0</ele><time>2022-11-19T05:48:03.000Z</time></trkpt>
      <trkpt lat="34.542177" lon="126.927245"><ele>418.0</ele><time>2022-11-19T05:48:20.000Z</time></trkpt>
      <trkpt lat="34.542258" lon="126.927285"><ele>416.0</ele><time>2022-11-19T05:48:33.000Z</time></trkpt>
      <trkpt lat="34.542352" lon="126.927261"><ele>410.0</ele><time>2022-11-19T05:48:52.000Z</time></trkpt>
      <trkpt lat="34.542450" lon="126.927272"><ele>406.0</ele><time>2022-11-19T05:49:09.000Z</time></trkpt>
      <trkpt lat="34.542534" lon="126.927308"><ele>403.0</ele><time>2022-11-19T05:49:22.000Z</time></trkpt>
      <trkpt lat="34.542642" lon="126.927304"><ele>398.0</ele><time>2022-11-19T05:49:42.000Z</time></trkpt>
      <trkpt lat="34.542718" lon="126.927322"><ele>394.0</ele><time>2022-11-19T05:49:58.000Z</time></trkpt>
      <trkpt lat="34.542796" lon="126.927317"><ele>391.0</ele><time>2022-11-19T05:50:10.000Z</time></trkpt>
      <trkpt lat="34.542894" lon="126.927315"><ele>387.0</ele><time>2022-11-19T05:50:26.000Z</time></trkpt>
      <trkpt lat="34.542951" lon="126.927368"><ele>383.0</ele><time>2022-11-19T05:50:38.000Z</time></trkpt>
      <trkpt lat="34.543026" lon="126.927367"><ele>380.0</ele><time>2022-11-19T05:50:51.000Z</time></trkpt>
      <trkpt lat="34.543110" lon="126.927406"><ele>377.0</ele><time>2022-11-19T05:51:05.000Z</time></trkpt>
      <trkpt lat="34.543177" lon="126.927395"><ele>375.0</ele><time>2022-11-19T05:51:14.000Z</time></trkpt>
      <trkpt lat="34.543269" lon="126.927441"><ele>373.0</ele><time>2022-11-19T05:51:31.000Z</time></trkpt>
      <trkpt lat="34.543352" lon="126.927478"><ele>372.0</ele><time>2022-11-19T05:51:39.000Z</time></trkpt>
      <trkpt lat="34.543433" lon="126.927526"><ele>371.0</ele><time>2022-11-19T05:51:47.000Z</time></trkpt>
      <trkpt lat="34.543535" lon="126.927615"><ele>370.0</ele><time>2022-11-19T05:51:57.000Z</time></trkpt>
      <trkpt lat="34.543596" lon="126.927664"><ele>369.0</ele><time>2022-11-19T05:52:03.000Z</time></trkpt>
      <trkpt lat="34.543673" lon="126.927688"><ele>368.0</ele><time>2022-11-19T05:52:12.000Z</time></trkpt>
      <trkpt lat="34.543770" lon="126.927662"><ele>364.0</ele><time>2022-11-19T05:52:33.000Z</time></trkpt>
      <trkpt lat="34.543887" lon="126.927674"><ele>361.0</ele><time>2022-11-19T05:52:46.000Z</time></trkpt>
      <trkpt lat="34.543974" lon="126.927696"><ele>358.0</ele><time>2022-11-19T05:53:01.000Z</time></trkpt>
      <trkpt lat="34.544049" lon="126.927668"><ele>355.0</ele><time>2022-11-19T05:53:13.000Z</time></trkpt>
      <trkpt lat="34.544124" lon="126.927636"><ele>352.0</ele><time>2022-11-19T05:53:27.000Z</time></trkpt>
      <trkpt lat="34.544214" lon="126.927633"><ele>346.0</ele><time>2022-11-19T05:53:50.000Z</time></trkpt>
      <trkpt lat="34.544298" lon="126.927599"><ele>342.0</ele><time>2022-11-19T05:54:06.000Z</time></trkpt>
      <trkpt lat="34.544391" lon="126.927613"><ele>338.0</ele><time>2022-11-19T05:54:22.000Z</time></trkpt>
      <trkpt lat="34.544496" lon="126.927617"><ele>334.0</ele><time>2022-11-19T05:54:40.000Z</time></trkpt>
      <trkpt lat="34.544591" lon="126.927589"><ele>332.0</ele><time>2022-11-19T05:54:51.000Z</time></trkpt>
      <trkpt lat="34.544699" lon="126.927620"><ele>331.0</ele><time>2022-11-19T05:55:00.000Z</time></trkpt>
      <trkpt lat="34.544776" lon="126.927616"><ele>329.0</ele><time>2022-11-19T05:55:07.000Z</time></trkpt>
      <trkpt lat="34.544867" lon="126.927629"><ele>327.0</ele><time>2022-11-19T05:55:16.000Z</time></trkpt>
      <trkpt lat="34.544939" lon="126.927642"><ele>326.0</ele><time>2022-11-19T05:55:24.000Z</time></trkpt>
      <trkpt lat="34.545004" lon="126.927629"><ele>325.0</ele><time>2022-11-19T05:55:36.000Z</time></trkpt>
      <trkpt lat="34.545082" lon="126.927628"><ele>322.0</ele><time>2022-11-19T05:55:49.000Z</time></trkpt>
      <trkpt lat="34.545160" lon="126.927602"><ele>320.0</ele><time>2022-11-19T05:56:02.000Z</time></trkpt>
      <trkpt lat="34.545235" lon="126.927564"><ele>316.0</ele><time>2022-11-19T05:56:13.000Z</time></trkpt>
      <trkpt lat="34.545304" lon="126.927510"><ele>314.0</ele><time>2022-11-19T05:56:20.000Z</time></trkpt>
      <trkpt lat="34.545380" lon="126.927498"><ele>312.0</ele><time>2022-11-19T05:56:32.000Z</time></trkpt>
      <trkpt lat="34.545450" lon="126.927482"><ele>310.0</ele><time>2022-11-19T05:56:42.000Z</time></trkpt>
      <trkpt lat="34.545532" lon="126.927490"><ele>307.0</ele><time>2022-11-19T05:56:57.000Z</time></trkpt>
      <trkpt lat="34.545598" lon="126.927514"><ele>303.0</ele><time>2022-11-19T05:57:14.000Z</time></trkpt>
      <trkpt lat="34.545663" lon="126.927486"><ele>300.0</ele><time>2022-11-19T05:57:26.000Z</time></trkpt>
      <trkpt lat="34.545733" lon="126.927494"><ele>296.0</ele><time>2022-11-19T05:57:44.000Z</time></trkpt>
      <trkpt lat="34.545793" lon="126.927543"><ele>292.0</ele><time>2022-11-19T05:57:58.000Z</time></trkpt>
      <trkpt lat="34.545874" lon="126.927559"><ele>288.0</ele><time>2022-11-19T05:58:14.000Z</time></trkpt>
      <trkpt lat="34.545955" lon="126.927569"><ele>286.0</ele><time>2022-11-19T05:58:26.000Z</time></trkpt>
      <trkpt lat="34.546053" lon="126.927602"><ele>284.0</ele><time>2022-11-19T05:58:36.000Z</time></trkpt>
      <trkpt lat="34.546151" lon="126.927656"><ele>284.0</ele><time>2022-11-19T05:58:45.000Z</time></trkpt>
      <trkpt lat="34.546236" lon="126.927677"><ele>286.0</ele><time>2022-11-19T05:58:53.000Z</time></trkpt>
      <trkpt lat="34.546308" lon="126.927682"><ele>287.0</ele><time>2022-11-19T05:59:00.000Z</time></trkpt>
      <trkpt lat="34.546420" lon="126.927727"><ele>288.0</ele><time>2022-11-19T05:59:12.000Z</time></trkpt>
      <trkpt lat="34.546524" lon="126.927717"><ele>286.0</ele><time>2022-11-19T05:59:24.000Z</time></trkpt>
      <trkpt lat="34.546610" lon="126.927695"><ele>282.0</ele><time>2022-11-19T05:59:40.000Z</time></trkpt>
      <trkpt lat="34.546693" lon="126.927680"><ele>279.0</ele><time>2022-11-19T05:59:54.000Z</time></trkpt>
      <trkpt lat="34.546772" lon="126.927692"><ele>275.0</ele><time>2022-11-19T06:00:08.000Z</time></trkpt>
      <trkpt lat="34.546858" lon="126.927719"><ele>273.0</ele><time>2022-11-19T06:00:17.000Z</time></trkpt>
      <trkpt lat="34.546917" lon="126.927769"><ele>272.0</ele><time>2022-11-19T06:00:26.000Z</time></trkpt>
      <trkpt lat="34.546981" lon="126.927813"><ele>270.0</ele><time>2022-11-19T06:00:38.000Z</time></trkpt>
      <trkpt lat="34.547020" lon="126.927891"><ele>267.0</ele><time>2022-11-19T06:00:47.000Z</time></trkpt>
      <trkpt lat="34.547084" lon="126.927993"><ele>265.0</ele><time>2022-11-19T06:00:58.000Z</time></trkpt>
      <trkpt lat="34.547123" lon="126.928093"><ele>263.0</ele><time>2022-11-19T06:01:07.000Z</time></trkpt>
      <trkpt lat="34.547183" lon="126.928183"><ele>260.0</ele><time>2022-11-19T06:01:20.000Z</time></trkpt>
      <trkpt lat="34.547240" lon="126.928238"><ele>257.0</ele><time>2022-11-19T06:01:30.000Z</time></trkpt>
      <trkpt lat="34.547283" lon="126.928343"><ele>253.0</ele><time>2022-11-19T06:01:48.000Z</time></trkpt>
      <trkpt lat="34.547319" lon="126.928442"><ele>250.0</ele><time>2022-11-19T06:02:00.000Z</time></trkpt>
      <trkpt lat="34.547339" lon="126.928523"><ele>248.0</ele><time>2022-11-19T06:02:11.000Z</time></trkpt>
      <trkpt lat="34.547384" lon="126.928603"><ele>244.0</ele><time>2022-11-19T06:02:28.000Z</time></trkpt>
      <trkpt lat="34.547444" lon="126.928664"><ele>240.0</ele><time>2022-11-19T06:02:43.000Z</time></trkpt>
      <trkpt lat="34.547531" lon="126.928710"><ele>235.0</ele><time>2022-11-19T06:03:04.000Z</time></trkpt>
      <trkpt lat="34.547559" lon="126.928793"><ele>232.0</ele><time>2022-11-19T06:03:16.000Z</time></trkpt>
      <trkpt lat="34.547617" lon="126.928868"><ele>228.0</ele><time>2022-11-19T06:03:33.000Z</time></trkpt>
      <trkpt lat="34.547658" lon="126.928966"><ele>223.0</ele><time>2022-11-19T06:03:50.000Z</time></trkpt>
      <trkpt lat="34.547677" lon="126.929058"><ele>219.0</ele><time>2022-11-19T06:04:05.000Z</time></trkpt>
      <trkpt lat="34.547691" lon="126.929140"><ele>214.0</ele><time>2022-11-19T06:04:22.000Z</time></trkpt>
      <trkpt lat="34.547762" lon="126.929152"><ele>212.0</ele><time>2022-11-19T06:04:34.000Z</time></trkpt>
      <trkpt lat="34.547819" lon="126.929231"><ele>206.0</ele><time>2022-11-19T06:04:55.000Z</time></trkpt>
      <trkpt lat="34.547876" lon="126.929280"><ele>201.0</ele><time>2022-11-19T06:05:15.000Z</time></trkpt>
      <trkpt lat="34.547958" lon="126.929355"><ele>198.0</ele><time>2022-11-19T06:05:28.000Z</time></trkpt>
      <trkpt lat="34.548029" lon="126.929434"><ele>194.0</ele><time>2022-11-19T06:05:40.000Z</time></trkpt>
      <trkpt lat="34.548096" lon="126.929517"><ele>191.0</ele><time>2022-11-19T06:05:52.000Z</time></trkpt>
      <trkpt lat="34.548114" lon="126.929622"><ele>189.0</ele><time>2022-11-19T06:06:01.000Z</time></trkpt>
      <trkpt lat="34.548138" lon="126.929739"><ele>186.0</ele><time>2022-11-19T06:06:18.000Z</time></trkpt>
      <trkpt lat="34.548144" lon="126.929827"><ele>181.0</ele><time>2022-11-19T06:06:33.000Z</time></trkpt>
      <trkpt lat="34.548182" lon="126.929920"><ele>177.0</ele><time>2022-11-19T06:06:48.000Z</time></trkpt>
      <trkpt lat="34.548179" lon="126.930031"><ele>174.0</ele><time>2022-11-19T06:06:57.000Z</time></trkpt>
      <trkpt lat="34.548147" lon="126.930127"><ele>171.0</ele><time>2022-11-19T06:07:09.000Z</time></trkpt>
      <trkpt lat="34.548147" lon="126.930204"><ele>170.0</ele><time>2022-11-19T06:07:18.000Z</time></trkpt>
      <trkpt lat="34.548141" lon="126.930292"><ele>167.0</ele><time>2022-11-19T06:07:26.000Z</time></trkpt>
      <trkpt lat="34.548166" lon="126.930372"><ele>164.0</ele><time>2022-11-19T06:07:38.000Z</time></trkpt>
      <trkpt lat="34.548200" lon="126.930455"><ele>160.0</ele><time>2022-11-19T06:07:50.000Z</time></trkpt>
      <trkpt lat="34.548248" lon="126.930550"><ele>158.0</ele><time>2022-11-19T06:08:03.000Z</time></trkpt>
      <trkpt lat="34.548323" lon="126.930612"><ele>155.0</ele><time>2022-11-19T06:08:16.000Z</time></trkpt>
      <trkpt lat="34.548378" lon="126.930695"><ele>154.0</ele><time>2022-11-19T06:08:27.000Z</time></trkpt>
      <trkpt lat="34.548422" lon="126.930812"><ele>152.0</ele><time>2022-11-19T06:08:38.000Z</time></trkpt>
      <trkpt lat="34.548396" lon="126.930895"><ele>151.0</ele><time>2022-11-19T06:08:44.000Z</time></trkpt>
      <trkpt lat="34.548355" lon="126.931015"><ele>149.0</ele><time>2022-11-19T06:08:56.000Z</time></trkpt>
      <trkpt lat="34.548370" lon="126.931157"><ele>148.0</ele><time>2022-11-19T06:09:12.000Z</time></trkpt>
      <trkpt lat="34.548347" lon="126.931267"><ele>147.0</ele><time>2022-11-19T06:09:20.000Z</time></trkpt>
      <trkpt lat="34.548387" lon="126.931370"><ele>146.0</ele><time>2022-11-19T06:09:32.000Z</time></trkpt>
      <trkpt lat="34.548439" lon="126.931435"><ele>146.0</ele><time>2022-11-19T06:09:40.000Z</time></trkpt>
      <trkpt lat="34.548491" lon="126.931513"><ele>145.0</ele><time>2022-11-19T06:09:48.000Z</time></trkpt>
      <trkpt lat="34.548568" lon="126.931594"><ele>145.0</ele><time>2022-11-19T06:09:57.000Z</time></trkpt>
      <trkpt lat="34.548607" lon="126.931716"><ele>143.0</ele><time>2022-11-19T06:10:13.000Z</time></trkpt>
      <trkpt lat="34.548539" lon="126.931764"><ele>144.0</ele><time>2022-11-19T06:11:28.000Z</time></trkpt>
      <trkpt lat="34.548601" lon="126.931716"><ele>144.0</ele><time>2022-11-19T06:12:39.000Z</time></trkpt>
      <trkpt lat="34.548664" lon="126.931779"><ele>142.0</ele><time>2022-11-19T06:12:48.000Z</time></trkpt>
      <trkpt lat="34.548671" lon="126.931868"><ele>140.0</ele><time>2022-11-19T06:12:55.000Z</time></trkpt>
      <trkpt lat="34.548722" lon="126.932003"><ele>139.0</ele><time>2022-11-19T06:13:04.000Z</time></trkpt>
      <trkpt lat="34.548749" lon="126.932090"><ele>138.0</ele><time>2022-11-19T06:13:09.000Z</time></trkpt>
      <trkpt lat="34.548768" lon="126.932207"><ele>138.0</ele><time>2022-11-19T06:13:16.000Z</time></trkpt>
      <trkpt lat="34.548789" lon="126.932336"><ele>137.0</ele><time>2022-11-19T06:13:24.000Z</time></trkpt>
      <trkpt lat="34.548794" lon="126.932451"><ele>136.0</ele><time>2022-11-19T06:13:32.000Z</time></trkpt>
      <trkpt lat="34.548792" lon="126.932594"><ele>136.0</ele><time>2022-11-19T06:13:41.000Z</time></trkpt>
      <trkpt lat="34.548804" lon="126.932727"><ele>134.0</ele><time>2022-11-19T06:13:49.000Z</time></trkpt>
      <trkpt lat="34.548802" lon="126.932858"><ele>133.0</ele><time>2022-11-19T06:13:57.000Z</time></trkpt>
      <trkpt lat="34.548799" lon="126.932973"><ele>131.0</ele><time>2022-11-19T06:14:05.000Z</time></trkpt>
      <trkpt lat="34.548771" lon="126.933075"><ele>131.0</ele><time>2022-11-19T06:14:12.000Z</time></trkpt>
      <trkpt lat="34.548758" lon="126.933168"><ele>130.0</ele><time>2022-11-19T06:14:18.000Z</time></trkpt>
      <trkpt lat="34.548751" lon="126.933300"><ele>129.0</ele><time>2022-11-19T06:14:26.000Z</time></trkpt>
      <trkpt lat="34.548748" lon="126.933426"><ele>128.0</ele><time>2022-11-19T06:14:33.000Z</time></trkpt>
      <trkpt lat="34.548757" lon="126.933560"><ele>127.0</ele><time>2022-11-19T06:14:42.000Z</time></trkpt>
      <trkpt lat="34.548763" lon="126.933688"><ele>125.0</ele><time>2022-11-19T06:14:51.000Z</time></trkpt>
      <trkpt lat="34.548770" lon="126.933788"><ele>124.0</ele><time>2022-11-19T06:14:58.000Z</time></trkpt>
      <trkpt lat="34.548786" lon="126.933881"><ele>123.0</ele><time>2022-11-19T06:15:04.000Z</time></trkpt>
      <trkpt lat="34.548800" lon="126.934016"><ele>122.0</ele><time>2022-11-19T06:15:12.000Z</time></trkpt>
      <trkpt lat="34.548811" lon="126.934140"><ele>121.0</ele><time>2022-11-19T06:15:19.000Z</time></trkpt>
      <trkpt lat="34.548847" lon="126.934267"><ele>120.0</ele><time>2022-11-19T06:15:27.000Z</time></trkpt>
      <trkpt lat="34.548850" lon="126.934397"><ele>118.0</ele><time>2022-11-19T06:15:35.000Z</time></trkpt>
      <trkpt lat="34.548872" lon="126.934527"><ele>118.0</ele><time>2022-11-19T06:15:43.000Z</time></trkpt>
      <trkpt lat="34.548893" lon="126.934683"><ele>117.0</ele><time>2022-11-19T06:15:53.000Z</time></trkpt>
      <trkpt lat="34.548903" lon="126.934803"><ele>115.0</ele><time>2022-11-19T06:15:59.000Z</time></trkpt>
      <trkpt lat="34.548896" lon="126.934905"><ele>114.0</ele><time>2022-11-19T06:16:04.000Z</time></trkpt>
      <trkpt lat="34.548882" lon="126.935058"><ele>113.0</ele><time>2022-11-19T06:16:13.000Z</time></trkpt>
      <trkpt lat="34.548897" lon="126.935179"><ele>112.0</ele><time>2022-11-19T06:16:20.000Z</time></trkpt>
      <trkpt lat="34.548905" lon="126.935324"><ele>111.0</ele><time>2022-11-19T06:16:29.000Z</time></trkpt>
      <trkpt lat="34.548903" lon="126.935458"><ele>111.0</ele><time>2022-11-19T06:16:37.000Z</time></trkpt>
      <trkpt lat="34.548903" lon="126.935567"><ele>110.0</ele><time>2022-11-19T06:16:40.000Z</time></trkpt>
      <trkpt lat="34.548913" lon="126.935682"><ele>109.0</ele><time>2022-11-19T06:16:49.000Z</time></trkpt>
      <trkpt lat="34.548936" lon="126.935818"><ele>108.0</ele><time>2022-11-19T06:17:01.000Z</time></trkpt>
      <trkpt lat="34.548953" lon="126.935942"><ele>107.0</ele><time>2022-11-19T06:17:09.000Z</time></trkpt>
      <trkpt lat="34.548956" lon="126.936066"><ele>107.0</ele><time>2022-11-19T06:17:17.000Z</time></trkpt>
      <trkpt lat="34.548956" lon="126.936066"><ele>107.0</ele><time>2022-11-19T06:17:24.000Z</time></trkpt>
    </trkseg>
  </trk>
</gpx>