<?xml version="1.0" encoding="UTF-8"?>
<gpx version="1.1" creator="gajago-nav" xmlns="http://www.topografix.com/GPX/1/1">
  <metadata><name>청계산_20191222</name></metadata>
  <wpt lat="37.444887" lon="127.057423">
    <name>들머리 ( 원터골)</name>
    <ele>83</ele>
  </wpt>
  <wpt lat="37.433620" lon="127.048740">
    <name>길마재</name>
  </wpt>
  <wpt lat="37.430797" lon="127.047357">
    <name>갈림길</name>
  </wpt>
  <wpt lat="37.428700" lon="127.044680">
    <name>매바위</name>
  </wpt>
  <wpt lat="37.428020" lon="127.043640">
    <name>매봉</name>
    <ele>582</ele>
  </wpt>
  <wpt lat="37.427921" lon="127.042852">
    <name>갈림길</name>
  </wpt>
  <wpt lat="37.423820" lon="127.041520">
    <name>혈읍재</name>
    <ele>529</ele>
  </wpt>
  <wpt lat="37.422760" lon="127.041310">
    <name>망경대</name>
    <ele>621</ele>
  </wpt>
  <wpt lat="37.423236" lon="127.042291">
    <name>갈림길</name>
  </wpt>
  <wpt lat="37.421900" lon="127.043220">
    <name>청계산</name>
    <ele>618</ele>
  </wpt>
  <wpt lat="37.422534" lon="127.044845">
    <name>갈림길</name>
  </wpt>
  <wpt lat="37.420610" lon="127.041950">
    <name>석기봉</name>
    <ele>603</ele>
  </wpt>
  <wpt lat="37.413650" lon="127.046680">
    <name>이수봉</name>
    <ele>558</ele>
  </wpt>
  <wpt lat="37.425245" lon="127.066935">
    <name>날머리 (옛골로)</name>
    <ele>163</ele>
  </wpt>
  <trk>
    <name>청계산_20191222</name>
    <trkseg>
      <trkpt lat="37.444887" lon="127.057423"><ele>82.7</ele><time>2019-12-22T09:33:26.000Z</time></trkpt>
      <trkpt lat="37.444857" lon="127.057296"><ele>81.3</ele><time>2019-12-22T09:33:47.000Z</time></trkpt>
      <trkpt lat="37.444510" lon="127.056762"><ele>63.0</ele><time>2019-12-22T09:34:13.000Z</time></trkpt>
      <trkpt lat="37.444544" lon="127.056870"><ele>58.9</ele><time>2019-12-22T09:34:14.000Z</time></trkpt>
      <trkpt lat="37.444487" lon="127.056924"><ele>88.7</ele><time>2019-12-22T09:34:21.000Z</time></trkpt>
      <trkpt lat="37.444444" lon="127.057049"><ele>85.1</ele><time>2019-12-22T09:34:32.000Z</time></trkpt>
      <trkpt lat="37.444369" lon="127.057127"><ele>89.5</ele><time>2019-12-22T09:34:37.000Z</time></trkpt>
      <trkpt lat="37.444279" lon="127.057097"><ele>87.5</ele><time>2019-12-22T09:34:46.000Z</time></trkpt>
      <trkpt lat="37.444207" lon="127.056986"><ele>84.0</ele><time>2019-12-22T09:34:53.000Z</time></trkpt>
      <trkpt lat="37.444131" lon="127.056875"><ele>86.1</ele><time>2019-12-22T09:34:58.000Z</time></trkpt>
      <trkpt lat="37.444103" lon="127.056757"><ele>85.8</ele><time>2019-12-22T09:35:03.000Z</time></trkpt>
      <trkpt lat="37.444077" lon="127.056646"><ele>87.0</ele><time>2019-12-22T09:35:09.000Z</time></trkpt>
      <trkpt lat="37.444042" lon="127.056536"><ele>86.4</ele><time>2019-12-22T09:35:18.000Z</time></trkpt>
      <trkpt lat="37.444054" lon="127.056408"><ele>86.9</ele><time>2019-12-22T09:35:27.000Z</time></trkpt>
      <trkpt lat="37.444076" lon="127.056274"><ele>85.5</ele><time>2019-12-22T09:35:35.000Z</time></trkpt>
      <trkpt lat="37.444058" lon="127.056160"><ele>87.0</ele><time>2019-12-22T09:35:46.000Z</time></trkpt>
      <trkpt lat="37.444002" lon="127.056058"><ele>90.3</ele><time>2019-12-22T09:35:53.000Z</time></trkpt>
      <trkpt lat="37.443955" lon="127.055936"><ele>90.6</ele><time>2019-12-22T09:36:03.000Z</time></trkpt>
      <trkpt lat="37.443883" lon="127.055835"><ele>90.3</ele><time>2019-12-22T09:36:10.000Z</time></trkpt>
      <trkpt lat="37.443841" lon="127.055728"><ele>90.8</ele><time>2019-12-22T09:36:18.000Z</time></trkpt>
      <trkpt lat="37.443782" lon="127.055632"><ele>91.1</ele><time>2019-12-22T09:36:26.000Z</time></trkpt>
      <trkpt lat="37.443724" lon="127.055541"><ele>92.9</ele><time>2019-12-22T09:36:34.000Z</time></trkpt>
      <trkpt lat="37.443672" lon="127.055417"><ele>93.1</ele><time>2019-12-22T09:36:43.000Z</time></trkpt>
      <trkpt lat="37.443615" lon="127.055325"><ele>96.2</ele><time>2019-12-22T09:36:51.000Z</time></trkpt>
      <trkpt lat="37.443635" lon="127.055189"><ele>96.7</ele><time>2019-12-22T09:37:09.000Z</time></trkpt>
      <trkpt lat="37.443620" lon="127.055077"><ele>96.3</ele><time>2019-12-22T09:37:17.000Z</time></trkpt>
      <trkpt lat="37.443600" lon="127.054955"><ele>96.7</ele><time>2019-12-22T09:37:24.000Z</time></trkpt>
      <trkpt lat="37.443549" lon="127.054845"><ele>97.6</ele><time>2019-12-22T09:37:33.000Z</time></trkpt>
      <trkpt lat="37.443492" lon="127.054756"><ele>97.7</ele><time>2019-12-22T09:37:41.000Z</time></trkpt>
      <trkpt lat="37.443424" lon="127.054676"><ele>96.5</ele><time>2019-12-22T09:37:48.000Z</time></trkpt>
      <trkpt lat="37.443338" lon="127.054570"><ele>96.6</ele><time>2019-12-22T09:37:56.000Z</time></trkpt>
      <trkpt lat="37.443257" lon="127.054456"><ele>96.9</ele><time>2019-12-22T09:38:04.000Z</time></trkpt>
      <trkpt lat="37.443168" lon="127.054372"><ele>97.0</ele><time>2019-12-22T09:38:13.000Z</time></trkpt>
      <trkpt lat="37.443100" lon="127.054290"><ele>97.5</ele><time>2019-12-22T09:38:22.000Z</time></trkpt>
      <trkpt lat="37.443054" lon="127.054183"><ele>97.4</ele><time>2019-12-22T09:38:30.000Z</time></trkpt>
      <trkpt lat="37.442991" lon="127.054087"><ele>98.4</ele><time>2019-12-22T09:38:38.000Z</time></trkpt>
      <trkpt lat="37.442917" lon="127.054013"><ele>99.4</ele><time>2019-12-22T09:38:44.000Z</time></trkpt>
      <trkpt lat="37.442855" lon="127.053920"><ele>100.5</ele><time>2019-12-22T09:38:49.000Z</time></trkpt>
      <trkpt lat="37.442782" lon="127.053852"><ele>101.7</ele><time>2019-12-22T09:38:57.000Z</time></trkpt>
      <trkpt lat="37.442717" lon="127.053768"><ele>102.9</ele><time>2019-12-22T09:39:05.000Z</time></trkpt>
      <trkpt lat="37.442647" lon="127.053689"><ele>104.0</ele><time>2019-12-22T09:39:12.000Z</time></trkpt>
      <trkpt lat="37.442563" lon="127.053628"><ele>105.3</ele><time>2019-12-22T09:39:19.000Z</time></trkpt>
      <trkpt lat="37.442493" lon="127.053531"><ele>106.9</ele><time>2019-12-22T09:39:29.000Z</time></trkpt>
      <trkpt lat="37.442405" lon="127.053461"><ele>108.1</ele><time>2019-12-22T09:39:39.000Z</time></trkpt>
      <trkpt lat="37.442325" lon="127.053358"><ele>108.9</ele><time>2019-12-22T09:39:46.000Z</time></trkpt>
      <trkpt lat="37.442243" lon="127.053321"><ele>111.5</ele><time>2019-12-22T09:40:01.000Z</time></trkpt>
      <trkpt lat="37.442148" lon="127.053287"><ele>113.3</ele><time>2019-12-22T09:40:13.000Z</time></trkpt>
      <trkpt lat="37.442067" lon="127.053233"><ele>116.3</ele><time>2019-12-22T09:40:24.000Z</time></trkpt>
      <trkpt lat="37.441983" lon="127.053187"><ele>118.1</ele><time>2019-12-22T09:40:35.000Z</time></trkpt>
      <trkpt lat="37.441894" lon="127.053140"><ele>121.1</ele><time>2019-12-22T09:40:46.000Z</time></trkpt>
      <trkpt lat="37.441804" lon="127.053092"><ele>124.1</ele><time>2019-12-22T09:40:57.000Z</time></trkpt>
      <trkpt lat="37.441720" lon="127.053122"><ele>129.5</ele><time>2019-12-22T09:41:14.000Z</time></trkpt>
      <trkpt lat="37.441648" lon="127.053225"><ele>130.2</ele><time>2019-12-22T09:41:26.000Z</time></trkpt>
      <trkpt lat="37.441576" lon="127.053311"><ele>132.4</ele><time>2019-12-22T09:41:38.000Z</time></trkpt>
      <trkpt lat="37.441472" lon="127.053265"><ele>132.1</ele><time>2019-12-22T09:41:49.000Z</time></trkpt>
      <trkpt lat="37.441377" lon="127.053231"><ele>132.9</ele><time>2019-12-22T09:41:57.000Z</time></trkpt>
      <trkpt lat="37.441292" lon="127.053184"><ele>135.4</ele><time>2019-12-22T09:42:08.000Z</time></trkpt>
      <trkpt lat="37.441207" lon="127.053168"><ele>138.6</ele><time>2019-12-22T09:42:25.000Z</time></trkpt>
      <trkpt lat="37.441130" lon="127.053104"><ele>140.4</ele><time>2019-12-22T09:42:36.000Z</time></trkpt>
      <trkpt lat="37.441041" lon="127.053054"><ele>142.9</ele><time>2019-12-22T09:42:43.000Z</time></trkpt>
      <trkpt lat="37.440962" lon="127.053013"><ele>146.2</ele><time>2019-12-22T09:42:53.000Z</time></trkpt>
      <trkpt lat="37.440875" lon="127.053005"><ele>150.9</ele><time>2019-12-22T09:43:03.000Z</time></trkpt>
      <trkpt lat="37.440841" lon="127.052888"><ele>150.5</ele><time>2019-12-22T09:43:13.000Z</time></trkpt>
      <trkpt lat="37.440803" lon="127.052785"><ele>150.5</ele><time>2019-12-22T09:43:20.000Z</time></trkpt>
      <trkpt lat="37.440716" lon="127.052731"><ele>152.7</ele><time>2019-12-22T09:43:34.000Z</time></trkpt>
      <trkpt lat="37.440637" lon="127.052685"><ele>155.1</ele><time>2019-12-22T09:43:52.000Z</time></trkpt>
      <trkpt lat="37.440576" lon="127.052594"><ele>158.0</ele><time>2019-12-22T09:44:10.000Z</time></trkpt>
      <trkpt lat="37.440528" lon="127.052499"><ele>159.8</ele><time>2019-12-22T09:44:21.000Z</time></trkpt>
      <trkpt lat="37.440472" lon="127.052419"><ele>163.7</ele><time>2019-12-22T09:44:38.000Z</time></trkpt>
      <trkpt lat="37.440391" lon="127.052364"><ele>165.7</ele><time>2019-12-22T09:44:52.000Z</time></trkpt>
      <trkpt lat="37.440313" lon="127.052295"><ele>168.7</ele><time>2019-12-22T09:45:08.000Z</time></trkpt>
      <trkpt lat="37.440239" lon="127.052211"><ele>171.1</ele><time>2019-12-22T09:45:22.000Z</time></trkpt>
      <trkpt lat="37.440161" lon="127.052170"><ele>175.6</ele><time>2019-12-22T09:45:52.000Z</time></trkpt>
      <trkpt lat="37.440081" lon="127.052122"><ele>177.7</ele><time>2019-12-22T09:45:59.000Z</time></trkpt>
      <trkpt lat="37.439981" lon="127.052078"><ele>180.6</ele><time>2019-12-22T09:46:14.000Z</time></trkpt>
      <trkpt lat="37.439894" lon="127.052044"><ele>182.9</ele><time>2019-12-22T09:46:22.000Z</time></trkpt>
      <trkpt lat="37.439798" lon="127.052008"><ele>187.2</ele><time>2019-12-22T09:46:35.000Z</time></trkpt>
      <trkpt lat="37.439713" lon="127.051948"><ele>188.9</ele><time>2019-12-22T09:46:43.000Z</time></trkpt>
      <trkpt lat="37.439632" lon="127.051876"><ele>191.3</ele><time>2019-12-22T09:46:52.000Z</time></trkpt>
      <trkpt lat="37.439567" lon="127.051781"><ele>192.5</ele><time>2019-12-22T09:47:00.000Z</time></trkpt>
      <trkpt lat="37.439482" lon="127.051707"><ele>193.3</ele><time>2019-12-22T09:47:08.000Z</time></trkpt>
      <trkpt lat="37.439422" lon="127.051622"><ele>194.6</ele><time>2019-12-22T09:47:15.000Z</time></trkpt>
      <trkpt lat="37.439337" lon="127.051562"><ele>199.2</ele><time>2019-12-22T09:47:43.000Z</time></trkpt>
      <trkpt lat="37.439254" lon="127.051514"><ele>200.9</ele><time>2019-12-22T09:47:57.000Z</time></trkpt>
      <trkpt lat="37.439171" lon="127.051447"><ele>203.7</ele><time>2019-12-22T09:48:17.000Z</time></trkpt>
      <trkpt lat="37.439100" lon="127.051368"><ele>207.7</ele><time>2019-12-22T09:48:30.000Z</time></trkpt>
      <trkpt lat="37.439029" lon="127.051358"><ele>214.4</ele><time>2019-12-22T09:48:49.000Z</time></trkpt>
      <trkpt lat="37.438958" lon="127.051270"><ele>218.8</ele><time>2019-12-22T09:49:05.000Z</time></trkpt>
      <trkpt lat="37.438899" lon="127.051172"><ele>221.1</ele><time>2019-12-22T09:49:16.000Z</time></trkpt>
      <trkpt lat="37.438825" lon="127.051100"><ele>223.8</ele><time>2019-12-22T09:49:30.000Z</time></trkpt>
      <trkpt lat="37.438726" lon="127.051103"><ele>224.3</ele><time>2019-12-22T09:49:48.000Z</time></trkpt>
      <trkpt lat="37.438639" lon="127.051059"><ele>227.1</ele><time>2019-12-22T09:49:56.000Z</time></trkpt>
      <trkpt lat="37.438575" lon="127.050978"><ele>229.4</ele><time>2019-12-22T09:50:03.000Z</time></trkpt>
      <trkpt lat="37.438545" lon="127.050872"><ele>235.5</ele><time>2019-12-22T09:50:32.000Z</time></trkpt>
      <trkpt lat="37.438548" lon="127.050756"><ele>236.7</ele><time>2019-12-22T09:50:41.000Z</time></trkpt>
      <trkpt lat="37.438499" lon="127.050668"><ele>239.9</ele><time>2019-12-22T09:51:01.000Z</time></trkpt>
      <trkpt lat="37.438424" lon="127.050729"><ele>243.7</ele><time>2019-12-22T09:51:22.000Z</time></trkpt>
      <trkpt lat="37.438353" lon="127.050771"><ele>249.0</ele><time>2019-12-22T09:51:34.000Z</time></trkpt>
      <trkpt lat="37.438294" lon="127.050881"><ele>255.1</ele><time>2019-12-22T09:51:51.000Z</time></trkpt>
      <trkpt lat="37.438221" lon="127.050806"><ele>255.5</ele><time>2019-12-22T09:51:58.000Z</time></trkpt>
      <trkpt lat="37.438126" lon="127.050836"><ele>256.9</ele><time>2019-12-22T09:52:09.000Z</time></trkpt>
      <trkpt lat="37.438028" lon="127.050882"><ele>254.9</ele><time>2019-12-22T09:52:18.000Z</time></trkpt>
      <trkpt lat="37.437955" lon="127.050926"><ele>259.7</ele><time>2019-12-22T09:52:28.000Z</time></trkpt>
      <trkpt lat="37.437897" lon="127.050986"><ele>265.5</ele><time>2019-12-22T09:52:44.000Z</time></trkpt>
      <trkpt lat="37.437804" lon="127.050982"><ele>266.5</ele><time>2019-12-22T09:53:05.000Z</time></trkpt>
      <trkpt lat="37.437710" lon="127.050994"><ele>265.2</ele><time>2019-12-22T09:53:20.000Z</time></trkpt>
      <trkpt lat="37.437621" lon="127.051010"><ele>272.2</ele><time>2019-12-22T09:53:44.000Z</time></trkpt>
      <trkpt lat="37.437536" lon="127.051028"><ele>275.3</ele><time>2019-12-22T09:53:55.000Z</time></trkpt>
      <trkpt lat="37.437447" lon="127.051037"><ele>278.0</ele><time>2019-12-22T09:54:16.000Z</time></trkpt>
      <trkpt lat="37.437364" lon="127.051068"><ele>282.9</ele><time>2019-12-22T09:54:40.000Z</time></trkpt>
      <trkpt lat="37.437275" lon="127.051063"><ele>285.2</ele><time>2019-12-22T09:54:51.000Z</time></trkpt>
      <trkpt lat="37.437175" lon="127.051034"><ele>290.0</ele><time>2019-12-22T09:55:01.000Z</time></trkpt>
      <trkpt lat="37.437093" lon="127.050989"><ele>292.4</ele><time>2019-12-22T09:55:08.000Z</time></trkpt>
      <trkpt lat="37.437014" lon="127.050947"><ele>295.9</ele><time>2019-12-22T09:55:19.000Z</time></trkpt>
      <trkpt lat="37.436926" lon="127.050922"><ele>299.1</ele><time>2019-12-22T09:55:32.000Z</time></trkpt>
      <trkpt lat="37.436844" lon="127.050887"><ele>305.2</ele><time>2019-12-22T09:55:58.000Z</time></trkpt>
      <trkpt lat="37.436759" lon="127.050846"><ele>306.7</ele><time>2019-12-22T09:56:05.000Z</time></trkpt>
      <trkpt lat="37.436682" lon="127.050846"><ele>312.5</ele><time>2019-12-22T09:56:30.000Z</time></trkpt>
      <trkpt lat="37.436604" lon="127.050870"><ele>318.2</ele><time>2019-12-22T09:56:55.000Z</time></trkpt>
      <trkpt lat="37.436515" lon="127.050891"><ele>323.4</ele><time>2019-12-22T09:57:20.000Z</time></trkpt>
      <trkpt lat="37.436418" lon="127.050866"><ele>326.1</ele><time>2019-12-22T09:57:34.000Z</time></trkpt>
      <trkpt lat="37.436330" lon="127.050824"><ele>330.3</ele><time>2019-12-22T09:57:48.000Z</time></trkpt>
      <trkpt lat="37.436249" lon="127.050754"><ele>332.5</ele><time>2019-12-22T09:58:02.000Z</time></trkpt>
      <trkpt lat="37.436161" lon="127.050756"><ele>335.8</ele><time>2019-12-22T09:58:24.000Z</time></trkpt>
      <trkpt lat="37.436104" lon="127.050841"><ele>339.6</ele><time>2019-12-22T09:58:49.000Z</time></trkpt>
      <trkpt lat="37.436013" lon="127.050853"><ele>342.4</ele><time>2019-12-22T09:59:09.000Z</time></trkpt>
      <trkpt lat="37.435943" lon="127.050877"><ele>349.5</ele><time>2019-12-22T09:59:31.000Z</time></trkpt>
      <trkpt lat="37.435874" lon="127.050954"><ele>352.9</ele><time>2019-12-22T09:59:51.000Z</time></trkpt>
      <trkpt lat="37.435796" lon="127.051021"><ele>355.0</ele><time>2019-12-22T09:59:59.000Z</time></trkpt>
      <trkpt lat="37.435741" lon="127.051118"><ele>357.9</ele><time>2019-12-22T10:00:14.000Z</time></trkpt>
      <trkpt lat="37.435661" lon="127.051152"><ele>363.5</ele><time>2019-12-22T10:00:27.000Z</time></trkpt>
      <trkpt lat="37.435565" lon="127.051157"><ele>365.1</ele><time>2019-12-22T10:00:50.000Z</time></trkpt>
      <trkpt lat="37.435466" lon="127.051136"><ele>365.2</ele><time>2019-12-22T10:01:08.000Z</time></trkpt>
      <trkpt lat="37.435385" lon="127.051122"><ele>370.0</ele><time>2019-12-22T10:01:20.000Z</time></trkpt>
      <trkpt lat="37.435305" lon="127.051163"><ele>373.7</ele><time>2019-12-22T10:01:54.000Z</time></trkpt>
      <trkpt lat="37.435224" lon="127.051198"><ele>376.9</ele><time>2019-12-22T10:02:15.000Z</time></trkpt>
      <trkpt lat="37.435158" lon="127.051192"><ele>384.8</ele><time>2019-12-22T10:02:42.000Z</time></trkpt>
      <trkpt lat="37.435116" lon="127.051305"><ele>388.7</ele><time>2019-12-22T10:03:00.000Z</time></trkpt>
      <trkpt lat="37.435038" lon="127.051361"><ele>391.0</ele><time>2019-12-22T10:03:12.000Z</time></trkpt>
      <trkpt lat="37.434954" lon="127.051413"><ele>393.7</ele><time>2019-12-22T10:03:21.000Z</time></trkpt>
      <trkpt lat="37.434859" lon="127.051423"><ele>393.8</ele><time>2019-12-22T10:03:30.000Z</time></trkpt>
      <trkpt lat="37.434765" lon="127.051429"><ele>395.8</ele><time>2019-12-22T10:03:41.000Z</time></trkpt>
      <trkpt lat="37.434700" lon="127.051372"><ele>400.8</ele><time>2019-12-22T10:04:19.000Z</time></trkpt>
      <trkpt lat="37.434682" lon="127.051244"><ele>400.1</ele><time>2019-12-22T10:04:33.000Z</time></trkpt>
      <trkpt lat="37.434722" lon="127.051122"><ele>399.3</ele><time>2019-12-22T10:04:40.000Z</time></trkpt>
      <trkpt lat="37.434735" lon="127.051007"><ele>398.8</ele><time>2019-12-22T10:04:44.000Z</time></trkpt>
      <trkpt lat="37.434742" lon="127.050889"><ele>398.8</ele><time>2019-12-22T10:04:53.000Z</time></trkpt>
      <trkpt lat="37.434747" lon="127.050775"><ele>399.3</ele><time>2019-12-22T10:04:58.000Z</time></trkpt>
      <trkpt lat="37.434750" lon="127.050652"><ele>399.6</ele><time>2019-12-22T10:05:03.000Z</time></trkpt>
      <trkpt lat="37.434690" lon="127.050526"><ele>400.1</ele><time>2019-12-22T10:05:10.000Z</time></trkpt>
      <trkpt lat="37.434624" lon="127.050423"><ele>400.5</ele><time>2019-12-22T10:05:14.000Z</time></trkpt>
      <trkpt lat="37.434536" lon="127.050303"><ele>400.8</ele><time>2019-12-22T10:05:20.000Z</time></trkpt>
      <trkpt lat="37.434446" lon="127.050190"><ele>400.0</ele><time>2019-12-22T10:05:26.000Z</time></trkpt>
      <trkpt lat="37.434342" lon="127.050131"><ele>399.8</ele><time>2019-12-22T10:05:34.000Z</time></trkpt>
      <trkpt lat="37.434263" lon="127.050021"><ele>399.9</ele><time>2019-12-22T10:05:42.000Z</time></trkpt>
      <trkpt lat="37.434202" lon="127.049914"><ele>399.0</ele><time>2019-12-22T10:05:47.000Z</time></trkpt>
      <trkpt lat="37.434154" lon="127.049817"><ele>399.2</ele><time>2019-12-22T10:05:53.000Z</time></trkpt>
      <trkpt lat="37.434132" lon="127.049707"><ele>399.0</ele><time>2019-12-22T10:06:02.000Z</time></trkpt>
      <trkpt lat="37.434140" lon="127.049577"><ele>400.4</ele><time>2019-12-22T10:06:15.000Z</time></trkpt>
      <trkpt lat="37.434144" lon="127.049457"><ele>401.6</ele><time>2019-12-22T10:06:25.000Z</time></trkpt>
      <trkpt lat="37.434104" lon="127.049343"><ele>401.1</ele><time>2019-12-22T10:06:33.000Z</time></trkpt>
      <trkpt lat="37.434044" lon="127.049257"><ele>401.2</ele><time>2019-12-22T10:06:38.000Z</time></trkpt>
      <trkpt lat="37.433978" lon="127.049158"><ele>398.2</ele><time>2019-12-22T10:06:45.000Z</time></trkpt>
      <trkpt lat="37.433900" lon="127.049043"><ele>400.1</ele><time>2019-12-22T10:06:50.000Z</time></trkpt>
      <trkpt lat="37.433823" lon="127.048986"><ele>401.9</ele><time>2019-12-22T10:06:57.000Z</time></trkpt>
      <trkpt lat="37.433746" lon="127.048915"><ele>403.2</ele><time>2019-12-22T10:07:25.000Z</time></trkpt>
      <trkpt lat="37.433684" lon="127.048844"><ele>408.3</ele><time>2019-12-22T10:07:48.000Z</time></trkpt>
      <trkpt lat="37.433607" lon="127.048783"><ele>409.6</ele><time>2019-12-22T10:07:58.000Z</time></trkpt>
      <trkpt lat="37.433537" lon="127.048707"><ele>413.3</ele><time>2019-12-22T10:08:12.000Z</time></trkpt>
      <trkpt lat="37.433450" lon="127.048661"><ele>416.9</ele><time>2019-12-22T10:08:26.000Z</time></trkpt>
      <trkpt lat="37.433366" lon="127.048604"><ele>420.7</ele><time>2019-12-22T10:08:44.000Z</time></trkpt>
      <trkpt lat="37.433313" lon="127.048534"><ele>426.3</ele><time>2019-12-22T10:09:14.000Z</time></trkpt>
      <trkpt lat="37.433280" lon="127.048423"><ele>429.2</ele><time>2019-12-22T10:09:39.000Z</time></trkpt>
      <trkpt lat="37.433230" lon="127.048330"><ele>432.3</ele><time>2019-12-22T10:10:09.000Z</time></trkpt>
      <trkpt lat="37.433197" lon="127.048235"><ele>436.6</ele><time>2019-12-22T10:10:31.000Z</time></trkpt>
      <trkpt lat="37.433147" lon="127.048135"><ele>439.2</ele><time>2019-12-22T10:10:51.000Z</time></trkpt>
      <trkpt lat="37.433071" lon="127.048067"><ele>440.4</ele><time>2019-12-22T10:11:01.000Z</time></trkpt>
      <trkpt lat="37.433019" lon="127.047967"><ele>441.6</ele><time>2019-12-22T10:11:10.000Z</time></trkpt>
      <trkpt lat="37.432965" lon="127.047885"><ele>446.4</ele><time>2019-12-22T10:11:33.000Z</time></trkpt>
      <trkpt lat="37.432929" lon="127.047790"><ele>456.1</ele><time>2019-12-22T10:12:37.000Z</time></trkpt>
      <trkpt lat="37.432857" lon="127.047762"><ele>463.1</ele><time>2019-12-22T10:13:11.000Z</time></trkpt>
      <trkpt lat="37.432793" lon="127.047749"><ele>472.1</ele><time>2019-12-22T10:13:43.000Z</time></trkpt>
      <trkpt lat="37.432725" lon="127.047690"><ele>488.1</ele><time>2019-12-22T10:14:53.000Z</time></trkpt>
      <trkpt lat="37.432675" lon="127.047624"><ele>498.5</ele><time>2019-12-22T10:15:37.000Z</time></trkpt>
      <trkpt lat="37.432602" lon="127.047597"><ele>504.1</ele><time>2019-12-22T10:16:10.000Z</time></trkpt>
      <trkpt lat="37.432511" lon="127.047551"><ele>505.1</ele><time>2019-12-22T10:16:19.000Z</time></trkpt>
      <trkpt lat="37.432416" lon="127.047545"><ele>506.8</ele><time>2019-12-22T10:16:28.000Z</time></trkpt>
      <trkpt lat="37.432325" lon="127.047505"><ele>508.6</ele><time>2019-12-22T10:16:36.000Z</time></trkpt>
      <trkpt lat="37.432234" lon="127.047488"><ele>510.4</ele><time>2019-12-22T10:16:45.000Z</time></trkpt>
      <trkpt lat="37.432134" lon="127.047448"><ele>512.5</ele><time>2019-12-22T10:17:05.000Z</time></trkpt>
      <trkpt lat="37.432014" lon="127.047431"><ele>513.2</ele><time>2019-12-22T10:17:12.000Z</time></trkpt>
      <trkpt lat="37.431925" lon="127.047410"><ele>513.9</ele><time>2019-12-22T10:17:19.000Z</time></trkpt>
      <trkpt lat="37.431835" lon="127.047414"><ele>515.2</ele><time>2019-12-22T10:17:27.000Z</time></trkpt>
      <trkpt lat="37.431741" lon="127.047403"><ele>516.2</ele><time>2019-12-22T10:17:35.000Z</time></trkpt>
      <trkpt lat="37.431651" lon="127.047418"><ele>518.0</ele><time>2019-12-22T10:17:45.000Z</time></trkpt>
      <trkpt lat="37.431543" lon="127.047426"><ele>519.7</ele><time>2019-12-22T10:17:54.000Z</time></trkpt>
      <trkpt lat="37.431435" lon="127.047465"><ele>521.1</ele><time>2019-12-22T10:18:03.000Z</time></trkpt>
      <trkpt lat="37.431341" lon="127.047494"><ele>522.9</ele><time>2019-12-22T10:18:14.000Z</time></trkpt>
      <trkpt lat="37.431227" lon="127.047487"><ele>524.1</ele><time>2019-12-22T10:18:21.000Z</time></trkpt>
      <trkpt lat="37.431129" lon="127.047492"><ele>525.5</ele><time>2019-12-22T10:18:28.000Z</time></trkpt>
      <trkpt lat="37.431033" lon="127.047520"><ele>527.1</ele><time>2019-12-22T10:18:36.000Z</time></trkpt>
      <trkpt lat="37.430949" lon="127.047553"><ele>530.0</ele><time>2019-12-22T10:18:40.000Z</time></trkpt>
      <trkpt lat="37.430862" lon="127.047521"><ele>530.3</ele><time>2019-12-22T10:18:51.000Z</time></trkpt>
      <trkpt lat="37.430772" lon="127.047462"><ele>530.2</ele><time>2019-12-22T10:19:03.000Z</time></trkpt>
      <trkpt lat="37.430708" lon="127.047388"><ele>534.4</ele><time>2019-12-22T10:19:13.000Z</time></trkpt>
      <trkpt lat="37.430635" lon="127.047299"><ele>530.8</ele><time>2019-12-22T10:19:30.000Z</time></trkpt>
      <trkpt lat="37.430556" lon="127.047221"><ele>529.6</ele><time>2019-12-22T10:19:45.000Z</time></trkpt>
      <trkpt lat="37.430455" lon="127.047184"><ele>528.8</ele><time>2019-12-22T10:19:56.000Z</time></trkpt>
      <trkpt lat="37.430372" lon="127.047121"><ele>528.3</ele><time>2019-12-22T10:20:06.000Z</time></trkpt>
      <trkpt lat="37.430279" lon="127.047079"><ele>529.4</ele><time>2019-12-22T10:20:20.000Z</time></trkpt>
      <trkpt lat="37.430190" lon="127.047042"><ele>531.9</ele><time>2019-12-22T10:20:35.000Z</time></trkpt>
      <trkpt lat="37.430145" lon="127.046982"><ele>539.1</ele><time>2019-12-22T10:21:09.000Z</time></trkpt>
      <trkpt lat="37.430080" lon="127.046889"><ele>541.2</ele><time>2019-12-22T10:21:20.000Z</time></trkpt>
      <trkpt lat="37.430011" lon="127.046816"><ele>543.6</ele><time>2019-12-22T10:21:30.000Z</time></trkpt>
      <trkpt lat="37.429940" lon="127.046768"><ele>548.3</ele><time>2019-12-22T10:21:55.000Z</time></trkpt>
      <trkpt lat="37.429892" lon="127.046671"><ele>550.9</ele><time>2019-12-22T10:22:07.000Z</time></trkpt>
      <trkpt lat="37.429815" lon="127.046591"><ele>553.0</ele><time>2019-12-22T10:22:18.000Z</time></trkpt>
      <trkpt lat="37.429728" lon="127.046505"><ele>554.3</ele><time>2019-12-22T10:22:24.000Z</time></trkpt>
      <trkpt lat="37.429638" lon="127.046430"><ele>555.7</ele><time>2019-12-22T10:22:35.000Z</time></trkpt>
      <trkpt lat="37.429585" lon="127.046320"><ele>558.0</ele><time>2019-12-22T10:22:47.000Z</time></trkpt>
      <trkpt lat="37.429516" lon="127.046250"><ele>560.3</ele><time>2019-12-22T10:23:01.000Z</time></trkpt>
      <trkpt lat="37.429429" lon="127.046219"><ele>564.0</ele><time>2019-12-22T10:23:17.000Z</time></trkpt>
      <trkpt lat="37.429362" lon="127.046147"><ele>568.3</ele><time>2019-12-22T10:23:48.000Z</time></trkpt>
      <trkpt lat="37.429293" lon="127.046056"><ele>572.7</ele><time>2019-12-22T10:24:10.000Z</time></trkpt>
      <trkpt lat="37.429237" lon="127.045964"><ele>573.0</ele><time>2019-12-22T10:24:20.000Z</time></trkpt>
      <trkpt lat="37.429155" lon="127.045910"><ele>576.3</ele><time>2019-12-22T10:24:45.000Z</time></trkpt>
      <trkpt lat="37.429054" lon="127.045871"><ele>576.8</ele><time>2019-12-22T10:25:18.000Z</time></trkpt>
      <trkpt lat="37.429065" lon="127.045750"><ele>576.2</ele><time>2019-12-22T10:25:34.000Z</time></trkpt>
      <trkpt lat="37.429060" lon="127.045637"><ele>577.2</ele><time>2019-12-22T10:25:42.000Z</time></trkpt>
      <trkpt lat="37.429021" lon="127.045529"><ele>576.8</ele><time>2019-12-22T10:25:57.000Z</time></trkpt>
      <trkpt lat="37.429034" lon="127.045406"><ele>574.7</ele><time>2019-12-22T10:26:14.000Z</time></trkpt>
      <trkpt lat="37.429048" lon="127.045285"><ele>575.8</ele><time>2019-12-22T10:26:24.000Z</time></trkpt>
      <trkpt lat="37.429052" lon="127.045161"><ele>577.7</ele><time>2019-12-22T10:26:37.000Z</time></trkpt>
      <trkpt lat="37.429015" lon="127.045046"><ele>579.1</ele><time>2019-12-22T10:26:54.000Z</time></trkpt>
      <trkpt lat="37.429023" lon="127.044926"><ele>581.2</ele><time>2019-12-22T10:27:16.000Z</time></trkpt>
      <trkpt lat="37.429038" lon="127.044812"><ele>585.9</ele><time>2019-12-22T10:27:37.000Z</time></trkpt>
      <trkpt lat="37.429001" lon="127.044707"><ele>588.0</ele><time>2019-12-22T10:27:53.000Z</time></trkpt>
      <trkpt lat="37.428917" lon="127.044650"><ele>590.3</ele><time>2019-12-22T10:28:08.000Z</time></trkpt>
      <trkpt lat="37.428849" lon="127.044663"><ele>597.3</ele><time>2019-12-22T10:28:33.000Z</time></trkpt>
      <trkpt lat="37.428762" lon="127.044664"><ele>602.8</ele><time>2019-12-22T10:28:58.000Z</time></trkpt>
      <trkpt lat="37.428676" lon="127.044661"><ele>606.7</ele><time>2019-12-22T10:29:34.000Z</time></trkpt>
      <trkpt lat="37.428634" lon="127.044545"><ele>609.8</ele><time>2019-12-22T10:30:45.000Z</time></trkpt>
      <trkpt lat="37.428541" lon="127.044460"><ele>609.9</ele><time>2019-12-22T10:30:54.000Z</time></trkpt>
      <trkpt lat="37.428484" lon="127.044368"><ele>611.3</ele><time>2019-12-22T10:31:02.000Z</time></trkpt>
      <trkpt lat="37.428421" lon="127.044282"><ele>611.5</ele><time>2019-12-22T10:31:23.000Z</time></trkpt>
      <trkpt lat="37.428356" lon="127.044183"><ele>613.3</ele><time>2019-12-22T10:31:30.000Z</time></trkpt>
      <trkpt lat="37.428301" lon="127.044073"><ele>613.8</ele><time>2019-12-22T10:31:37.000Z</time></trkpt>
      <trkpt lat="37.428211" lon="127.044019"><ele>614.7</ele><time>2019-12-22T10:31:45.000Z</time></trkpt>
      <trkpt lat="37.428153" lon="127.043922"><ele>617.2</ele><time>2019-12-22T10:31:53.000Z</time></trkpt>
      <trkpt lat="37.428098" lon="127.043830"><ele>621.2</ele><time>2019-12-22T10:32:03.000Z</time></trkpt>
      <trkpt lat="37.428064" lon="127.043726"><ele>622.9</ele><time>2019-12-22T10:32:14.000Z</time></trkpt>
      <trkpt lat="37.428068" lon="127.043640"><ele>622.5</ele><time>2019-12-22T10:34:14.000Z</time></trkpt>
      <trkpt lat="37.427998" lon="127.043549"><ele>620.7</ele><time>2019-12-22T10:37:13.000Z</time></trkpt>
      <trkpt lat="37.427950" lon="127.043436"><ele>618.3</ele><time>2019-12-22T10:37:23.000Z</time></trkpt>
      <trkpt lat="37.427930" lon="127.043317"><ele>611.5</ele><time>2019-12-22T10:37:39.000Z</time></trkpt>
      <trkpt lat="37.427934" lon="127.043199"><ele>610.6</ele><time>2019-12-22T10:37:51.000Z</time></trkpt>
      <trkpt lat="37.427907" lon="127.043062"><ele>608.2</ele><time>2019-12-22T10:38:01.000Z</time></trkpt>
      <trkpt lat="37.427850" lon="127.042976"><ele>606.1</ele><time>2019-12-22T10:38:11.000Z</time></trkpt>
      <trkpt lat="37.427834" lon="127.042859"><ele>604.0</ele><time>2019-12-22T10:38:20.000Z</time></trkpt>
      <trkpt lat="37.427762" lon="127.042767"><ele>602.3</ele><time>2019-12-22T10:38:34.000Z</time></trkpt>
      <trkpt lat="37.427702" lon="127.042677"><ele>601.0</ele><time>2019-12-22T10:38:42.000Z</time></trkpt>
      <trkpt lat="37.427637" lon="127.042593"><ele>599.5</ele><time>2019-12-22T10:38:52.000Z</time></trkpt>
      <trkpt lat="37.427572" lon="127.042479"><ele>597.8</ele><time>2019-12-22T10:39:01.000Z</time></trkpt>
      <trkpt lat="37.427510" lon="127.042392"><ele>596.5</ele><time>2019-12-22T10:39:09.000Z</time></trkpt>
      <trkpt lat="37.427444" lon="127.042299"><ele>596.5</ele><time>2019-12-22T10:39:18.000Z</time></trkpt>
      <trkpt lat="37.427385" lon="127.042192"><ele>597.0</ele><time>2019-12-22T10:39:25.000Z</time></trkpt>
      <trkpt lat="37.427315" lon="127.042117"><ele>597.8</ele><time>2019-12-22T10:39:34.000Z</time></trkpt>
      <trkpt lat="37.427247" lon="127.042042"><ele>598.6</ele><time>2019-12-22T10:39:42.000Z</time></trkpt>
      <trkpt lat="37.427165" lon="127.041989"><ele>597.2</ele><time>2019-12-22T10:39:51.000Z</time></trkpt>
      <trkpt lat="37.427089" lon="127.041920"><ele>594.8</ele><time>2019-12-22T10:40:00.000Z</time></trkpt>
      <trkpt lat="37.427018" lon="127.041840"><ele>593.9</ele><time>2019-12-22T10:40:08.000Z</time></trkpt>
      <trkpt lat="37.426910" lon="127.041859"><ele>593.8</ele><time>2019-12-22T10:40:18.000Z</time></trkpt>
      <trkpt lat="37.426823" lon="127.041841"><ele>591.1</ele><time>2019-12-22T10:40:37.000Z</time></trkpt>
      <trkpt lat="37.426740" lon="127.041891"><ele>589.9</ele><time>2019-12-22T10:40:42.000Z</time></trkpt>
      <trkpt lat="37.426639" lon="127.041905"><ele>586.5</ele><time>2019-12-22T10:40:53.000Z</time></trkpt>
      <trkpt lat="37.426543" lon="127.041910"><ele>583.9</ele><time>2019-12-22T10:41:02.000Z</time></trkpt>
      <trkpt lat="37.426445" lon="127.041910"><ele>582.5</ele><time>2019-12-22T10:41:10.000Z</time></trkpt>
      <trkpt lat="37.426352" lon="127.041899"><ele>580.9</ele><time>2019-12-22T10:41:17.000Z</time></trkpt>
      <trkpt lat="37.426260" lon="127.041870"><ele>579.4</ele><time>2019-12-22T10:41:24.000Z</time></trkpt>
      <trkpt lat="37.426155" lon="127.041876"><ele>579.2</ele><time>2019-12-22T10:41:35.000Z</time></trkpt>
      <trkpt lat="37.426086" lon="127.041955"><ele>577.1</ele><time>2019-12-22T10:41:44.000Z</time></trkpt>
      <trkpt lat="37.425999" lon="127.041991"><ele>575.0</ele><time>2019-12-22T10:41:54.000Z</time></trkpt>
      <trkpt lat="37.425893" lon="127.042013"><ele>572.0</ele><time>2019-12-22T10:42:04.000Z</time></trkpt>
      <trkpt lat="37.425803" lon="127.042005"><ele>570.4</ele><time>2019-12-22T10:42:13.000Z</time></trkpt>
      <trkpt lat="37.425693" lon="127.041999"><ele>567.5</ele><time>2019-12-22T10:42:23.000Z</time></trkpt>
      <trkpt lat="37.425606" lon="127.042032"><ele>566.5</ele><time>2019-12-22T10:42:34.000Z</time></trkpt>
      <trkpt lat="37.425514" lon="127.042072"><ele>568.3</ele><time>2019-12-22T10:42:49.000Z</time></trkpt>
      <trkpt lat="37.425425" lon="127.042109"><ele>569.6</ele><time>2019-12-22T10:43:00.000Z</time></trkpt>
      <trkpt lat="37.425335" lon="127.042111"><ele>572.6</ele><time>2019-12-22T10:43:16.000Z</time></trkpt>
      <trkpt lat="37.425251" lon="127.042059"><ele>576.3</ele><time>2019-12-22T10:43:40.000Z</time></trkpt>
      <trkpt lat="37.425175" lon="127.042004"><ele>579.8</ele><time>2019-12-22T10:43:55.000Z</time></trkpt>
      <trkpt lat="37.425083" lon="127.041975"><ele>578.6</ele><time>2019-12-22T10:44:03.000Z</time></trkpt>
      <trkpt lat="37.424999" lon="127.041928"><ele>579.2</ele><time>2019-12-22T10:44:13.000Z</time></trkpt>
      <trkpt lat="37.424894" lon="127.041959"><ele>579.7</ele><time>2019-12-22T10:44:22.000Z</time></trkpt>
      <trkpt lat="37.424805" lon="127.041910"><ele>580.7</ele><time>2019-12-22T10:44:35.000Z</time></trkpt>
      <trkpt lat="37.424711" lon="127.041867"><ele>583.7</ele><time>2019-12-22T10:44:51.000Z</time></trkpt>
      <trkpt lat="37.424617" lon="127.041879"><ele>583.2</ele><time>2019-12-22T10:45:02.000Z</time></trkpt>
      <trkpt lat="37.424505" lon="127.041891"><ele>583.4</ele><time>2019-12-22T10:45:13.000Z</time></trkpt>
      <trkpt lat="37.424402" lon="127.041866"><ele>584.4</ele><time>2019-12-22T10:45:23.000Z</time></trkpt>
      <trkpt lat="37.424334" lon="127.041777"><ele>587.3</ele><time>2019-12-22T10:45:34.000Z</time></trkpt>
      <trkpt lat="37.424251" lon="127.041707"><ele>586.7</ele><time>2019-12-22T10:45:46.000Z</time></trkpt>
      <trkpt lat="37.424158" lon="127.041674"><ele>586.5</ele><time>2019-12-22T10:45:56.000Z</time></trkpt>
      <trkpt lat="37.424063" lon="127.041651"><ele>586.1</ele><time>2019-12-22T10:46:06.000Z</time></trkpt>
      <trkpt lat="37.423972" lon="127.041653"><ele>586.9</ele><time>2019-12-22T10:46:16.000Z</time></trkpt>
      <trkpt lat="37.423880" lon="127.041642"><ele>589.9</ele><time>2019-12-22T10:46:25.000Z</time></trkpt>
      <trkpt lat="37.423794" lon="127.041649"><ele>593.3</ele><time>2019-12-22T10:46:54.000Z</time></trkpt>
      <trkpt lat="37.423728" lon="127.041722"><ele>597.7</ele><time>2019-12-22T10:47:17.000Z</time></trkpt>
      <trkpt lat="37.423654" lon="127.041767"><ele>603.3</ele><time>2019-12-22T10:47:41.000Z</time></trkpt>
      <trkpt lat="37.423575" lon="127.041759"><ele>608.2</ele><time>2019-12-22T10:48:05.000Z</time></trkpt>
      <trkpt lat="37.423490" lon="127.041824"><ele>609.5</ele><time>2019-12-22T10:48:21.000Z</time></trkpt>
      <trkpt lat="37.423431" lon="127.041915"><ele>612.4</ele><time>2019-12-22T10:48:40.000Z</time></trkpt>
      <trkpt lat="37.423409" lon="127.042010"><ele>617.7</ele><time>2019-12-22T10:48:58.000Z</time></trkpt>
      <trkpt lat="37.423421" lon="127.042120"><ele>620.5</ele><time>2019-12-22T10:49:16.000Z</time></trkpt>
      <trkpt lat="37.423380" lon="127.042222"><ele>620.1</ele><time>2019-12-22T10:49:31.000Z</time></trkpt>
      <trkpt lat="37.423331" lon="127.042346"><ele>623.2</ele><time>2019-12-22T10:49:43.000Z</time></trkpt>
      <trkpt lat="37.423247" lon="127.042411"><ele>622.9</ele><time>2019-12-22T10:49:58.000Z</time></trkpt>
      <trkpt lat="37.423160" lon="127.042464"><ele>622.5</ele><time>2019-12-22T10:50:23.000Z</time></trkpt>
      <trkpt lat="37.423074" lon="127.042518"><ele>622.2</ele><time>2019-12-22T10:50:31.000Z</time></trkpt>
      <trkpt lat="37.423052" lon="127.042653"><ele>622.5</ele><time>2019-12-22T10:50:47.000Z</time></trkpt>
      <trkpt lat="37.422972" lon="127.042726"><ele>622.8</ele><time>2019-12-22T10:51:04.000Z</time></trkpt>
      <trkpt lat="37.423024" lon="127.042842"><ele>622.5</ele><time>2019-12-22T10:51:23.000Z</time></trkpt>
      <trkpt lat="37.422980" lon="127.042947"><ele>621.9</ele><time>2019-12-22T10:51:34.000Z</time></trkpt>
      <trkpt lat="37.422926" lon="127.043058"><ele>622.2</ele><time>2019-12-22T10:51:41.000Z</time></trkpt>
      <trkpt lat="37.422869" lon="127.043145"><ele>624.3</ele><time>2019-12-22T10:51:47.000Z</time></trkpt>
      <trkpt lat="37.422783" lon="127.043182"><ele>622.9</ele><time>2019-12-22T10:51:58.000Z</time></trkpt>
      <trkpt lat="37.422723" lon="127.043265"><ele>625.2</ele><time>2019-12-22T10:52:16.000Z</time></trkpt>
      <trkpt lat="37.422661" lon="127.043348"><ele>619.9</ele><time>2019-12-22T10:52:39.000Z</time></trkpt>
      <trkpt lat="37.422592" lon="127.043426"><ele>616.8</ele><time>2019-12-22T10:52:49.000Z</time></trkpt>
      <trkpt lat="37.422534" lon="127.043523"><ele>613.9</ele><time>2019-12-22T10:52:58.000Z</time></trkpt>
      <trkpt lat="37.422509" lon="127.043644"><ele>610.0</ele><time>2019-12-22T10:53:12.000Z</time></trkpt>
      <trkpt lat="37.422442" lon="127.043727"><ele>606.7</ele><time>2019-12-22T10:53:31.000Z</time></trkpt>
      <trkpt lat="37.422429" lon="127.043841"><ele>604.0</ele><time>2019-12-22T10:53:41.000Z</time></trkpt>
      <trkpt lat="37.422482" lon="127.043943"><ele>601.8</ele><time>2019-12-22T10:54:03.000Z</time></trkpt>
      <trkpt lat="37.422452" lon="127.044054"><ele>599.5</ele><time>2019-12-22T10:54:45.000Z</time></trkpt>
      <trkpt lat="37.422467" lon="127.044184"><ele>598.8</ele><time>2019-12-22T10:54:58.000Z</time></trkpt>
      <trkpt lat="37.422482" lon="127.044056"><ele>597.9</ele><time>2019-12-22T10:55:19.000Z</time></trkpt>
      <trkpt lat="37.422430" lon="127.043950"><ele>597.9</ele><time>2019-12-22T10:55:32.000Z</time></trkpt>
      <trkpt lat="37.422434" lon="127.043931"><ele>599.7</ele><time>2019-12-22T10:55:41.000Z</time></trkpt>
      <trkpt lat="37.422459" lon="127.044038"><ele>598.2</ele><time>2019-12-22T10:56:48.000Z</time></trkpt>
      <trkpt lat="37.422446" lon="127.044150"><ele>597.9</ele><time>2019-12-22T10:56:57.000Z</time></trkpt>
      <trkpt lat="37.422519" lon="127.044218"><ele>597.4</ele><time>2019-12-22T10:57:20.000Z</time></trkpt>
      <trkpt lat="37.422557" lon="127.044315"><ele>593.7</ele><time>2019-12-22T10:57:39.000Z</time></trkpt>
      <trkpt lat="37.422543" lon="127.044442"><ele>591.2</ele><time>2019-12-22T10:57:52.000Z</time></trkpt>
      <trkpt lat="37.422547" lon="127.044555"><ele>590.7</ele><time>2019-12-22T10:58:04.000Z</time></trkpt>
      <trkpt lat="37.422526" lon="127.044666"><ele>590.4</ele><time>2019-12-22T10:58:12.000Z</time></trkpt>
      <trkpt lat="37.422516" lon="127.044787"><ele>589.8</ele><time>2019-12-22T10:58:22.000Z</time></trkpt>
      <trkpt lat="37.422453" lon="127.044879"><ele>588.2</ele><time>2019-12-22T10:58:34.000Z</time></trkpt>
      <trkpt lat="37.422383" lon="127.044929"><ele>596.4</ele><time>2019-12-22T10:58:42.000Z</time></trkpt>
      <trkpt lat="37.422291" lon="127.044960"><ele>593.2</ele><time>2019-12-22T10:58:48.000Z</time></trkpt>
      <trkpt lat="37.422214" lon="127.045003"><ele>589.6</ele><time>2019-12-22T10:58:57.000Z</time></trkpt>
      <trkpt lat="37.422128" lon="127.045081"><ele>588.2</ele><time>2019-12-22T10:59:06.000Z</time></trkpt>
      <trkpt lat="37.422025" lon="127.045131"><ele>585.8</ele><time>2019-12-22T10:59:22.000Z</time></trkpt>
      <trkpt lat="37.421935" lon="127.045184"><ele>581.9</ele><time>2019-12-22T10:59:32.000Z</time></trkpt>
      <trkpt lat="37.421843" lon="127.045128"><ele>581.9</ele><time>2019-12-22T10:59:43.000Z</time></trkpt>
      <trkpt lat="37.421743" lon="127.045113"><ele>582.2</ele><time>2019-12-22T10:59:53.000Z</time></trkpt>
      <trkpt lat="37.421653" lon="127.045144"><ele>581.6</ele><time>2019-12-22T11:00:04.000Z</time></trkpt>
      <trkpt lat="37.421572" lon="127.045144"><ele>575.9</ele><time>2019-12-22T11:00:20.000Z</time></trkpt>
      <trkpt lat="37.421467" lon="127.045145"><ele>574.0</ele><time>2019-12-22T11:00:33.000Z</time></trkpt>
      <trkpt lat="37.421362" lon="127.045169"><ele>572.4</ele><time>2019-12-22T11:00:44.000Z</time></trkpt>
      <trkpt lat="37.421271" lon="127.045196"><ele>568.2</ele><time>2019-12-22T11:00:54.000Z</time></trkpt>
      <trkpt lat="37.421255" lon="127.045069"><ele>565.9</ele><time>2019-12-22T11:01:03.000Z</time></trkpt>
      <trkpt lat="37.421251" lon="127.044927"><ele>565.5</ele><time>2019-12-22T11:01:14.000Z</time></trkpt>
      <trkpt lat="37.421265" lon="127.044814"><ele>566.2</ele><time>2019-12-22T11:01:21.000Z</time></trkpt>
      <trkpt lat="37.421241" lon="127.044702"><ele>565.1</ele><time>2019-12-22T11:01:27.000Z</time></trkpt>
      <trkpt lat="37.421294" lon="127.044593"><ele>563.7</ele><time>2019-12-22T11:01:34.000Z</time></trkpt>
      <trkpt lat="37.421347" lon="127.044465"><ele>565.5</ele><time>2019-12-22T11:01:44.000Z</time></trkpt>
      <trkpt lat="37.421396" lon="127.044364"><ele>565.4</ele><time>2019-12-22T11:01:53.000Z</time></trkpt>
      <trkpt lat="37.421359" lon="127.044234"><ele>566.3</ele><time>2019-12-22T11:02:04.000Z</time></trkpt>
      <trkpt lat="37.421300" lon="127.044111"><ele>566.3</ele><time>2019-12-22T11:02:14.000Z</time></trkpt>
      <trkpt lat="37.421262" lon="127.043986"><ele>565.9</ele><time>2019-12-22T11:02:35.000Z</time></trkpt>
      <trkpt lat="37.421281" lon="127.043873"><ele>567.4</ele><time>2019-12-22T11:02:44.000Z</time></trkpt>
      <trkpt lat="37.421254" lon="127.043745"><ele>568.3</ele><time>2019-12-22T11:02:55.000Z</time></trkpt>
      <trkpt lat="37.421189" lon="127.043660"><ele>569.7</ele><time>2019-12-22T11:03:05.000Z</time></trkpt>
      <trkpt lat="37.421094" lon="127.043627"><ele>569.7</ele><time>2019-12-22T11:03:21.000Z</time></trkpt>
      <trkpt lat="37.421026" lon="127.043543"><ele>571.6</ele><time>2019-12-22T11:03:30.000Z</time></trkpt>
      <trkpt lat="37.420961" lon="127.043449"><ele>573.0</ele><time>2019-12-22T11:03:39.000Z</time></trkpt>
      <trkpt lat="37.420910" lon="127.043359"><ele>575.1</ele><time>2019-12-22T11:03:46.000Z</time></trkpt>
      <trkpt lat="37.420881" lon="127.043244"><ele>576.6</ele><time>2019-12-22T11:03:55.000Z</time></trkpt>
      <trkpt lat="37.420851" lon="127.043118"><ele>578.7</ele><time>2019-12-22T11:04:06.000Z</time></trkpt>
      <trkpt lat="37.420789" lon="127.043021"><ele>580.9</ele><time>2019-12-22T11:04:17.000Z</time></trkpt>
      <trkpt lat="37.420730" lon="127.042914"><ele>582.4</ele><time>2019-12-22T11:04:28.000Z</time></trkpt>
      <trkpt lat="37.420653" lon="127.042862"><ele>586.4</ele><time>2019-12-22T11:04:39.000Z</time></trkpt>
      <trkpt lat="37.420589" lon="127.042773"><ele>590.8</ele><time>2019-12-22T11:04:55.000Z</time></trkpt>
      <trkpt lat="37.420484" lon="127.042754"><ele>591.0</ele><time>2019-12-22T11:05:12.000Z</time></trkpt>
      <trkpt lat="37.420397" lon="127.042720"><ele>594.0</ele><time>2019-12-22T11:05:21.000Z</time></trkpt>
      <trkpt lat="37.420318" lon="127.042672"><ele>600.1</ele><time>2019-12-22T11:05:31.000Z</time></trkpt>
      <trkpt lat="37.420243" lon="127.042609"><ele>599.1</ele><time>2019-12-22T11:05:40.000Z</time></trkpt>
      <trkpt lat="37.420148" lon="127.042601"><ele>600.4</ele><time>2019-12-22T11:05:50.000Z</time></trkpt>
      <trkpt lat="37.420058" lon="127.042620"><ele>601.5</ele><time>2019-12-22T11:05:59.000Z</time></trkpt>
      <trkpt lat="37.419982" lon="127.042650"><ele>606.7</ele><time>2019-12-22T11:06:07.000Z</time></trkpt>
      <trkpt lat="37.419882" lon="127.042653"><ele>605.0</ele><time>2019-12-22T11:06:18.000Z</time></trkpt>
      <trkpt lat="37.419777" lon="127.042640"><ele>606.2</ele><time>2019-12-22T11:06:29.000Z</time></trkpt>
      <trkpt lat="37.419687" lon="127.042644"><ele>606.4</ele><time>2019-12-22T11:06:38.000Z</time></trkpt>
      <trkpt lat="37.419600" lon="127.042593"><ele>606.6</ele><time>2019-12-22T11:07:02.000Z</time></trkpt>
      <trkpt lat="37.419501" lon="127.042565"><ele>606.7</ele><time>2019-12-22T11:07:10.000Z</time></trkpt>
      <trkpt lat="37.419402" lon="127.042567"><ele>607.1</ele><time>2019-12-22T11:07:19.000Z</time></trkpt>
      <trkpt lat="37.419310" lon="127.042580"><ele>607.0</ele><time>2019-12-22T11:07:28.000Z</time></trkpt>
      <trkpt lat="37.419215" lon="127.042505"><ele>606.0</ele><time>2019-12-22T11:07:40.000Z</time></trkpt>
      <trkpt lat="37.419125" lon="127.042481"><ele>603.7</ele><time>2019-12-22T11:08:34.000Z</time></trkpt>
      <trkpt lat="37.419084" lon="127.042483"><ele>604.4</ele><time>2019-12-22T11:10:34.000Z</time></trkpt>
      <trkpt lat="37.419040" lon="127.042418"><ele>596.9</ele><time>2019-12-22T11:16:16.000Z</time></trkpt>
      <trkpt lat="37.418985" lon="127.042371"><ele>588.9</ele><time>2019-12-22T11:16:35.000Z</time></trkpt>
      <trkpt lat="37.418940" lon="127.042308"><ele>581.9</ele><time>2019-12-22T11:16:51.000Z</time></trkpt>
      <trkpt lat="37.418864" lon="127.042322"><ele>576.5</ele><time>2019-12-22T11:17:10.000Z</time></trkpt>
      <trkpt lat="37.418771" lon="127.042344"><ele>573.9</ele><time>2019-12-22T11:17:20.000Z</time></trkpt>
      <trkpt lat="37.418688" lon="127.042356"><ele>568.3</ele><time>2019-12-22T11:17:40.000Z</time></trkpt>
      <trkpt lat="37.418618" lon="127.042408"><ele>558.9</ele><time>2019-12-22T11:18:10.000Z</time></trkpt>
      <trkpt lat="37.418484" lon="127.042451"><ele>555.8</ele><time>2019-12-22T11:18:22.000Z</time></trkpt>
      <trkpt lat="37.418403" lon="127.042505"><ele>551.0</ele><time>2019-12-22T11:18:35.000Z</time></trkpt>
      <trkpt lat="37.418326" lon="127.042547"><ele>546.7</ele><time>2019-12-22T11:18:51.000Z</time></trkpt>
      <trkpt lat="37.418253" lon="127.042584"><ele>541.3</ele><time>2019-12-22T11:19:08.000Z</time></trkpt>
      <trkpt lat="37.418188" lon="127.042657"><ele>538.3</ele><time>2019-12-22T11:19:24.000Z</time></trkpt>
      <trkpt lat="37.418128" lon="127.042561"><ele>533.5</ele><time>2019-12-22T11:19:48.000Z</time></trkpt>
      <trkpt lat="37.418048" lon="127.042460"><ele>530.6</ele><time>2019-12-22T11:19:56.000Z</time></trkpt>
      <trkpt lat="37.417982" lon="127.042400"><ele>525.3</ele><time>2019-12-22T11:20:09.000Z</time></trkpt>
      <trkpt lat="37.417893" lon="127.042463"><ele>520.7</ele><time>2019-12-22T11:20:22.000Z</time></trkpt>
      <trkpt lat="37.417811" lon="127.042511"><ele>520.9</ele><time>2019-12-22T11:20:28.000Z</time></trkpt>
      <trkpt lat="37.417698" lon="127.042460"><ele>520.0</ele><time>2019-12-22T11:20:32.000Z</time></trkpt>
      <trkpt lat="37.417569" lon="127.042416"><ele>520.0</ele><time>2019-12-22T11:20:38.000Z</time></trkpt>
      <trkpt lat="37.417444" lon="127.042328"><ele>519.9</ele><time>2019-12-22T11:20:44.000Z</time></trkpt>
      <trkpt lat="37.417374" lon="127.042253"><ele>519.7</ele><time>2019-12-22T11:20:48.000Z</time></trkpt>
      <trkpt lat="37.417306" lon="127.042101"><ele>519.4</ele><time>2019-12-22T11:20:58.000Z</time></trkpt>
      <trkpt lat="37.417251" lon="127.041986"><ele>519.5</ele><time>2019-12-22T11:21:01.000Z</time></trkpt>
      <trkpt lat="37.417188" lon="127.041893"><ele>521.2</ele><time>2019-12-22T11:21:16.000Z</time></trkpt>
      <trkpt lat="37.417128" lon="127.041796"><ele>522.2</ele><time>2019-12-22T11:21:23.000Z</time></trkpt>
      <trkpt lat="37.417050" lon="127.041734"><ele>523.2</ele><time>2019-12-22T11:21:31.000Z</time></trkpt>
      <trkpt lat="37.416956" lon="127.041671"><ele>524.3</ele><time>2019-12-22T11:21:46.000Z</time></trkpt>
      <trkpt lat="37.416869" lon="127.041706"><ele>525.2</ele><time>2019-12-22T11:21:53.000Z</time></trkpt>
      <trkpt lat="37.416794" lon="127.041769"><ele>526.1</ele><time>2019-12-22T11:22:01.000Z</time></trkpt>
      <trkpt lat="37.416713" lon="127.041826"><ele>527.3</ele><time>2019-12-22T11:22:11.000Z</time></trkpt>
      <trkpt lat="37.416642" lon="127.041873"><ele>531.9</ele><time>2019-12-22T11:22:34.000Z</time></trkpt>
      <trkpt lat="37.416541" lon="127.041911"><ele>533.7</ele><time>2019-12-22T11:22:43.000Z</time></trkpt>
      <trkpt lat="37.416435" lon="127.041920"><ele>535.1</ele><time>2019-12-22T11:22:52.000Z</time></trkpt>
      <trkpt lat="37.416340" lon="127.042007"><ele>537.4</ele><time>2019-12-22T11:23:06.000Z</time></trkpt>
      <trkpt lat="37.416236" lon="127.041992"><ele>539.9</ele><time>2019-12-22T11:23:18.000Z</time></trkpt>
      <trkpt lat="37.416164" lon="127.041956"><ele>546.8</ele><time>2019-12-22T11:23:46.000Z</time></trkpt>
      <trkpt lat="37.416081" lon="127.041918"><ele>552.0</ele><time>2019-12-22T11:24:10.000Z</time></trkpt>
      <trkpt lat="37.415972" lon="127.041869"><ele>557.4</ele><time>2019-12-22T11:24:48.000Z</time></trkpt>
      <trkpt lat="37.415877" lon="127.041919"><ele>557.9</ele><time>2019-12-22T11:25:07.000Z</time></trkpt>
      <trkpt lat="37.415810" lon="127.042009"><ele>558.2</ele><time>2019-12-22T11:25:15.000Z</time></trkpt>
      <trkpt lat="37.415771" lon="127.042139"><ele>558.0</ele><time>2019-12-22T11:25:24.000Z</time></trkpt>
      <trkpt lat="37.415750" lon="127.042272"><ele>558.1</ele><time>2019-12-22T11:25:33.000Z</time></trkpt>
      <trkpt lat="37.415763" lon="127.042397"><ele>558.3</ele><time>2019-12-22T11:25:43.000Z</time></trkpt>
      <trkpt lat="37.415796" lon="127.042512"><ele>557.6</ele><time>2019-12-22T11:25:54.000Z</time></trkpt>
      <trkpt lat="37.415753" lon="127.042635"><ele>555.8</ele><time>2019-12-22T11:26:06.000Z</time></trkpt>
      <trkpt lat="37.415711" lon="127.042743"><ele>554.9</ele><time>2019-12-22T11:26:14.000Z</time></trkpt>
      <trkpt lat="37.415691" lon="127.042859"><ele>555.0</ele><time>2019-12-22T11:26:21.000Z</time></trkpt>
      <trkpt lat="37.415658" lon="127.042969"><ele>556.4</ele><time>2019-12-22T11:26:32.000Z</time></trkpt>
      <trkpt lat="37.415584" lon="127.043045"><ele>559.0</ele><time>2019-12-22T11:26:45.000Z</time></trkpt>
      <trkpt lat="37.415505" lon="127.043074"><ele>563.0</ele><time>2019-12-22T11:27:02.000Z</time></trkpt>
      <trkpt lat="37.415451" lon="127.043192"><ele>569.2</ele><time>2019-12-22T11:27:32.000Z</time></trkpt>
      <trkpt lat="37.415415" lon="127.043329"><ele>570.2</ele><time>2019-12-22T11:27:40.000Z</time></trkpt>
      <trkpt lat="37.415371" lon="127.043442"><ele>570.5</ele><time>2019-12-22T11:27:46.000Z</time></trkpt>
      <trkpt lat="37.415311" lon="127.043541"><ele>570.8</ele><time>2019-12-22T11:27:53.000Z</time></trkpt>
      <trkpt lat="37.415217" lon="127.043629"><ele>570.6</ele><time>2019-12-22T11:28:00.000Z</time></trkpt>
      <trkpt lat="37.415147" lon="127.043734"><ele>570.7</ele><time>2019-12-22T11:28:08.000Z</time></trkpt>
      <trkpt lat="37.415092" lon="127.043837"><ele>571.0</ele><time>2019-12-22T11:28:16.000Z</time></trkpt>
      <trkpt lat="37.415015" lon="127.043946"><ele>571.1</ele><time>2019-12-22T11:28:27.000Z</time></trkpt>
      <trkpt lat="37.414961" lon="127.044041"><ele>571.3</ele><time>2019-12-22T11:28:35.000Z</time></trkpt>
      <trkpt lat="37.414903" lon="127.044132"><ele>572.5</ele><time>2019-12-22T11:28:42.000Z</time></trkpt>
      <trkpt lat="37.414812" lon="127.044197"><ele>573.2</ele><time>2019-12-22T11:28:48.000Z</time></trkpt>
      <trkpt lat="37.414709" lon="127.044241"><ele>574.8</ele><time>2019-12-22T11:28:56.000Z</time></trkpt>
      <trkpt lat="37.414617" lon="127.044208"><ele>577.0</ele><time>2019-12-22T11:29:07.000Z</time></trkpt>
      <trkpt lat="37.414614" lon="127.044325"><ele>578.2</ele><time>2019-12-22T11:29:43.000Z</time></trkpt>
      <trkpt lat="37.414594" lon="127.044440"><ele>578.1</ele><time>2019-12-22T11:29:48.000Z</time></trkpt>
      <trkpt lat="37.414545" lon="127.044541"><ele>578.4</ele><time>2019-12-22T11:29:54.000Z</time></trkpt>
      <trkpt lat="37.414520" lon="127.044676"><ele>578.7</ele><time>2019-12-22T11:30:02.000Z</time></trkpt>
      <trkpt lat="37.414486" lon="127.044791"><ele>578.9</ele><time>2019-12-22T11:30:10.000Z</time></trkpt>
      <trkpt lat="37.414457" lon="127.044899"><ele>578.0</ele><time>2019-12-22T11:30:18.000Z</time></trkpt>
      <trkpt lat="37.414402" lon="127.044996"><ele>576.7</ele><time>2019-12-22T11:30:25.000Z</time></trkpt>
      <trkpt lat="37.414332" lon="127.045071"><ele>575.4</ele><time>2019-12-22T11:30:33.000Z</time></trkpt>
      <trkpt lat="37.414228" lon="127.045103"><ele>575.1</ele><time>2019-12-22T11:30:39.000Z</time></trkpt>
      <trkpt lat="37.414174" lon="127.045194"><ele>575.1</ele><time>2019-12-22T11:30:46.000Z</time></trkpt>
      <trkpt lat="37.414119" lon="127.045288"><ele>575.7</ele><time>2019-12-22T11:30:53.000Z</time></trkpt>
      <trkpt lat="37.413978" lon="127.045466"><ele>577.0</ele><time>2019-12-22T11:31:03.000Z</time></trkpt>
      <trkpt lat="37.413911" lon="127.045562"><ele>577.7</ele><time>2019-12-22T11:31:07.000Z</time></trkpt>
      <trkpt lat="37.413856" lon="127.045652"><ele>578.8</ele><time>2019-12-22T11:31:13.000Z</time></trkpt>
      <trkpt lat="37.413787" lon="127.045767"><ele>580.6</ele><time>2019-12-22T11:31:26.000Z</time></trkpt>
      <trkpt lat="37.413742" lon="127.045897"><ele>583.0</ele><time>2019-12-22T11:31:39.000Z</time></trkpt>
      <trkpt lat="37.413687" lon="127.045993"><ele>584.8</ele><time>2019-12-22T11:31:49.000Z</time></trkpt>
      <trkpt lat="37.413649" lon="127.046098"><ele>586.6</ele><time>2019-12-22T11:31:59.000Z</time></trkpt>
      <trkpt lat="37.413623" lon="127.046216"><ele>588.4</ele><time>2019-12-22T11:32:09.000Z</time></trkpt>
      <trkpt lat="37.413606" lon="127.046341"><ele>591.4</ele><time>2019-12-22T11:32:22.000Z</time></trkpt>
      <trkpt lat="37.413629" lon="127.046454"><ele>594.8</ele><time>2019-12-22T11:32:41.000Z</time></trkpt>
      <trkpt lat="37.413626" lon="127.046570"><ele>594.8</ele><time>2019-12-22T11:33:18.000Z</time></trkpt>
      <trkpt lat="37.413644" lon="127.046725"><ele>593.9</ele><time>2019-12-22T11:33:35.000Z</time></trkpt>
      <trkpt lat="37.413629" lon="127.046843"><ele>591.1</ele><time>2019-12-22T11:33:40.000Z</time></trkpt>
      <trkpt lat="37.413609" lon="127.046977"><ele>586.9</ele><time>2019-12-22T11:33:49.000Z</time></trkpt>
      <trkpt lat="37.413578" lon="127.047112"><ele>584.8</ele><time>2019-12-22T11:33:55.000Z</time></trkpt>
      <trkpt lat="37.413563" lon="127.047229"><ele>583.6</ele><time>2019-12-22T11:34:03.000Z</time></trkpt>
      <trkpt lat="37.413584" lon="127.047345"><ele>583.5</ele><time>2019-12-22T11:34:12.000Z</time></trkpt>
      <trkpt lat="37.413604" lon="127.047464"><ele>584.0</ele><time>2019-12-22T11:34:20.000Z</time></trkpt>
      <trkpt lat="37.413636" lon="127.047588"><ele>584.6</ele><time>2019-12-22T11:34:29.000Z</time></trkpt>
      <trkpt lat="37.413636" lon="127.047699"><ele>582.8</ele><time>2019-12-22T11:34:56.000Z</time></trkpt>
      <trkpt lat="37.413697" lon="127.047815"><ele>581.0</ele><time>2019-12-22T11:35:03.000Z</time></trkpt>
      <trkpt lat="37.413746" lon="127.047930"><ele>579.7</ele><time>2019-12-22T11:35:10.000Z</time></trkpt>
      <trkpt lat="37.413797" lon="127.048051"><ele>578.7</ele><time>2019-12-22T11:35:20.000Z</time></trkpt>
      <trkpt lat="37.413855" lon="127.048151"><ele>577.1</ele><time>2019-12-22T11:35:37.000Z</time></trkpt>
      <trkpt lat="37.413920" lon="127.048233"><ele>576.6</ele><time>2019-12-22T11:35:44.000Z</time></trkpt>
      <trkpt lat="37.413980" lon="127.048359"><ele>576.0</ele><time>2019-12-22T11:35:52.000Z</time></trkpt>
      <trkpt lat="37.414006" lon="127.048472"><ele>576.5</ele><time>2019-12-22T11:35:58.000Z</time></trkpt>
      <trkpt lat="37.414012" lon="127.048595"><ele>577.4</ele><time>2019-12-22T11:36:05.000Z</time></trkpt>
      <trkpt lat="37.413973" lon="127.048715"><ele>577.1</ele><time>2019-12-22T11:36:11.000Z</time></trkpt>
      <trkpt lat="37.413972" lon="127.048839"><ele>577.4</ele><time>2019-12-22T11:36:19.000Z</time></trkpt>
      <trkpt lat="37.413956" lon="127.048958"><ele>578.7</ele><time>2019-12-22T11:36:31.000Z</time></trkpt>
      <trkpt lat="37.413886" lon="127.049053"><ele>581.9</ele><time>2019-12-22T11:36:43.000Z</time></trkpt>
      <trkpt lat="37.413920" lon="127.049158"><ele>577.3</ele><time>2019-12-22T11:37:15.000Z</time></trkpt>
      <trkpt lat="37.414001" lon="127.049198"><ele>574.5</ele><time>2019-12-22T11:37:29.000Z</time></trkpt>
      <trkpt lat="37.414054" lon="127.049279"><ele>570.7</ele><time>2019-12-22T11:37:46.000Z</time></trkpt>
      <trkpt lat="37.414137" lon="127.049310"><ele>566.2</ele><time>2019-12-22T11:38:04.000Z</time></trkpt>
      <trkpt lat="37.414233" lon="127.049331"><ele>562.8</ele><time>2019-12-22T11:38:14.000Z</time></trkpt>
      <trkpt lat="37.414329" lon="127.049374"><ele>561.7</ele><time>2019-12-22T11:38:31.000Z</time></trkpt>
      <trkpt lat="37.414406" lon="127.049450"><ele>561.7</ele><time>2019-12-22T11:38:43.000Z</time></trkpt>
      <trkpt lat="37.414507" lon="127.049514"><ele>560.8</ele><time>2019-12-22T11:38:49.000Z</time></trkpt>
      <trkpt lat="37.414579" lon="127.049579"><ele>558.1</ele><time>2019-12-22T11:38:55.000Z</time></trkpt>
      <trkpt lat="37.414671" lon="127.049550"><ele>556.9</ele><time>2019-12-22T11:39:18.000Z</time></trkpt>
      <trkpt lat="37.414776" lon="127.049592"><ele>555.8</ele><time>2019-12-22T11:39:29.000Z</time></trkpt>
      <trkpt lat="37.414852" lon="127.049669"><ele>553.7</ele><time>2019-12-22T11:39:36.000Z</time></trkpt>
      <trkpt lat="37.414900" lon="127.049773"><ele>551.2</ele><time>2019-12-22T11:39:44.000Z</time></trkpt>
      <trkpt lat="37.414943" lon="127.049886"><ele>548.9</ele><time>2019-12-22T11:39:51.000Z</time></trkpt>
      <trkpt lat="37.414994" lon="127.049980"><ele>547.5</ele><time>2019-12-22T11:39:59.000Z</time></trkpt>
      <trkpt lat="37.415049" lon="127.050081"><ele>545.8</ele><time>2019-12-22T11:40:08.000Z</time></trkpt>
      <trkpt lat="37.415112" lon="127.050170"><ele>544.5</ele><time>2019-12-22T11:40:14.000Z</time></trkpt>
      <trkpt lat="37.415185" lon="127.050254"><ele>543.7</ele><time>2019-12-22T11:40:20.000Z</time></trkpt>
      <trkpt lat="37.415257" lon="127.050341"><ele>544.8</ele><time>2019-12-22T11:40:27.000Z</time></trkpt>
      <trkpt lat="37.415334" lon="127.050404"><ele>542.5</ele><time>2019-12-22T11:40:41.000Z</time></trkpt>
      <trkpt lat="37.415391" lon="127.050500"><ele>540.9</ele><time>2019-12-22T11:40:50.000Z</time></trkpt>
      <trkpt lat="37.415440" lon="127.050605"><ele>537.8</ele><time>2019-12-22T11:41:07.000Z</time></trkpt>
      <trkpt lat="37.415521" lon="127.050667"><ele>536.0</ele><time>2019-12-22T11:41:20.000Z</time></trkpt>
      <trkpt lat="37.415536" lon="127.050773"><ele>530.7</ele><time>2019-12-22T11:41:43.000Z</time></trkpt>
      <trkpt lat="37.415619" lon="127.050820"><ele>528.0</ele><time>2019-12-22T11:41:56.000Z</time></trkpt>
      <trkpt lat="37.415692" lon="127.050887"><ele>524.8</ele><time>2019-12-22T11:42:10.000Z</time></trkpt>
      <trkpt lat="37.415770" lon="127.050952"><ele>520.9</ele><time>2019-12-22T11:42:27.000Z</time></trkpt>
      <trkpt lat="37.415832" lon="127.051038"><ele>520.2</ele><time>2019-12-22T11:42:40.000Z</time></trkpt>
      <trkpt lat="37.415923" lon="127.051076"><ele>515.1</ele><time>2019-12-22T11:42:59.000Z</time></trkpt>
      <trkpt lat="37.416013" lon="127.051095"><ele>511.5</ele><time>2019-12-22T11:43:07.000Z</time></trkpt>
      <trkpt lat="37.416099" lon="127.051078"><ele>507.2</ele><time>2019-12-22T11:43:14.000Z</time></trkpt>
      <trkpt lat="37.416197" lon="127.051057"><ele>504.9</ele><time>2019-12-22T11:43:24.000Z</time></trkpt>
      <trkpt lat="37.416271" lon="127.051039"><ele>497.5</ele><time>2019-12-22T11:43:43.000Z</time></trkpt>
      <trkpt lat="37.416353" lon="127.050996"><ele>493.6</ele><time>2019-12-22T11:43:56.000Z</time></trkpt>
      <trkpt lat="37.416444" lon="127.050995"><ele>493.2</ele><time>2019-12-22T11:44:04.000Z</time></trkpt>
      <trkpt lat="37.416529" lon="127.051055"><ele>490.1</ele><time>2019-12-22T11:44:14.000Z</time></trkpt>
      <trkpt lat="37.416626" lon="127.051058"><ele>486.0</ele><time>2019-12-22T11:44:28.000Z</time></trkpt>
      <trkpt lat="37.416712" lon="127.051001"><ele>483.8</ele><time>2019-12-22T11:44:38.000Z</time></trkpt>
      <trkpt lat="37.416797" lon="127.051000"><ele>479.2</ele><time>2019-12-22T11:44:53.000Z</time></trkpt>
      <trkpt lat="37.416884" lon="127.050974"><ele>475.6</ele><time>2019-12-22T11:45:09.000Z</time></trkpt>
      <trkpt lat="37.416933" lon="127.051027"><ele>466.3</ele><time>2019-12-22T11:45:33.000Z</time></trkpt>
      <trkpt lat="37.417016" lon="127.051081"><ele>464.6</ele><time>2019-12-22T11:45:46.000Z</time></trkpt>
      <trkpt lat="37.417098" lon="127.051121"><ele>462.1</ele><time>2019-12-22T11:46:00.000Z</time></trkpt>
      <trkpt lat="37.417196" lon="127.051162"><ele>461.4</ele><time>2019-12-22T11:46:08.000Z</time></trkpt>
      <trkpt lat="37.417276" lon="127.051248"><ele>460.1</ele><time>2019-12-22T11:46:15.000Z</time></trkpt>
      <trkpt lat="37.417340" lon="127.051338"><ele>459.2</ele><time>2019-12-22T11:46:22.000Z</time></trkpt>
      <trkpt lat="37.417413" lon="127.051443"><ele>457.9</ele><time>2019-12-22T11:46:30.000Z</time></trkpt>
      <trkpt lat="37.417492" lon="127.051509"><ele>456.9</ele><time>2019-12-22T11:46:36.000Z</time></trkpt>
      <trkpt lat="37.417559" lon="127.051586"><ele>456.3</ele><time>2019-12-22T11:46:43.000Z</time></trkpt>
      <trkpt lat="37.417649" lon="127.051665"><ele>455.2</ele><time>2019-12-22T11:46:50.000Z</time></trkpt>
      <trkpt lat="37.417728" lon="127.051739"><ele>455.0</ele><time>2019-12-22T11:46:55.000Z</time></trkpt>
      <trkpt lat="37.417801" lon="127.051806"><ele>454.4</ele><time>2019-12-22T11:47:01.000Z</time></trkpt>
      <trkpt lat="37.417908" lon="127.051823"><ele>453.9</ele><time>2019-12-22T11:47:06.000Z</time></trkpt>
      <trkpt lat="37.417998" lon="127.051905"><ele>453.4</ele><time>2019-12-22T11:47:11.000Z</time></trkpt>
      <trkpt lat="37.418055" lon="127.051996"><ele>453.1</ele><time>2019-12-22T11:47:17.000Z</time></trkpt>
      <trkpt lat="37.418129" lon="127.052078"><ele>452.0</ele><time>2019-12-22T11:47:25.000Z</time></trkpt>
      <trkpt lat="37.418201" lon="127.052144"><ele>449.9</ele><time>2019-12-22T11:47:30.000Z</time></trkpt>
      <trkpt lat="37.418253" lon="127.052237"><ele>448.3</ele><time>2019-12-22T11:47:39.000Z</time></trkpt>
      <trkpt lat="37.418245" lon="127.052350"><ele>446.2</ele><time>2019-12-22T11:47:47.000Z</time></trkpt>
      <trkpt lat="37.418256" lon="127.052465"><ele>444.2</ele><time>2019-12-22T11:47:54.000Z</time></trkpt>
      <trkpt lat="37.418268" lon="127.052599"><ele>442.3</ele><time>2019-12-22T11:48:03.000Z</time></trkpt>
      <trkpt lat="37.418328" lon="127.052684"><ele>439.5</ele><time>2019-12-22T11:48:12.000Z</time></trkpt>
      <trkpt lat="37.418401" lon="127.052781"><ele>437.4</ele><time>2019-12-22T11:48:22.000Z</time></trkpt>
      <trkpt lat="37.418470" lon="127.052864"><ele>435.1</ele><time>2019-12-22T11:48:30.000Z</time></trkpt>
      <trkpt lat="37.418552" lon="127.053031"><ele>432.5</ele><time>2019-12-22T11:48:39.000Z</time></trkpt>
      <trkpt lat="37.418628" lon="127.053112"><ele>430.7</ele><time>2019-12-22T11:48:50.000Z</time></trkpt>
      <trkpt lat="37.418664" lon="127.053222"><ele>428.9</ele><time>2019-12-22T11:48:57.000Z</time></trkpt>
      <trkpt lat="37.418688" lon="127.053339"><ele>427.2</ele><time>2019-12-22T11:49:03.000Z</time></trkpt>
      <trkpt lat="37.418769" lon="127.053411"><ele>424.1</ele><time>2019-12-22T11:49:13.000Z</time></trkpt>
      <trkpt lat="37.418857" lon="127.053437"><ele>421.5</ele><time>2019-12-22T11:49:26.000Z</time></trkpt>
      <trkpt lat="37.418954" lon="127.053447"><ele>421.1</ele><time>2019-12-22T11:49:34.000Z</time></trkpt>
      <trkpt lat="37.419064" lon="127.053459"><ele>421.3</ele><time>2019-12-22T11:49:45.000Z</time></trkpt>
      <trkpt lat="37.419151" lon="127.053531"><ele>421.7</ele><time>2019-12-22T11:49:52.000Z</time></trkpt>
      <trkpt lat="37.419243" lon="127.053620"><ele>422.7</ele><time>2019-12-22T11:50:02.000Z</time></trkpt>
      <trkpt lat="37.419329" lon="127.053672"><ele>423.6</ele><time>2019-12-22T11:50:08.000Z</time></trkpt>
      <trkpt lat="37.419417" lon="127.053719"><ele>424.4</ele><time>2019-12-22T11:50:15.000Z</time></trkpt>
      <trkpt lat="37.419505" lon="127.053779"><ele>425.2</ele><time>2019-12-22T11:50:23.000Z</time></trkpt>
      <trkpt lat="37.419577" lon="127.053878"><ele>423.7</ele><time>2019-12-22T11:50:34.000Z</time></trkpt>
      <trkpt lat="37.419608" lon="127.054017"><ele>421.2</ele><time>2019-12-22T11:50:45.000Z</time></trkpt>
      <trkpt lat="37.419623" lon="127.054143"><ele>417.2</ele><time>2019-12-22T11:51:00.000Z</time></trkpt>
      <trkpt lat="37.419650" lon="127.054272"><ele>415.0</ele><time>2019-12-22T11:51:10.000Z</time></trkpt>
      <trkpt lat="37.419582" lon="127.054258"><ele>406.0</ele><time>2019-12-22T11:51:39.000Z</time></trkpt>
      <trkpt lat="37.419492" lon="127.054276"><ele>403.6</ele><time>2019-12-22T11:51:52.000Z</time></trkpt>
      <trkpt lat="37.419425" lon="127.054349"><ele>401.8</ele><time>2019-12-22T11:52:00.000Z</time></trkpt>
      <trkpt lat="37.419382" lon="127.054446"><ele>398.2</ele><time>2019-12-22T11:52:14.000Z</time></trkpt>
      <trkpt lat="37.419333" lon="127.054517"><ele>392.4</ele><time>2019-12-22T11:52:33.000Z</time></trkpt>
      <trkpt lat="37.419321" lon="127.054623"><ele>388.3</ele><time>2019-12-22T11:52:48.000Z</time></trkpt>
      <trkpt lat="37.419256" lon="127.054645"><ele>380.3</ele><time>2019-12-22T11:53:12.000Z</time></trkpt>
      <trkpt lat="37.419232" lon="127.054762"><ele>377.3</ele><time>2019-12-22T11:53:27.000Z</time></trkpt>
      <trkpt lat="37.419211" lon="127.054842"><ele>370.2</ele><time>2019-12-22T11:53:47.000Z</time></trkpt>
      <trkpt lat="37.419183" lon="127.054935"><ele>363.8</ele><time>2019-12-22T11:54:11.000Z</time></trkpt>
      <trkpt lat="37.419234" lon="127.055003"><ele>356.4</ele><time>2019-12-22T11:54:26.000Z</time></trkpt>
      <trkpt lat="37.419182" lon="127.055111"><ele>354.4</ele><time>2019-12-22T11:54:40.000Z</time></trkpt>
      <trkpt lat="37.419138" lon="127.055200"><ele>350.2</ele><time>2019-12-22T11:54:54.000Z</time></trkpt>
      <trkpt lat="37.419067" lon="127.055271"><ele>345.5</ele><time>2019-12-22T11:55:08.000Z</time></trkpt>
      <trkpt lat="37.418979" lon="127.055261"><ele>340.1</ele><time>2019-12-22T11:55:27.000Z</time></trkpt>
      <trkpt lat="37.418902" lon="127.055316"><ele>334.0</ele><time>2019-12-22T11:55:48.000Z</time></trkpt>
      <trkpt lat="37.418844" lon="127.055467"><ele>330.6</ele><time>2019-12-22T11:56:00.000Z</time></trkpt>
      <trkpt lat="37.418808" lon="127.055574"><ele>328.6</ele><time>2019-12-22T11:56:09.000Z</time></trkpt>
      <trkpt lat="37.418752" lon="127.055676"><ele>324.8</ele><time>2019-12-22T11:56:18.000Z</time></trkpt>
      <trkpt lat="37.418703" lon="127.055790"><ele>324.6</ele><time>2019-12-22T11:56:24.000Z</time></trkpt>
      <trkpt lat="37.418695" lon="127.055906"><ele>320.3</ele><time>2019-12-22T11:56:37.000Z</time></trkpt>
      <trkpt lat="37.418595" lon="127.055898"><ele>314.2</ele><time>2019-12-22T11:56:54.000Z</time></trkpt>
      <trkpt lat="37.418548" lon="127.056017"><ele>314.0</ele><time>2019-12-22T11:57:08.000Z</time></trkpt>
      <trkpt lat="37.418522" lon="127.056122"><ele>310.4</ele><time>2019-12-22T11:57:17.000Z</time></trkpt>
      <trkpt lat="37.418466" lon="127.056204"><ele>305.4</ele><time>2019-12-22T11:57:34.000Z</time></trkpt>
      <trkpt lat="37.418448" lon="127.056306"><ele>301.5</ele><time>2019-12-22T11:57:47.000Z</time></trkpt>
      <trkpt lat="37.418519" lon="127.056384"><ele>298.7</ele><time>2019-12-22T11:57:59.000Z</time></trkpt>
      <trkpt lat="37.418505" lon="127.056508"><ele>294.3</ele><time>2019-12-22T11:58:12.000Z</time></trkpt>
      <trkpt lat="37.418492" lon="127.056619"><ele>292.7</ele><time>2019-12-22T11:58:19.000Z</time></trkpt>
      <trkpt lat="37.418492" lon="127.056735"><ele>289.2</ele><time>2019-12-22T11:58:33.000Z</time></trkpt>
      <trkpt lat="37.418544" lon="127.056831"><ele>286.7</ele><time>2019-12-22T11:58:42.000Z</time></trkpt>
      <trkpt lat="37.418567" lon="127.056959"><ele>287.9</ele><time>2019-12-22T11:58:52.000Z</time></trkpt>
      <trkpt lat="37.418628" lon="127.057026"><ele>281.5</ele><time>2019-12-22T11:59:11.000Z</time></trkpt>
      <trkpt lat="37.418694" lon="127.057110"><ele>279.2</ele><time>2019-12-22T11:59:26.000Z</time></trkpt>
      <trkpt lat="37.418753" lon="127.057210"><ele>277.5</ele><time>2019-12-22T11:59:38.000Z</time></trkpt>
      <trkpt lat="37.418832" lon="127.057305"><ele>276.3</ele><time>2019-12-22T11:59:48.000Z</time></trkpt>
      <trkpt lat="37.418892" lon="127.057399"><ele>275.1</ele><time>2019-12-22T11:59:56.000Z</time></trkpt>
      <trkpt lat="37.418916" lon="127.057513"><ele>272.9</ele><time>2019-12-22T12:00:06.000Z</time></trkpt>
      <trkpt lat="37.418944" lon="127.057643"><ele>269.5</ele><time>2019-12-22T12:00:21.000Z</time></trkpt>
      <trkpt lat="37.418946" lon="127.057763"><ele>267.6</ele><time>2019-12-22T12:00:27.000Z</time></trkpt>
      <trkpt lat="37.418979" lon="127.057883"><ele>265.5</ele><time>2019-12-22T12:00:37.000Z</time></trkpt>
      <trkpt lat="37.419020" lon="127.057990"><ele>262.5</ele><time>2019-12-22T12:00:48.000Z</time></trkpt>
      <trkpt lat="37.419071" lon="127.058083"><ele>258.7</ele><time>2019-12-22T12:01:11.000Z</time></trkpt>
      <trkpt lat="37.419093" lon="127.058196"><ele>258.4</ele><time>2019-12-22T12:01:19.000Z</time></trkpt>
      <trkpt lat="37.419149" lon="127.058310"><ele>256.1</ele><time>2019-12-22T12:01:28.000Z</time></trkpt>
      <trkpt lat="37.419208" lon="127.058396"><ele>254.5</ele><time>2019-12-22T12:01:36.000Z</time></trkpt>
      <trkpt lat="37.419284" lon="127.058480"><ele>252.3</ele><time>2019-12-22T12:01:46.000Z</time></trkpt>
      <trkpt lat="37.419319" lon="127.058600"><ele>249.8</ele><time>2019-12-22T12:01:55.000Z</time></trkpt>
      <trkpt lat="37.419336" lon="127.058713"><ele>248.8</ele><time>2019-12-22T12:02:03.000Z</time></trkpt>
      <trkpt lat="37.419360" lon="127.058825"><ele>246.7</ele><time>2019-12-22T12:02:12.000Z</time></trkpt>
      <trkpt lat="37.419400" lon="127.058949"><ele>245.6</ele><time>2019-12-22T12:02:20.000Z</time></trkpt>
      <trkpt lat="37.419443" lon="127.059049"><ele>243.3</ele><time>2019-12-22T12:02:34.000Z</time></trkpt>
      <trkpt lat="37.419522" lon="127.059119"><ele>239.5</ele><time>2019-12-22T12:02:48.000Z</time></trkpt>
      <trkpt lat="37.419618" lon="127.059194"><ele>238.7</ele><time>2019-12-22T12:03:00.000Z</time></trkpt>
      <trkpt lat="37.419660" lon="127.059297"><ele>236.8</ele><time>2019-12-22T12:03:09.000Z</time></trkpt>
      <trkpt lat="37.419713" lon="127.059399"><ele>235.1</ele><time>2019-12-22T12:03:16.000Z</time></trkpt>
      <trkpt lat="37.419773" lon="127.059504"><ele>234.1</ele><time>2019-12-22T12:03:25.000Z</time></trkpt>
      <trkpt lat="37.419848" lon="127.059568"><ele>232.0</ele><time>2019-12-22T12:03:33.000Z</time></trkpt>
      <trkpt lat="37.419935" lon="127.059600"><ele>231.4</ele><time>2019-12-22T12:03:43.000Z</time></trkpt>
      <trkpt lat="37.420019" lon="127.059717"><ele>229.9</ele><time>2019-12-22T12:03:50.000Z</time></trkpt>
      <trkpt lat="37.420088" lon="127.059794"><ele>229.3</ele><time>2019-12-22T12:03:53.000Z</time></trkpt>
      <trkpt lat="37.420149" lon="127.059880"><ele>228.9</ele><time>2019-12-22T12:03:58.000Z</time></trkpt>
      <trkpt lat="37.420210" lon="127.059985"><ele>226.9</ele><time>2019-12-22T12:04:06.000Z</time></trkpt>
      <trkpt lat="37.420268" lon="127.060070"><ele>225.8</ele><time>2019-12-22T12:04:13.000Z</time></trkpt>
      <trkpt lat="37.420339" lon="127.060164"><ele>224.2</ele><time>2019-12-22T12:04:21.000Z</time></trkpt>
      <trkpt lat="37.420429" lon="127.060238"><ele>224.3</ele><time>2019-12-22T12:04:29.000Z</time></trkpt>
      <trkpt lat="37.420512" lon="127.060307"><ele>224.5</ele><time>2019-12-22T12:04:35.000Z</time></trkpt>
      <trkpt lat="37.420605" lon="127.060374"><ele>225.5</ele><time>2019-12-22T12:04:41.000Z</time></trkpt>
      <trkpt lat="37.420651" lon="127.060476"><ele>223.9</ele><time>2019-12-22T12:04:49.000Z</time></trkpt>
      <trkpt lat="37.420716" lon="127.060599"><ele>224.5</ele><time>2019-12-22T12:04:57.000Z</time></trkpt>
      <trkpt lat="37.420755" lon="127.060704"><ele>221.6</ele><time>2019-12-22T12:05:12.000Z</time></trkpt>
      <trkpt lat="37.420843" lon="127.060675"><ele>220.4</ele><time>2019-12-22T12:05:25.000Z</time></trkpt>
      <trkpt lat="37.420928" lon="127.060705"><ele>215.0</ele><time>2019-12-22T12:05:36.000Z</time></trkpt>
      <trkpt lat="37.420998" lon="127.060805"><ele>211.7</ele><time>2019-12-22T12:05:44.000Z</time></trkpt>
      <trkpt lat="37.421017" lon="127.060927"><ele>210.0</ele><time>2019-12-22T12:05:52.000Z</time></trkpt>
      <trkpt lat="37.421068" lon="127.061038"><ele>208.5</ele><time>2019-12-22T12:06:00.000Z</time></trkpt>
      <trkpt lat="37.421126" lon="127.061144"><ele>207.5</ele><time>2019-12-22T12:06:06.000Z</time></trkpt>
      <trkpt lat="37.421164" lon="127.061237"><ele>211.4</ele><time>2019-12-22T12:06:12.000Z</time></trkpt>
      <trkpt lat="37.421159" lon="127.061333"><ele>204.9</ele><time>2019-12-22T12:06:23.000Z</time></trkpt>
      <trkpt lat="37.421207" lon="127.061457"><ele>204.1</ele><time>2019-12-22T12:06:35.000Z</time></trkpt>
      <trkpt lat="37.421265" lon="127.061573"><ele>209.2</ele><time>2019-12-22T12:06:45.000Z</time></trkpt>
      <trkpt lat="37.421297" lon="127.061670"><ele>204.1</ele><time>2019-12-22T12:06:54.000Z</time></trkpt>
      <trkpt lat="37.421329" lon="127.061780"><ele>201.3</ele><time>2019-12-22T12:07:04.000Z</time></trkpt>
      <trkpt lat="37.421320" lon="127.061910"><ele>202.1</ele><time>2019-12-22T12:07:18.000Z</time></trkpt>
      <trkpt lat="37.421332" lon="127.062031"><ele>201.0</ele><time>2019-12-22T12:07:26.000Z</time></trkpt>
      <trkpt lat="37.421386" lon="127.062133"><ele>200.0</ele><time>2019-12-22T12:07:40.000Z</time></trkpt>
      <trkpt lat="37.421468" lon="127.062209"><ele>198.0</ele><time>2019-12-22T12:07:46.000Z</time></trkpt>
      <trkpt lat="37.421538" lon="127.062281"><ele>197.1</ele><time>2019-12-22T12:07:54.000Z</time></trkpt>
      <trkpt lat="37.421611" lon="127.062357"><ele>196.4</ele><time>2019-12-22T12:08:04.000Z</time></trkpt>
      <trkpt lat="37.421657" lon="127.062449"><ele>193.5</ele><time>2019-12-22T12:08:16.000Z</time></trkpt>
      <trkpt lat="37.421718" lon="127.062542"><ele>193.5</ele><time>2019-12-22T12:08:27.000Z</time></trkpt>
      <trkpt lat="37.421732" lon="127.062660"><ele>193.2</ele><time>2019-12-22T12:08:47.000Z</time></trkpt>
      <trkpt lat="37.421789" lon="127.062583"><ele>197.0</ele><time>2019-12-22T12:09:25.000Z</time></trkpt>
      <trkpt lat="37.421881" lon="127.062585"><ele>194.7</ele><time>2019-12-22T12:09:34.000Z</time></trkpt>
      <trkpt lat="37.421983" lon="127.062607"><ele>192.9</ele><time>2019-12-22T12:09:42.000Z</time></trkpt>
      <trkpt lat="37.422070" lon="127.062639"><ele>192.1</ele><time>2019-12-22T12:09:49.000Z</time></trkpt>
      <trkpt lat="37.422141" lon="127.062726"><ele>191.0</ele><time>2019-12-22T12:09:55.000Z</time></trkpt>
      <trkpt lat="37.422223" lon="127.062825"><ele>189.2</ele><time>2019-12-22T12:10:01.000Z</time></trkpt>
      <trkpt lat="37.422287" lon="127.062960"><ele>187.0</ele><time>2019-12-22T12:10:08.000Z</time></trkpt>
      <trkpt lat="37.422286" lon="127.063089"><ele>185.8</ele><time>2019-12-22T12:10:12.000Z</time></trkpt>
      <trkpt lat="37.422268" lon="127.063206"><ele>184.9</ele><time>2019-12-22T12:10:16.000Z</time></trkpt>
      <trkpt lat="37.422282" lon="127.063327"><ele>183.7</ele><time>2019-12-22T12:10:22.000Z</time></trkpt>
      <trkpt lat="37.422321" lon="127.063429"><ele>184.2</ele><time>2019-12-22T12:10:29.000Z</time></trkpt>
      <trkpt lat="37.422396" lon="127.063520"><ele>183.4</ele><time>2019-12-22T12:10:36.000Z</time></trkpt>
      <trkpt lat="37.422442" lon="127.063639"><ele>181.9</ele><time>2019-12-22T12:10:47.000Z</time></trkpt>
      <trkpt lat="37.422524" lon="127.063753"><ele>181.1</ele><time>2019-12-22T12:10:56.000Z</time></trkpt>
      <trkpt lat="37.422603" lon="127.063848"><ele>180.2</ele><time>2019-12-22T12:11:05.000Z</time></trkpt>
      <trkpt lat="37.422680" lon="127.063911"><ele>179.8</ele><time>2019-12-22T12:11:11.000Z</time></trkpt>
      <trkpt lat="37.422754" lon="127.064010"><ele>179.7</ele><time>2019-12-22T12:11:18.000Z</time></trkpt>
      <trkpt lat="37.422814" lon="127.064107"><ele>180.0</ele><time>2019-12-22T12:11:24.000Z</time></trkpt>
      <trkpt lat="37.422877" lon="127.064190"><ele>180.1</ele><time>2019-12-22T12:11:31.000Z</time></trkpt>
      <trkpt lat="37.422936" lon="127.064275"><ele>179.5</ele><time>2019-12-22T12:11:38.000Z</time></trkpt>
      <trkpt lat="37.423021" lon="127.064374"><ele>179.8</ele><time>2019-12-22T12:11:48.000Z</time></trkpt>
      <trkpt lat="37.423107" lon="127.064475"><ele>179.2</ele><time>2019-12-22T12:11:55.000Z</time></trkpt>
      <trkpt lat="37.423178" lon="127.064561"><ele>178.3</ele><time>2019-12-22T12:12:02.000Z</time></trkpt>
      <trkpt lat="37.423270" lon="127.064659"><ele>177.9</ele><time>2019-12-22T12:12:10.000Z</time></trkpt>
      <trkpt lat="37.423336" lon="127.064751"><ele>177.4</ele><time>2019-12-22T12:12:16.000Z</time></trkpt>
      <trkpt lat="37.423414" lon="127.064839"><ele>177.3</ele><time>2019-12-22T12:12:23.000Z</time></trkpt>
      <trkpt lat="37.423483" lon="127.064954"><ele>175.8</ele><time>2019-12-22T12:12:30.000Z</time></trkpt>
      <trkpt lat="37.423569" lon="127.065060"><ele>175.2</ele><time>2019-12-22T12:12:38.000Z</time></trkpt>
      <trkpt lat="37.423613" lon="127.065162"><ele>175.0</ele><time>2019-12-22T12:13:03.000Z</time></trkpt>
      <trkpt lat="37.423685" lon="127.065252"><ele>176.4</ele><time>2019-12-22T12:13:21.000Z</time></trkpt>
      <trkpt lat="37.423795" lon="127.065306"><ele>175.1</ele><time>2019-12-22T12:13:27.000Z</time></trkpt>
      <trkpt lat="37.423901" lon="127.065323"><ele>174.6</ele><time>2019-12-22T12:13:35.000Z</time></trkpt>
      <trkpt lat="37.424006" lon="127.065370"><ele>174.1</ele><time>2019-12-22T12:13:43.000Z</time></trkpt>
      <trkpt lat="37.424091" lon="127.065458"><ele>173.7</ele><time>2019-12-22T12:13:50.000Z</time></trkpt>
      <trkpt lat="37.424182" lon="127.065545"><ele>172.1</ele><time>2019-12-22T12:13:57.000Z</time></trkpt>
      <trkpt lat="37.424270" lon="127.065645"><ele>171.2</ele><time>2019-12-22T12:14:04.000Z</time></trkpt>
      <trkpt lat="37.424355" lon="127.065766"><ele>170.7</ele><time>2019-12-22T12:14:11.000Z</time></trkpt>
      <trkpt lat="37.424394" lon="127.065873"><ele>170.7</ele><time>2019-12-22T12:14:15.000Z</time></trkpt>
      <trkpt lat="37.424446" lon="127.065989"><ele>170.8</ele><time>2019-12-22T12:14:22.000Z</time></trkpt>
      <trkpt lat="37.424524" lon="127.066072"><ele>170.1</ele><time>2019-12-22T12:14:31.000Z</time></trkpt>
      <trkpt lat="37.424589" lon="127.066200"><ele>168.5</ele><time>2019-12-22T12:14:38.000Z</time></trkpt>
      <trkpt lat="37.424641" lon="127.066294"><ele>168.8</ele><time>2019-12-22T12:14:45.000Z</time></trkpt>
      <trkpt lat="37.424732" lon="127.066371"><ele>167.1</ele><time>2019-12-22T12:14:54.000Z</time></trkpt>
      <trkpt lat="37.424815" lon="127.066420"><ele>168.4</ele><time>2019-12-22T12:15:01.000Z</time></trkpt>
      <trkpt lat="37.424874" lon="127.066534"><ele>166.8</ele><time>2019-12-22T12:15:08.000Z</time></trkpt>
      <trkpt lat="37.424947" lon="127.066605"><ele>165.4</ele><time>2019-12-22T12:15:15.000Z</time></trkpt>
      <trkpt lat="37.425025" lon="127.066691"><ele>164.7</ele><time>2019-12-22T12:15:20.000Z</time></trkpt>
      <trkpt lat="37.425091" lon="127.066769"><ele>163.0</ele><time>2019-12-22T12:15:25.000Z</time></trkpt>
      <trkpt lat="37.425172" lon="127.066846"><ele>163.6</ele><time>2019-12-22T12:15:32.000Z</time></trkpt>
      <trkpt lat="37.425245" lon="127.066935"><ele>163.3</ele><time>2019-12-22T12:15:39.000Z</time></trkpt>
    </trkseg>
  </trk>
</gpx>