<?xml version="1.0" encoding="UTF-8"?>
<gpx version="1.1" creator="gajago-nav" xmlns="http://www.topografix.com/GPX/1/1">
  <metadata><name>충남공주시_계룡산_20161027</name></metadata>
  <wpt lat="36.357866" lon="127.236851">
    <name>들머리 (천정탐방지원센터)</name>
    <ele>184</ele>
  </wpt>
  <wpt lat="36.366360" lon="127.234430">
    <name>작은배재</name>
  </wpt>
  <wpt lat="36.368360" lon="127.219530">
    <name>신선봉</name>
    <ele>649</ele>
  </wpt>
  <wpt lat="36.366170" lon="127.217430">
    <name>큰배재</name>
    <ele>580</ele>
  </wpt>
  <wpt lat="36.364370" lon="127.215820">
    <name>남매탑고개</name>
  </wpt>
  <wpt lat="36.361440" lon="127.210320">
    <name>삼불봉</name>
    <ele>780</ele>
  </wpt>
  <wpt lat="36.363820" lon="127.207240">
    <name>금잔디고개</name>
  </wpt>
  <wpt lat="36.364620" lon="127.206210">
    <name>수정봉</name>
    <ele>675</ele>
  </wpt>
  <wpt lat="36.360391" lon="127.207915">
    <name>최고지점 (794m)</name>
    <ele>794</ele>
  </wpt>
  <wpt lat="36.352010" lon="127.200350">
    <name>관음봉</name>
    <ele>771</ele>
  </wpt>
  <wpt lat="36.351130" lon="127.195690">
    <name>문필봉</name>
    <ele>756</ele>
  </wpt>
  <wpt lat="36.345990" lon="127.203890">
    <name>쌀개봉</name>
    <ele>831</ele>
  </wpt>
  <wpt lat="36.352500" lon="127.209110">
    <name>은선폭포</name>
  </wpt>
  <wpt lat="36.352977" lon="127.220287">
    <name>날머리 (동학사1로)</name>
    <ele>262</ele>
  </wpt>
  <trk>
    <name>충남공주시_계룡산_20161027</name>
    <trkseg>
      <trkpt lat="36.357866" lon="127.236851"><ele>184.0</ele><time>2016-10-27T07:08:32.000Z</time></trkpt>
      <trkpt lat="36.357954" lon="127.236820"><ele>186.0</ele><time>2016-10-27T07:08:53.000Z</time></trkpt>
      <trkpt lat="36.358027" lon="127.236752"><ele>186.3</ele><time>2016-10-27T07:09:05.000Z</time></trkpt>
      <trkpt lat="36.358084" lon="127.236657"><ele>187.5</ele><time>2016-10-27T07:09:12.000Z</time></trkpt>
      <trkpt lat="36.358133" lon="127.236554"><ele>187.7</ele><time>2016-10-27T07:09:22.000Z</time></trkpt>
      <trkpt lat="36.358184" lon="127.236451"><ele>188.0</ele><time>2016-10-27T07:09:31.000Z</time></trkpt>
      <trkpt lat="36.358234" lon="127.236336"><ele>188.6</ele><time>2016-10-27T07:09:38.000Z</time></trkpt>
      <trkpt lat="36.358275" lon="127.236209"><ele>189.0</ele><time>2016-10-27T07:09:45.000Z</time></trkpt>
      <trkpt lat="36.358329" lon="127.236111"><ele>189.4</ele><time>2016-10-27T07:09:51.000Z</time></trkpt>
      <trkpt lat="36.358397" lon="127.236070"><ele>190.2</ele><time>2016-10-27T07:10:01.000Z</time></trkpt>
      <trkpt lat="36.358459" lon="127.236096"><ele>190.0</ele><time>2016-10-27T07:10:08.000Z</time></trkpt>
      <trkpt lat="36.358526" lon="127.236125"><ele>190.3</ele><time>2016-10-27T07:10:18.000Z</time></trkpt>
      <trkpt lat="36.358592" lon="127.236118"><ele>190.9</ele><time>2016-10-27T07:10:26.000Z</time></trkpt>
      <trkpt lat="36.358676" lon="127.236058"><ele>191.1</ele><time>2016-10-27T07:10:34.000Z</time></trkpt>
      <trkpt lat="36.358753" lon="127.236000"><ele>191.3</ele><time>2016-10-27T07:10:45.000Z</time></trkpt>
      <trkpt lat="36.358834" lon="127.235952"><ele>191.8</ele><time>2016-10-27T07:10:53.000Z</time></trkpt>
      <trkpt lat="36.358902" lon="127.235884"><ele>192.1</ele><time>2016-10-27T07:11:04.000Z</time></trkpt>
      <trkpt lat="36.358943" lon="127.235784"><ele>192.4</ele><time>2016-10-27T07:11:35.000Z</time></trkpt>
      <trkpt lat="36.358946" lon="127.235662"><ele>192.6</ele><time>2016-10-27T07:11:41.000Z</time></trkpt>
      <trkpt lat="36.358928" lon="127.235540"><ele>193.0</ele><time>2016-10-27T07:11:48.000Z</time></trkpt>
      <trkpt lat="36.358912" lon="127.235413"><ele>193.7</ele><time>2016-10-27T07:11:53.000Z</time></trkpt>
      <trkpt lat="36.358908" lon="127.235286"><ele>194.3</ele><time>2016-10-27T07:12:02.000Z</time></trkpt>
      <trkpt lat="36.358916" lon="127.235158"><ele>195.0</ele><time>2016-10-27T07:12:31.000Z</time></trkpt>
      <trkpt lat="36.358924" lon="127.235025"><ele>196.3</ele><time>2016-10-27T07:12:34.000Z</time></trkpt>
      <trkpt lat="36.358927" lon="127.234884"><ele>197.3</ele><time>2016-10-27T07:12:37.000Z</time></trkpt>
      <trkpt lat="36.358930" lon="127.234744"><ele>197.5</ele><time>2016-10-27T07:12:40.000Z</time></trkpt>
      <trkpt lat="36.358941" lon="127.234602"><ele>198.8</ele><time>2016-10-27T07:12:44.000Z</time></trkpt>
      <trkpt lat="36.358959" lon="127.234473"><ele>199.7</ele><time>2016-10-27T07:12:49.000Z</time></trkpt>
      <trkpt lat="36.358960" lon="127.234355"><ele>201.1</ele><time>2016-10-27T07:12:53.000Z</time></trkpt>
      <trkpt lat="36.358947" lon="127.234247"><ele>202.2</ele><time>2016-10-27T07:13:02.000Z</time></trkpt>
      <trkpt lat="36.358908" lon="127.234147"><ele>203.1</ele><time>2016-10-27T07:13:12.000Z</time></trkpt>
      <trkpt lat="36.358866" lon="127.234046"><ele>203.9</ele><time>2016-10-27T07:13:19.000Z</time></trkpt>
      <trkpt lat="36.358824" lon="127.233949"><ele>204.6</ele><time>2016-10-27T07:13:29.000Z</time></trkpt>
      <trkpt lat="36.358809" lon="127.233844"><ele>205.1</ele><time>2016-10-27T07:13:38.000Z</time></trkpt>
      <trkpt lat="36.358820" lon="127.233738"><ele>205.8</ele><time>2016-10-27T07:14:20.000Z</time></trkpt>
      <trkpt lat="36.358857" lon="127.233618"><ele>206.5</ele><time>2016-10-27T07:14:23.000Z</time></trkpt>
      <trkpt lat="36.358904" lon="127.233503"><ele>207.7</ele><time>2016-10-27T07:14:29.000Z</time></trkpt>
      <trkpt lat="36.358953" lon="127.233382"><ele>208.9</ele><time>2016-10-27T07:15:24.000Z</time></trkpt>
      <trkpt lat="36.358988" lon="127.233276"><ele>210.4</ele><time>2016-10-27T07:15:32.000Z</time></trkpt>
      <trkpt lat="36.359014" lon="127.233163"><ele>212.0</ele><time>2016-10-27T07:15:38.000Z</time></trkpt>
      <trkpt lat="36.359053" lon="127.233059"><ele>213.6</ele><time>2016-10-27T07:15:44.000Z</time></trkpt>
      <trkpt lat="36.359104" lon="127.232958"><ele>215.5</ele><time>2016-10-27T07:15:53.000Z</time></trkpt>
      <trkpt lat="36.359166" lon="127.232865"><ele>216.5</ele><time>2016-10-27T07:16:15.000Z</time></trkpt>
      <trkpt lat="36.359237" lon="127.232766"><ele>218.4</ele><time>2016-10-27T07:16:21.000Z</time></trkpt>
      <trkpt lat="36.359320" lon="127.232666"><ele>221.8</ele><time>2016-10-27T07:16:53.000Z</time></trkpt>
      <trkpt lat="36.359402" lon="127.232563"><ele>224.0</ele><time>2016-10-27T07:16:57.000Z</time></trkpt>
      <trkpt lat="36.359477" lon="127.232474"><ele>226.2</ele><time>2016-10-27T07:17:00.000Z</time></trkpt>
      <trkpt lat="36.359552" lon="127.232401"><ele>228.4</ele><time>2016-10-27T07:17:05.000Z</time></trkpt>
      <trkpt lat="36.359640" lon="127.232340"><ele>230.3</ele><time>2016-10-27T07:17:12.000Z</time></trkpt>
      <trkpt lat="36.359730" lon="127.232286"><ele>232.0</ele><time>2016-10-27T07:17:21.000Z</time></trkpt>
      <trkpt lat="36.359798" lon="127.232225"><ele>234.1</ele><time>2016-10-27T07:17:42.000Z</time></trkpt>
      <trkpt lat="36.359863" lon="127.232161"><ele>236.1</ele><time>2016-10-27T07:18:13.000Z</time></trkpt>
      <trkpt lat="36.359932" lon="127.232100"><ele>238.0</ele><time>2016-10-27T07:18:19.000Z</time></trkpt>
      <trkpt lat="36.360023" lon="127.232042"><ele>239.9</ele><time>2016-10-27T07:18:25.000Z</time></trkpt>
      <trkpt lat="36.360108" lon="127.231978"><ele>241.6</ele><time>2016-10-27T07:18:33.000Z</time></trkpt>
      <trkpt lat="36.360182" lon="127.231906"><ele>244.1</ele><time>2016-10-27T07:18:46.000Z</time></trkpt>
      <trkpt lat="36.360260" lon="127.231847"><ele>246.1</ele><time>2016-10-27T07:18:54.000Z</time></trkpt>
      <trkpt lat="36.360342" lon="127.231811"><ele>248.2</ele><time>2016-10-27T07:19:08.000Z</time></trkpt>
      <trkpt lat="36.360434" lon="127.231791"><ele>250.3</ele><time>2016-10-27T07:19:16.000Z</time></trkpt>
      <trkpt lat="36.360526" lon="127.231783"><ele>252.3</ele><time>2016-10-27T07:19:27.000Z</time></trkpt>
      <trkpt lat="36.360620" lon="127.231775"><ele>254.2</ele><time>2016-10-27T07:19:39.000Z</time></trkpt>
      <trkpt lat="36.360709" lon="127.231783"><ele>255.3</ele><time>2016-10-27T07:19:49.000Z</time></trkpt>
      <trkpt lat="36.360789" lon="127.231785"><ele>257.6</ele><time>2016-10-27T07:20:10.000Z</time></trkpt>
      <trkpt lat="36.360870" lon="127.231780"><ele>260.0</ele><time>2016-10-27T07:20:17.000Z</time></trkpt>
      <trkpt lat="36.360951" lon="127.231778"><ele>261.4</ele><time>2016-10-27T07:20:29.000Z</time></trkpt>
      <trkpt lat="36.361040" lon="127.231775"><ele>264.0</ele><time>2016-10-27T07:20:39.000Z</time></trkpt>
      <trkpt lat="36.361134" lon="127.231791"><ele>266.1</ele><time>2016-10-27T07:20:50.000Z</time></trkpt>
      <trkpt lat="36.361225" lon="127.231818"><ele>268.2</ele><time>2016-10-27T07:21:20.000Z</time></trkpt>
      <trkpt lat="36.361319" lon="127.231851"><ele>270.3</ele><time>2016-10-27T07:21:29.000Z</time></trkpt>
      <trkpt lat="36.361413" lon="127.231871"><ele>273.2</ele><time>2016-10-27T07:21:39.000Z</time></trkpt>
      <trkpt lat="36.361513" lon="127.231859"><ele>275.0</ele><time>2016-10-27T07:21:56.000Z</time></trkpt>
      <trkpt lat="36.361609" lon="127.231848"><ele>276.2</ele><time>2016-10-27T07:22:04.000Z</time></trkpt>
      <trkpt lat="36.361702" lon="127.231835"><ele>277.8</ele><time>2016-10-27T07:22:17.000Z</time></trkpt>
      <trkpt lat="36.361794" lon="127.231812"><ele>279.4</ele><time>2016-10-27T07:22:29.000Z</time></trkpt>
      <trkpt lat="36.361888" lon="127.231783"><ele>280.6</ele><time>2016-10-27T07:22:37.000Z</time></trkpt>
      <trkpt lat="36.361982" lon="127.231756"><ele>281.8</ele><time>2016-10-27T07:22:49.000Z</time></trkpt>
      <trkpt lat="36.362083" lon="127.231733"><ele>282.7</ele><time>2016-10-27T07:22:57.000Z</time></trkpt>
      <trkpt lat="36.362181" lon="127.231696"><ele>283.6</ele><time>2016-10-27T07:23:04.000Z</time></trkpt>
      <trkpt lat="36.362269" lon="127.231647"><ele>284.5</ele><time>2016-10-27T07:23:11.000Z</time></trkpt>
      <trkpt lat="36.362351" lon="127.231593"><ele>285.3</ele><time>2016-10-27T07:23:22.000Z</time></trkpt>
      <trkpt lat="36.362437" lon="127.231546"><ele>286.2</ele><time>2016-10-27T07:23:31.000Z</time></trkpt>
      <trkpt lat="36.362522" lon="127.231495"><ele>287.1</ele><time>2016-10-27T07:23:41.000Z</time></trkpt>
      <trkpt lat="36.362606" lon="127.231446"><ele>287.5</ele><time>2016-10-27T07:23:48.000Z</time></trkpt>
      <trkpt lat="36.362686" lon="127.231407"><ele>287.9</ele><time>2016-10-27T07:23:56.000Z</time></trkpt>
      <trkpt lat="36.362777" lon="127.231383"><ele>288.5</ele><time>2016-10-27T07:24:04.000Z</time></trkpt>
      <trkpt lat="36.362866" lon="127.231382"><ele>289.8</ele><time>2016-10-27T07:24:27.000Z</time></trkpt>
      <trkpt lat="36.362955" lon="127.231364"><ele>291.2</ele><time>2016-10-27T07:24:56.000Z</time></trkpt>
      <trkpt lat="36.363048" lon="127.231361"><ele>292.5</ele><time>2016-10-27T07:25:10.000Z</time></trkpt>
      <trkpt lat="36.363142" lon="127.231344"><ele>293.8</ele><time>2016-10-27T07:25:20.000Z</time></trkpt>
      <trkpt lat="36.363227" lon="127.231318"><ele>295.0</ele><time>2016-10-27T07:25:30.000Z</time></trkpt>
      <trkpt lat="36.363286" lon="127.231242"><ele>296.0</ele><time>2016-10-27T07:25:40.000Z</time></trkpt>
      <trkpt lat="36.363344" lon="127.231139"><ele>297.2</ele><time>2016-10-27T07:25:48.000Z</time></trkpt>
      <trkpt lat="36.363411" lon="127.231056"><ele>298.5</ele><time>2016-10-27T07:26:02.000Z</time></trkpt>
      <trkpt lat="36.363500" lon="127.230994"><ele>299.4</ele><time>2016-10-27T07:26:09.000Z</time></trkpt>
      <trkpt lat="36.363582" lon="127.230957"><ele>300.5</ele><time>2016-10-27T07:26:20.000Z</time></trkpt>
      <trkpt lat="36.363660" lon="127.230901"><ele>301.2</ele><time>2016-10-27T07:26:28.000Z</time></trkpt>
      <trkpt lat="36.363738" lon="127.230862"><ele>302.1</ele><time>2016-10-27T07:26:38.000Z</time></trkpt>
      <trkpt lat="36.363817" lon="127.230805"><ele>303.1</ele><time>2016-10-27T07:26:52.000Z</time></trkpt>
      <trkpt lat="36.363897" lon="127.230756"><ele>304.0</ele><time>2016-10-27T07:27:04.000Z</time></trkpt>
      <trkpt lat="36.363960" lon="127.230687"><ele>305.0</ele><time>2016-10-27T07:27:13.000Z</time></trkpt>
      <trkpt lat="36.364023" lon="127.230618"><ele>305.9</ele><time>2016-10-27T07:27:20.000Z</time></trkpt>
      <trkpt lat="36.364074" lon="127.230543"><ele>306.9</ele><time>2016-10-27T07:27:31.000Z</time></trkpt>
      <trkpt lat="36.364143" lon="127.230479"><ele>307.8</ele><time>2016-10-27T07:27:45.000Z</time></trkpt>
      <trkpt lat="36.364216" lon="127.230423"><ele>308.7</ele><time>2016-10-27T07:28:00.000Z</time></trkpt>
      <trkpt lat="36.364306" lon="127.230383"><ele>309.5</ele><time>2016-10-27T07:28:12.000Z</time></trkpt>
      <trkpt lat="36.364387" lon="127.230359"><ele>310.7</ele><time>2016-10-27T07:28:28.000Z</time></trkpt>
      <trkpt lat="36.364476" lon="127.230349"><ele>312.0</ele><time>2016-10-27T07:28:36.000Z</time></trkpt>
      <trkpt lat="36.364562" lon="127.230335"><ele>313.0</ele><time>2016-10-27T07:28:45.000Z</time></trkpt>
      <trkpt lat="36.364657" lon="127.230309"><ele>314.2</ele><time>2016-10-27T07:28:52.000Z</time></trkpt>
      <trkpt lat="36.364740" lon="127.230273"><ele>315.4</ele><time>2016-10-27T07:29:00.000Z</time></trkpt>
      <trkpt lat="36.364818" lon="127.230228"><ele>317.0</ele><time>2016-10-27T07:29:09.000Z</time></trkpt>
      <trkpt lat="36.364883" lon="127.230179"><ele>318.2</ele><time>2016-10-27T07:29:19.000Z</time></trkpt>
      <trkpt lat="36.364957" lon="127.230130"><ele>319.7</ele><time>2016-10-27T07:29:27.000Z</time></trkpt>
      <trkpt lat="36.365032" lon="127.230081"><ele>320.5</ele><time>2016-10-27T07:29:37.000Z</time></trkpt>
      <trkpt lat="36.365116" lon="127.230028"><ele>321.9</ele><time>2016-10-27T07:29:43.000Z</time></trkpt>
      <trkpt lat="36.365191" lon="127.229959"><ele>324.0</ele><time>2016-10-27T07:29:51.000Z</time></trkpt>
      <trkpt lat="36.365269" lon="127.229883"><ele>325.1</ele><time>2016-10-27T07:30:05.000Z</time></trkpt>
      <trkpt lat="36.365330" lon="127.229788"><ele>326.9</ele><time>2016-10-27T07:30:13.000Z</time></trkpt>
      <trkpt lat="36.365387" lon="127.229702"><ele>329.4</ele><time>2016-10-27T07:30:29.000Z</time></trkpt>
      <trkpt lat="36.365447" lon="127.229622"><ele>331.8</ele><time>2016-10-27T07:30:39.000Z</time></trkpt>
      <trkpt lat="36.365519" lon="127.229553"><ele>334.1</ele><time>2016-10-27T07:30:51.000Z</time></trkpt>
      <trkpt lat="36.365584" lon="127.229466"><ele>336.4</ele><time>2016-10-27T07:31:08.000Z</time></trkpt>
      <trkpt lat="36.365647" lon="127.229372"><ele>338.6</ele><time>2016-10-27T07:31:20.000Z</time></trkpt>
      <trkpt lat="36.365710" lon="127.229273"><ele>341.1</ele><time>2016-10-27T07:31:30.000Z</time></trkpt>
      <trkpt lat="36.365780" lon="127.229178"><ele>343.5</ele><time>2016-10-27T07:31:42.000Z</time></trkpt>
      <trkpt lat="36.365851" lon="127.229093"><ele>346.4</ele><time>2016-10-27T07:31:53.000Z</time></trkpt>
      <trkpt lat="36.365906" lon="127.229013"><ele>348.8</ele><time>2016-10-27T07:31:59.000Z</time></trkpt>
      <trkpt lat="36.365944" lon="127.228933"><ele>350.0</ele><time>2016-10-27T07:32:11.000Z</time></trkpt>
      <trkpt lat="36.365969" lon="127.228838"><ele>351.1</ele><time>2016-10-27T07:32:25.000Z</time></trkpt>
      <trkpt lat="36.365985" lon="127.228734"><ele>353.2</ele><time>2016-10-27T07:32:34.000Z</time></trkpt>
      <trkpt lat="36.366003" lon="127.228622"><ele>354.5</ele><time>2016-10-27T07:32:41.000Z</time></trkpt>
      <trkpt lat="36.366030" lon="127.228520"><ele>356.1</ele><time>2016-10-27T07:32:50.000Z</time></trkpt>
      <trkpt lat="36.366071" lon="127.228428"><ele>357.5</ele><time>2016-10-27T07:33:06.000Z</time></trkpt>
      <trkpt lat="36.366121" lon="127.228344"><ele>359.2</ele><time>2016-10-27T07:33:18.000Z</time></trkpt>
      <trkpt lat="36.366162" lon="127.228250"><ele>359.8</ele><time>2016-10-27T07:33:31.000Z</time></trkpt>
      <trkpt lat="36.366209" lon="127.228152"><ele>361.2</ele><time>2016-10-27T07:33:56.000Z</time></trkpt>
      <trkpt lat="36.366248" lon="127.228046"><ele>362.7</ele><time>2016-10-27T07:34:05.000Z</time></trkpt>
      <trkpt lat="36.366287" lon="127.227934"><ele>365.1</ele><time>2016-10-27T07:34:29.000Z</time></trkpt>
      <trkpt lat="36.366315" lon="127.227813"><ele>367.2</ele><time>2016-10-27T07:34:37.000Z</time></trkpt>
      <trkpt lat="36.366346" lon="127.227699"><ele>369.1</ele><time>2016-10-27T07:35:13.000Z</time></trkpt>
      <trkpt lat="36.366358" lon="127.227589"><ele>370.0</ele><time>2016-10-27T07:35:18.000Z</time></trkpt>
      <trkpt lat="36.366361" lon="127.227480"><ele>372.0</ele><time>2016-10-27T07:35:32.000Z</time></trkpt>
      <trkpt lat="36.366324" lon="127.227376"><ele>373.7</ele><time>2016-10-27T07:35:40.000Z</time></trkpt>
      <trkpt lat="36.366290" lon="127.227277"><ele>375.4</ele><time>2016-10-27T07:35:47.000Z</time></trkpt>
      <trkpt lat="36.366263" lon="127.227172"><ele>376.9</ele><time>2016-10-27T07:35:56.000Z</time></trkpt>
      <trkpt lat="36.366266" lon="127.227055"><ele>378.3</ele><time>2016-10-27T07:36:05.000Z</time></trkpt>
      <trkpt lat="36.366265" lon="127.226931"><ele>380.0</ele><time>2016-10-27T07:36:14.000Z</time></trkpt>
      <trkpt lat="36.366249" lon="127.226815"><ele>381.5</ele><time>2016-10-27T07:36:23.000Z</time></trkpt>
      <trkpt lat="36.366244" lon="127.226710"><ele>382.5</ele><time>2016-10-27T07:36:33.000Z</time></trkpt>
      <trkpt lat="36.366270" lon="127.226608"><ele>383.4</ele><time>2016-10-27T07:36:41.000Z</time></trkpt>
      <trkpt lat="36.366306" lon="127.226510"><ele>384.5</ele><time>2016-10-27T07:36:51.000Z</time></trkpt>
      <trkpt lat="36.366319" lon="127.226408"><ele>384.8</ele><time>2016-10-27T07:37:17.000Z</time></trkpt>
      <trkpt lat="36.366307" lon="127.226301"><ele>386.0</ele><time>2016-10-27T07:37:27.000Z</time></trkpt>
      <trkpt lat="36.366272" lon="127.226198"><ele>388.0</ele><time>2016-10-27T07:37:38.000Z</time></trkpt>
      <trkpt lat="36.366233" lon="127.226093"><ele>389.3</ele><time>2016-10-27T07:37:50.000Z</time></trkpt>
      <trkpt lat="36.366212" lon="127.225997"><ele>390.0</ele><time>2016-10-27T07:37:59.000Z</time></trkpt>
      <trkpt lat="36.366227" lon="127.225896"><ele>391.7</ele><time>2016-10-27T07:38:05.000Z</time></trkpt>
      <trkpt lat="36.366266" lon="127.225790"><ele>393.9</ele><time>2016-10-27T07:38:24.000Z</time></trkpt>
      <trkpt lat="36.366292" lon="127.225681"><ele>396.1</ele><time>2016-10-27T07:38:32.000Z</time></trkpt>
      <trkpt lat="36.366305" lon="127.225571"><ele>398.0</ele><time>2016-10-27T07:38:41.000Z</time></trkpt>
      <trkpt lat="36.366293" lon="127.225471"><ele>399.9</ele><time>2016-10-27T07:38:52.000Z</time></trkpt>
      <trkpt lat="36.366266" lon="127.225376"><ele>401.5</ele><time>2016-10-27T07:39:08.000Z</time></trkpt>
      <trkpt lat="36.366235" lon="127.225282"><ele>403.3</ele><time>2016-10-27T07:39:18.000Z</time></trkpt>
      <trkpt lat="36.366212" lon="127.225182"><ele>405.2</ele><time>2016-10-27T07:39:34.000Z</time></trkpt>
      <trkpt lat="36.366192" lon="127.225079"><ele>406.8</ele><time>2016-10-27T07:39:50.000Z</time></trkpt>
      <trkpt lat="36.366178" lon="127.224969"><ele>408.6</ele><time>2016-10-27T07:39:59.000Z</time></trkpt>
      <trkpt lat="36.366181" lon="127.224858"><ele>410.1</ele><time>2016-10-27T07:40:12.000Z</time></trkpt>
      <trkpt lat="36.366184" lon="127.224748"><ele>411.5</ele><time>2016-10-27T07:40:27.000Z</time></trkpt>
      <trkpt lat="36.366184" lon="127.224639"><ele>412.3</ele><time>2016-10-27T07:40:37.000Z</time></trkpt>
      <trkpt lat="36.366174" lon="127.224532"><ele>414.5</ele><time>2016-10-27T07:40:47.000Z</time></trkpt>
      <trkpt lat="36.366169" lon="127.224429"><ele>416.1</ele><time>2016-10-27T07:40:57.000Z</time></trkpt>
      <trkpt lat="36.366153" lon="127.224331"><ele>416.8</ele><time>2016-10-27T07:41:05.000Z</time></trkpt>
      <trkpt lat="36.366137" lon="127.224230"><ele>419.0</ele><time>2016-10-27T07:41:14.000Z</time></trkpt>
      <trkpt lat="36.366134" lon="127.224125"><ele>419.5</ele><time>2016-10-27T07:41:24.000Z</time></trkpt>
      <trkpt lat="36.366129" lon="127.224018"><ele>421.0</ele><time>2016-10-27T07:41:38.000Z</time></trkpt>
      <trkpt lat="36.366128" lon="127.223910"><ele>422.4</ele><time>2016-10-27T07:41:53.000Z</time></trkpt>
      <trkpt lat="36.366116" lon="127.223798"><ele>423.8</ele><time>2016-10-27T07:42:12.000Z</time></trkpt>
      <trkpt lat="36.366112" lon="127.223687"><ele>426.0</ele><time>2016-10-27T07:42:19.000Z</time></trkpt>
      <trkpt lat="36.366113" lon="127.223579"><ele>427.3</ele><time>2016-10-27T07:42:25.000Z</time></trkpt>
      <trkpt lat="36.366119" lon="127.223472"><ele>429.3</ele><time>2016-10-27T07:42:34.000Z</time></trkpt>
      <trkpt lat="36.366129" lon="127.223370"><ele>432.2</ele><time>2016-10-27T07:42:58.000Z</time></trkpt>
      <trkpt lat="36.366124" lon="127.223269"><ele>433.3</ele><time>2016-10-27T07:43:05.000Z</time></trkpt>
      <trkpt lat="36.366099" lon="127.223184"><ele>435.2</ele><time>2016-10-27T07:43:14.000Z</time></trkpt>
      <trkpt lat="36.366069" lon="127.223087"><ele>436.8</ele><time>2016-10-27T07:43:21.000Z</time></trkpt>
      <trkpt lat="36.366031" lon="127.222993"><ele>439.2</ele><time>2016-10-27T07:43:33.000Z</time></trkpt>
      <trkpt lat="36.366011" lon="127.222888"><ele>441.6</ele><time>2016-10-27T07:43:45.000Z</time></trkpt>
      <trkpt lat="36.366002" lon="127.222785"><ele>443.8</ele><time>2016-10-27T07:44:14.000Z</time></trkpt>
      <trkpt lat="36.366022" lon="127.222679"><ele>445.8</ele><time>2016-10-27T07:44:27.000Z</time></trkpt>
      <trkpt lat="36.366048" lon="127.222571"><ele>447.5</ele><time>2016-10-27T07:44:45.000Z</time></trkpt>
      <trkpt lat="36.366092" lon="127.222479"><ele>449.0</ele><time>2016-10-27T07:45:05.000Z</time></trkpt>
      <trkpt lat="36.366124" lon="127.222395"><ele>450.3</ele><time>2016-10-27T07:46:04.000Z</time></trkpt>
      <trkpt lat="36.366142" lon="127.222311"><ele>451.1</ele><time>2016-10-27T07:47:18.000Z</time></trkpt>
      <trkpt lat="36.366137" lon="127.222212"><ele>451.5</ele><time>2016-10-27T07:47:27.000Z</time></trkpt>
      <trkpt lat="36.366129" lon="127.222101"><ele>451.5</ele><time>2016-10-27T07:47:53.000Z</time></trkpt>
      <trkpt lat="36.366125" lon="127.221987"><ele>451.7</ele><time>2016-10-27T07:48:06.000Z</time></trkpt>
      <trkpt lat="36.366132" lon="127.221874"><ele>452.1</ele><time>2016-10-27T07:48:15.000Z</time></trkpt>
      <trkpt lat="36.366139" lon="127.221763"><ele>452.3</ele><time>2016-10-27T07:48:32.000Z</time></trkpt>
      <trkpt lat="36.366155" lon="127.221654"><ele>452.5</ele><time>2016-10-27T07:48:44.000Z</time></trkpt>
      <trkpt lat="36.366166" lon="127.221544"><ele>452.8</ele><time>2016-10-27T07:48:57.000Z</time></trkpt>
      <trkpt lat="36.366188" lon="127.221434"><ele>453.0</ele><time>2016-10-27T07:49:06.000Z</time></trkpt>
      <trkpt lat="36.366209" lon="127.221318"><ele>453.0</ele><time>2016-10-27T07:49:24.000Z</time></trkpt>
      <trkpt lat="36.366217" lon="127.221203"><ele>452.7</ele><time>2016-10-27T07:49:36.000Z</time></trkpt>
      <trkpt lat="36.366204" lon="127.221102"><ele>452.7</ele><time>2016-10-27T07:49:47.000Z</time></trkpt>
      <trkpt lat="36.366197" lon="127.221010"><ele>453.5</ele><time>2016-10-27T07:49:58.000Z</time></trkpt>
      <trkpt lat="36.366219" lon="127.220920"><ele>453.4</ele><time>2016-10-27T07:50:12.000Z</time></trkpt>
      <trkpt lat="36.366274" lon="127.220827"><ele>453.3</ele><time>2016-10-27T07:50:22.000Z</time></trkpt>
      <trkpt lat="36.366335" lon="127.220736"><ele>452.8</ele><time>2016-10-27T07:50:32.000Z</time></trkpt>
      <trkpt lat="36.366392" lon="127.220645"><ele>452.0</ele><time>2016-10-27T07:50:41.000Z</time></trkpt>
      <trkpt lat="36.366413" lon="127.220546"><ele>451.5</ele><time>2016-10-27T07:50:54.000Z</time></trkpt>
      <trkpt lat="36.366403" lon="127.220446"><ele>451.5</ele><time>2016-10-27T07:51:07.000Z</time></trkpt>
      <trkpt lat="36.366378" lon="127.220344"><ele>451.5</ele><time>2016-10-27T07:51:16.000Z</time></trkpt>
      <trkpt lat="36.366365" lon="127.220237"><ele>451.4</ele><time>2016-10-27T07:51:38.000Z</time></trkpt>
      <trkpt lat="36.366367" lon="127.220119"><ele>452.0</ele><time>2016-10-27T07:51:52.000Z</time></trkpt>
      <trkpt lat="36.366357" lon="127.219999"><ele>452.5</ele><time>2016-10-27T07:52:11.000Z</time></trkpt>
      <trkpt lat="36.366352" lon="127.219880"><ele>453.3</ele><time>2016-10-27T07:52:22.000Z</time></trkpt>
      <trkpt lat="36.366351" lon="127.219770"><ele>454.7</ele><time>2016-10-27T07:52:41.000Z</time></trkpt>
      <trkpt lat="36.366369" lon="127.219669"><ele>456.2</ele><time>2016-10-27T07:52:50.000Z</time></trkpt>
      <trkpt lat="36.366388" lon="127.219569"><ele>457.8</ele><time>2016-10-27T07:53:11.000Z</time></trkpt>
      <trkpt lat="36.366387" lon="127.219481"><ele>459.2</ele><time>2016-10-27T07:53:24.000Z</time></trkpt>
      <trkpt lat="36.366377" lon="127.219380"><ele>460.0</ele><time>2016-10-27T07:53:37.000Z</time></trkpt>
      <trkpt lat="36.366360" lon="127.219275"><ele>461.3</ele><time>2016-10-27T07:53:50.000Z</time></trkpt>
      <trkpt lat="36.366365" lon="127.219147"><ele>464.0</ele><time>2016-10-27T07:54:23.000Z</time></trkpt>
      <trkpt lat="36.366372" lon="127.219020"><ele>466.7</ele><time>2016-10-27T07:54:45.000Z</time></trkpt>
      <trkpt lat="36.366378" lon="127.218894"><ele>469.3</ele><time>2016-10-27T07:54:56.000Z</time></trkpt>
      <trkpt lat="36.366390" lon="127.218782"><ele>473.1</ele><time>2016-10-27T07:55:15.000Z</time></trkpt>
      <trkpt lat="36.366406" lon="127.218677"><ele>476.0</ele><time>2016-10-27T07:55:26.000Z</time></trkpt>
      <trkpt lat="36.366424" lon="127.218574"><ele>479.0</ele><time>2016-10-27T07:55:55.000Z</time></trkpt>
      <trkpt lat="36.366428" lon="127.218464"><ele>482.0</ele><time>2016-10-27T07:56:10.000Z</time></trkpt>
      <trkpt lat="36.366409" lon="127.218342"><ele>486.1</ele><time>2016-10-27T07:56:25.000Z</time></trkpt>
      <trkpt lat="36.366391" lon="127.218232"><ele>488.9</ele><time>2016-10-27T07:56:57.000Z</time></trkpt>
      <trkpt lat="36.366371" lon="127.218121"><ele>491.0</ele><time>2016-10-27T07:57:04.000Z</time></trkpt>
      <trkpt lat="36.366370" lon="127.218026"><ele>493.9</ele><time>2016-10-27T07:57:13.000Z</time></trkpt>
      <trkpt lat="36.366368" lon="127.217922"><ele>495.7</ele><time>2016-10-27T07:57:27.000Z</time></trkpt>
      <trkpt lat="36.366373" lon="127.217821"><ele>497.6</ele><time>2016-10-27T07:57:36.000Z</time></trkpt>
      <trkpt lat="36.366356" lon="127.217728"><ele>498.6</ele><time>2016-10-27T07:57:48.000Z</time></trkpt>
      <trkpt lat="36.366325" lon="127.217647"><ele>500.0</ele><time>2016-10-27T07:58:02.000Z</time></trkpt>
      <trkpt lat="36.366281" lon="127.217572"><ele>501.3</ele><time>2016-10-27T07:58:18.000Z</time></trkpt>
      <trkpt lat="36.366242" lon="127.217488"><ele>502.7</ele><time>2016-10-27T07:58:33.000Z</time></trkpt>
      <trkpt lat="36.366207" lon="127.217397"><ele>504.6</ele><time>2016-10-27T07:58:44.000Z</time></trkpt>
      <trkpt lat="36.366163" lon="127.217303"><ele>506.5</ele><time>2016-10-27T07:58:51.000Z</time></trkpt>
      <trkpt lat="36.366114" lon="127.217211"><ele>508.5</ele><time>2016-10-27T07:58:59.000Z</time></trkpt>
      <trkpt lat="36.366063" lon="127.217130"><ele>511.8</ele><time>2016-10-27T07:59:07.000Z</time></trkpt>
      <trkpt lat="36.366018" lon="127.217043"><ele>514.4</ele><time>2016-10-27T07:59:15.000Z</time></trkpt>
      <trkpt lat="36.365979" lon="127.216952"><ele>518.4</ele><time>2016-10-27T07:59:24.000Z</time></trkpt>
      <trkpt lat="36.365934" lon="127.216852"><ele>522.5</ele><time>2016-10-27T07:59:34.000Z</time></trkpt>
      <trkpt lat="36.365872" lon="127.216770"><ele>526.9</ele><time>2016-10-27T07:59:41.000Z</time></trkpt>
      <trkpt lat="36.365797" lon="127.216698"><ele>533.4</ele><time>2016-10-27T07:59:48.000Z</time></trkpt>
      <trkpt lat="36.365718" lon="127.216631"><ele>538.5</ele><time>2016-10-27T07:59:56.000Z</time></trkpt>
      <trkpt lat="36.365638" lon="127.216565"><ele>543.4</ele><time>2016-10-27T08:00:06.000Z</time></trkpt>
      <trkpt lat="36.365571" lon="127.216488"><ele>549.1</ele><time>2016-10-27T08:00:15.000Z</time></trkpt>
      <trkpt lat="36.365508" lon="127.216407"><ele>554.8</ele><time>2016-10-27T08:00:28.000Z</time></trkpt>
      <trkpt lat="36.365442" lon="127.216322"><ele>560.7</ele><time>2016-10-27T08:00:42.000Z</time></trkpt>
      <trkpt lat="36.365357" lon="127.216259"><ele>564.2</ele><time>2016-10-27T08:01:05.000Z</time></trkpt>
      <trkpt lat="36.365263" lon="127.216206"><ele>567.4</ele><time>2016-10-27T08:01:16.000Z</time></trkpt>
      <trkpt lat="36.365171" lon="127.216178"><ele>572.0</ele><time>2016-10-27T08:01:26.000Z</time></trkpt>
      <trkpt lat="36.365081" lon="127.216165"><ele>574.6</ele><time>2016-10-27T08:01:36.000Z</time></trkpt>
      <trkpt lat="36.364994" lon="127.216155"><ele>576.6</ele><time>2016-10-27T08:01:48.000Z</time></trkpt>
      <trkpt lat="36.364912" lon="127.216120"><ele>578.4</ele><time>2016-10-27T08:02:15.000Z</time></trkpt>
      <trkpt lat="36.364825" lon="127.216067"><ele>579.6</ele><time>2016-10-27T08:02:44.000Z</time></trkpt>
      <trkpt lat="36.364735" lon="127.216019"><ele>580.5</ele><time>2016-10-27T08:02:53.000Z</time></trkpt>
      <trkpt lat="36.364649" lon="127.215970"><ele>581.5</ele><time>2016-10-27T08:03:09.000Z</time></trkpt>
      <trkpt lat="36.364565" lon="127.215940"><ele>582.7</ele><time>2016-10-27T08:03:19.000Z</time></trkpt>
      <trkpt lat="36.364480" lon="127.215924"><ele>583.9</ele><time>2016-10-27T08:03:32.000Z</time></trkpt>
      <trkpt lat="36.364387" lon="127.215920"><ele>585.5</ele><time>2016-10-27T08:03:44.000Z</time></trkpt>
      <trkpt lat="36.364297" lon="127.215900"><ele>586.5</ele><time>2016-10-27T08:03:55.000Z</time></trkpt>
      <trkpt lat="36.364213" lon="127.215853"><ele>588.5</ele><time>2016-10-27T08:04:16.000Z</time></trkpt>
      <trkpt lat="36.364135" lon="127.215791"><ele>590.4</ele><time>2016-10-27T08:04:26.000Z</time></trkpt>
      <trkpt lat="36.364055" lon="127.215735"><ele>592.2</ele><time>2016-10-27T08:04:38.000Z</time></trkpt>
      <trkpt lat="36.363965" lon="127.215701"><ele>593.6</ele><time>2016-10-27T08:04:48.000Z</time></trkpt>
      <trkpt lat="36.363875" lon="127.215667"><ele>595.3</ele><time>2016-10-27T08:05:18.000Z</time></trkpt>
      <trkpt lat="36.363792" lon="127.215607"><ele>596.6</ele><time>2016-10-27T08:05:41.000Z</time></trkpt>
      <trkpt lat="36.363729" lon="127.215516"><ele>597.4</ele><time>2016-10-27T08:05:52.000Z</time></trkpt>
      <trkpt lat="36.363667" lon="127.215421"><ele>599.2</ele><time>2016-10-27T08:06:13.000Z</time></trkpt>
      <trkpt lat="36.363595" lon="127.215351"><ele>600.4</ele><time>2016-10-27T08:06:30.000Z</time></trkpt>
      <trkpt lat="36.363508" lon="127.215305"><ele>601.2</ele><time>2016-10-27T08:06:40.000Z</time></trkpt>
      <trkpt lat="36.363426" lon="127.215258"><ele>601.8</ele><time>2016-10-27T08:06:49.000Z</time></trkpt>
      <trkpt lat="36.363369" lon="127.215183"><ele>602.1</ele><time>2016-10-27T08:06:58.000Z</time></trkpt>
      <trkpt lat="36.363330" lon="127.215072"><ele>603.1</ele><time>2016-10-27T08:07:09.000Z</time></trkpt>
      <trkpt lat="36.363285" lon="127.214973"><ele>603.4</ele><time>2016-10-27T08:07:27.000Z</time></trkpt>
      <trkpt lat="36.363226" lon="127.214883"><ele>604.1</ele><time>2016-10-27T08:07:39.000Z</time></trkpt>
      <trkpt lat="36.363166" lon="127.214797"><ele>604.7</ele><time>2016-10-27T08:07:48.000Z</time></trkpt>
      <trkpt lat="36.363120" lon="127.214697"><ele>605.1</ele><time>2016-10-27T08:08:03.000Z</time></trkpt>
      <trkpt lat="36.363079" lon="127.214592"><ele>605.0</ele><time>2016-10-27T08:08:14.000Z</time></trkpt>
      <trkpt lat="36.363032" lon="127.214492"><ele>604.9</ele><time>2016-10-27T08:08:26.000Z</time></trkpt>
      <trkpt lat="36.362987" lon="127.214393"><ele>604.4</ele><time>2016-10-27T08:08:34.000Z</time></trkpt>
      <trkpt lat="36.362954" lon="127.214288"><ele>604.5</ele><time>2016-10-27T08:08:46.000Z</time></trkpt>
      <trkpt lat="36.362927" lon="127.214183"><ele>605.0</ele><time>2016-10-27T08:08:59.000Z</time></trkpt>
      <trkpt lat="36.362896" lon="127.214078"><ele>605.6</ele><time>2016-10-27T08:09:11.000Z</time></trkpt>
      <trkpt lat="36.362846" lon="127.213992"><ele>606.1</ele><time>2016-10-27T08:09:23.000Z</time></trkpt>
      <trkpt lat="36.362787" lon="127.213952"><ele>606.6</ele><time>2016-10-27T08:09:46.000Z</time></trkpt>
      <trkpt lat="36.362719" lon="127.213966"><ele>607.2</ele><time>2016-10-27T08:09:53.000Z</time></trkpt>
      <trkpt lat="36.362657" lon="127.213966"><ele>607.8</ele><time>2016-10-27T08:10:02.000Z</time></trkpt>
      <trkpt lat="36.362630" lon="127.213918"><ele>608.1</ele><time>2016-10-27T08:10:27.000Z</time></trkpt>
      <trkpt lat="36.362615" lon="127.213819"><ele>608.5</ele><time>2016-10-27T08:10:58.000Z</time></trkpt>
      <trkpt lat="36.362587" lon="127.213747"><ele>609.3</ele><time>2016-10-27T08:11:08.000Z</time></trkpt>
      <trkpt lat="36.362515" lon="127.213714"><ele>610.3</ele><time>2016-10-27T08:12:54.000Z</time></trkpt>
      <trkpt lat="36.362470" lon="127.213684"><ele>611.7</ele><time>2016-10-27T08:13:00.000Z</time></trkpt>
      <trkpt lat="36.362487" lon="127.213665"><ele>612.2</ele><time>2016-10-27T08:13:23.000Z</time></trkpt>
      <trkpt lat="36.362565" lon="127.213654"><ele>613.4</ele><time>2016-10-27T08:13:41.000Z</time></trkpt>
      <trkpt lat="36.362649" lon="127.213660"><ele>614.8</ele><time>2016-10-27T08:13:50.000Z</time></trkpt>
      <trkpt lat="36.362698" lon="127.213632"><ele>616.2</ele><time>2016-10-27T08:14:03.000Z</time></trkpt>
      <trkpt lat="36.362721" lon="127.213553"><ele>616.9</ele><time>2016-10-27T08:14:25.000Z</time></trkpt>
      <trkpt lat="36.362735" lon="127.213454"><ele>618.3</ele><time>2016-10-27T08:14:36.000Z</time></trkpt>
      <trkpt lat="36.362764" lon="127.213355"><ele>619.8</ele><time>2016-10-27T08:14:49.000Z</time></trkpt>
      <trkpt lat="36.362789" lon="127.213268"><ele>621.4</ele><time>2016-10-27T08:15:35.000Z</time></trkpt>
      <trkpt lat="36.362783" lon="127.213182"><ele>623.3</ele><time>2016-10-27T08:15:49.000Z</time></trkpt>
      <trkpt lat="36.362751" lon="127.213090"><ele>624.9</ele><time>2016-10-27T08:16:24.000Z</time></trkpt>
      <trkpt lat="36.362710" lon="127.212994"><ele>626.8</ele><time>2016-10-27T08:16:33.000Z</time></trkpt>
      <trkpt lat="36.362659" lon="127.212911"><ele>628.8</ele><time>2016-10-27T08:16:39.000Z</time></trkpt>
      <trkpt lat="36.362600" lon="127.212836"><ele>630.2</ele><time>2016-10-27T08:17:04.000Z</time></trkpt>
      <trkpt lat="36.362534" lon="127.212761"><ele>634.3</ele><time>2016-10-27T08:17:23.000Z</time></trkpt>
      <trkpt lat="36.362487" lon="127.212674"><ele>637.8</ele><time>2016-10-27T08:17:34.000Z</time></trkpt>
      <trkpt lat="36.362477" lon="127.212579"><ele>640.8</ele><time>2016-10-27T08:17:55.000Z</time></trkpt>
      <trkpt lat="36.362473" lon="127.212480"><ele>644.0</ele><time>2016-10-27T08:18:11.000Z</time></trkpt>
      <trkpt lat="36.362472" lon="127.212379"><ele>648.8</ele><time>2016-10-27T08:18:41.000Z</time></trkpt>
      <trkpt lat="36.362465" lon="127.212285"><ele>652.1</ele><time>2016-10-27T08:19:02.000Z</time></trkpt>
      <trkpt lat="36.362453" lon="127.212199"><ele>655.5</ele><time>2016-10-27T08:19:29.000Z</time></trkpt>
      <trkpt lat="36.362445" lon="127.212106"><ele>658.8</ele><time>2016-10-27T08:19:55.000Z</time></trkpt>
      <trkpt lat="36.362425" lon="127.212002"><ele>664.2</ele><time>2016-10-27T08:20:09.000Z</time></trkpt>
      <trkpt lat="36.362413" lon="127.211888"><ele>668.4</ele><time>2016-10-27T08:20:26.000Z</time></trkpt>
      <trkpt lat="36.362402" lon="127.211775"><ele>669.5</ele><time>2016-10-27T08:20:42.000Z</time></trkpt>
      <trkpt lat="36.362398" lon="127.211658"><ele>671.4</ele><time>2016-10-27T08:21:17.000Z</time></trkpt>
      <trkpt lat="36.362379" lon="127.211561"><ele>674.4</ele><time>2016-10-27T08:21:31.000Z</time></trkpt>
      <trkpt lat="36.362341" lon="127.211490"><ele>674.6</ele><time>2016-10-27T08:21:56.000Z</time></trkpt>
      <trkpt lat="36.362279" lon="127.211457"><ele>677.4</ele><time>2016-10-27T08:22:07.000Z</time></trkpt>
      <trkpt lat="36.362207" lon="127.211429"><ele>680.6</ele><time>2016-10-27T08:22:14.000Z</time></trkpt>
      <trkpt lat="36.362136" lon="127.211391"><ele>683.9</ele><time>2016-10-27T08:22:29.000Z</time></trkpt>
      <trkpt lat="36.362062" lon="127.211332"><ele>687.3</ele><time>2016-10-27T08:22:41.000Z</time></trkpt>
      <trkpt lat="36.361991" lon="127.211262"><ele>690.7</ele><time>2016-10-27T08:22:53.000Z</time></trkpt>
      <trkpt lat="36.361924" lon="127.211185"><ele>695.3</ele><time>2016-10-27T08:23:06.000Z</time></trkpt>
      <trkpt lat="36.361867" lon="127.211101"><ele>700.4</ele><time>2016-10-27T08:23:15.000Z</time></trkpt>
      <trkpt lat="36.361814" lon="127.211016"><ele>705.6</ele><time>2016-10-27T08:23:28.000Z</time></trkpt>
      <trkpt lat="36.361759" lon="127.210935"><ele>713.9</ele><time>2016-10-27T08:23:46.000Z</time></trkpt>
      <trkpt lat="36.361698" lon="127.210880"><ele>719.1</ele><time>2016-10-27T08:24:24.000Z</time></trkpt>
      <trkpt lat="36.361633" lon="127.210835"><ele>723.8</ele><time>2016-10-27T08:24:50.000Z</time></trkpt>
      <trkpt lat="36.361583" lon="127.210770"><ele>728.1</ele><time>2016-10-27T08:25:39.000Z</time></trkpt>
      <trkpt lat="36.361549" lon="127.210670"><ele>731.9</ele><time>2016-10-27T08:26:03.000Z</time></trkpt>
      <trkpt lat="36.361547" lon="127.210553"><ele>735.7</ele><time>2016-10-27T08:26:57.000Z</time></trkpt>
      <trkpt lat="36.361526" lon="127.210460"><ele>740.2</ele><time>2016-10-27T08:27:38.000Z</time></trkpt>
      <trkpt lat="36.361497" lon="127.210384"><ele>744.7</ele><time>2016-10-27T08:28:10.000Z</time></trkpt>
      <trkpt lat="36.361477" lon="127.210323"><ele>748.8</ele><time>2016-10-27T08:28:26.000Z</time></trkpt>
      <trkpt lat="36.361476" lon="127.210246"><ele>750.8</ele><time>2016-10-27T08:30:15.000Z</time></trkpt>
      <trkpt lat="36.361504" lon="127.210172"><ele>755.2</ele><time>2016-10-27T08:30:42.000Z</time></trkpt>
      <trkpt lat="36.361541" lon="127.210093"><ele>758.8</ele><time>2016-10-27T08:31:09.000Z</time></trkpt>
      <trkpt lat="36.361589" lon="127.210023"><ele>764.0</ele><time>2016-10-27T08:31:34.000Z</time></trkpt>
      <trkpt lat="36.361629" lon="127.209945"><ele>764.4</ele><time>2016-10-27T08:31:53.000Z</time></trkpt>
      <trkpt lat="36.361628" lon="127.209859"><ele>765.5</ele><time>2016-10-27T08:32:19.000Z</time></trkpt>
      <trkpt lat="36.361605" lon="127.209762"><ele>766.0</ele><time>2016-10-27T08:32:30.000Z</time></trkpt>
      <trkpt lat="36.361553" lon="127.209665"><ele>766.2</ele><time>2016-10-27T08:32:43.000Z</time></trkpt>
      <trkpt lat="36.361513" lon="127.209561"><ele>766.2</ele><time>2016-10-27T08:32:55.000Z</time></trkpt>
      <trkpt lat="36.361474" lon="127.209457"><ele>766.2</ele><time>2016-10-27T08:33:07.000Z</time></trkpt>
      <trkpt lat="36.361433" lon="127.209366"><ele>766.2</ele><time>2016-10-27T08:33:18.000Z</time></trkpt>
      <trkpt lat="36.361376" lon="127.209272"><ele>766.6</ele><time>2016-10-27T08:33:26.000Z</time></trkpt>
      <trkpt lat="36.361311" lon="127.209188"><ele>767.0</ele><time>2016-10-27T08:33:36.000Z</time></trkpt>
      <trkpt lat="36.361245" lon="127.209088"><ele>767.2</ele><time>2016-10-27T08:33:45.000Z</time></trkpt>
      <trkpt lat="36.361192" lon="127.208988"><ele>766.8</ele><time>2016-10-27T08:33:57.000Z</time></trkpt>
      <trkpt lat="36.361147" lon="127.208890"><ele>766.3</ele><time>2016-10-27T08:34:13.000Z</time></trkpt>
      <trkpt lat="36.361130" lon="127.208789"><ele>765.1</ele><time>2016-10-27T08:34:28.000Z</time></trkpt>
      <trkpt lat="36.361099" lon="127.208697"><ele>764.8</ele><time>2016-10-27T08:34:39.000Z</time></trkpt>
      <trkpt lat="36.361072" lon="127.208592"><ele>762.5</ele><time>2016-10-27T08:35:05.000Z</time></trkpt>
      <trkpt lat="36.361024" lon="127.208487"><ele>762.0</ele><time>2016-10-27T08:35:18.000Z</time></trkpt>
      <trkpt lat="36.360971" lon="127.208387"><ele>761.1</ele><time>2016-10-27T08:35:28.000Z</time></trkpt>
      <trkpt lat="36.360905" lon="127.208301"><ele>761.1</ele><time>2016-10-27T08:35:37.000Z</time></trkpt>
      <trkpt lat="36.360830" lon="127.208228"><ele>761.1</ele><time>2016-10-27T08:35:50.000Z</time></trkpt>
      <trkpt lat="36.360780" lon="127.208143"><ele>761.1</ele><time>2016-10-27T08:36:06.000Z</time></trkpt>
      <trkpt lat="36.360765" lon="127.208041"><ele>761.3</ele><time>2016-10-27T08:36:18.000Z</time></trkpt>
      <trkpt lat="36.360769" lon="127.207932"><ele>762.5</ele><time>2016-10-27T08:36:31.000Z</time></trkpt>
      <trkpt lat="36.360749" lon="127.207885"><ele>764.0</ele><time>2016-10-27T08:36:49.000Z</time></trkpt>
      <trkpt lat="36.360706" lon="127.207888"><ele>764.6</ele><time>2016-10-27T08:41:01.000Z</time></trkpt>
      <trkpt lat="36.360658" lon="127.207932"><ele>784.0</ele><time>2016-10-27T08:41:06.000Z</time></trkpt>
      <trkpt lat="36.360391" lon="127.207915"><ele>794.0</ele><time>2016-10-27T08:42:54.000Z</time></trkpt>
      <trkpt lat="36.360327" lon="127.207836"><ele>771.3</ele><time>2016-10-27T08:43:11.000Z</time></trkpt>
      <trkpt lat="36.360253" lon="127.207776"><ele>773.3</ele><time>2016-10-27T08:43:25.000Z</time></trkpt>
      <trkpt lat="36.360169" lon="127.207739"><ele>775.1</ele><time>2016-10-27T08:43:34.000Z</time></trkpt>
      <trkpt lat="36.360095" lon="127.207687"><ele>776.7</ele><time>2016-10-27T08:44:14.000Z</time></trkpt>
      <trkpt lat="36.360025" lon="127.207627"><ele>778.4</ele><time>2016-10-27T08:44:47.000Z</time></trkpt>
      <trkpt lat="36.359953" lon="127.207574"><ele>780.0</ele><time>2016-10-27T08:45:14.000Z</time></trkpt>
      <trkpt lat="36.359886" lon="127.207574"><ele>781.5</ele><time>2016-10-27T08:45:41.000Z</time></trkpt>
      <trkpt lat="36.359823" lon="127.207617"><ele>781.9</ele><time>2016-10-27T08:45:49.000Z</time></trkpt>
      <trkpt lat="36.359760" lon="127.207656"><ele>781.9</ele><time>2016-10-27T08:46:11.000Z</time></trkpt>
      <trkpt lat="36.359686" lon="127.207649"><ele>781.3</ele><time>2016-10-27T08:46:52.000Z</time></trkpt>
      <trkpt lat="36.359621" lon="127.207587"><ele>781.9</ele><time>2016-10-27T08:47:15.000Z</time></trkpt>
      <trkpt lat="36.359569" lon="127.207513"><ele>781.3</ele><time>2016-10-27T08:47:33.000Z</time></trkpt>
      <trkpt lat="36.359515" lon="127.207447"><ele>781.3</ele><time>2016-10-27T08:47:50.000Z</time></trkpt>
      <trkpt lat="36.359440" lon="127.207412"><ele>781.0</ele><time>2016-10-27T08:48:04.000Z</time></trkpt>
      <trkpt lat="36.359349" lon="127.207390"><ele>779.9</ele><time>2016-10-27T08:48:17.000Z</time></trkpt>
      <trkpt lat="36.359248" lon="127.207380"><ele>777.1</ele><time>2016-10-27T08:48:28.000Z</time></trkpt>
      <trkpt lat="36.359152" lon="127.207357"><ele>773.2</ele><time>2016-10-27T08:48:36.000Z</time></trkpt>
      <trkpt lat="36.359060" lon="127.207334"><ele>771.7</ele><time>2016-10-27T08:48:49.000Z</time></trkpt>
      <trkpt lat="36.358973" lon="127.207295"><ele>769.0</ele><time>2016-10-27T08:48:59.000Z</time></trkpt>
      <trkpt lat="36.358888" lon="127.207250"><ele>765.2</ele><time>2016-10-27T08:49:08.000Z</time></trkpt>
      <trkpt lat="36.358804" lon="127.207187"><ele>761.0</ele><time>2016-10-27T08:49:17.000Z</time></trkpt>
      <trkpt lat="36.358726" lon="127.207117"><ele>757.1</ele><time>2016-10-27T08:49:28.000Z</time></trkpt>
      <trkpt lat="36.358650" lon="127.207052"><ele>750.9</ele><time>2016-10-27T08:49:36.000Z</time></trkpt>
      <trkpt lat="36.358574" lon="127.206993"><ele>750.5</ele><time>2016-10-27T08:49:43.000Z</time></trkpt>
      <trkpt lat="36.358504" lon="127.206927"><ele>748.3</ele><time>2016-10-27T08:50:31.000Z</time></trkpt>
      <trkpt lat="36.358448" lon="127.206845"><ele>743.8</ele><time>2016-10-27T08:50:51.000Z</time></trkpt>
      <trkpt lat="36.358399" lon="127.206747"><ele>743.1</ele><time>2016-10-27T08:50:59.000Z</time></trkpt>
      <trkpt lat="36.358367" lon="127.206641"><ele>742.9</ele><time>2016-10-27T08:51:20.000Z</time></trkpt>
      <trkpt lat="36.358335" lon="127.206542"><ele>742.9</ele><time>2016-10-27T08:51:40.000Z</time></trkpt>
      <trkpt lat="36.358303" lon="127.206448"><ele>742.4</ele><time>2016-10-27T08:51:51.000Z</time></trkpt>
      <trkpt lat="36.358262" lon="127.206357"><ele>741.6</ele><time>2016-10-27T08:52:15.000Z</time></trkpt>
      <trkpt lat="36.358215" lon="127.206264"><ele>741.1</ele><time>2016-10-27T08:52:25.000Z</time></trkpt>
      <trkpt lat="36.358161" lon="127.206175"><ele>740.7</ele><time>2016-10-27T08:52:38.000Z</time></trkpt>
      <trkpt lat="36.358096" lon="127.206097"><ele>740.4</ele><time>2016-10-27T08:52:52.000Z</time></trkpt>
      <trkpt lat="36.358023" lon="127.206023"><ele>740.1</ele><time>2016-10-27T08:53:06.000Z</time></trkpt>
      <trkpt lat="36.357944" lon="127.205947"><ele>740.1</ele><time>2016-10-27T08:53:19.000Z</time></trkpt>
      <trkpt lat="36.357863" lon="127.205874"><ele>740.2</ele><time>2016-10-27T08:53:49.000Z</time></trkpt>
      <trkpt lat="36.357778" lon="127.205819"><ele>740.3</ele><time>2016-10-27T08:53:57.000Z</time></trkpt>
      <trkpt lat="36.357693" lon="127.205793"><ele>740.5</ele><time>2016-10-27T08:54:07.000Z</time></trkpt>
      <trkpt lat="36.357603" lon="127.205773"><ele>740.7</ele><time>2016-10-27T08:54:16.000Z</time></trkpt>
      <trkpt lat="36.357503" lon="127.205744"><ele>740.5</ele><time>2016-10-27T08:54:26.000Z</time></trkpt>
      <trkpt lat="36.357410" lon="127.205695"><ele>740.3</ele><time>2016-10-27T08:54:51.000Z</time></trkpt>
      <trkpt lat="36.357316" lon="127.205652"><ele>740.2</ele><time>2016-10-27T08:54:59.000Z</time></trkpt>
      <trkpt lat="36.357234" lon="127.205601"><ele>739.7</ele><time>2016-10-27T08:55:07.000Z</time></trkpt>
      <trkpt lat="36.357151" lon="127.205548"><ele>739.4</ele><time>2016-10-27T08:55:14.000Z</time></trkpt>
      <trkpt lat="36.357077" lon="127.205478"><ele>739.0</ele><time>2016-10-27T08:55:21.000Z</time></trkpt>
      <trkpt lat="36.357027" lon="127.205391"><ele>738.5</ele><time>2016-10-27T08:55:44.000Z</time></trkpt>
      <trkpt lat="36.356982" lon="127.205288"><ele>738.1</ele><time>2016-10-27T08:55:53.000Z</time></trkpt>
      <trkpt lat="36.356947" lon="127.205177"><ele>737.5</ele><time>2016-10-27T08:56:03.000Z</time></trkpt>
      <trkpt lat="36.356910" lon="127.205066"><ele>737.6</ele><time>2016-10-27T08:56:15.000Z</time></trkpt>
      <trkpt lat="36.356893" lon="127.204955"><ele>737.6</ele><time>2016-10-27T08:56:31.000Z</time></trkpt>
      <trkpt lat="36.356877" lon="127.204844"><ele>737.8</ele><time>2016-10-27T08:56:38.000Z</time></trkpt>
      <trkpt lat="36.356846" lon="127.204743"><ele>737.9</ele><time>2016-10-27T08:56:46.000Z</time></trkpt>
      <trkpt lat="36.356808" lon="127.204639"><ele>738.2</ele><time>2016-10-27T08:57:00.000Z</time></trkpt>
      <trkpt lat="36.356769" lon="127.204536"><ele>738.2</ele><time>2016-10-27T08:57:09.000Z</time></trkpt>
      <trkpt lat="36.356726" lon="127.204432"><ele>738.3</ele><time>2016-10-27T08:57:38.000Z</time></trkpt>
      <trkpt lat="36.356667" lon="127.204343"><ele>738.4</ele><time>2016-10-27T08:57:47.000Z</time></trkpt>
      <trkpt lat="36.356598" lon="127.204258"><ele>738.4</ele><time>2016-10-27T08:58:01.000Z</time></trkpt>
      <trkpt lat="36.356520" lon="127.204187"><ele>738.5</ele><time>2016-10-27T08:58:15.000Z</time></trkpt>
      <trkpt lat="36.356436" lon="127.204121"><ele>738.4</ele><time>2016-10-27T08:58:26.000Z</time></trkpt>
      <trkpt lat="36.356343" lon="127.204073"><ele>738.3</ele><time>2016-10-27T08:58:37.000Z</time></trkpt>
      <trkpt lat="36.356252" lon="127.204017"><ele>738.4</ele><time>2016-10-27T08:58:44.000Z</time></trkpt>
      <trkpt lat="36.356160" lon="127.203981"><ele>738.6</ele><time>2016-10-27T08:58:52.000Z</time></trkpt>
      <trkpt lat="36.356067" lon="127.203954"><ele>739.2</ele><time>2016-10-27T08:59:00.000Z</time></trkpt>
      <trkpt lat="36.355973" lon="127.203939"><ele>739.8</ele><time>2016-10-27T08:59:12.000Z</time></trkpt>
      <trkpt lat="36.355887" lon="127.203904"><ele>740.5</ele><time>2016-10-27T08:59:38.000Z</time></trkpt>
      <trkpt lat="36.355804" lon="127.203869"><ele>740.7</ele><time>2016-10-27T09:00:11.000Z</time></trkpt>
      <trkpt lat="36.355726" lon="127.203837"><ele>740.7</ele><time>2016-10-27T09:00:37.000Z</time></trkpt>
      <trkpt lat="36.355636" lon="127.203821"><ele>740.9</ele><time>2016-10-27T09:00:55.000Z</time></trkpt>
      <trkpt lat="36.355547" lon="127.203821"><ele>740.9</ele><time>2016-10-27T09:01:30.000Z</time></trkpt>
      <trkpt lat="36.355453" lon="127.203833"><ele>740.7</ele><time>2016-10-27T09:01:50.000Z</time></trkpt>
      <trkpt lat="36.355367" lon="127.203847"><ele>740.1</ele><time>2016-10-27T09:02:12.000Z</time></trkpt>
      <trkpt lat="36.355276" lon="127.203845"><ele>739.3</ele><time>2016-10-27T09:02:24.000Z</time></trkpt>
      <trkpt lat="36.355183" lon="127.203833"><ele>738.4</ele><time>2016-10-27T09:02:37.000Z</time></trkpt>
      <trkpt lat="36.355086" lon="127.203827"><ele>737.6</ele><time>2016-10-27T09:02:48.000Z</time></trkpt>
      <trkpt lat="36.354994" lon="127.203803"><ele>736.7</ele><time>2016-10-27T09:03:00.000Z</time></trkpt>
      <trkpt lat="36.354903" lon="127.203768"><ele>735.5</ele><time>2016-10-27T09:03:58.000Z</time></trkpt>
      <trkpt lat="36.354814" lon="127.203717"><ele>734.2</ele><time>2016-10-27T09:04:06.000Z</time></trkpt>
      <trkpt lat="36.354718" lon="127.203677"><ele>733.1</ele><time>2016-10-27T09:04:17.000Z</time></trkpt>
      <trkpt lat="36.354623" lon="127.203637"><ele>732.7</ele><time>2016-10-27T09:04:29.000Z</time></trkpt>
      <trkpt lat="36.354533" lon="127.203588"><ele>732.0</ele><time>2016-10-27T09:04:47.000Z</time></trkpt>
      <trkpt lat="36.354463" lon="127.203513"><ele>731.5</ele><time>2016-10-27T09:05:21.000Z</time></trkpt>
      <trkpt lat="36.354411" lon="127.203422"><ele>730.9</ele><time>2016-10-27T09:06:09.000Z</time></trkpt>
      <trkpt lat="36.354361" lon="127.203336"><ele>730.4</ele><time>2016-10-27T09:06:24.000Z</time></trkpt>
      <trkpt lat="36.354293" lon="127.203285"><ele>729.8</ele><time>2016-10-27T09:06:43.000Z</time></trkpt>
      <trkpt lat="36.354209" lon="127.203261"><ele>729.2</ele><time>2016-10-27T09:07:18.000Z</time></trkpt>
      <trkpt lat="36.354129" lon="127.203223"><ele>728.3</ele><time>2016-10-27T09:07:27.000Z</time></trkpt>
      <trkpt lat="36.354056" lon="127.203165"><ele>727.9</ele><time>2016-10-27T09:07:35.000Z</time></trkpt>
      <trkpt lat="36.353984" lon="127.203094"><ele>727.2</ele><time>2016-10-27T09:07:49.000Z</time></trkpt>
      <trkpt lat="36.353909" lon="127.203030"><ele>726.6</ele><time>2016-10-27T09:08:10.000Z</time></trkpt>
      <trkpt lat="36.353834" lon="127.202958"><ele>725.3</ele><time>2016-10-27T09:08:23.000Z</time></trkpt>
      <trkpt lat="36.353759" lon="127.202889"><ele>724.5</ele><time>2016-10-27T09:08:32.000Z</time></trkpt>
      <trkpt lat="36.353678" lon="127.202832"><ele>724.0</ele><time>2016-10-27T09:08:42.000Z</time></trkpt>
      <trkpt lat="36.353594" lon="127.202788"><ele>722.9</ele><time>2016-10-27T09:08:50.000Z</time></trkpt>
      <trkpt lat="36.353521" lon="127.202727"><ele>721.7</ele><time>2016-10-27T09:08:56.000Z</time></trkpt>
      <trkpt lat="36.353457" lon="127.202654"><ele>720.6</ele><time>2016-10-27T09:09:14.000Z</time></trkpt>
      <trkpt lat="36.353407" lon="127.202556"><ele>719.6</ele><time>2016-10-27T09:09:49.000Z</time></trkpt>
      <trkpt lat="36.353362" lon="127.202455"><ele>718.5</ele><time>2016-10-27T09:10:00.000Z</time></trkpt>
      <trkpt lat="36.353318" lon="127.202360"><ele>717.6</ele><time>2016-10-27T09:10:11.000Z</time></trkpt>
      <trkpt lat="36.353273" lon="127.202274"><ele>716.5</ele><time>2016-10-27T09:10:25.000Z</time></trkpt>
      <trkpt lat="36.353214" lon="127.202198"><ele>715.4</ele><time>2016-10-27T09:11:00.000Z</time></trkpt>
      <trkpt lat="36.353157" lon="127.202106"><ele>714.6</ele><time>2016-10-27T09:11:09.000Z</time></trkpt>
      <trkpt lat="36.353101" lon="127.202016"><ele>713.8</ele><time>2016-10-27T09:11:24.000Z</time></trkpt>
      <trkpt lat="36.353048" lon="127.201923"><ele>713.2</ele><time>2016-10-27T09:11:40.000Z</time></trkpt>
      <trkpt lat="36.353001" lon="127.201831"><ele>713.2</ele><time>2016-10-27T09:12:01.000Z</time></trkpt>
      <trkpt lat="36.352954" lon="127.201735"><ele>713.2</ele><time>2016-10-27T09:12:26.000Z</time></trkpt>
      <trkpt lat="36.352906" lon="127.201632"><ele>713.2</ele><time>2016-10-27T09:12:50.000Z</time></trkpt>
      <trkpt lat="36.352855" lon="127.201539"><ele>713.2</ele><time>2016-10-27T09:13:36.000Z</time></trkpt>
      <trkpt lat="36.352812" lon="127.201445"><ele>713.2</ele><time>2016-10-27T09:13:47.000Z</time></trkpt>
      <trkpt lat="36.352753" lon="127.201352"><ele>713.4</ele><time>2016-10-27T09:14:12.000Z</time></trkpt>
      <trkpt lat="36.352664" lon="127.201223"><ele>714.6</ele><time>2016-10-27T09:15:13.000Z</time></trkpt>
      <trkpt lat="36.352564" lon="127.201085"><ele>716.4</ele><time>2016-10-27T09:16:23.000Z</time></trkpt>
      <trkpt lat="36.352493" lon="127.200951"><ele>718.2</ele><time>2016-10-27T09:17:00.000Z</time></trkpt>
      <trkpt lat="36.352455" lon="127.200853"><ele>720.8</ele><time>2016-10-27T09:17:21.000Z</time></trkpt>
      <trkpt lat="36.352412" lon="127.200778"><ele>722.5</ele><time>2016-10-27T09:17:48.000Z</time></trkpt>
      <trkpt lat="36.352353" lon="127.200706"><ele>726.2</ele><time>2016-10-27T09:18:10.000Z</time></trkpt>
      <trkpt lat="36.352271" lon="127.200660"><ele>731.7</ele><time>2016-10-27T09:18:35.000Z</time></trkpt>
      <trkpt lat="36.352183" lon="127.200631"><ele>737.1</ele><time>2016-10-27T09:18:59.000Z</time></trkpt>
      <trkpt lat="36.352097" lon="127.200605"><ele>743.2</ele><time>2016-10-27T09:19:43.000Z</time></trkpt>
      <trkpt lat="36.352035" lon="127.200549"><ele>749.5</ele><time>2016-10-27T09:20:08.000Z</time></trkpt>
      <trkpt lat="36.352004" lon="127.200463"><ele>755.5</ele><time>2016-10-27T09:20:47.000Z</time></trkpt>
      <trkpt lat="36.351993" lon="127.200361"><ele>761.4</ele><time>2016-10-27T09:21:10.000Z</time></trkpt>
      <trkpt lat="36.351976" lon="127.200321"><ele>766.3</ele><time>2016-10-27T09:21:28.000Z</time></trkpt>
      <trkpt lat="36.351955" lon="127.200357"><ele>767.9</ele><time>2016-10-27T09:22:07.000Z</time></trkpt>
      <trkpt lat="36.351910" lon="127.200421"><ele>772.4</ele><time>2016-10-27T09:23:43.000Z</time></trkpt>
      <trkpt lat="36.351852" lon="127.200471"><ele>776.5</ele><time>2016-10-27T09:24:08.000Z</time></trkpt>
      <trkpt lat="36.351775" lon="127.200506"><ele>778.2</ele><time>2016-10-27T09:24:30.000Z</time></trkpt>
      <trkpt lat="36.351704" lon="127.200573"><ele>780.1</ele><time>2016-10-27T09:24:42.000Z</time></trkpt>
      <trkpt lat="36.351640" lon="127.200652"><ele>781.1</ele><time>2016-10-27T09:25:14.000Z</time></trkpt>
      <trkpt lat="36.351565" lon="127.200704"><ele>781.2</ele><time>2016-10-27T09:25:23.000Z</time></trkpt>
      <trkpt lat="36.351488" lon="127.200736"><ele>780.9</ele><time>2016-10-27T09:25:48.000Z</time></trkpt>
      <trkpt lat="36.351417" lon="127.200772"><ele>780.9</ele><time>2016-10-27T09:26:20.000Z</time></trkpt>
      <trkpt lat="36.351369" lon="127.200832"><ele>780.9</ele><time>2016-10-27T09:27:13.000Z</time></trkpt>
      <trkpt lat="36.351386" lon="127.200915"><ele>780.9</ele><time>2016-10-27T09:27:37.000Z</time></trkpt>
      <trkpt lat="36.351423" lon="127.200993"><ele>780.9</ele><time>2016-10-27T09:28:03.000Z</time></trkpt>
      <trkpt lat="36.351475" lon="127.201086"><ele>780.4</ele><time>2016-10-27T09:28:40.000Z</time></trkpt>
      <trkpt lat="36.351471" lon="127.201186"><ele>780.0</ele><time>2016-10-27T09:29:32.000Z</time></trkpt>
      <trkpt lat="36.351450" lon="127.201294"><ele>778.6</ele><time>2016-10-27T09:29:45.000Z</time></trkpt>
      <trkpt lat="36.351425" lon="127.201392"><ele>776.3</ele><time>2016-10-27T09:30:18.000Z</time></trkpt>
      <trkpt lat="36.351439" lon="127.201501"><ele>773.8</ele><time>2016-10-27T09:30:36.000Z</time></trkpt>
      <trkpt lat="36.351485" lon="127.201579"><ele>770.6</ele><time>2016-10-27T09:31:10.000Z</time></trkpt>
      <trkpt lat="36.351512" lon="127.201645"><ele>768.5</ele><time>2016-10-27T09:31:28.000Z</time></trkpt>
      <trkpt lat="36.351537" lon="127.201719"><ele>765.1</ele><time>2016-10-27T09:31:50.000Z</time></trkpt>
      <trkpt lat="36.351570" lon="127.201823"><ele>757.8</ele><time>2016-10-27T09:32:13.000Z</time></trkpt>
      <trkpt lat="36.351645" lon="127.201925"><ele>753.1</ele><time>2016-10-27T09:32:43.000Z</time></trkpt>
      <trkpt lat="36.351723" lon="127.201995"><ele>748.1</ele><time>2016-10-27T09:32:56.000Z</time></trkpt>
      <trkpt lat="36.351804" lon="127.202043"><ele>742.5</ele><time>2016-10-27T09:33:07.000Z</time></trkpt>
      <trkpt lat="36.351885" lon="127.202079"><ele>735.6</ele><time>2016-10-27T09:33:23.000Z</time></trkpt>
      <trkpt lat="36.351965" lon="127.202116"><ele>729.3</ele><time>2016-10-27T09:33:48.000Z</time></trkpt>
      <trkpt lat="36.352007" lon="127.202171"><ele>720.7</ele><time>2016-10-27T09:34:14.000Z</time></trkpt>
      <trkpt lat="36.352009" lon="127.202241"><ele>714.7</ele><time>2016-10-27T09:35:38.000Z</time></trkpt>
      <trkpt lat="36.351983" lon="127.202321"><ele>708.7</ele><time>2016-10-27T09:36:57.000Z</time></trkpt>
      <trkpt lat="36.351968" lon="127.202413"><ele>703.0</ele><time>2016-10-27T09:37:16.000Z</time></trkpt>
      <trkpt lat="36.351970" lon="127.202529"><ele>693.6</ele><time>2016-10-27T09:37:34.000Z</time></trkpt>
      <trkpt lat="36.352014" lon="127.202635"><ele>684.5</ele><time>2016-10-27T09:38:15.000Z</time></trkpt>
      <trkpt lat="36.352091" lon="127.202745"><ele>678.5</ele><time>2016-10-27T09:38:39.000Z</time></trkpt>
      <trkpt lat="36.352179" lon="127.202840"><ele>671.3</ele><time>2016-10-27T09:39:13.000Z</time></trkpt>
      <trkpt lat="36.352236" lon="127.202946"><ele>666.2</ele><time>2016-10-27T09:39:50.000Z</time></trkpt>
      <trkpt lat="36.352252" lon="127.203038"><ele>661.0</ele><time>2016-10-27T09:40:20.000Z</time></trkpt>
      <trkpt lat="36.352259" lon="127.203146"><ele>655.2</ele><time>2016-10-27T09:40:40.000Z</time></trkpt>
      <trkpt lat="36.352268" lon="127.203248"><ele>649.0</ele><time>2016-10-27T09:41:00.000Z</time></trkpt>
      <trkpt lat="36.352275" lon="127.203339"><ele>644.8</ele><time>2016-10-27T09:41:11.000Z</time></trkpt>
      <trkpt lat="36.352301" lon="127.203419"><ele>638.1</ele><time>2016-10-27T09:41:30.000Z</time></trkpt>
      <trkpt lat="36.352313" lon="127.203508"><ele>631.3</ele><time>2016-10-27T09:41:50.000Z</time></trkpt>
      <trkpt lat="36.352346" lon="127.203599"><ele>624.4</ele><time>2016-10-27T09:42:05.000Z</time></trkpt>
      <trkpt lat="36.352381" lon="127.203686"><ele>617.6</ele><time>2016-10-27T09:42:17.000Z</time></trkpt>
      <trkpt lat="36.352416" lon="127.203777"><ele>610.7</ele><time>2016-10-27T09:42:30.000Z</time></trkpt>
      <trkpt lat="36.352437" lon="127.203878"><ele>603.8</ele><time>2016-10-27T09:42:49.000Z</time></trkpt>
      <trkpt lat="36.352440" lon="127.203993"><ele>593.6</ele><time>2016-10-27T09:42:58.000Z</time></trkpt>
      <trkpt lat="36.352464" lon="127.204092"><ele>587.2</ele><time>2016-10-27T09:43:20.000Z</time></trkpt>
      <trkpt lat="36.352507" lon="127.204195"><ele>583.0</ele><time>2016-10-27T09:43:32.000Z</time></trkpt>
      <trkpt lat="36.352535" lon="127.204295"><ele>581.5</ele><time>2016-10-27T09:43:54.000Z</time></trkpt>
      <trkpt lat="36.352543" lon="127.204404"><ele>578.1</ele><time>2016-10-27T09:44:08.000Z</time></trkpt>
      <trkpt lat="36.352528" lon="127.204506"><ele>578.1</ele><time>2016-10-27T09:44:21.000Z</time></trkpt>
      <trkpt lat="36.352513" lon="127.204597"><ele>577.1</ele><time>2016-10-27T09:44:41.000Z</time></trkpt>
      <trkpt lat="36.352501" lon="127.204686"><ele>574.7</ele><time>2016-10-27T09:44:54.000Z</time></trkpt>
      <trkpt lat="36.352493" lon="127.204772"><ele>572.4</ele><time>2016-10-27T09:45:37.000Z</time></trkpt>
      <trkpt lat="36.352503" lon="127.204867"><ele>570.5</ele><time>2016-10-27T09:45:57.000Z</time></trkpt>
      <trkpt lat="36.352535" lon="127.204964"><ele>569.1</ele><time>2016-10-27T09:46:09.000Z</time></trkpt>
      <trkpt lat="36.352580" lon="127.205058"><ele>567.7</ele><time>2016-10-27T09:46:39.000Z</time></trkpt>
      <trkpt lat="36.352631" lon="127.205148"><ele>564.5</ele><time>2016-10-27T09:46:49.000Z</time></trkpt>
      <trkpt lat="36.352671" lon="127.205239"><ele>563.7</ele><time>2016-10-27T09:47:05.000Z</time></trkpt>
      <trkpt lat="36.352709" lon="127.205324"><ele>559.2</ele><time>2016-10-27T09:47:20.000Z</time></trkpt>
      <trkpt lat="36.352749" lon="127.205401"><ele>554.2</ele><time>2016-10-27T09:47:36.000Z</time></trkpt>
      <trkpt lat="36.352795" lon="127.205485"><ele>548.7</ele><time>2016-10-27T09:47:43.000Z</time></trkpt>
      <trkpt lat="36.352837" lon="127.205578"><ele>543.3</ele><time>2016-10-27T09:47:56.000Z</time></trkpt>
      <trkpt lat="36.352867" lon="127.205677"><ele>537.2</ele><time>2016-10-27T09:48:14.000Z</time></trkpt>
      <trkpt lat="36.352876" lon="127.205769"><ele>537.7</ele><time>2016-10-27T09:48:27.000Z</time></trkpt>
      <trkpt lat="36.352887" lon="127.205861"><ele>531.5</ele><time>2016-10-27T09:48:42.000Z</time></trkpt>
      <trkpt lat="36.352895" lon="127.205961"><ele>525.5</ele><time>2016-10-27T09:48:53.000Z</time></trkpt>
      <trkpt lat="36.352917" lon="127.206065"><ele>515.2</ele><time>2016-10-27T09:49:09.000Z</time></trkpt>
      <trkpt lat="36.352932" lon="127.206163"><ele>513.8</ele><time>2016-10-27T09:49:33.000Z</time></trkpt>
      <trkpt lat="36.352967" lon="127.206246"><ele>513.7</ele><time>2016-10-27T09:49:37.000Z</time></trkpt>
      <trkpt lat="36.353019" lon="127.206352"><ele>508.2</ele><time>2016-10-27T09:49:44.000Z</time></trkpt>
      <trkpt lat="36.353078" lon="127.206493"><ele>503.0</ele><time>2016-10-27T09:50:18.000Z</time></trkpt>
      <trkpt lat="36.353115" lon="127.206648"><ele>500.1</ele><time>2016-10-27T09:50:44.000Z</time></trkpt>
      <trkpt lat="36.353117" lon="127.206784"><ele>497.7</ele><time>2016-10-27T09:50:57.000Z</time></trkpt>
      <trkpt lat="36.353117" lon="127.206905"><ele>495.0</ele><time>2016-10-27T09:51:06.000Z</time></trkpt>
      <trkpt lat="36.353103" lon="127.207031"><ele>492.2</ele><time>2016-10-27T09:51:21.000Z</time></trkpt>
      <trkpt lat="36.353079" lon="127.207152"><ele>489.8</ele><time>2016-10-27T09:51:30.000Z</time></trkpt>
      <trkpt lat="36.353039" lon="127.207254"><ele>487.2</ele><time>2016-10-27T09:51:38.000Z</time></trkpt>
      <trkpt lat="36.352996" lon="127.207340"><ele>484.1</ele><time>2016-10-27T09:51:51.000Z</time></trkpt>
      <trkpt lat="36.352957" lon="127.207439"><ele>480.9</ele><time>2016-10-27T09:52:00.000Z</time></trkpt>
      <trkpt lat="36.352921" lon="127.207539"><ele>478.0</ele><time>2016-10-27T09:52:08.000Z</time></trkpt>
      <trkpt lat="36.352911" lon="127.207653"><ele>475.1</ele><time>2016-10-27T09:52:18.000Z</time></trkpt>
      <trkpt lat="36.352918" lon="127.207763"><ele>471.9</ele><time>2016-10-27T09:52:28.000Z</time></trkpt>
      <trkpt lat="36.352925" lon="127.207884"><ele>468.3</ele><time>2016-10-27T09:52:37.000Z</time></trkpt>
      <trkpt lat="36.352922" lon="127.208015"><ele>463.4</ele><time>2016-10-27T09:52:45.000Z</time></trkpt>
      <trkpt lat="36.352935" lon="127.208130"><ele>460.9</ele><time>2016-10-27T09:53:13.000Z</time></trkpt>
      <trkpt lat="36.352986" lon="127.208218"><ele>460.1</ele><time>2016-10-27T09:53:22.000Z</time></trkpt>
      <trkpt lat="36.353068" lon="127.208287"><ele>458.7</ele><time>2016-10-27T09:53:31.000Z</time></trkpt>
      <trkpt lat="36.353135" lon="127.208355"><ele>457.8</ele><time>2016-10-27T09:53:38.000Z</time></trkpt>
      <trkpt lat="36.353148" lon="127.208446"><ele>457.8</ele><time>2016-10-27T09:53:44.000Z</time></trkpt>
      <trkpt lat="36.353113" lon="127.208539"><ele>458.2</ele><time>2016-10-27T09:54:17.000Z</time></trkpt>
      <trkpt lat="36.353052" lon="127.208634"><ele>457.6</ele><time>2016-10-27T09:54:27.000Z</time></trkpt>
      <trkpt lat="36.352996" lon="127.208725"><ele>457.6</ele><time>2016-10-27T09:54:45.000Z</time></trkpt>
      <trkpt lat="36.352947" lon="127.208817"><ele>457.6</ele><time>2016-10-27T09:54:51.000Z</time></trkpt>
      <trkpt lat="36.352898" lon="127.208903"><ele>457.7</ele><time>2016-10-27T09:55:02.000Z</time></trkpt>
      <trkpt lat="36.352865" lon="127.208986"><ele>456.7</ele><time>2016-10-27T09:55:10.000Z</time></trkpt>
      <trkpt lat="36.352824" lon="127.209064"><ele>455.7</ele><time>2016-10-27T09:55:18.000Z</time></trkpt>
      <trkpt lat="36.352771" lon="127.209120"><ele>454.8</ele><time>2016-10-27T09:55:49.000Z</time></trkpt>
      <trkpt lat="36.352688" lon="127.209148"><ele>454.1</ele><time>2016-10-27T09:56:11.000Z</time></trkpt>
      <trkpt lat="36.352595" lon="127.209163"><ele>454.0</ele><time>2016-10-27T09:56:22.000Z</time></trkpt>
      <trkpt lat="36.352516" lon="127.209164"><ele>453.5</ele><time>2016-10-27T09:56:34.000Z</time></trkpt>
      <trkpt lat="36.352477" lon="127.209200"><ele>452.8</ele><time>2016-10-27T09:56:52.000Z</time></trkpt>
      <trkpt lat="36.352477" lon="127.209258"><ele>452.5</ele><time>2016-10-27T09:57:37.000Z</time></trkpt>
      <trkpt lat="36.352478" lon="127.209365"><ele>452.0</ele><time>2016-10-27T09:58:05.000Z</time></trkpt>
      <trkpt lat="36.352444" lon="127.209434"><ele>451.3</ele><time>2016-10-27T09:58:17.000Z</time></trkpt>
      <trkpt lat="36.352369" lon="127.209480"><ele>450.3</ele><time>2016-10-27T09:58:44.000Z</time></trkpt>
      <trkpt lat="36.352285" lon="127.209509"><ele>449.0</ele><time>2016-10-27T09:58:52.000Z</time></trkpt>
      <trkpt lat="36.352184" lon="127.209615"><ele>447.5</ele><time>2016-10-27T09:59:03.000Z</time></trkpt>
      <trkpt lat="36.352087" lon="127.209721"><ele>443.9</ele><time>2016-10-27T10:00:36.000Z</time></trkpt>
      <trkpt lat="36.351998" lon="127.209824"><ele>440.6</ele><time>2016-10-27T10:01:02.000Z</time></trkpt>
      <trkpt lat="36.351926" lon="127.209874"><ele>438.6</ele><time>2016-10-27T10:01:17.000Z</time></trkpt>
      <trkpt lat="36.351839" lon="127.209934"><ele>434.0</ele><time>2016-10-27T10:01:29.000Z</time></trkpt>
      <trkpt lat="36.351744" lon="127.210007"><ele>431.2</ele><time>2016-10-27T10:02:04.000Z</time></trkpt>
      <trkpt lat="36.351649" lon="127.210074"><ele>428.3</ele><time>2016-10-27T10:02:13.000Z</time></trkpt>
      <trkpt lat="36.351571" lon="127.210141"><ele>424.4</ele><time>2016-10-27T10:02:31.000Z</time></trkpt>
      <trkpt lat="36.351484" lon="127.210231"><ele>418.3</ele><time>2016-10-27T10:02:37.000Z</time></trkpt>
      <trkpt lat="36.351421" lon="127.210343"><ele>411.4</ele><time>2016-10-27T10:03:09.000Z</time></trkpt>
      <trkpt lat="36.351361" lon="127.210450"><ele>406.2</ele><time>2016-10-27T10:03:29.000Z</time></trkpt>
      <trkpt lat="36.351316" lon="127.210522"><ele>399.3</ele><time>2016-10-27T10:03:35.000Z</time></trkpt>
      <trkpt lat="36.351263" lon="127.210595"><ele>394.6</ele><time>2016-10-27T10:03:41.000Z</time></trkpt>
      <trkpt lat="36.351209" lon="127.210663"><ele>389.8</ele><time>2016-10-27T10:04:14.000Z</time></trkpt>
      <trkpt lat="36.351157" lon="127.210754"><ele>384.8</ele><time>2016-10-27T10:04:20.000Z</time></trkpt>
      <trkpt lat="36.351099" lon="127.210828"><ele>380.7</ele><time>2016-10-27T10:04:40.000Z</time></trkpt>
      <trkpt lat="36.351056" lon="127.210930"><ele>376.3</ele><time>2016-10-27T10:04:56.000Z</time></trkpt>
      <trkpt lat="36.351019" lon="127.211035"><ele>372.2</ele><time>2016-10-27T10:05:09.000Z</time></trkpt>
      <trkpt lat="36.351004" lon="127.211156"><ele>370.9</ele><time>2016-10-27T10:05:32.000Z</time></trkpt>
      <trkpt lat="36.351013" lon="127.211260"><ele>368.0</ele><time>2016-10-27T10:05:45.000Z</time></trkpt>
      <trkpt lat="36.351035" lon="127.211373"><ele>364.2</ele><time>2016-10-27T10:06:01.000Z</time></trkpt>
      <trkpt lat="36.351061" lon="127.211483"><ele>360.3</ele><time>2016-10-27T10:06:14.000Z</time></trkpt>
      <trkpt lat="36.351109" lon="127.211588"><ele>356.6</ele><time>2016-10-27T10:06:30.000Z</time></trkpt>
      <trkpt lat="36.351177" lon="127.211672"><ele>353.0</ele><time>2016-10-27T10:06:41.000Z</time></trkpt>
      <trkpt lat="36.351252" lon="127.211757"><ele>349.8</ele><time>2016-10-27T10:06:46.000Z</time></trkpt>
      <trkpt lat="36.351317" lon="127.211848"><ele>347.3</ele><time>2016-10-27T10:07:00.000Z</time></trkpt>
      <trkpt lat="36.351390" lon="127.211943"><ele>345.2</ele><time>2016-10-27T10:07:05.000Z</time></trkpt>
      <trkpt lat="36.351448" lon="127.212038"><ele>344.5</ele><time>2016-10-27T10:07:09.000Z</time></trkpt>
      <trkpt lat="36.351486" lon="127.212141"><ele>342.3</ele><time>2016-10-27T10:07:23.000Z</time></trkpt>
      <trkpt lat="36.351508" lon="127.212260"><ele>338.9</ele><time>2016-10-27T10:07:44.000Z</time></trkpt>
      <trkpt lat="36.351544" lon="127.212382"><ele>338.0</ele><time>2016-10-27T10:08:01.000Z</time></trkpt>
      <trkpt lat="36.351576" lon="127.212505"><ele>338.0</ele><time>2016-10-27T10:08:09.000Z</time></trkpt>
      <trkpt lat="36.351603" lon="127.212621"><ele>337.4</ele><time>2016-10-27T10:08:17.000Z</time></trkpt>
      <trkpt lat="36.351614" lon="127.212738"><ele>337.1</ele><time>2016-10-27T10:08:24.000Z</time></trkpt>
      <trkpt lat="36.351642" lon="127.212861"><ele>336.5</ele><time>2016-10-27T10:08:34.000Z</time></trkpt>
      <trkpt lat="36.351677" lon="127.212979"><ele>335.8</ele><time>2016-10-27T10:08:43.000Z</time></trkpt>
      <trkpt lat="36.351707" lon="127.213094"><ele>335.4</ele><time>2016-10-27T10:08:53.000Z</time></trkpt>
      <trkpt lat="36.351726" lon="127.213203"><ele>334.8</ele><time>2016-10-27T10:09:01.000Z</time></trkpt>
      <trkpt lat="36.351731" lon="127.213315"><ele>334.4</ele><time>2016-10-27T10:09:07.000Z</time></trkpt>
      <trkpt lat="36.351773" lon="127.213465"><ele>334.2</ele><time>2016-10-27T10:09:14.000Z</time></trkpt>
      <trkpt lat="36.351818" lon="127.213603"><ele>333.9</ele><time>2016-10-27T10:09:35.000Z</time></trkpt>
      <trkpt lat="36.351859" lon="127.213743"><ele>333.5</ele><time>2016-10-27T10:09:46.000Z</time></trkpt>
      <trkpt lat="36.351867" lon="127.213844"><ele>332.8</ele><time>2016-10-27T10:10:04.000Z</time></trkpt>
      <trkpt lat="36.351880" lon="127.213959"><ele>332.0</ele><time>2016-10-27T10:10:11.000Z</time></trkpt>
      <trkpt lat="36.351914" lon="127.214069"><ele>331.2</ele><time>2016-10-27T10:10:17.000Z</time></trkpt>
      <trkpt lat="36.351963" lon="127.214174"><ele>331.1</ele><time>2016-10-27T10:10:21.000Z</time></trkpt>
      <trkpt lat="36.352012" lon="127.214281"><ele>331.1</ele><time>2016-10-27T10:10:25.000Z</time></trkpt>
      <trkpt lat="36.352056" lon="127.214386"><ele>331.6</ele><time>2016-10-27T10:10:30.000Z</time></trkpt>
      <trkpt lat="36.352091" lon="127.214498"><ele>331.4</ele><time>2016-10-27T10:10:34.000Z</time></trkpt>
      <trkpt lat="36.352120" lon="127.214613"><ele>330.6</ele><time>2016-10-27T10:10:39.000Z</time></trkpt>
      <trkpt lat="36.352128" lon="127.214730"><ele>329.9</ele><time>2016-10-27T10:10:47.000Z</time></trkpt>
      <trkpt lat="36.352116" lon="127.214848"><ele>329.9</ele><time>2016-10-27T10:10:55.000Z</time></trkpt>
      <trkpt lat="36.352102" lon="127.214961"><ele>329.5</ele><time>2016-10-27T10:11:05.000Z</time></trkpt>
      <trkpt lat="36.352088" lon="127.215073"><ele>328.5</ele><time>2016-10-27T10:11:15.000Z</time></trkpt>
      <trkpt lat="36.352103" lon="127.215180"><ele>327.7</ele><time>2016-10-27T10:11:41.000Z</time></trkpt>
      <trkpt lat="36.352117" lon="127.215283"><ele>326.8</ele><time>2016-10-27T10:11:54.000Z</time></trkpt>
      <trkpt lat="36.352144" lon="127.215387"><ele>326.2</ele><time>2016-10-27T10:12:14.000Z</time></trkpt>
      <trkpt lat="36.352152" lon="127.215486"><ele>325.1</ele><time>2016-10-27T10:12:29.000Z</time></trkpt>
      <trkpt lat="36.352159" lon="127.215578"><ele>324.6</ele><time>2016-10-27T10:12:35.000Z</time></trkpt>
      <trkpt lat="36.352170" lon="127.215668"><ele>323.3</ele><time>2016-10-27T10:12:45.000Z</time></trkpt>
      <trkpt lat="36.352202" lon="127.215748"><ele>321.6</ele><time>2016-10-27T10:13:03.000Z</time></trkpt>
      <trkpt lat="36.352242" lon="127.215850"><ele>320.3</ele><time>2016-10-27T10:13:11.000Z</time></trkpt>
      <trkpt lat="36.352269" lon="127.215953"><ele>319.0</ele><time>2016-10-27T10:13:25.000Z</time></trkpt>
      <trkpt lat="36.352280" lon="127.216080"><ele>316.5</ele><time>2016-10-27T10:13:28.000Z</time></trkpt>
      <trkpt lat="36.352303" lon="127.216155"><ele>313.3</ele><time>2016-10-27T10:13:39.000Z</time></trkpt>
      <trkpt lat="36.352350" lon="127.216217"><ele>311.1</ele><time>2016-10-27T10:13:47.000Z</time></trkpt>
      <trkpt lat="36.352420" lon="127.216261"><ele>307.5</ele><time>2016-10-27T10:14:00.000Z</time></trkpt>
      <trkpt lat="36.352493" lon="127.216371"><ele>301.5</ele><time>2016-10-27T10:14:07.000Z</time></trkpt>
      <trkpt lat="36.352562" lon="127.216486"><ele>297.5</ele><time>2016-10-27T10:14:22.000Z</time></trkpt>
      <trkpt lat="36.352624" lon="127.216601"><ele>294.2</ele><time>2016-10-27T10:14:32.000Z</time></trkpt>
      <trkpt lat="36.352672" lon="127.216687"><ele>290.9</ele><time>2016-10-27T10:14:41.000Z</time></trkpt>
      <trkpt lat="36.352710" lon="127.216794"><ele>288.0</ele><time>2016-10-27T10:14:53.000Z</time></trkpt>
      <trkpt lat="36.352736" lon="127.216914"><ele>285.5</ele><time>2016-10-27T10:15:00.000Z</time></trkpt>
      <trkpt lat="36.352764" lon="127.217060"><ele>283.0</ele><time>2016-10-27T10:15:13.000Z</time></trkpt>
      <trkpt lat="36.352790" lon="127.217194"><ele>281.3</ele><time>2016-10-27T10:15:44.000Z</time></trkpt>
      <trkpt lat="36.352815" lon="127.217341"><ele>279.2</ele><time>2016-10-27T10:15:54.000Z</time></trkpt>
      <trkpt lat="36.352833" lon="127.217462"><ele>278.1</ele><time>2016-10-27T10:16:02.000Z</time></trkpt>
      <trkpt lat="36.352858" lon="127.217587"><ele>276.9</ele><time>2016-10-27T10:16:13.000Z</time></trkpt>
      <trkpt lat="36.352886" lon="127.217703"><ele>275.8</ele><time>2016-10-27T10:16:22.000Z</time></trkpt>
      <trkpt lat="36.352909" lon="127.217826"><ele>275.1</ele><time>2016-10-27T10:16:31.000Z</time></trkpt>
      <trkpt lat="36.352915" lon="127.217949"><ele>273.7</ele><time>2016-10-27T10:16:40.000Z</time></trkpt>
      <trkpt lat="36.352908" lon="127.218077"><ele>272.8</ele><time>2016-10-27T10:16:46.000Z</time></trkpt>
      <trkpt lat="36.352893" lon="127.218201"><ele>271.6</ele><time>2016-10-27T10:16:55.000Z</time></trkpt>
      <trkpt lat="36.352885" lon="127.218329"><ele>270.1</ele><time>2016-10-27T10:17:01.000Z</time></trkpt>
      <trkpt lat="36.352891" lon="127.218449"><ele>268.7</ele><time>2016-10-27T10:17:08.000Z</time></trkpt>
      <trkpt lat="36.352919" lon="127.218566"><ele>268.1</ele><time>2016-10-27T10:17:15.000Z</time></trkpt>
      <trkpt lat="36.352950" lon="127.218689"><ele>267.0</ele><time>2016-10-27T10:17:22.000Z</time></trkpt>
      <trkpt lat="36.352981" lon="127.218810"><ele>266.2</ele><time>2016-10-27T10:17:30.000Z</time></trkpt>
      <trkpt lat="36.353007" lon="127.218935"><ele>265.2</ele><time>2016-10-27T10:17:36.000Z</time></trkpt>
      <trkpt lat="36.353035" lon="127.219055"><ele>264.5</ele><time>2016-10-27T10:17:43.000Z</time></trkpt>
      <trkpt lat="36.353057" lon="127.219174"><ele>263.9</ele><time>2016-10-27T10:17:49.000Z</time></trkpt>
      <trkpt lat="36.353063" lon="127.219292"><ele>263.3</ele><time>2016-10-27T10:17:55.000Z</time></trkpt>
      <trkpt lat="36.353059" lon="127.219408"><ele>263.3</ele><time>2016-10-27T10:18:02.000Z</time></trkpt>
      <trkpt lat="36.353057" lon="127.219521"><ele>263.3</ele><time>2016-10-27T10:18:08.000Z</time></trkpt>
      <trkpt lat="36.353067" lon="127.219637"><ele>263.1</ele><time>2016-10-27T10:18:14.000Z</time></trkpt>
      <trkpt lat="36.353064" lon="127.219748"><ele>262.7</ele><time>2016-10-27T10:18:22.000Z</time></trkpt>
      <trkpt lat="36.353056" lon="127.219866"><ele>262.4</ele><time>2016-10-27T10:18:46.000Z</time></trkpt>
      <trkpt lat="36.353048" lon="127.219980"><ele>262.0</ele><time>2016-10-27T10:18:52.000Z</time></trkpt>
      <trkpt lat="36.353045" lon="127.220102"><ele>261.9</ele><time>2016-10-27T10:19:00.000Z</time></trkpt>
      <trkpt lat="36.353020" lon="127.220206"><ele>261.7</ele><time>2016-10-27T10:19:12.000Z</time></trkpt>
      <trkpt lat="36.352977" lon="127.220287"><ele>261.7</ele><time>2016-10-27T10:19:21.000Z</time></trkpt>
    </trkseg>
  </trk>
</gpx>