<?xml version="1.0" encoding="UTF-8"?>
<gpx version="1.1" creator="gajago-nav" xmlns="http://www.topografix.com/GPX/1/1">
  <metadata><name>팔영산_20211201</name></metadata>
  <wpt lat="34.636655" lon="127.417043">
    <name>들머리 (능가사)</name>
    <ele>78</ele>
  </wpt>
  <wpt lat="34.629769" lon="127.428650">
    <name>갈림길</name>
  </wpt>
  <wpt lat="34.628070" lon="127.430330">
    <name>유영봉</name>
    <ele>503</ele>
  </wpt>
  <wpt lat="34.627327" lon="127.430675">
    <name>갈림길</name>
  </wpt>
  <wpt lat="34.626820" lon="127.430790">
    <name>성주봉</name>
    <ele>538</ele>
  </wpt>
  <wpt lat="34.626060" lon="127.430860">
    <name>생황봉</name>
    <ele>569</ele>
  </wpt>
  <wpt lat="34.625660" lon="127.430640">
    <name>사자봉</name>
    <ele>565</ele>
  </wpt>
  <wpt lat="34.625300" lon="127.430510">
    <name>오로봉</name>
    <ele>582</ele>
  </wpt>
  <wpt lat="34.624460" lon="127.430860">
    <name>두류봉</name>
  </wpt>
  <wpt lat="34.623867" lon="127.431010">
    <name>갈림길</name>
  </wpt>
  <wpt lat="34.622480" lon="127.430820">
    <name>칠성봉</name>
  </wpt>
  <wpt lat="34.619710" lon="127.431620">
    <name>적취봉</name>
    <ele>596</ele>
  </wpt>
  <wpt lat="34.617150" lon="127.436440">
    <name>팔영산 깃대봉</name>
    <ele>607</ele>
  </wpt>
  <wpt lat="34.617729" lon="127.433985">
    <name>갈림길</name>
  </wpt>
  <wpt lat="34.623410" lon="127.425580">
    <name>탑재</name>
    <ele>376</ele>
  </wpt>
  <wpt lat="34.636213" lon="127.417259">
    <name>날머리 (원점회귀)</name>
    <ele>76</ele>
  </wpt>
  <trk>
    <name>팔영산_20211201</name>
    <trkseg>
      <trkpt lat="34.636655" lon="127.417043"><ele>78.0</ele><time>2021-12-01T01:27:08.000Z</time></trkpt>
      <trkpt lat="34.636558" lon="127.417112"><ele>80.0</ele><time>2021-12-01T01:27:20.000Z</time></trkpt>
      <trkpt lat="34.636465" lon="127.417121"><ele>81.0</ele><time>2021-12-01T01:28:05.000Z</time></trkpt>
      <trkpt lat="34.636409" lon="127.417220"><ele>84.0</ele><time>2021-12-01T01:28:13.000Z</time></trkpt>
      <trkpt lat="34.636314" lon="127.417268"><ele>83.0</ele><time>2021-12-01T01:28:23.000Z</time></trkpt>
      <trkpt lat="34.636243" lon="127.417330"><ele>87.0</ele><time>2021-12-01T01:28:31.000Z</time></trkpt>
      <trkpt lat="34.636140" lon="127.417367"><ele>86.0</ele><time>2021-12-01T01:28:40.000Z</time></trkpt>
      <trkpt lat="34.636048" lon="127.417396"><ele>84.0</ele><time>2021-12-01T01:28:50.000Z</time></trkpt>
      <trkpt lat="34.635955" lon="127.417436"><ele>85.0</ele><time>2021-12-01T01:29:00.000Z</time></trkpt>
      <trkpt lat="34.635859" lon="127.417484"><ele>85.0</ele><time>2021-12-01T01:29:10.000Z</time></trkpt>
      <trkpt lat="34.635771" lon="127.417539"><ele>85.0</ele><time>2021-12-01T01:29:20.000Z</time></trkpt>
      <trkpt lat="34.635687" lon="127.417606"><ele>85.0</ele><time>2021-12-01T01:29:32.000Z</time></trkpt>
      <trkpt lat="34.635613" lon="127.417670"><ele>86.0</ele><time>2021-12-01T01:29:41.000Z</time></trkpt>
      <trkpt lat="34.635585" lon="127.417782"><ele>85.0</ele><time>2021-12-01T01:30:31.000Z</time></trkpt>
      <trkpt lat="34.635529" lon="127.417887"><ele>84.0</ele><time>2021-12-01T01:30:43.000Z</time></trkpt>
      <trkpt lat="34.635527" lon="127.418003"><ele>85.0</ele><time>2021-12-01T01:30:54.000Z</time></trkpt>
      <trkpt lat="34.635589" lon="127.418092"><ele>87.0</ele><time>2021-12-01T01:31:07.000Z</time></trkpt>
      <trkpt lat="34.635644" lon="127.418183"><ele>87.0</ele><time>2021-12-01T01:31:17.000Z</time></trkpt>
      <trkpt lat="34.635651" lon="127.418297"><ele>88.0</ele><time>2021-12-01T01:31:31.000Z</time></trkpt>
      <trkpt lat="34.635540" lon="127.418372"><ele>90.0</ele><time>2021-12-01T01:32:10.000Z</time></trkpt>
      <trkpt lat="34.635456" lon="127.418428"><ele>90.0</ele><time>2021-12-01T01:32:20.000Z</time></trkpt>
      <trkpt lat="34.635368" lon="127.418466"><ele>90.0</ele><time>2021-12-01T01:32:27.000Z</time></trkpt>
      <trkpt lat="34.635285" lon="127.418512"><ele>90.0</ele><time>2021-12-01T01:32:36.000Z</time></trkpt>
      <trkpt lat="34.635203" lon="127.418570"><ele>90.0</ele><time>2021-12-01T01:32:43.000Z</time></trkpt>
      <trkpt lat="34.635126" lon="127.418686"><ele>93.0</ele><time>2021-12-01T01:32:54.000Z</time></trkpt>
      <trkpt lat="34.635090" lon="127.418789"><ele>93.0</ele><time>2021-12-01T01:33:02.000Z</time></trkpt>
      <trkpt lat="34.635072" lon="127.418916"><ele>96.0</ele><time>2021-12-01T01:33:13.000Z</time></trkpt>
      <trkpt lat="34.635069" lon="127.419032"><ele>97.0</ele><time>2021-12-01T01:33:23.000Z</time></trkpt>
      <trkpt lat="34.635048" lon="127.419150"><ele>103.0</ele><time>2021-12-01T01:33:33.000Z</time></trkpt>
      <trkpt lat="34.635046" lon="127.419264"><ele>106.0</ele><time>2021-12-01T01:33:43.000Z</time></trkpt>
      <trkpt lat="34.635047" lon="127.419383"><ele>107.0</ele><time>2021-12-01T01:33:57.000Z</time></trkpt>
      <trkpt lat="34.635044" lon="127.419503"><ele>107.0</ele><time>2021-12-01T01:34:09.000Z</time></trkpt>
      <trkpt lat="34.635029" lon="127.419644"><ele>108.0</ele><time>2021-12-01T01:34:19.000Z</time></trkpt>
      <trkpt lat="34.635003" lon="127.419761"><ele>110.0</ele><time>2021-12-01T01:34:27.000Z</time></trkpt>
      <trkpt lat="34.634976" lon="127.419887"><ele>111.0</ele><time>2021-12-01T01:34:42.000Z</time></trkpt>
      <trkpt lat="34.634999" lon="127.419989"><ele>117.0</ele><time>2021-12-01T01:34:55.000Z</time></trkpt>
      <trkpt lat="34.635010" lon="127.420112"><ele>120.0</ele><time>2021-12-01T01:35:07.000Z</time></trkpt>
      <trkpt lat="34.634977" lon="127.420229"><ele>120.0</ele><time>2021-12-01T01:35:22.000Z</time></trkpt>
      <trkpt lat="34.634970" lon="127.420346"><ele>120.0</ele><time>2021-12-01T01:35:36.000Z</time></trkpt>
      <trkpt lat="34.634933" lon="127.420453"><ele>122.0</ele><time>2021-12-01T01:35:49.000Z</time></trkpt>
      <trkpt lat="34.634911" lon="127.420560"><ele>123.0</ele><time>2021-12-01T01:36:02.000Z</time></trkpt>
      <trkpt lat="34.634911" lon="127.420683"><ele>126.0</ele><time>2021-12-01T01:36:18.000Z</time></trkpt>
      <trkpt lat="34.634877" lon="127.420799"><ele>128.0</ele><time>2021-12-01T01:36:32.000Z</time></trkpt>
      <trkpt lat="34.634842" lon="127.420897"><ele>130.0</ele><time>2021-12-01T01:36:45.000Z</time></trkpt>
      <trkpt lat="34.634791" lon="127.421006"><ele>130.0</ele><time>2021-12-01T01:36:58.000Z</time></trkpt>
      <trkpt lat="34.634732" lon="127.421090"><ele>134.0</ele><time>2021-12-01T01:37:10.000Z</time></trkpt>
      <trkpt lat="34.634682" lon="127.421191"><ele>134.0</ele><time>2021-12-01T01:37:22.000Z</time></trkpt>
      <trkpt lat="34.634609" lon="127.421265"><ele>137.0</ele><time>2021-12-01T01:37:34.000Z</time></trkpt>
      <trkpt lat="34.634551" lon="127.421371"><ele>137.0</ele><time>2021-12-01T01:37:47.000Z</time></trkpt>
      <trkpt lat="34.634478" lon="127.421468"><ele>138.0</ele><time>2021-12-01T01:38:00.000Z</time></trkpt>
      <trkpt lat="34.634399" lon="127.421526"><ele>143.0</ele><time>2021-12-01T01:38:15.000Z</time></trkpt>
      <trkpt lat="34.634342" lon="127.421627"><ele>144.0</ele><time>2021-12-01T01:38:29.000Z</time></trkpt>
      <trkpt lat="34.634284" lon="127.421712"><ele>144.0</ele><time>2021-12-01T01:38:42.000Z</time></trkpt>
      <trkpt lat="34.634190" lon="127.421746"><ele>145.0</ele><time>2021-12-01T01:38:54.000Z</time></trkpt>
      <trkpt lat="34.634100" lon="127.421806"><ele>149.0</ele><time>2021-12-01T01:39:11.000Z</time></trkpt>
      <trkpt lat="34.634003" lon="127.421820"><ele>149.0</ele><time>2021-12-01T01:39:20.000Z</time></trkpt>
      <trkpt lat="34.633924" lon="127.421878"><ele>153.0</ele><time>2021-12-01T01:39:32.000Z</time></trkpt>
      <trkpt lat="34.633877" lon="127.421988"><ele>154.0</ele><time>2021-12-01T01:39:46.000Z</time></trkpt>
      <trkpt lat="34.633825" lon="127.422078"><ele>153.0</ele><time>2021-12-01T01:39:55.000Z</time></trkpt>
      <trkpt lat="34.633750" lon="127.422152"><ele>153.0</ele><time>2021-12-01T01:40:11.000Z</time></trkpt>
      <trkpt lat="34.633678" lon="127.422208"><ele>157.0</ele><time>2021-12-01T01:40:30.000Z</time></trkpt>
      <trkpt lat="34.633573" lon="127.422279"><ele>159.0</ele><time>2021-12-01T01:40:48.000Z</time></trkpt>
      <trkpt lat="34.633497" lon="127.422333"><ele>163.0</ele><time>2021-12-01T01:41:09.000Z</time></trkpt>
      <trkpt lat="34.633423" lon="127.422391"><ele>160.0</ele><time>2021-12-01T01:41:23.000Z</time></trkpt>
      <trkpt lat="34.633351" lon="127.422455"><ele>165.0</ele><time>2021-12-01T01:41:43.000Z</time></trkpt>
      <trkpt lat="34.633278" lon="127.422500"><ele>171.0</ele><time>2021-12-01T01:41:57.000Z</time></trkpt>
      <trkpt lat="34.633184" lon="127.422484"><ele>174.0</ele><time>2021-12-01T01:42:10.000Z</time></trkpt>
      <trkpt lat="34.633112" lon="127.422448"><ele>181.0</ele><time>2021-12-01T01:42:31.000Z</time></trkpt>
      <trkpt lat="34.633024" lon="127.422463"><ele>185.0</ele><time>2021-12-01T01:42:46.000Z</time></trkpt>
      <trkpt lat="34.632955" lon="127.422514"><ele>190.0</ele><time>2021-12-01T01:43:13.000Z</time></trkpt>
      <trkpt lat="34.632938" lon="127.422642"><ele>190.0</ele><time>2021-12-01T01:43:27.000Z</time></trkpt>
      <trkpt lat="34.632878" lon="127.422744"><ele>192.0</ele><time>2021-12-01T01:43:43.000Z</time></trkpt>
      <trkpt lat="34.632815" lon="127.422838"><ele>188.0</ele><time>2021-12-01T01:43:56.000Z</time></trkpt>
      <trkpt lat="34.632727" lon="127.422893"><ele>190.0</ele><time>2021-12-01T01:44:10.000Z</time></trkpt>
      <trkpt lat="34.632655" lon="127.422962"><ele>194.0</ele><time>2021-12-01T01:44:29.000Z</time></trkpt>
      <trkpt lat="34.632618" lon="127.423055"><ele>197.0</ele><time>2021-12-01T01:44:45.000Z</time></trkpt>
      <trkpt lat="34.632540" lon="127.423113"><ele>202.0</ele><time>2021-12-01T01:45:06.000Z</time></trkpt>
      <trkpt lat="34.632488" lon="127.423225"><ele>203.0</ele><time>2021-12-01T01:45:28.000Z</time></trkpt>
      <trkpt lat="34.632420" lon="127.423298"><ele>205.0</ele><time>2021-12-01T01:45:45.000Z</time></trkpt>
      <trkpt lat="34.632372" lon="127.423386"><ele>207.0</ele><time>2021-12-01T01:46:11.000Z</time></trkpt>
      <trkpt lat="34.632303" lon="127.423468"><ele>212.0</ele><time>2021-12-01T01:46:25.000Z</time></trkpt>
      <trkpt lat="34.632238" lon="127.423552"><ele>213.0</ele><time>2021-12-01T01:46:39.000Z</time></trkpt>
      <trkpt lat="34.632146" lon="127.423604"><ele>215.0</ele><time>2021-12-01T01:46:55.000Z</time></trkpt>
      <trkpt lat="34.632078" lon="127.423672"><ele>218.0</ele><time>2021-12-01T01:47:07.000Z</time></trkpt>
      <trkpt lat="34.631991" lon="127.423701"><ele>222.0</ele><time>2021-12-01T01:47:24.000Z</time></trkpt>
      <trkpt lat="34.631903" lon="127.423768"><ele>224.0</ele><time>2021-12-01T01:47:38.000Z</time></trkpt>
      <trkpt lat="34.631867" lon="127.423864"><ele>228.0</ele><time>2021-12-01T01:47:54.000Z</time></trkpt>
      <trkpt lat="34.631825" lon="127.423960"><ele>231.0</ele><time>2021-12-01T01:48:11.000Z</time></trkpt>
      <trkpt lat="34.631789" lon="127.424056"><ele>234.0</ele><time>2021-12-01T01:50:41.000Z</time></trkpt>
      <trkpt lat="34.631756" lon="127.424138"><ele>240.0</ele><time>2021-12-01T01:51:05.000Z</time></trkpt>
      <trkpt lat="34.631753" lon="127.424243"><ele>245.0</ele><time>2021-12-01T01:51:25.000Z</time></trkpt>
      <trkpt lat="34.631744" lon="127.424356"><ele>247.0</ele><time>2021-12-01T01:51:45.000Z</time></trkpt>
      <trkpt lat="34.631670" lon="127.424441"><ele>247.0</ele><time>2021-12-01T01:51:59.000Z</time></trkpt>
      <trkpt lat="34.631567" lon="127.424430"><ele>247.0</ele><time>2021-12-01T01:52:14.000Z</time></trkpt>
      <trkpt lat="34.631482" lon="127.424388"><ele>251.0</ele><time>2021-12-01T01:52:25.000Z</time></trkpt>
      <trkpt lat="34.631401" lon="127.424324"><ele>253.0</ele><time>2021-12-01T01:52:35.000Z</time></trkpt>
      <trkpt lat="34.631307" lon="127.424289"><ele>255.0</ele><time>2021-12-01T01:52:50.000Z</time></trkpt>
      <trkpt lat="34.631210" lon="127.424298"><ele>256.0</ele><time>2021-12-01T01:53:05.000Z</time></trkpt>
      <trkpt lat="34.631127" lon="127.424300"><ele>261.0</ele><time>2021-12-01T01:53:19.000Z</time></trkpt>
      <trkpt lat="34.631035" lon="127.424318"><ele>264.0</ele><time>2021-12-01T01:53:30.000Z</time></trkpt>
      <trkpt lat="34.630945" lon="127.424337"><ele>266.0</ele><time>2021-12-01T01:53:47.000Z</time></trkpt>
      <trkpt lat="34.630867" lon="127.424392"><ele>267.0</ele><time>2021-12-01T01:54:07.000Z</time></trkpt>
      <trkpt lat="34.630873" lon="127.424480"><ele>273.0</ele><time>2021-12-01T01:54:33.000Z</time></trkpt>
      <trkpt lat="34.630904" lon="127.424573"><ele>279.0</ele><time>2021-12-01T01:55:02.000Z</time></trkpt>
      <trkpt lat="34.630901" lon="127.424682"><ele>283.0</ele><time>2021-12-01T01:55:16.000Z</time></trkpt>
      <trkpt lat="34.630848" lon="127.424785"><ele>286.0</ele><time>2021-12-01T01:55:35.000Z</time></trkpt>
      <trkpt lat="34.630779" lon="127.424869"><ele>288.0</ele><time>2021-12-01T01:55:46.000Z</time></trkpt>
      <trkpt lat="34.630705" lon="127.424956"><ele>290.0</ele><time>2021-12-01T01:56:00.000Z</time></trkpt>
      <trkpt lat="34.630637" lon="127.425067"><ele>291.0</ele><time>2021-12-01T01:56:21.000Z</time></trkpt>
      <trkpt lat="34.630568" lon="127.425103"><ele>297.0</ele><time>2021-12-01T01:56:37.000Z</time></trkpt>
      <trkpt lat="34.630493" lon="127.425169"><ele>300.0</ele><time>2021-12-01T01:56:55.000Z</time></trkpt>
      <trkpt lat="34.630435" lon="127.425247"><ele>305.0</ele><time>2021-12-01T01:57:11.000Z</time></trkpt>
      <trkpt lat="34.630365" lon="127.425327"><ele>307.0</ele><time>2021-12-01T01:57:30.000Z</time></trkpt>
      <trkpt lat="34.630319" lon="127.425421"><ele>311.0</ele><time>2021-12-01T01:57:47.000Z</time></trkpt>
      <trkpt lat="34.630257" lon="127.425509"><ele>312.0</ele><time>2021-12-01T01:57:59.000Z</time></trkpt>
      <trkpt lat="34.630220" lon="127.425617"><ele>316.0</ele><time>2021-12-01T01:58:12.000Z</time></trkpt>
      <trkpt lat="34.630208" lon="127.425737"><ele>319.0</ele><time>2021-12-01T02:00:25.000Z</time></trkpt>
      <trkpt lat="34.630192" lon="127.425843"><ele>321.0</ele><time>2021-12-01T02:00:35.000Z</time></trkpt>
      <trkpt lat="34.630244" lon="127.425946"><ele>325.0</ele><time>2021-12-01T02:00:54.000Z</time></trkpt>
      <trkpt lat="34.630260" lon="127.426067"><ele>328.0</ele><time>2021-12-01T02:01:06.000Z</time></trkpt>
      <trkpt lat="34.630249" lon="127.426198"><ele>328.0</ele><time>2021-12-01T02:01:22.000Z</time></trkpt>
      <trkpt lat="34.630268" lon="127.426299"><ele>333.0</ele><time>2021-12-01T02:01:36.000Z</time></trkpt>
      <trkpt lat="34.630268" lon="127.426418"><ele>335.0</ele><time>2021-12-01T02:01:49.000Z</time></trkpt>
      <trkpt lat="34.630273" lon="127.426529"><ele>337.0</ele><time>2021-12-01T02:02:02.000Z</time></trkpt>
      <trkpt lat="34.630257" lon="127.426654"><ele>337.0</ele><time>2021-12-01T02:02:14.000Z</time></trkpt>
      <trkpt lat="34.630225" lon="127.426761"><ele>338.0</ele><time>2021-12-01T02:02:25.000Z</time></trkpt>
      <trkpt lat="34.630196" lon="127.426866"><ele>339.0</ele><time>2021-12-01T02:02:36.000Z</time></trkpt>
      <trkpt lat="34.630159" lon="127.426958"><ele>342.0</ele><time>2021-12-01T02:02:46.000Z</time></trkpt>
      <trkpt lat="34.630095" lon="127.427049"><ele>343.0</ele><time>2021-12-01T02:03:01.000Z</time></trkpt>
      <trkpt lat="34.630046" lon="127.427153"><ele>345.0</ele><time>2021-12-01T02:03:15.000Z</time></trkpt>
      <trkpt lat="34.629989" lon="127.427261"><ele>349.0</ele><time>2021-12-01T02:03:28.000Z</time></trkpt>
      <trkpt lat="34.629908" lon="127.427317"><ele>350.0</ele><time>2021-12-01T02:03:40.000Z</time></trkpt>
      <trkpt lat="34.629831" lon="127.427397"><ele>351.0</ele><time>2021-12-01T02:03:53.000Z</time></trkpt>
      <trkpt lat="34.629773" lon="127.427487"><ele>353.0</ele><time>2021-12-01T02:04:08.000Z</time></trkpt>
      <trkpt lat="34.629711" lon="127.427594"><ele>353.0</ele><time>2021-12-01T02:04:22.000Z</time></trkpt>
      <trkpt lat="34.629731" lon="127.427694"><ele>358.0</ele><time>2021-12-01T02:04:47.000Z</time></trkpt>
      <trkpt lat="34.629723" lon="127.427815"><ele>358.0</ele><time>2021-12-01T02:05:02.000Z</time></trkpt>
      <trkpt lat="34.629764" lon="127.427893"><ele>366.0</ele><time>2021-12-01T02:05:35.000Z</time></trkpt>
      <trkpt lat="34.629859" lon="127.427896"><ele>366.0</ele><time>2021-12-01T02:05:50.000Z</time></trkpt>
      <trkpt lat="34.629939" lon="127.427948"><ele>369.0</ele><time>2021-12-01T02:06:04.000Z</time></trkpt>
      <trkpt lat="34.629922" lon="127.428056"><ele>371.0</ele><time>2021-12-01T02:06:22.000Z</time></trkpt>
      <trkpt lat="34.629925" lon="127.428162"><ele>374.0</ele><time>2021-12-01T02:06:40.000Z</time></trkpt>
      <trkpt lat="34.629883" lon="127.428251"><ele>379.0</ele><time>2021-12-01T02:06:59.000Z</time></trkpt>
      <trkpt lat="34.629838" lon="127.428343"><ele>382.0</ele><time>2021-12-01T02:07:23.000Z</time></trkpt>
      <trkpt lat="34.629829" lon="127.428449"><ele>387.0</ele><time>2021-12-01T02:07:40.000Z</time></trkpt>
      <trkpt lat="34.629817" lon="127.428564"><ele>390.0</ele><time>2021-12-01T02:07:59.000Z</time></trkpt>
      <trkpt lat="34.629809" lon="127.428664"><ele>394.0</ele><time>2021-12-01T02:08:40.000Z</time></trkpt>
      <trkpt lat="34.629829" lon="127.428770"><ele>395.0</ele><time>2021-12-01T02:09:08.000Z</time></trkpt>
      <trkpt lat="34.629747" lon="127.428734"><ele>398.0</ele><time>2021-12-01T02:09:27.000Z</time></trkpt>
      <trkpt lat="34.629667" lon="127.428795"><ele>401.0</ele><time>2021-12-01T02:09:59.000Z</time></trkpt>
      <trkpt lat="34.629587" lon="127.428856"><ele>405.0</ele><time>2021-12-01T02:10:19.000Z</time></trkpt>
      <trkpt lat="34.629500" lon="127.428901"><ele>407.0</ele><time>2021-12-01T02:10:38.000Z</time></trkpt>
      <trkpt lat="34.629411" lon="127.428941"><ele>409.0</ele><time>2021-12-01T02:10:50.000Z</time></trkpt>
      <trkpt lat="34.629332" lon="127.429009"><ele>412.0</ele><time>2021-12-01T02:11:05.000Z</time></trkpt>
      <trkpt lat="34.629258" lon="127.429061"><ele>415.0</ele><time>2021-12-01T02:11:18.000Z</time></trkpt>
      <trkpt lat="34.629177" lon="127.429127"><ele>417.0</ele><time>2021-12-01T02:11:39.000Z</time></trkpt>
      <trkpt lat="34.629103" lon="127.429198"><ele>420.0</ele><time>2021-12-01T02:11:52.000Z</time></trkpt>
      <trkpt lat="34.629045" lon="127.429287"><ele>424.0</ele><time>2021-12-01T02:12:12.000Z</time></trkpt>
      <trkpt lat="34.628985" lon="127.429374"><ele>426.0</ele><time>2021-12-01T02:12:41.000Z</time></trkpt>
      <trkpt lat="34.628961" lon="127.429462"><ele>432.0</ele><time>2021-12-01T02:13:11.000Z</time></trkpt>
      <trkpt lat="34.628895" lon="127.429535"><ele>435.0</ele><time>2021-12-01T02:13:29.000Z</time></trkpt>
      <trkpt lat="34.628830" lon="127.429608"><ele>441.0</ele><time>2021-12-01T02:13:55.000Z</time></trkpt>
      <trkpt lat="34.628747" lon="127.429671"><ele>442.0</ele><time>2021-12-01T02:14:14.000Z</time></trkpt>
      <trkpt lat="34.628736" lon="127.429645"><ele>443.0</ele><time>2021-12-01T02:18:54.000Z</time></trkpt>
      <trkpt lat="34.628544" lon="127.429702"><ele>445.0</ele><time>2021-12-01T02:19:58.000Z</time></trkpt>
      <trkpt lat="34.628456" lon="127.429669"><ele>443.0</ele><time>2021-12-01T02:20:12.000Z</time></trkpt>
      <trkpt lat="34.628355" lon="127.429667"><ele>447.0</ele><time>2021-12-01T02:20:28.000Z</time></trkpt>
      <trkpt lat="34.628259" lon="127.429668"><ele>448.0</ele><time>2021-12-01T02:20:42.000Z</time></trkpt>
      <trkpt lat="34.628164" lon="127.429631"><ele>451.0</ele><time>2021-12-01T02:20:59.000Z</time></trkpt>
      <trkpt lat="34.628076" lon="127.429616"><ele>453.0</ele><time>2021-12-01T02:21:13.000Z</time></trkpt>
      <trkpt lat="34.627997" lon="127.429630"><ele>458.0</ele><time>2021-12-01T02:21:32.000Z</time></trkpt>
      <trkpt lat="34.627932" lon="127.429696"><ele>463.0</ele><time>2021-12-01T02:21:53.000Z</time></trkpt>
      <trkpt lat="34.627881" lon="127.429787"><ele>467.0</ele><time>2021-12-01T02:22:31.000Z</time></trkpt>
      <trkpt lat="34.627914" lon="127.429873"><ele>473.0</ele><time>2021-12-01T02:22:50.000Z</time></trkpt>
      <trkpt lat="34.627955" lon="127.429965"><ele>476.0</ele><time>2021-12-01T02:23:08.000Z</time></trkpt>
      <trkpt lat="34.627916" lon="127.430063"><ele>478.0</ele><time>2021-12-01T02:23:29.000Z</time></trkpt>
      <trkpt lat="34.627832" lon="127.430035"><ele>481.0</ele><time>2021-12-01T02:23:59.000Z</time></trkpt>
      <trkpt lat="34.627800" lon="127.430114"><ele>491.0</ele><time>2021-12-01T02:24:56.000Z</time></trkpt>
      <trkpt lat="34.627784" lon="127.430209"><ele>497.0</ele><time>2021-12-01T02:25:21.000Z</time></trkpt>
      <trkpt lat="34.627820" lon="127.430297"><ele>502.0</ele><time>2021-12-01T02:25:45.000Z</time></trkpt>
      <trkpt lat="34.627798" lon="127.430382"><ele>508.0</ele><time>2021-12-01T02:26:06.000Z</time></trkpt>
      <trkpt lat="34.627868" lon="127.430429"><ele>513.0</ele><time>2021-12-01T02:26:40.000Z</time></trkpt>
      <trkpt lat="34.627933" lon="127.430517"><ele>520.0</ele><time>2021-12-01T02:28:10.000Z</time></trkpt>
      <trkpt lat="34.627926" lon="127.430416"><ele>516.0</ele><time>2021-12-01T02:28:23.000Z</time></trkpt>
      <trkpt lat="34.627976" lon="127.430337"><ele>521.0</ele><time>2021-12-01T02:28:46.000Z</time></trkpt>
      <trkpt lat="34.628060" lon="127.430303"><ele>523.0</ele><time>2021-12-01T02:29:02.000Z</time></trkpt>
      <trkpt lat="34.628015" lon="127.430326"><ele>522.0</ele><time>2021-12-01T02:32:16.000Z</time></trkpt>
      <trkpt lat="34.627871" lon="127.430443"><ele>513.0</ele><time>2021-12-01T02:32:43.000Z</time></trkpt>
      <trkpt lat="34.627768" lon="127.430477"><ele>513.0</ele><time>2021-12-01T02:32:53.000Z</time></trkpt>
      <trkpt lat="34.627685" lon="127.430479"><ele>518.0</ele><time>2021-12-01T02:33:22.000Z</time></trkpt>
      <trkpt lat="34.627580" lon="127.430493"><ele>519.0</ele><time>2021-12-01T02:34:01.000Z</time></trkpt>
      <trkpt lat="34.627489" lon="127.430438"><ele>518.0</ele><time>2021-12-01T02:34:13.000Z</time></trkpt>
      <trkpt lat="34.627436" lon="127.430521"><ele>527.0</ele><time>2021-12-01T02:35:14.000Z</time></trkpt>
      <trkpt lat="34.627425" lon="127.430612"><ele>534.0</ele><time>2021-12-01T02:35:35.000Z</time></trkpt>
      <trkpt lat="34.627360" lon="127.430687"><ele>535.0</ele><time>2021-12-01T02:36:06.000Z</time></trkpt>
      <trkpt lat="34.627276" lon="127.430772"><ele>535.0</ele><time>2021-12-01T02:36:45.000Z</time></trkpt>
      <trkpt lat="34.627196" lon="127.430772"><ele>540.0</ele><time>2021-12-01T02:37:00.000Z</time></trkpt>
      <trkpt lat="34.627105" lon="127.430773"><ele>542.0</ele><time>2021-12-01T02:37:54.000Z</time></trkpt>
      <trkpt lat="34.627072" lon="127.430695"><ele>554.0</ele><time>2021-12-01T02:38:59.000Z</time></trkpt>
      <trkpt lat="34.627018" lon="127.430768"><ele>560.0</ele><time>2021-12-01T02:39:24.000Z</time></trkpt>
      <trkpt lat="34.626945" lon="127.430790"><ele>566.0</ele><time>2021-12-01T02:40:02.000Z</time></trkpt>
      <trkpt lat="34.626854" lon="127.430819"><ele>567.0</ele><time>2021-12-01T02:40:51.000Z</time></trkpt>
      <trkpt lat="34.626773" lon="127.430885"><ele>569.0</ele><time>2021-12-01T02:41:23.000Z</time></trkpt>
      <trkpt lat="34.626687" lon="127.430939"><ele>572.0</ele><time>2021-12-01T02:41:37.000Z</time></trkpt>
      <trkpt lat="34.626592" lon="127.430977"><ele>573.0</ele><time>2021-12-01T02:41:52.000Z</time></trkpt>
      <trkpt lat="34.626503" lon="127.431013"><ele>571.0</ele><time>2021-12-01T02:42:08.000Z</time></trkpt>
      <trkpt lat="34.626433" lon="127.430965"><ele>566.0</ele><time>2021-12-01T02:42:32.000Z</time></trkpt>
      <trkpt lat="34.626343" lon="127.430961"><ele>569.0</ele><time>2021-12-01T02:42:50.000Z</time></trkpt>
      <trkpt lat="34.626281" lon="127.430920"><ele>578.0</ele><time>2021-12-01T02:43:34.000Z</time></trkpt>
      <trkpt lat="34.626193" lon="127.430909"><ele>581.0</ele><time>2021-12-01T02:43:50.000Z</time></trkpt>
      <trkpt lat="34.626137" lon="127.430840"><ele>587.0</ele><time>2021-12-01T02:44:41.000Z</time></trkpt>
      <trkpt lat="34.626080" lon="127.430919"><ele>589.0</ele><time>2021-12-01T02:46:08.000Z</time></trkpt>
      <trkpt lat="34.625995" lon="127.430881"><ele>587.0</ele><time>2021-12-01T02:47:47.000Z</time></trkpt>
      <trkpt lat="34.625935" lon="127.430857"><ele>579.0</ele><time>2021-12-01T02:48:28.000Z</time></trkpt>
      <trkpt lat="34.625924" lon="127.430758"><ele>574.0</ele><time>2021-12-01T02:48:51.000Z</time></trkpt>
      <trkpt lat="34.625875" lon="127.430682"><ele>585.0</ele><time>2021-12-01T02:49:16.000Z</time></trkpt>
      <trkpt lat="34.625804" lon="127.430620"><ele>587.0</ele><time>2021-12-01T02:49:41.000Z</time></trkpt>
      <trkpt lat="34.625725" lon="127.430651"><ele>592.0</ele><time>2021-12-01T02:52:56.000Z</time></trkpt>
      <trkpt lat="34.625756" lon="127.430628"><ele>598.0</ele><time>2021-12-01T02:54:16.000Z</time></trkpt>
      <trkpt lat="34.625589" lon="127.430645"><ele>605.0</ele><time>2021-12-01T02:55:11.000Z</time></trkpt>
      <trkpt lat="34.625512" lon="127.430645"><ele>599.0</ele><time>2021-12-01T02:56:00.000Z</time></trkpt>
      <trkpt lat="34.625420" lon="127.430616"><ele>599.0</ele><time>2021-12-01T02:56:26.000Z</time></trkpt>
      <trkpt lat="34.625350" lon="127.430554"><ele>603.0</ele><time>2021-12-01T02:56:42.000Z</time></trkpt>
      <trkpt lat="34.625258" lon="127.430562"><ele>606.0</ele><time>2021-12-01T02:57:13.000Z</time></trkpt>
      <trkpt lat="34.625173" lon="127.430549"><ele>602.0</ele><time>2021-12-01T02:57:35.000Z</time></trkpt>
      <trkpt lat="34.625108" lon="127.430621"><ele>598.0</ele><time>2021-12-01T02:58:03.000Z</time></trkpt>
      <trkpt lat="34.625042" lon="127.430590"><ele>591.0</ele><time>2021-12-01T02:58:26.000Z</time></trkpt>
      <trkpt lat="34.624970" lon="127.430605"><ele>584.0</ele><time>2021-12-01T02:58:47.000Z</time></trkpt>
      <trkpt lat="34.624883" lon="127.430656"><ele>584.0</ele><time>2021-12-01T02:59:06.000Z</time></trkpt>
      <trkpt lat="34.624794" lon="127.430671"><ele>580.0</ele><time>2021-12-01T02:59:22.000Z</time></trkpt>
      <trkpt lat="34.624710" lon="127.430695"><ele>576.0</ele><time>2021-12-01T02:59:36.000Z</time></trkpt>
      <trkpt lat="34.624697" lon="127.430809"><ele>578.0</ele><time>2021-12-01T03:00:03.000Z</time></trkpt>
      <trkpt lat="34.624691" lon="127.430891"><ele>585.0</ele><time>2021-12-01T03:00:30.000Z</time></trkpt>
      <trkpt lat="34.624700" lon="127.431011"><ele>586.0</ele><time>2021-12-01T03:01:00.000Z</time></trkpt>
      <trkpt lat="34.624637" lon="127.431083"><ele>591.0</ele><time>2021-12-01T03:01:29.000Z</time></trkpt>
      <trkpt lat="34.624575" lon="127.431064"><ele>600.0</ele><time>2021-12-01T03:02:26.000Z</time></trkpt>
      <trkpt lat="34.624530" lon="127.431008"><ele>609.0</ele><time>2021-12-01T03:04:03.000Z</time></trkpt>
      <trkpt lat="34.624469" lon="127.430981"><ele>620.0</ele><time>2021-12-01T03:04:38.000Z</time></trkpt>
      <trkpt lat="34.624421" lon="127.430884"><ele>622.0</ele><time>2021-12-01T03:06:03.000Z</time></trkpt>
      <trkpt lat="34.624325" lon="127.430877"><ele>623.0</ele><time>2021-12-01T03:07:56.000Z</time></trkpt>
      <trkpt lat="34.624261" lon="127.430937"><ele>617.0</ele><time>2021-12-01T03:08:51.000Z</time></trkpt>
      <trkpt lat="34.624220" lon="127.431024"><ele>612.0</ele><time>2021-12-01T03:09:17.000Z</time></trkpt>
      <trkpt lat="34.624155" lon="127.430991"><ele>605.0</ele><time>2021-12-01T03:09:39.000Z</time></trkpt>
      <trkpt lat="34.624087" lon="127.431007"><ele>597.0</ele><time>2021-12-01T03:10:05.000Z</time></trkpt>
      <trkpt lat="34.624014" lon="127.431049"><ele>592.0</ele><time>2021-12-01T03:10:25.000Z</time></trkpt>
      <trkpt lat="34.623927" lon="127.430995"><ele>590.0</ele><time>2021-12-01T03:10:36.000Z</time></trkpt>
      <trkpt lat="34.623833" lon="127.431021"><ele>592.0</ele><time>2021-12-01T03:11:57.000Z</time></trkpt>
      <trkpt lat="34.623737" lon="127.431057"><ele>594.0</ele><time>2021-12-01T03:12:12.000Z</time></trkpt>
      <trkpt lat="34.623640" lon="127.431071"><ele>594.0</ele><time>2021-12-01T03:12:22.000Z</time></trkpt>
      <trkpt lat="34.623534" lon="127.431058"><ele>595.0</ele><time>2021-12-01T03:12:34.000Z</time></trkpt>
      <trkpt lat="34.623414" lon="127.431069"><ele>594.0</ele><time>2021-12-01T03:12:47.000Z</time></trkpt>
      <trkpt lat="34.623317" lon="127.431092"><ele>591.0</ele><time>2021-12-01T03:12:59.000Z</time></trkpt>
      <trkpt lat="34.623206" lon="127.431067"><ele>589.0</ele><time>2021-12-01T03:13:20.000Z</time></trkpt>
      <trkpt lat="34.623120" lon="127.430998"><ele>594.0</ele><time>2021-12-01T03:13:31.000Z</time></trkpt>
      <trkpt lat="34.623030" lon="127.430991"><ele>597.0</ele><time>2021-12-01T03:13:49.000Z</time></trkpt>
      <trkpt lat="34.622951" lon="127.430958"><ele>602.0</ele><time>2021-12-01T03:14:01.000Z</time></trkpt>
      <trkpt lat="34.622874" lon="127.430895"><ele>605.0</ele><time>2021-12-01T03:14:21.000Z</time></trkpt>
      <trkpt lat="34.622870" lon="127.431005"><ele>609.0</ele><time>2021-12-01T03:15:09.000Z</time></trkpt>
      <trkpt lat="34.622786" lon="127.431029"><ele>613.0</ele><time>2021-12-01T03:15:26.000Z</time></trkpt>
      <trkpt lat="34.622714" lon="127.430948"><ele>619.0</ele><time>2021-12-01T03:16:07.000Z</time></trkpt>
      <trkpt lat="34.622630" lon="127.430909"><ele>622.0</ele><time>2021-12-01T03:16:22.000Z</time></trkpt>
      <trkpt lat="34.622537" lon="127.430893"><ele>624.0</ele><time>2021-12-01T03:16:42.000Z</time></trkpt>
      <trkpt lat="34.622474" lon="127.430817"><ele>627.0</ele><time>2021-12-01T03:17:03.000Z</time></trkpt>
      <trkpt lat="34.622548" lon="127.430890"><ele>623.0</ele><time>2021-12-01T03:20:43.000Z</time></trkpt>
      <trkpt lat="34.622480" lon="127.430962"><ele>620.0</ele><time>2021-12-01T03:21:07.000Z</time></trkpt>
      <trkpt lat="34.622384" lon="127.431019"><ele>618.0</ele><time>2021-12-01T03:21:22.000Z</time></trkpt>
      <trkpt lat="34.622311" lon="127.430991"><ele>613.0</ele><time>2021-12-01T03:21:52.000Z</time></trkpt>
      <trkpt lat="34.622235" lon="127.430970"><ele>607.0</ele><time>2021-12-01T03:22:14.000Z</time></trkpt>
      <trkpt lat="34.622146" lon="127.430969"><ele>601.0</ele><time>2021-12-01T03:22:30.000Z</time></trkpt>
      <trkpt lat="34.622064" lon="127.430968"><ele>594.0</ele><time>2021-12-01T03:22:43.000Z</time></trkpt>
      <trkpt lat="34.621975" lon="127.430961"><ele>591.0</ele><time>2021-12-01T03:22:58.000Z</time></trkpt>
      <trkpt lat="34.621888" lon="127.430960"><ele>588.0</ele><time>2021-12-01T03:23:11.000Z</time></trkpt>
      <trkpt lat="34.621809" lon="127.431013"><ele>589.0</ele><time>2021-12-01T03:23:29.000Z</time></trkpt>
      <trkpt lat="34.621714" lon="127.431081"><ele>592.0</ele><time>2021-12-01T03:23:41.000Z</time></trkpt>
      <trkpt lat="34.621623" lon="127.431152"><ele>594.0</ele><time>2021-12-01T03:23:58.000Z</time></trkpt>
      <trkpt lat="34.621545" lon="127.431220"><ele>597.0</ele><time>2021-12-01T03:24:10.000Z</time></trkpt>
      <trkpt lat="34.621450" lon="127.431214"><ele>599.0</ele><time>2021-12-01T03:24:29.000Z</time></trkpt>
      <trkpt lat="34.621371" lon="127.431222"><ele>605.0</ele><time>2021-12-01T03:24:55.000Z</time></trkpt>
      <trkpt lat="34.621304" lon="127.431270"><ele>611.0</ele><time>2021-12-01T03:25:19.000Z</time></trkpt>
      <trkpt lat="34.621215" lon="127.431311"><ele>608.0</ele><time>2021-12-01T03:25:39.000Z</time></trkpt>
      <trkpt lat="34.621150" lon="127.431236"><ele>610.0</ele><time>2021-12-01T03:26:04.000Z</time></trkpt>
      <trkpt lat="34.621052" lon="127.431201"><ele>608.0</ele><time>2021-12-01T03:26:22.000Z</time></trkpt>
      <trkpt lat="34.620978" lon="127.431144"><ele>603.0</ele><time>2021-12-01T03:26:56.000Z</time></trkpt>
      <trkpt lat="34.620891" lon="127.431097"><ele>600.0</ele><time>2021-12-01T03:27:10.000Z</time></trkpt>
      <trkpt lat="34.620804" lon="127.431064"><ele>599.0</ele><time>2021-12-01T03:27:28.000Z</time></trkpt>
      <trkpt lat="34.620807" lon="127.431089"><ele>601.0</ele><time>2021-12-01T03:31:56.000Z</time></trkpt>
      <trkpt lat="34.620720" lon="127.431290"><ele>600.0</ele><time>2021-12-01T03:33:07.000Z</time></trkpt>
      <trkpt lat="34.620674" lon="127.431349"><ele>590.0</ele><time>2021-12-01T03:33:33.000Z</time></trkpt>
      <trkpt lat="34.620586" lon="127.431376"><ele>584.0</ele><time>2021-12-01T03:33:54.000Z</time></trkpt>
      <trkpt lat="34.620553" lon="127.431469"><ele>588.0</ele><time>2021-12-01T03:34:09.000Z</time></trkpt>
      <trkpt lat="34.620497" lon="127.431542"><ele>592.0</ele><time>2021-12-01T03:34:25.000Z</time></trkpt>
      <trkpt lat="34.620419" lon="127.431598"><ele>593.0</ele><time>2021-12-01T03:34:38.000Z</time></trkpt>
      <trkpt lat="34.620342" lon="127.431603"><ele>599.0</ele><time>2021-12-01T03:34:58.000Z</time></trkpt>
      <trkpt lat="34.620255" lon="127.431570"><ele>602.0</ele><time>2021-12-01T03:35:19.000Z</time></trkpt>
      <trkpt lat="34.620214" lon="127.431471"><ele>602.0</ele><time>2021-12-01T03:35:36.000Z</time></trkpt>
      <trkpt lat="34.620128" lon="127.431465"><ele>606.0</ele><time>2021-12-01T03:35:54.000Z</time></trkpt>
      <trkpt lat="34.620049" lon="127.431536"><ele>603.0</ele><time>2021-12-01T03:36:21.000Z</time></trkpt>
      <trkpt lat="34.619950" lon="127.431547"><ele>606.0</ele><time>2021-12-01T03:36:42.000Z</time></trkpt>
      <trkpt lat="34.619872" lon="127.431600"><ele>604.0</ele><time>2021-12-01T03:37:09.000Z</time></trkpt>
      <trkpt lat="34.619847" lon="127.431694"><ele>608.0</ele><time>2021-12-01T03:37:56.000Z</time></trkpt>
      <trkpt lat="34.619755" lon="127.431710"><ele>608.0</ele><time>2021-12-01T03:38:10.000Z</time></trkpt>
      <trkpt lat="34.619678" lon="127.431730"><ele>614.0</ele><time>2021-12-01T03:38:28.000Z</time></trkpt>
      <trkpt lat="34.619586" lon="127.431758"><ele>616.0</ele><time>2021-12-01T03:38:51.000Z</time></trkpt>
      <trkpt lat="34.619547" lon="127.431840"><ele>611.0</ele><time>2021-12-01T03:40:44.000Z</time></trkpt>
      <trkpt lat="34.619474" lon="127.431921"><ele>611.0</ele><time>2021-12-01T03:40:55.000Z</time></trkpt>
      <trkpt lat="34.619399" lon="127.431898"><ele>605.0</ele><time>2021-12-01T03:41:17.000Z</time></trkpt>
      <trkpt lat="34.619305" lon="127.431836"><ele>604.0</ele><time>2021-12-01T03:41:28.000Z</time></trkpt>
      <trkpt lat="34.619223" lon="127.431779"><ele>602.0</ele><time>2021-12-01T03:41:49.000Z</time></trkpt>
      <trkpt lat="34.619146" lon="127.431842"><ele>598.0</ele><time>2021-12-01T03:42:18.000Z</time></trkpt>
      <trkpt lat="34.619087" lon="127.431939"><ele>597.0</ele><time>2021-12-01T03:42:34.000Z</time></trkpt>
      <trkpt lat="34.619030" lon="127.432045"><ele>593.0</ele><time>2021-12-01T03:42:42.000Z</time></trkpt>
      <trkpt lat="34.618969" lon="127.432129"><ele>591.0</ele><time>2021-12-01T03:42:48.000Z</time></trkpt>
      <trkpt lat="34.618887" lon="127.432222"><ele>591.0</ele><time>2021-12-01T03:42:58.000Z</time></trkpt>
      <trkpt lat="34.618798" lon="127.432307"><ele>590.0</ele><time>2021-12-01T03:43:05.000Z</time></trkpt>
      <trkpt lat="34.618716" lon="127.432376"><ele>587.0</ele><time>2021-12-01T03:43:16.000Z</time></trkpt>
      <trkpt lat="34.618640" lon="127.432464"><ele>586.0</ele><time>2021-12-01T03:43:26.000Z</time></trkpt>
      <trkpt lat="34.618545" lon="127.432533"><ele>588.0</ele><time>2021-12-01T03:43:37.000Z</time></trkpt>
      <trkpt lat="34.618496" lon="127.432624"><ele>590.0</ele><time>2021-12-01T03:43:49.000Z</time></trkpt>
      <trkpt lat="34.618422" lon="127.432727"><ele>589.0</ele><time>2021-12-01T03:43:59.000Z</time></trkpt>
      <trkpt lat="34.618354" lon="127.432805"><ele>589.0</ele><time>2021-12-01T03:44:07.000Z</time></trkpt>
      <trkpt lat="34.618286" lon="127.432889"><ele>589.0</ele><time>2021-12-01T03:44:15.000Z</time></trkpt>
      <trkpt lat="34.618213" lon="127.432952"><ele>593.0</ele><time>2021-12-01T03:44:22.000Z</time></trkpt>
      <trkpt lat="34.618126" lon="127.433048"><ele>590.0</ele><time>2021-12-01T03:44:33.000Z</time></trkpt>
      <trkpt lat="34.618064" lon="127.433155"><ele>590.0</ele><time>2021-12-01T03:44:44.000Z</time></trkpt>
      <trkpt lat="34.618018" lon="127.433261"><ele>591.0</ele><time>2021-12-01T03:44:52.000Z</time></trkpt>
      <trkpt lat="34.618002" lon="127.433375"><ele>595.0</ele><time>2021-12-01T03:45:18.000Z</time></trkpt>
      <trkpt lat="34.618011" lon="127.433493"><ele>598.0</ele><time>2021-12-01T03:45:29.000Z</time></trkpt>
      <trkpt lat="34.617972" lon="127.433613"><ele>599.0</ele><time>2021-12-01T03:45:41.000Z</time></trkpt>
      <trkpt lat="34.617936" lon="127.433744"><ele>599.0</ele><time>2021-12-01T03:45:52.000Z</time></trkpt>
      <trkpt lat="34.617886" lon="127.433856"><ele>597.0</ele><time>2021-12-01T03:46:01.000Z</time></trkpt>
      <trkpt lat="34.617829" lon="127.433945"><ele>596.0</ele><time>2021-12-01T03:46:08.000Z</time></trkpt>
      <trkpt lat="34.617766" lon="127.434031"><ele>598.0</ele><time>2021-12-01T03:46:50.000Z</time></trkpt>
      <trkpt lat="34.617700" lon="127.434122"><ele>600.0</ele><time>2021-12-01T03:47:02.000Z</time></trkpt>
      <trkpt lat="34.617631" lon="127.434224"><ele>601.0</ele><time>2021-12-01T03:47:16.000Z</time></trkpt>
      <trkpt lat="34.617608" lon="127.434322"><ele>606.0</ele><time>2021-12-01T03:47:26.000Z</time></trkpt>
      <trkpt lat="34.617542" lon="127.434408"><ele>608.0</ele><time>2021-12-01T03:47:36.000Z</time></trkpt>
      <trkpt lat="34.617476" lon="127.434501"><ele>608.0</ele><time>2021-12-01T03:47:47.000Z</time></trkpt>
      <trkpt lat="34.617436" lon="127.434592"><ele>612.0</ele><time>2021-12-01T03:48:06.000Z</time></trkpt>
      <trkpt lat="34.617395" lon="127.434691"><ele>614.0</ele><time>2021-12-01T03:48:16.000Z</time></trkpt>
      <trkpt lat="34.617389" lon="127.434807"><ele>615.0</ele><time>2021-12-01T03:48:27.000Z</time></trkpt>
      <trkpt lat="34.617389" lon="127.434927"><ele>614.0</ele><time>2021-12-01T03:48:36.000Z</time></trkpt>
      <trkpt lat="34.617396" lon="127.435053"><ele>616.0</ele><time>2021-12-01T03:48:49.000Z</time></trkpt>
      <trkpt lat="34.617366" lon="127.435199"><ele>617.0</ele><time>2021-12-01T03:49:03.000Z</time></trkpt>
      <trkpt lat="34.617355" lon="127.435323"><ele>617.0</ele><time>2021-12-01T03:49:18.000Z</time></trkpt>
      <trkpt lat="34.617362" lon="127.435461"><ele>617.0</ele><time>2021-12-01T03:49:30.000Z</time></trkpt>
      <trkpt lat="34.617351" lon="127.435569"><ele>619.0</ele><time>2021-12-01T03:49:40.000Z</time></trkpt>
      <trkpt lat="34.617359" lon="127.435685"><ele>621.0</ele><time>2021-12-01T03:49:51.000Z</time></trkpt>
      <trkpt lat="34.617355" lon="127.435802"><ele>623.0</ele><time>2021-12-01T03:50:03.000Z</time></trkpt>
      <trkpt lat="34.617334" lon="127.435926"><ele>624.0</ele><time>2021-12-01T03:50:13.000Z</time></trkpt>
      <trkpt lat="34.617305" lon="127.436034"><ele>624.0</ele><time>2021-12-01T03:50:25.000Z</time></trkpt>
      <trkpt lat="34.617261" lon="127.436139"><ele>625.0</ele><time>2021-12-01T03:50:34.000Z</time></trkpt>
      <trkpt lat="34.617221" lon="127.436244"><ele>625.0</ele><time>2021-12-01T03:50:45.000Z</time></trkpt>
      <trkpt lat="34.617191" lon="127.436361"><ele>627.0</ele><time>2021-12-01T03:50:58.000Z</time></trkpt>
      <trkpt lat="34.617179" lon="127.436466"><ele>630.0</ele><time>2021-12-01T03:51:37.000Z</time></trkpt>
      <trkpt lat="34.617161" lon="127.436366"><ele>623.0</ele><time>2021-12-01T03:54:35.000Z</time></trkpt>
      <trkpt lat="34.617188" lon="127.436225"><ele>623.0</ele><time>2021-12-01T03:54:48.000Z</time></trkpt>
      <trkpt lat="34.617241" lon="127.436107"><ele>622.0</ele><time>2021-12-01T03:54:57.000Z</time></trkpt>
      <trkpt lat="34.617292" lon="127.436005"><ele>619.0</ele><time>2021-12-01T03:55:09.000Z</time></trkpt>
      <trkpt lat="34.617313" lon="127.435788"><ele>617.0</ele><time>2021-12-01T03:55:29.000Z</time></trkpt>
      <trkpt lat="34.617312" lon="127.435680"><ele>615.0</ele><time>2021-12-01T03:55:38.000Z</time></trkpt>
      <trkpt lat="34.617327" lon="127.435553"><ele>614.0</ele><time>2021-12-01T03:55:50.000Z</time></trkpt>
      <trkpt lat="34.617319" lon="127.435429"><ele>613.0</ele><time>2021-12-01T03:56:01.000Z</time></trkpt>
      <trkpt lat="34.617327" lon="127.435310"><ele>614.0</ele><time>2021-12-01T03:56:08.000Z</time></trkpt>
      <trkpt lat="34.617377" lon="127.435208"><ele>613.0</ele><time>2021-12-01T03:56:23.000Z</time></trkpt>
      <trkpt lat="34.617387" lon="127.435075"><ele>611.0</ele><time>2021-12-01T03:56:42.000Z</time></trkpt>
      <trkpt lat="34.617368" lon="127.434958"><ele>609.0</ele><time>2021-12-01T03:57:11.000Z</time></trkpt>
      <trkpt lat="34.617363" lon="127.434829"><ele>609.0</ele><time>2021-12-01T03:57:18.000Z</time></trkpt>
      <trkpt lat="34.617362" lon="127.434714"><ele>610.0</ele><time>2021-12-01T03:57:27.000Z</time></trkpt>
      <trkpt lat="34.617421" lon="127.434601"><ele>607.0</ele><time>2021-12-01T03:57:37.000Z</time></trkpt>
      <trkpt lat="34.617454" lon="127.434495"><ele>607.0</ele><time>2021-12-01T03:57:49.000Z</time></trkpt>
      <trkpt lat="34.617503" lon="127.434389"><ele>604.0</ele><time>2021-12-01T03:57:57.000Z</time></trkpt>
      <trkpt lat="34.617550" lon="127.434278"><ele>600.0</ele><time>2021-12-01T03:58:05.000Z</time></trkpt>
      <trkpt lat="34.617570" lon="127.434150"><ele>597.0</ele><time>2021-12-01T03:58:13.000Z</time></trkpt>
      <trkpt lat="34.617649" lon="127.434053"><ele>596.0</ele><time>2021-12-01T03:58:21.000Z</time></trkpt>
      <trkpt lat="34.617709" lon="127.433972"><ele>594.0</ele><time>2021-12-01T03:58:29.000Z</time></trkpt>
      <trkpt lat="34.617789" lon="127.433888"><ele>593.0</ele><time>2021-12-01T03:58:43.000Z</time></trkpt>
      <trkpt lat="34.617859" lon="127.433812"><ele>595.0</ele><time>2021-12-01T04:02:41.000Z</time></trkpt>
      <trkpt lat="34.617882" lon="127.433679"><ele>594.0</ele><time>2021-12-01T04:02:55.000Z</time></trkpt>
      <trkpt lat="34.617938" lon="127.433549"><ele>595.0</ele><time>2021-12-01T04:03:05.000Z</time></trkpt>
      <trkpt lat="34.617947" lon="127.433441"><ele>593.0</ele><time>2021-12-01T04:03:15.000Z</time></trkpt>
      <trkpt lat="34.617940" lon="127.433309"><ele>591.0</ele><time>2021-12-01T04:03:24.000Z</time></trkpt>
      <trkpt lat="34.617975" lon="127.433193"><ele>589.0</ele><time>2021-12-01T04:03:29.000Z</time></trkpt>
      <trkpt lat="34.618039" lon="127.433078"><ele>588.0</ele><time>2021-12-01T04:03:42.000Z</time></trkpt>
      <trkpt lat="34.618115" lon="127.432969"><ele>587.0</ele><time>2021-12-01T04:03:54.000Z</time></trkpt>
      <trkpt lat="34.618181" lon="127.432895"><ele>587.0</ele><time>2021-12-01T04:04:00.000Z</time></trkpt>
      <trkpt lat="34.618273" lon="127.432810"><ele>587.0</ele><time>2021-12-01T04:04:10.000Z</time></trkpt>
      <trkpt lat="34.618348" lon="127.432746"><ele>588.0</ele><time>2021-12-01T04:04:22.000Z</time></trkpt>
      <trkpt lat="34.618427" lon="127.432675"><ele>589.0</ele><time>2021-12-01T04:04:31.000Z</time></trkpt>
      <trkpt lat="34.618496" lon="127.432564"><ele>590.0</ele><time>2021-12-01T04:04:43.000Z</time></trkpt>
      <trkpt lat="34.618587" lon="127.432484"><ele>590.0</ele><time>2021-12-01T04:04:50.000Z</time></trkpt>
      <trkpt lat="34.618672" lon="127.432401"><ele>592.0</ele><time>2021-12-01T04:05:03.000Z</time></trkpt>
      <trkpt lat="34.618751" lon="127.432318"><ele>593.0</ele><time>2021-12-01T04:05:13.000Z</time></trkpt>
      <trkpt lat="34.618818" lon="127.432233"><ele>593.0</ele><time>2021-12-01T04:05:25.000Z</time></trkpt>
      <trkpt lat="34.618891" lon="127.432161"><ele>593.0</ele><time>2021-12-01T04:05:30.000Z</time></trkpt>
      <trkpt lat="34.618967" lon="127.432079"><ele>593.0</ele><time>2021-12-01T04:05:41.000Z</time></trkpt>
      <trkpt lat="34.619018" lon="127.431985"><ele>596.0</ele><time>2021-12-01T04:05:51.000Z</time></trkpt>
      <trkpt lat="34.619067" lon="127.431890"><ele>598.0</ele><time>2021-12-01T04:06:04.000Z</time></trkpt>
      <trkpt lat="34.619097" lon="127.431781"><ele>598.0</ele><time>2021-12-01T04:06:22.000Z</time></trkpt>
      <trkpt lat="34.619050" lon="127.431678"><ele>595.0</ele><time>2021-12-01T04:06:36.000Z</time></trkpt>
      <trkpt lat="34.619007" lon="127.431584"><ele>593.0</ele><time>2021-12-01T04:06:48.000Z</time></trkpt>
      <trkpt lat="34.618955" lon="127.431644"><ele>587.0</ele><time>2021-12-01T04:07:15.000Z</time></trkpt>
      <trkpt lat="34.618886" lon="127.431716"><ele>586.0</ele><time>2021-12-01T04:07:30.000Z</time></trkpt>
      <trkpt lat="34.618804" lon="127.431699"><ele>581.0</ele><time>2021-12-01T04:07:48.000Z</time></trkpt>
      <trkpt lat="34.618755" lon="127.431647"><ele>574.0</ele><time>2021-12-01T04:08:06.000Z</time></trkpt>
      <trkpt lat="34.618695" lon="127.431564"><ele>572.0</ele><time>2021-12-01T04:08:21.000Z</time></trkpt>
      <trkpt lat="34.618659" lon="127.431469"><ele>568.0</ele><time>2021-12-01T04:08:33.000Z</time></trkpt>
      <trkpt lat="34.618648" lon="127.431357"><ele>565.0</ele><time>2021-12-01T04:08:48.000Z</time></trkpt>
      <trkpt lat="34.618599" lon="127.431255"><ele>564.0</ele><time>2021-12-01T04:09:15.000Z</time></trkpt>
      <trkpt lat="34.618588" lon="127.431130"><ele>562.0</ele><time>2021-12-01T04:09:25.000Z</time></trkpt>
      <trkpt lat="34.618641" lon="127.431015"><ele>560.0</ele><time>2021-12-01T04:09:34.000Z</time></trkpt>
      <trkpt lat="34.618742" lon="127.430931"><ele>555.0</ele><time>2021-12-01T04:09:43.000Z</time></trkpt>
      <trkpt lat="34.618812" lon="127.430863"><ele>553.0</ele><time>2021-12-01T04:10:07.000Z</time></trkpt>
      <trkpt lat="34.618869" lon="127.430759"><ele>551.0</ele><time>2021-12-01T04:10:17.000Z</time></trkpt>
      <trkpt lat="34.618924" lon="127.430670"><ele>551.0</ele><time>2021-12-01T04:10:26.000Z</time></trkpt>
      <trkpt lat="34.618986" lon="127.430592"><ele>547.0</ele><time>2021-12-01T04:10:35.000Z</time></trkpt>
      <trkpt lat="34.619040" lon="127.430497"><ele>542.0</ele><time>2021-12-01T04:10:51.000Z</time></trkpt>
      <trkpt lat="34.619084" lon="127.430404"><ele>539.0</ele><time>2021-12-01T04:11:15.000Z</time></trkpt>
      <trkpt lat="34.619191" lon="127.430336"><ele>536.0</ele><time>2021-12-01T04:11:27.000Z</time></trkpt>
      <trkpt lat="34.619280" lon="127.430300"><ele>531.0</ele><time>2021-12-01T04:11:39.000Z</time></trkpt>
      <trkpt lat="34.619353" lon="127.430252"><ele>526.0</ele><time>2021-12-01T04:11:59.000Z</time></trkpt>
      <trkpt lat="34.619419" lon="127.430181"><ele>522.0</ele><time>2021-12-01T04:12:16.000Z</time></trkpt>
      <trkpt lat="34.619491" lon="127.430138"><ele>517.0</ele><time>2021-12-01T04:12:34.000Z</time></trkpt>
      <trkpt lat="34.619507" lon="127.430037"><ele>513.0</ele><time>2021-12-01T04:12:52.000Z</time></trkpt>
      <trkpt lat="34.619527" lon="127.429936"><ele>511.0</ele><time>2021-12-01T04:13:06.000Z</time></trkpt>
      <trkpt lat="34.619587" lon="127.429833"><ele>508.0</ele><time>2021-12-01T04:13:19.000Z</time></trkpt>
      <trkpt lat="34.619644" lon="127.429748"><ele>509.0</ele><time>2021-12-01T04:13:26.000Z</time></trkpt>
      <trkpt lat="34.619692" lon="127.429668"><ele>504.0</ele><time>2021-12-01T04:13:47.000Z</time></trkpt>
      <trkpt lat="34.619709" lon="127.429561"><ele>498.0</ele><time>2021-12-01T04:14:08.000Z</time></trkpt>
      <trkpt lat="34.619789" lon="127.429476"><ele>495.0</ele><time>2021-12-01T04:14:20.000Z</time></trkpt>
      <trkpt lat="34.619858" lon="127.429410"><ele>492.0</ele><time>2021-12-01T04:14:25.000Z</time></trkpt>
      <trkpt lat="34.619913" lon="127.429326"><ele>490.0</ele><time>2021-12-01T04:14:39.000Z</time></trkpt>
      <trkpt lat="34.619977" lon="127.429229"><ele>487.0</ele><time>2021-12-01T04:14:53.000Z</time></trkpt>
      <trkpt lat="34.620046" lon="127.429142"><ele>485.0</ele><time>2021-12-01T04:15:06.000Z</time></trkpt>
      <trkpt lat="34.620099" lon="127.429062"><ele>479.0</ele><time>2021-12-01T04:15:29.000Z</time></trkpt>
      <trkpt lat="34.620166" lon="127.428997"><ele>476.0</ele><time>2021-12-01T04:15:42.000Z</time></trkpt>
      <trkpt lat="34.620212" lon="127.428903"><ele>474.0</ele><time>2021-12-01T04:15:58.000Z</time></trkpt>
      <trkpt lat="34.620276" lon="127.428834"><ele>469.0</ele><time>2021-12-01T04:16:16.000Z</time></trkpt>
      <trkpt lat="34.620339" lon="127.428764"><ele>464.0</ele><time>2021-12-01T04:16:35.000Z</time></trkpt>
      <trkpt lat="34.620410" lon="127.428697"><ele>459.0</ele><time>2021-12-01T04:16:50.000Z</time></trkpt>
      <trkpt lat="34.620493" lon="127.428658"><ele>457.0</ele><time>2021-12-01T04:17:00.000Z</time></trkpt>
      <trkpt lat="34.620573" lon="127.428556"><ele>457.0</ele><time>2021-12-01T04:17:10.000Z</time></trkpt>
      <trkpt lat="34.620661" lon="127.428513"><ele>457.0</ele><time>2021-12-01T04:17:24.000Z</time></trkpt>
      <trkpt lat="34.620759" lon="127.428478"><ele>457.0</ele><time>2021-12-01T04:17:34.000Z</time></trkpt>
      <trkpt lat="34.620844" lon="127.428412"><ele>459.0</ele><time>2021-12-01T04:17:47.000Z</time></trkpt>
      <trkpt lat="34.620920" lon="127.428352"><ele>457.0</ele><time>2021-12-01T04:17:57.000Z</time></trkpt>
      <trkpt lat="34.621012" lon="127.428333"><ele>454.0</ele><time>2021-12-01T04:18:02.000Z</time></trkpt>
      <trkpt lat="34.621091" lon="127.428283"><ele>456.0</ele><time>2021-12-01T04:18:12.000Z</time></trkpt>
      <trkpt lat="34.621181" lon="127.428247"><ele>454.0</ele><time>2021-12-01T04:18:22.000Z</time></trkpt>
      <trkpt lat="34.621274" lon="127.428207"><ele>452.0</ele><time>2021-12-01T04:18:31.000Z</time></trkpt>
      <trkpt lat="34.621353" lon="127.428143"><ele>452.0</ele><time>2021-12-01T04:18:39.000Z</time></trkpt>
      <trkpt lat="34.621453" lon="127.428082"><ele>451.0</ele><time>2021-12-01T04:18:50.000Z</time></trkpt>
      <trkpt lat="34.621548" lon="127.428027"><ele>451.0</ele><time>2021-12-01T04:18:58.000Z</time></trkpt>
      <trkpt lat="34.621578" lon="127.427920"><ele>451.0</ele><time>2021-12-01T04:19:11.000Z</time></trkpt>
      <trkpt lat="34.621621" lon="127.427797"><ele>447.0</ele><time>2021-12-01T04:19:25.000Z</time></trkpt>
      <trkpt lat="34.621639" lon="127.427687"><ele>448.0</ele><time>2021-12-01T04:19:31.000Z</time></trkpt>
      <trkpt lat="34.621653" lon="127.427567"><ele>446.0</ele><time>2021-12-01T04:19:41.000Z</time></trkpt>
      <trkpt lat="34.621640" lon="127.427445"><ele>448.0</ele><time>2021-12-01T04:19:53.000Z</time></trkpt>
      <trkpt lat="34.621610" lon="127.427329"><ele>450.0</ele><time>2021-12-01T04:20:00.000Z</time></trkpt>
      <trkpt lat="34.621581" lon="127.427191"><ele>450.0</ele><time>2021-12-01T04:20:08.000Z</time></trkpt>
      <trkpt lat="34.621568" lon="127.427056"><ele>449.0</ele><time>2021-12-01T04:20:16.000Z</time></trkpt>
      <trkpt lat="34.621579" lon="127.426929"><ele>448.0</ele><time>2021-12-01T04:20:26.000Z</time></trkpt>
      <trkpt lat="34.621633" lon="127.426832"><ele>446.0</ele><time>2021-12-01T04:20:33.000Z</time></trkpt>
      <trkpt lat="34.621739" lon="127.426772"><ele>445.0</ele><time>2021-12-01T04:20:44.000Z</time></trkpt>
      <trkpt lat="34.621831" lon="127.426770"><ele>441.0</ele><time>2021-12-01T04:20:52.000Z</time></trkpt>
      <trkpt lat="34.621927" lon="127.426755"><ele>442.0</ele><time>2021-12-01T04:21:02.000Z</time></trkpt>
      <trkpt lat="34.622024" lon="127.426711"><ele>441.0</ele><time>2021-12-01T04:21:13.000Z</time></trkpt>
      <trkpt lat="34.622143" lon="127.426703"><ele>436.0</ele><time>2021-12-01T04:21:25.000Z</time></trkpt>
      <trkpt lat="34.622246" lon="127.426696"><ele>432.0</ele><time>2021-12-01T04:21:36.000Z</time></trkpt>
      <trkpt lat="34.622358" lon="127.426679"><ele>435.0</ele><time>2021-12-01T04:21:49.000Z</time></trkpt>
      <trkpt lat="34.622477" lon="127.426645"><ele>431.0</ele><time>2021-12-01T04:21:59.000Z</time></trkpt>
      <trkpt lat="34.622565" lon="127.426604"><ele>431.0</ele><time>2021-12-01T04:22:11.000Z</time></trkpt>
      <trkpt lat="34.622656" lon="127.426550"><ele>429.0</ele><time>2021-12-01T04:22:22.000Z</time></trkpt>
      <trkpt lat="34.622742" lon="127.426516"><ele>425.0</ele><time>2021-12-01T04:22:32.000Z</time></trkpt>
      <trkpt lat="34.622828" lon="127.426444"><ele>423.0</ele><time>2021-12-01T04:22:41.000Z</time></trkpt>
      <trkpt lat="34.622912" lon="127.426417"><ele>420.0</ele><time>2021-12-01T04:22:49.000Z</time></trkpt>
      <trkpt lat="34.623005" lon="127.426401"><ele>417.0</ele><time>2021-12-01T04:23:00.000Z</time></trkpt>
      <trkpt lat="34.623094" lon="127.426364"><ele>413.0</ele><time>2021-12-01T04:23:12.000Z</time></trkpt>
      <trkpt lat="34.623182" lon="127.426337"><ele>414.0</ele><time>2021-12-01T04:23:19.000Z</time></trkpt>
      <trkpt lat="34.623277" lon="127.426305"><ele>410.0</ele><time>2021-12-01T04:23:35.000Z</time></trkpt>
      <trkpt lat="34.623363" lon="127.426307"><ele>407.0</ele><time>2021-12-01T04:23:43.000Z</time></trkpt>
      <trkpt lat="34.623462" lon="127.426315"><ele>405.0</ele><time>2021-12-01T04:23:55.000Z</time></trkpt>
      <trkpt lat="34.623486" lon="127.426217"><ele>401.0</ele><time>2021-12-01T04:24:13.000Z</time></trkpt>
      <trkpt lat="34.623508" lon="127.426089"><ele>401.0</ele><time>2021-12-01T04:24:22.000Z</time></trkpt>
      <trkpt lat="34.623498" lon="127.425953"><ele>403.0</ele><time>2021-12-01T04:24:33.000Z</time></trkpt>
      <trkpt lat="34.623494" lon="127.425833"><ele>403.0</ele><time>2021-12-01T04:24:41.000Z</time></trkpt>
      <trkpt lat="34.623480" lon="127.425695"><ele>402.0</ele><time>2021-12-01T04:24:52.000Z</time></trkpt>
      <trkpt lat="34.623435" lon="127.425591"><ele>401.0</ele><time>2021-12-01T04:25:01.000Z</time></trkpt>
      <trkpt lat="34.623470" lon="127.425482"><ele>398.0</ele><time>2021-12-01T04:25:13.000Z</time></trkpt>
      <trkpt lat="34.623512" lon="127.425381"><ele>399.0</ele><time>2021-12-01T04:25:28.000Z</time></trkpt>
      <trkpt lat="34.623565" lon="127.425286"><ele>394.0</ele><time>2021-12-01T04:25:38.000Z</time></trkpt>
      <trkpt lat="34.623602" lon="127.425180"><ele>393.0</ele><time>2021-12-01T04:26:01.000Z</time></trkpt>
      <trkpt lat="34.623621" lon="127.425064"><ele>392.0</ele><time>2021-12-01T04:26:15.000Z</time></trkpt>
      <trkpt lat="34.623622" lon="127.424939"><ele>387.0</ele><time>2021-12-01T04:26:25.000Z</time></trkpt>
      <trkpt lat="34.623616" lon="127.424820"><ele>384.0</ele><time>2021-12-01T04:26:34.000Z</time></trkpt>
      <trkpt lat="34.623618" lon="127.424693"><ele>381.0</ele><time>2021-12-01T04:26:44.000Z</time></trkpt>
      <trkpt lat="34.623645" lon="127.424583"><ele>379.0</ele><time>2021-12-01T04:26:53.000Z</time></trkpt>
      <trkpt lat="34.623668" lon="127.424476"><ele>375.0</ele><time>2021-12-01T04:27:09.000Z</time></trkpt>
      <trkpt lat="34.623702" lon="127.424360"><ele>375.0</ele><time>2021-12-01T04:27:22.000Z</time></trkpt>
      <trkpt lat="34.623727" lon="127.424241"><ele>374.0</ele><time>2021-12-01T04:27:34.000Z</time></trkpt>
      <trkpt lat="34.623770" lon="127.424166"><ele>365.0</ele><time>2021-12-01T04:27:41.000Z</time></trkpt>
      <trkpt lat="34.623826" lon="127.424099"><ele>359.0</ele><time>2021-12-01T04:27:46.000Z</time></trkpt>
      <trkpt lat="34.623877" lon="127.424007"><ele>356.0</ele><time>2021-12-01T04:27:56.000Z</time></trkpt>
      <trkpt lat="34.623934" lon="127.423898"><ele>355.0</ele><time>2021-12-01T04:28:09.000Z</time></trkpt>
      <trkpt lat="34.624015" lon="127.423832"><ele>352.0</ele><time>2021-12-01T04:28:20.000Z</time></trkpt>
      <trkpt lat="34.624095" lon="127.423770"><ele>351.0</ele><time>2021-12-01T04:28:32.000Z</time></trkpt>
      <trkpt lat="34.624181" lon="127.423715"><ele>350.0</ele><time>2021-12-01T04:28:44.000Z</time></trkpt>
      <trkpt lat="34.624259" lon="127.423661"><ele>346.0</ele><time>2021-12-01T04:28:53.000Z</time></trkpt>
      <trkpt lat="34.624350" lon="127.423632"><ele>343.0</ele><time>2021-12-01T04:29:06.000Z</time></trkpt>
      <trkpt lat="34.624441" lon="127.423610"><ele>341.0</ele><time>2021-12-01T04:29:18.000Z</time></trkpt>
      <trkpt lat="34.624548" lon="127.423599"><ele>339.0</ele><time>2021-12-01T04:29:27.000Z</time></trkpt>
      <trkpt lat="34.624651" lon="127.423577"><ele>339.0</ele><time>2021-12-01T04:29:36.000Z</time></trkpt>
      <trkpt lat="34.624737" lon="127.423541"><ele>337.0</ele><time>2021-12-01T04:29:44.000Z</time></trkpt>
      <trkpt lat="34.624825" lon="127.423502"><ele>335.0</ele><time>2021-12-01T04:29:52.000Z</time></trkpt>
      <trkpt lat="34.624920" lon="127.423463"><ele>333.0</ele><time>2021-12-01T04:30:00.000Z</time></trkpt>
      <trkpt lat="34.625021" lon="127.423435"><ele>331.0</ele><time>2021-12-01T04:30:10.000Z</time></trkpt>
      <trkpt lat="34.625115" lon="127.423423"><ele>333.0</ele><time>2021-12-01T04:30:23.000Z</time></trkpt>
      <trkpt lat="34.625210" lon="127.423428"><ele>333.0</ele><time>2021-12-01T04:30:33.000Z</time></trkpt>
      <trkpt lat="34.625302" lon="127.423431"><ele>330.0</ele><time>2021-12-01T04:30:44.000Z</time></trkpt>
      <trkpt lat="34.625382" lon="127.423374"><ele>325.0</ele><time>2021-12-01T04:30:53.000Z</time></trkpt>
      <trkpt lat="34.625470" lon="127.423346"><ele>323.0</ele><time>2021-12-01T04:31:01.000Z</time></trkpt>
      <trkpt lat="34.625557" lon="127.423326"><ele>321.0</ele><time>2021-12-01T04:31:12.000Z</time></trkpt>
      <trkpt lat="34.625652" lon="127.423302"><ele>322.0</ele><time>2021-12-01T04:31:22.000Z</time></trkpt>
      <trkpt lat="34.625742" lon="127.423245"><ele>324.0</ele><time>2021-12-01T04:31:33.000Z</time></trkpt>
      <trkpt lat="34.625827" lon="127.423189"><ele>321.0</ele><time>2021-12-01T04:31:40.000Z</time></trkpt>
      <trkpt lat="34.625916" lon="127.423161"><ele>318.0</ele><time>2021-12-01T04:31:55.000Z</time></trkpt>
      <trkpt lat="34.626028" lon="127.423140"><ele>317.0</ele><time>2021-12-01T04:32:06.000Z</time></trkpt>
      <trkpt lat="34.626128" lon="127.423140"><ele>315.0</ele><time>2021-12-01T04:32:19.000Z</time></trkpt>
      <trkpt lat="34.626219" lon="127.423132"><ele>316.0</ele><time>2021-12-01T04:32:29.000Z</time></trkpt>
      <trkpt lat="34.626303" lon="127.423090"><ele>315.0</ele><time>2021-12-01T04:32:38.000Z</time></trkpt>
      <trkpt lat="34.626402" lon="127.423079"><ele>313.0</ele><time>2021-12-01T04:32:51.000Z</time></trkpt>
      <trkpt lat="34.626492" lon="127.423097"><ele>309.0</ele><time>2021-12-01T04:33:05.000Z</time></trkpt>
      <trkpt lat="34.626577" lon="127.423087"><ele>305.0</ele><time>2021-12-01T04:33:21.000Z</time></trkpt>
      <trkpt lat="34.626678" lon="127.423070"><ele>303.0</ele><time>2021-12-01T04:33:35.000Z</time></trkpt>
      <trkpt lat="34.626770" lon="127.423058"><ele>299.0</ele><time>2021-12-01T04:33:44.000Z</time></trkpt>
      <trkpt lat="34.626867" lon="127.423039"><ele>294.0</ele><time>2021-12-01T04:33:57.000Z</time></trkpt>
      <trkpt lat="34.626965" lon="127.423053"><ele>294.0</ele><time>2021-12-01T04:34:11.000Z</time></trkpt>
      <trkpt lat="34.627077" lon="127.423098"><ele>290.0</ele><time>2021-12-01T04:34:21.000Z</time></trkpt>
      <trkpt lat="34.627159" lon="127.423159"><ele>289.0</ele><time>2021-12-01T04:34:26.000Z</time></trkpt>
      <trkpt lat="34.627257" lon="127.423192"><ele>289.0</ele><time>2021-12-01T04:34:39.000Z</time></trkpt>
      <trkpt lat="34.627355" lon="127.423166"><ele>288.0</ele><time>2021-12-01T04:34:49.000Z</time></trkpt>
      <trkpt lat="34.627442" lon="127.423176"><ele>284.0</ele><time>2021-12-01T04:35:02.000Z</time></trkpt>
      <trkpt lat="34.627534" lon="127.423211"><ele>282.0</ele><time>2021-12-01T04:35:11.000Z</time></trkpt>
      <trkpt lat="34.627629" lon="127.423177"><ele>281.0</ele><time>2021-12-01T04:35:23.000Z</time></trkpt>
      <trkpt lat="34.627719" lon="127.423130"><ele>278.0</ele><time>2021-12-01T04:35:34.000Z</time></trkpt>
      <trkpt lat="34.627824" lon="127.423075"><ele>277.0</ele><time>2021-12-01T04:35:48.000Z</time></trkpt>
      <trkpt lat="34.627923" lon="127.423056"><ele>274.0</ele><time>2021-12-01T04:35:55.000Z</time></trkpt>
      <trkpt lat="34.628015" lon="127.423049"><ele>271.0</ele><time>2021-12-01T04:36:04.000Z</time></trkpt>
      <trkpt lat="34.628101" lon="127.423007"><ele>269.0</ele><time>2021-12-01T04:36:15.000Z</time></trkpt>
      <trkpt lat="34.628191" lon="127.422964"><ele>270.0</ele><time>2021-12-01T04:36:27.000Z</time></trkpt>
      <trkpt lat="34.628276" lon="127.422922"><ele>269.0</ele><time>2021-12-01T04:36:37.000Z</time></trkpt>
      <trkpt lat="34.628368" lon="127.422877"><ele>269.0</ele><time>2021-12-01T04:36:50.000Z</time></trkpt>
      <trkpt lat="34.628460" lon="127.422799"><ele>265.0</ele><time>2021-12-01T04:37:00.000Z</time></trkpt>
      <trkpt lat="34.628538" lon="127.422741"><ele>260.0</ele><time>2021-12-01T04:37:09.000Z</time></trkpt>
      <trkpt lat="34.628614" lon="127.422710"><ele>255.0</ele><time>2021-12-01T04:37:18.000Z</time></trkpt>
      <trkpt lat="34.628718" lon="127.422683"><ele>255.0</ele><time>2021-12-01T04:37:32.000Z</time></trkpt>
      <trkpt lat="34.628794" lon="127.422629"><ele>248.0</ele><time>2021-12-01T04:37:42.000Z</time></trkpt>
      <trkpt lat="34.628899" lon="127.422595"><ele>248.0</ele><time>2021-12-01T04:37:57.000Z</time></trkpt>
      <trkpt lat="34.628992" lon="127.422610"><ele>243.0</ele><time>2021-12-01T04:38:30.000Z</time></trkpt>
      <trkpt lat="34.629083" lon="127.422567"><ele>241.0</ele><time>2021-12-01T04:38:38.000Z</time></trkpt>
      <trkpt lat="34.629165" lon="127.422516"><ele>242.0</ele><time>2021-12-01T04:38:49.000Z</time></trkpt>
      <trkpt lat="34.629241" lon="127.422457"><ele>242.0</ele><time>2021-12-01T04:38:59.000Z</time></trkpt>
      <trkpt lat="34.629302" lon="127.422364"><ele>243.0</ele><time>2021-12-01T04:39:06.000Z</time></trkpt>
      <trkpt lat="34.629369" lon="127.422317"><ele>237.0</ele><time>2021-12-01T04:39:14.000Z</time></trkpt>
      <trkpt lat="34.629445" lon="127.422295"><ele>229.0</ele><time>2021-12-01T04:39:26.000Z</time></trkpt>
      <trkpt lat="34.629544" lon="127.422290"><ele>227.0</ele><time>2021-12-01T04:39:42.000Z</time></trkpt>
      <trkpt lat="34.629636" lon="127.422278"><ele>224.0</ele><time>2021-12-01T04:40:00.000Z</time></trkpt>
      <trkpt lat="34.629678" lon="127.422188"><ele>228.0</ele><time>2021-12-01T04:40:13.000Z</time></trkpt>
      <trkpt lat="34.629707" lon="127.422082"><ele>227.0</ele><time>2021-12-01T04:40:24.000Z</time></trkpt>
      <trkpt lat="34.629736" lon="127.421958"><ele>229.0</ele><time>2021-12-01T04:40:35.000Z</time></trkpt>
      <trkpt lat="34.629779" lon="127.421846"><ele>223.0</ele><time>2021-12-01T04:40:48.000Z</time></trkpt>
      <trkpt lat="34.629831" lon="127.421766"><ele>217.0</ele><time>2021-12-01T04:40:55.000Z</time></trkpt>
      <trkpt lat="34.629923" lon="127.421727"><ele>213.0</ele><time>2021-12-01T04:41:03.000Z</time></trkpt>
      <trkpt lat="34.629977" lon="127.421644"><ele>208.0</ele><time>2021-12-01T04:41:26.000Z</time></trkpt>
      <trkpt lat="34.630065" lon="127.421587"><ele>207.0</ele><time>2021-12-01T04:41:39.000Z</time></trkpt>
      <trkpt lat="34.630172" lon="127.421584"><ele>206.0</ele><time>2021-12-01T04:41:53.000Z</time></trkpt>
      <trkpt lat="34.630252" lon="127.421524"><ele>205.0</ele><time>2021-12-01T04:42:11.000Z</time></trkpt>
      <trkpt lat="34.630332" lon="127.421445"><ele>205.0</ele><time>2021-12-01T04:42:22.000Z</time></trkpt>
      <trkpt lat="34.630400" lon="127.421376"><ele>208.0</ele><time>2021-12-01T04:42:36.000Z</time></trkpt>
      <trkpt lat="34.630470" lon="127.421300"><ele>205.0</ele><time>2021-12-01T04:42:43.000Z</time></trkpt>
      <trkpt lat="34.630538" lon="127.421245"><ele>198.0</ele><time>2021-12-01T04:42:53.000Z</time></trkpt>
      <trkpt lat="34.630600" lon="127.421163"><ele>194.0</ele><time>2021-12-01T04:43:11.000Z</time></trkpt>
      <trkpt lat="34.630646" lon="127.421058"><ele>192.0</ele><time>2021-12-01T04:43:25.000Z</time></trkpt>
      <trkpt lat="34.630679" lon="127.420947"><ele>192.0</ele><time>2021-12-01T04:43:36.000Z</time></trkpt>
      <trkpt lat="34.630740" lon="127.420876"><ele>186.0</ele><time>2021-12-01T04:43:47.000Z</time></trkpt>
      <trkpt lat="34.630815" lon="127.420839"><ele>182.0</ele><time>2021-12-01T04:43:53.000Z</time></trkpt>
      <trkpt lat="34.630861" lon="127.420744"><ele>183.0</ele><time>2021-12-01T04:44:10.000Z</time></trkpt>
      <trkpt lat="34.630921" lon="127.420665"><ele>180.0</ele><time>2021-12-01T04:44:26.000Z</time></trkpt>
      <trkpt lat="34.630974" lon="127.420573"><ele>178.0</ele><time>2021-12-01T04:44:38.000Z</time></trkpt>
      <trkpt lat="34.631015" lon="127.420472"><ele>176.0</ele><time>2021-12-01T04:44:48.000Z</time></trkpt>
      <trkpt lat="34.631072" lon="127.420384"><ele>164.0</ele><time>2021-12-01T04:45:00.000Z</time></trkpt>
      <trkpt lat="34.631096" lon="127.420254"><ele>165.0</ele><time>2021-12-01T04:45:16.000Z</time></trkpt>
      <trkpt lat="34.631150" lon="127.420194"><ele>159.0</ele><time>2021-12-01T04:45:24.000Z</time></trkpt>
      <trkpt lat="34.631195" lon="127.420096"><ele>162.0</ele><time>2021-12-01T04:45:39.000Z</time></trkpt>
      <trkpt lat="34.631258" lon="127.420011"><ele>156.0</ele><time>2021-12-01T04:45:46.000Z</time></trkpt>
      <trkpt lat="34.631295" lon="127.419905"><ele>153.0</ele><time>2021-12-01T04:46:08.000Z</time></trkpt>
      <trkpt lat="34.631331" lon="127.419803"><ele>149.0</ele><time>2021-12-01T04:46:20.000Z</time></trkpt>
      <trkpt lat="34.631369" lon="127.419689"><ele>149.0</ele><time>2021-12-01T04:46:37.000Z</time></trkpt>
      <trkpt lat="34.631442" lon="127.419606"><ele>144.0</ele><time>2021-12-01T04:46:47.000Z</time></trkpt>
      <trkpt lat="34.631502" lon="127.419502"><ele>143.0</ele><time>2021-12-01T04:46:59.000Z</time></trkpt>
      <trkpt lat="34.631552" lon="127.419405"><ele>142.0</ele><time>2021-12-01T04:47:16.000Z</time></trkpt>
      <trkpt lat="34.631599" lon="127.419339"><ele>135.0</ele><time>2021-12-01T04:47:22.000Z</time></trkpt>
      <trkpt lat="34.631672" lon="127.419276"><ele>138.0</ele><time>2021-12-01T04:47:36.000Z</time></trkpt>
      <trkpt lat="34.631741" lon="127.419194"><ele>133.0</ele><time>2021-12-01T04:47:43.000Z</time></trkpt>
      <trkpt lat="34.631810" lon="127.419100"><ele>129.0</ele><time>2021-12-01T04:47:57.000Z</time></trkpt>
      <trkpt lat="34.631886" lon="127.419014"><ele>130.0</ele><time>2021-12-01T04:48:12.000Z</time></trkpt>
      <trkpt lat="34.631955" lon="127.418939"><ele>130.0</ele><time>2021-12-01T04:48:22.000Z</time></trkpt>
      <trkpt lat="34.632048" lon="127.418887"><ele>127.0</ele><time>2021-12-01T04:48:35.000Z</time></trkpt>
      <trkpt lat="34.632135" lon="127.418824"><ele>122.0</ele><time>2021-12-01T04:48:47.000Z</time></trkpt>
      <trkpt lat="34.632205" lon="127.418734"><ele>119.0</ele><time>2021-12-01T04:49:01.000Z</time></trkpt>
      <trkpt lat="34.632256" lon="127.418639"><ele>117.0</ele><time>2021-12-01T04:49:13.000Z</time></trkpt>
      <trkpt lat="34.632341" lon="127.418557"><ele>114.0</ele><time>2021-12-01T04:49:21.000Z</time></trkpt>
      <trkpt lat="34.632419" lon="127.418511"><ele>110.0</ele><time>2021-12-01T04:49:30.000Z</time></trkpt>
      <trkpt lat="34.632509" lon="127.418507"><ele>105.0</ele><time>2021-12-01T04:49:40.000Z</time></trkpt>
      <trkpt lat="34.632614" lon="127.418528"><ele>106.0</ele><time>2021-12-01T04:49:52.000Z</time></trkpt>
      <trkpt lat="34.632717" lon="127.418509"><ele>108.0</ele><time>2021-12-01T04:50:02.000Z</time></trkpt>
      <trkpt lat="34.632810" lon="127.418506"><ele>107.0</ele><time>2021-12-01T04:50:11.000Z</time></trkpt>
      <trkpt lat="34.632904" lon="127.418498"><ele>106.0</ele><time>2021-12-01T04:50:19.000Z</time></trkpt>
      <trkpt lat="34.632978" lon="127.418470"><ele>112.0</ele><time>2021-12-01T04:50:34.000Z</time></trkpt>
      <trkpt lat="34.633065" lon="127.418427"><ele>110.0</ele><time>2021-12-01T04:50:42.000Z</time></trkpt>
      <trkpt lat="34.633143" lon="127.418366"><ele>108.0</ele><time>2021-12-01T04:50:56.000Z</time></trkpt>
      <trkpt lat="34.633232" lon="127.418298"><ele>107.0</ele><time>2021-12-01T04:51:07.000Z</time></trkpt>
      <trkpt lat="34.633321" lon="127.418273"><ele>106.0</ele><time>2021-12-01T04:51:18.000Z</time></trkpt>
      <trkpt lat="34.633396" lon="127.418215"><ele>104.0</ele><time>2021-12-01T04:51:30.000Z</time></trkpt>
      <trkpt lat="34.633459" lon="127.418145"><ele>98.0</ele><time>2021-12-01T04:51:42.000Z</time></trkpt>
      <trkpt lat="34.633517" lon="127.418062"><ele>97.0</ele><time>2021-12-01T04:51:53.000Z</time></trkpt>
      <trkpt lat="34.633623" lon="127.418005"><ele>95.0</ele><time>2021-12-01T04:52:01.000Z</time></trkpt>
      <trkpt lat="34.633736" lon="127.418000"><ele>97.0</ele><time>2021-12-01T04:52:12.000Z</time></trkpt>
      <trkpt lat="34.633828" lon="127.417995"><ele>96.0</ele><time>2021-12-01T04:52:19.000Z</time></trkpt>
      <trkpt lat="34.633939" lon="127.418011"><ele>95.0</ele><time>2021-12-01T04:52:32.000Z</time></trkpt>
      <trkpt lat="34.634046" lon="127.418023"><ele>95.0</ele><time>2021-12-01T04:52:42.000Z</time></trkpt>
      <trkpt lat="34.634159" lon="127.418041"><ele>92.0</ele><time>2021-12-01T04:52:52.000Z</time></trkpt>
      <trkpt lat="34.634246" lon="127.418062"><ele>88.0</ele><time>2021-12-01T04:53:00.000Z</time></trkpt>
      <trkpt lat="34.634337" lon="127.418028"><ele>88.0</ele><time>2021-12-01T04:53:10.000Z</time></trkpt>
      <trkpt lat="34.634416" lon="127.417971"><ele>88.0</ele><time>2021-12-01T04:53:17.000Z</time></trkpt>
      <trkpt lat="34.634506" lon="127.418011"><ele>86.0</ele><time>2021-12-01T04:53:28.000Z</time></trkpt>
      <trkpt lat="34.634608" lon="127.418034"><ele>85.0</ele><time>2021-12-01T04:53:38.000Z</time></trkpt>
      <trkpt lat="34.634705" lon="127.417992"><ele>84.0</ele><time>2021-12-01T04:53:51.000Z</time></trkpt>
      <trkpt lat="34.634769" lon="127.417892"><ele>83.0</ele><time>2021-12-01T04:54:00.000Z</time></trkpt>
      <trkpt lat="34.634842" lon="127.417801"><ele>82.0</ele><time>2021-12-01T04:54:10.000Z</time></trkpt>
      <trkpt lat="34.634918" lon="127.417711"><ele>81.0</ele><time>2021-12-01T04:54:20.000Z</time></trkpt>
      <trkpt lat="34.635000" lon="127.417609"><ele>79.0</ele><time>2021-12-01T04:54:33.000Z</time></trkpt>
      <trkpt lat="34.635077" lon="127.417526"><ele>78.0</ele><time>2021-12-01T04:54:43.000Z</time></trkpt>
      <trkpt lat="34.635170" lon="127.417551"><ele>78.0</ele><time>2021-12-01T04:54:54.000Z</time></trkpt>
      <trkpt lat="34.635268" lon="127.417581"><ele>78.0</ele><time>2021-12-01T04:55:05.000Z</time></trkpt>
      <trkpt lat="34.635376" lon="127.417615"><ele>79.0</ele><time>2021-12-01T04:55:18.000Z</time></trkpt>
      <trkpt lat="34.635477" lon="127.417612"><ele>79.0</ele><time>2021-12-01T04:55:30.000Z</time></trkpt>
      <trkpt lat="34.635568" lon="127.417568"><ele>80.0</ele><time>2021-12-01T04:55:40.000Z</time></trkpt>
      <trkpt lat="34.635662" lon="127.417538"><ele>79.0</ele><time>2021-12-01T04:55:48.000Z</time></trkpt>
      <trkpt lat="34.635751" lon="127.417490"><ele>80.0</ele><time>2021-12-01T04:55:58.000Z</time></trkpt>
      <trkpt lat="34.635841" lon="127.417460"><ele>79.0</ele><time>2021-12-01T04:56:05.000Z</time></trkpt>
      <trkpt lat="34.635928" lon="127.417412"><ele>79.0</ele><time>2021-12-01T04:56:11.000Z</time></trkpt>
      <trkpt lat="34.636018" lon="127.417354"><ele>78.0</ele><time>2021-12-01T04:56:20.000Z</time></trkpt>
      <trkpt lat="34.636105" lon="127.417310"><ele>76.0</ele><time>2021-12-01T04:56:31.000Z</time></trkpt>
      <trkpt lat="34.636213" lon="127.417259"><ele>76.0</ele><time>2021-12-01T04:56:42.000Z</time></trkpt>
    </trkseg>
  </trk>
</gpx>