<?xml version="1.0" encoding="UTF-8"?>
<gpx version="1.1" creator="gajago-nav" xmlns="http://www.topografix.com/GPX/1/1">
  <metadata><name>회사_두레길</name></metadata>
  <wpt lat="36.497669" lon="127.365796">
    <name>들머리 (회사 - 원점회귀)</name>
    <ele>53</ele>
  </wpt>
  <wpt lat="36.493411" lon="127.367253">
    <name>갈림길4</name>
  </wpt>
  <wpt lat="36.491594" lon="127.364838">
    <name>전망대</name>
  </wpt>
  <wpt lat="36.493094" lon="127.366627">
    <name>갈림길5</name>
  </wpt>
  <wpt lat="36.493625" lon="127.368605">
    <name>갈림길3</name>
  </wpt>
  <wpt lat="36.496592" lon="127.363878">
    <name>갈림길2</name>
  </wpt>
  <wpt lat="36.497820" lon="127.364925">
    <name>갈림길1</name>
  </wpt>
  <trk>
    <name>회사_두레길</name>
    <trkseg>
      <trkpt lat="36.497669" lon="127.365796"><ele>52.9</ele><time>2026-09-14T03:39:03.000Z</time></trkpt>
      <trkpt lat="36.497576" lon="127.365760"><ele>51.9</ele><time>2026-09-14T03:39:15.000Z</time></trkpt>
      <trkpt lat="36.497506" lon="127.365689"><ele>53.0</ele><time>2026-09-14T03:39:23.000Z</time></trkpt>
      <trkpt lat="36.497503" lon="127.365568"><ele>53.9</ele><time>2026-09-14T03:39:33.000Z</time></trkpt>
      <trkpt lat="36.497553" lon="127.365475"><ele>54.8</ele><time>2026-09-14T03:39:41.000Z</time></trkpt>
      <trkpt lat="36.497611" lon="127.365380"><ele>50.1</ele><time>2026-09-14T03:39:49.000Z</time></trkpt>
      <trkpt lat="36.497598" lon="127.365267"><ele>51.2</ele><time>2026-09-14T03:39:59.000Z</time></trkpt>
      <trkpt lat="36.497556" lon="127.365167"><ele>52.2</ele><time>2026-09-14T03:40:06.000Z</time></trkpt>
      <trkpt lat="36.497593" lon="127.365057"><ele>51.9</ele><time>2026-09-14T03:40:16.000Z</time></trkpt>
      <trkpt lat="36.497631" lon="127.364945"><ele>53.5</ele><time>2026-09-14T03:40:24.000Z</time></trkpt>
      <trkpt lat="36.497675" lon="127.364847"><ele>53.0</ele><time>2026-09-14T03:40:32.000Z</time></trkpt>
      <trkpt lat="36.497726" lon="127.364739"><ele>53.2</ele><time>2026-09-14T03:40:41.000Z</time></trkpt>
      <trkpt lat="36.497695" lon="127.364631"><ele>51.8</ele><time>2026-09-14T03:40:50.000Z</time></trkpt>
      <trkpt lat="36.497608" lon="127.364575"><ele>52.5</ele><time>2026-09-14T03:40:58.000Z</time></trkpt>
      <trkpt lat="36.497526" lon="127.364519"><ele>52.8</ele><time>2026-09-14T03:41:06.000Z</time></trkpt>
      <trkpt lat="36.497440" lon="127.364457"><ele>54.5</ele><time>2026-09-14T03:41:15.000Z</time></trkpt>
      <trkpt lat="36.497354" lon="127.364403"><ele>51.0</ele><time>2026-09-14T03:41:23.000Z</time></trkpt>
      <trkpt lat="36.497269" lon="127.364347"><ele>51.7</ele><time>2026-09-14T03:41:32.000Z</time></trkpt>
      <trkpt lat="36.497189" lon="127.364283"><ele>49.5</ele><time>2026-09-14T03:41:40.000Z</time></trkpt>
      <trkpt lat="36.497097" lon="127.364230"><ele>49.0</ele><time>2026-09-14T03:41:48.000Z</time></trkpt>
      <trkpt lat="36.497014" lon="127.364181"><ele>50.2</ele><time>2026-09-14T03:41:56.000Z</time></trkpt>
      <trkpt lat="36.496939" lon="127.364118"><ele>48.4</ele><time>2026-09-14T03:42:04.000Z</time></trkpt>
      <trkpt lat="36.496855" lon="127.364068"><ele>47.2</ele><time>2026-09-14T03:42:12.000Z</time></trkpt>
      <trkpt lat="36.496774" lon="127.364019"><ele>44.8</ele><time>2026-09-14T03:42:20.000Z</time></trkpt>
      <trkpt lat="36.496686" lon="127.363954"><ele>45.9</ele><time>2026-09-14T03:42:29.000Z</time></trkpt>
      <trkpt lat="36.496595" lon="127.363903"><ele>45.5</ele><time>2026-09-14T03:42:38.000Z</time></trkpt>
      <trkpt lat="36.496564" lon="127.364011"><ele>45.2</ele><time>2026-09-14T03:42:48.000Z</time></trkpt>
      <trkpt lat="36.496559" lon="127.364133"><ele>44.3</ele><time>2026-09-14T03:42:57.000Z</time></trkpt>
      <trkpt lat="36.496563" lon="127.364254"><ele>46.8</ele><time>2026-09-14T03:43:06.000Z</time></trkpt>
      <trkpt lat="36.496564" lon="127.364378"><ele>47.5</ele><time>2026-09-14T03:43:15.000Z</time></trkpt>
      <trkpt lat="36.496565" lon="127.364503"><ele>48.9</ele><time>2026-09-14T03:43:24.000Z</time></trkpt>
      <trkpt lat="36.496566" lon="127.364623"><ele>49.8</ele><time>2026-09-14T03:43:33.000Z</time></trkpt>
      <trkpt lat="36.496571" lon="127.364747"><ele>51.1</ele><time>2026-09-14T03:43:43.000Z</time></trkpt>
      <trkpt lat="36.496567" lon="127.364866"><ele>49.2</ele><time>2026-09-14T03:43:53.000Z</time></trkpt>
      <trkpt lat="36.496569" lon="127.364978"><ele>47.0</ele><time>2026-09-14T03:44:02.000Z</time></trkpt>
      <trkpt lat="36.496577" lon="127.365094"><ele>46.4</ele><time>2026-09-14T03:44:11.000Z</time></trkpt>
      <trkpt lat="36.496595" lon="127.365208"><ele>49.7</ele><time>2026-09-14T03:44:20.000Z</time></trkpt>
      <trkpt lat="36.496600" lon="127.365329"><ele>47.4</ele><time>2026-09-14T03:44:29.000Z</time></trkpt>
      <trkpt lat="36.496610" lon="127.365449"><ele>45.9</ele><time>2026-09-14T03:44:38.000Z</time></trkpt>
      <trkpt lat="36.496620" lon="127.365565"><ele>44.1</ele><time>2026-09-14T03:44:46.000Z</time></trkpt>
      <trkpt lat="36.496595" lon="127.365677"><ele>44.0</ele><time>2026-09-14T03:44:55.000Z</time></trkpt>
      <trkpt lat="36.496553" lon="127.365776"><ele>45.2</ele><time>2026-09-14T03:45:03.000Z</time></trkpt>
      <trkpt lat="36.496489" lon="127.365871"><ele>46.6</ele><time>2026-09-14T03:45:11.000Z</time></trkpt>
      <trkpt lat="36.496414" lon="127.365948"><ele>48.7</ele><time>2026-09-14T03:45:19.000Z</time></trkpt>
      <trkpt lat="36.496354" lon="127.366038"><ele>47.2</ele><time>2026-09-14T03:45:27.000Z</time></trkpt>
      <trkpt lat="36.496310" lon="127.366142"><ele>48.2</ele><time>2026-09-14T03:45:35.000Z</time></trkpt>
      <trkpt lat="36.496251" lon="127.366235"><ele>47.5</ele><time>2026-09-14T03:45:43.000Z</time></trkpt>
      <trkpt lat="36.496191" lon="127.366333"><ele>45.2</ele><time>2026-09-14T03:45:53.000Z</time></trkpt>
      <trkpt lat="36.496138" lon="127.366442"><ele>47.3</ele><time>2026-09-14T03:46:00.000Z</time></trkpt>
      <trkpt lat="36.496082" lon="127.366532"><ele>44.9</ele><time>2026-09-14T03:46:10.000Z</time></trkpt>
      <trkpt lat="36.496037" lon="127.366632"><ele>41.6</ele><time>2026-09-14T03:46:18.000Z</time></trkpt>
      <trkpt lat="36.495996" lon="127.366739"><ele>38.3</ele><time>2026-09-14T03:46:27.000Z</time></trkpt>
      <trkpt lat="36.495941" lon="127.366836"><ele>40.2</ele><time>2026-09-14T03:46:36.000Z</time></trkpt>
      <trkpt lat="36.495886" lon="127.366943"><ele>39.2</ele><time>2026-09-14T03:46:44.000Z</time></trkpt>
      <trkpt lat="36.495821" lon="127.367022"><ele>39.4</ele><time>2026-09-14T03:46:52.000Z</time></trkpt>
      <trkpt lat="36.495737" lon="127.367087"><ele>40.9</ele><time>2026-09-14T03:47:00.000Z</time></trkpt>
      <trkpt lat="36.495655" lon="127.367155"><ele>37.4</ele><time>2026-09-14T03:47:07.000Z</time></trkpt>
      <trkpt lat="36.495564" lon="127.367208"><ele>37.7</ele><time>2026-09-14T03:47:16.000Z</time></trkpt>
      <trkpt lat="36.495485" lon="127.367273"><ele>36.3</ele><time>2026-09-14T03:47:24.000Z</time></trkpt>
      <trkpt lat="36.495393" lon="127.367260"><ele>36.8</ele><time>2026-09-14T03:47:31.000Z</time></trkpt>
      <trkpt lat="36.495299" lon="127.367256"><ele>38.2</ele><time>2026-09-14T03:47:40.000Z</time></trkpt>
      <trkpt lat="36.495209" lon="127.367285"><ele>37.0</ele><time>2026-09-14T03:47:48.000Z</time></trkpt>
      <trkpt lat="36.495124" lon="127.367339"><ele>37.0</ele><time>2026-09-14T03:47:56.000Z</time></trkpt>
      <trkpt lat="36.495034" lon="127.367370"><ele>38.2</ele><time>2026-09-14T03:48:04.000Z</time></trkpt>
      <trkpt lat="36.494941" lon="127.367358"><ele>38.1</ele><time>2026-09-14T03:48:12.000Z</time></trkpt>
      <trkpt lat="36.494847" lon="127.367329"><ele>36.5</ele><time>2026-09-14T03:48:20.000Z</time></trkpt>
      <trkpt lat="36.494750" lon="127.367334"><ele>35.7</ele><time>2026-09-14T03:48:28.000Z</time></trkpt>
      <trkpt lat="36.494659" lon="127.367375"><ele>31.7</ele><time>2026-09-14T03:48:36.000Z</time></trkpt>
      <trkpt lat="36.494564" lon="127.367404"><ele>32.7</ele><time>2026-09-14T03:48:44.000Z</time></trkpt>
      <trkpt lat="36.494478" lon="127.367442"><ele>32.8</ele><time>2026-09-14T03:48:52.000Z</time></trkpt>
      <trkpt lat="36.494404" lon="127.367525"><ele>33.2</ele><time>2026-09-14T03:49:00.000Z</time></trkpt>
      <trkpt lat="36.494317" lon="127.367582"><ele>32.2</ele><time>2026-09-14T03:49:09.000Z</time></trkpt>
      <trkpt lat="36.494246" lon="127.367652"><ele>30.6</ele><time>2026-09-14T03:49:17.000Z</time></trkpt>
      <trkpt lat="36.494189" lon="127.367743"><ele>35.2</ele><time>2026-09-14T03:49:25.000Z</time></trkpt>
      <trkpt lat="36.494124" lon="127.367830"><ele>33.3</ele><time>2026-09-14T03:49:33.000Z</time></trkpt>
      <trkpt lat="36.494038" lon="127.367877"><ele>33.8</ele><time>2026-09-14T03:49:41.000Z</time></trkpt>
      <trkpt lat="36.493982" lon="127.367965"><ele>31.9</ele><time>2026-09-14T03:49:49.000Z</time></trkpt>
      <trkpt lat="36.493961" lon="127.368086"><ele>29.6</ele><time>2026-09-14T03:49:58.000Z</time></trkpt>
      <trkpt lat="36.493930" lon="127.368197"><ele>31.2</ele><time>2026-09-14T03:50:06.000Z</time></trkpt>
      <trkpt lat="36.493908" lon="127.368315"><ele>28.8</ele><time>2026-09-14T03:50:14.000Z</time></trkpt>
      <trkpt lat="36.493855" lon="127.368405"><ele>28.1</ele><time>2026-09-14T03:50:22.000Z</time></trkpt>
      <trkpt lat="36.493778" lon="127.368489"><ele>27.4</ele><time>2026-09-14T03:50:30.000Z</time></trkpt>
      <trkpt lat="36.493700" lon="127.368549"><ele>27.2</ele><time>2026-09-14T03:50:38.000Z</time></trkpt>
      <trkpt lat="36.493613" lon="127.368592"><ele>27.1</ele><time>2026-09-14T03:50:46.000Z</time></trkpt>
      <trkpt lat="36.493525" lon="127.368542"><ele>28.7</ele><time>2026-09-14T03:50:58.000Z</time></trkpt>
      <trkpt lat="36.493502" lon="127.368427"><ele>29.1</ele><time>2026-09-14T03:51:07.000Z</time></trkpt>
      <trkpt lat="36.493480" lon="127.368317"><ele>29.2</ele><time>2026-09-14T03:51:16.000Z</time></trkpt>
      <trkpt lat="36.493449" lon="127.368201"><ele>28.5</ele><time>2026-09-14T03:51:24.000Z</time></trkpt>
      <trkpt lat="36.493419" lon="127.368085"><ele>27.7</ele><time>2026-09-14T03:51:33.000Z</time></trkpt>
      <trkpt lat="36.493399" lon="127.367973"><ele>26.9</ele><time>2026-09-14T03:51:41.000Z</time></trkpt>
      <trkpt lat="36.493365" lon="127.367861"><ele>26.2</ele><time>2026-09-14T03:51:50.000Z</time></trkpt>
      <trkpt lat="36.493370" lon="127.367748"><ele>25.0</ele><time>2026-09-14T03:51:58.000Z</time></trkpt>
      <trkpt lat="36.493389" lon="127.367636"><ele>25.1</ele><time>2026-09-14T03:52:06.000Z</time></trkpt>
      <trkpt lat="36.493409" lon="127.367518"><ele>24.7</ele><time>2026-09-14T03:52:15.000Z</time></trkpt>
      <trkpt lat="36.493415" lon="127.367402"><ele>25.1</ele><time>2026-09-14T03:52:23.000Z</time></trkpt>
      <trkpt lat="36.493419" lon="127.367290"><ele>25.8</ele><time>2026-09-14T03:52:31.000Z</time></trkpt>
      <trkpt lat="36.493403" lon="127.367176"><ele>25.1</ele><time>2026-09-14T03:52:39.000Z</time></trkpt>
      <trkpt lat="36.493339" lon="127.367087"><ele>27.5</ele><time>2026-09-14T03:52:46.000Z</time></trkpt>
      <trkpt lat="36.493277" lon="127.366991"><ele>27.9</ele><time>2026-09-14T03:52:56.000Z</time></trkpt>
      <trkpt lat="36.493217" lon="127.366895"><ele>28.3</ele><time>2026-09-14T03:53:05.000Z</time></trkpt>
      <trkpt lat="36.493159" lon="127.366803"><ele>24.8</ele><time>2026-09-14T03:53:15.000Z</time></trkpt>
      <trkpt lat="36.493111" lon="127.366701"><ele>24.8</ele><time>2026-09-14T03:53:25.000Z</time></trkpt>
      <trkpt lat="36.493086" lon="127.366593"><ele>26.2</ele><time>2026-09-14T03:53:36.000Z</time></trkpt>
      <trkpt lat="36.493025" lon="127.366502"><ele>26.0</ele><time>2026-09-14T03:53:46.000Z</time></trkpt>
      <trkpt lat="36.492952" lon="127.366421"><ele>25.4</ele><time>2026-09-14T03:53:56.000Z</time></trkpt>
      <trkpt lat="36.492885" lon="127.366345"><ele>25.5</ele><time>2026-09-14T03:54:05.000Z</time></trkpt>
      <trkpt lat="36.492824" lon="127.366262"><ele>25.7</ele><time>2026-09-14T03:54:14.000Z</time></trkpt>
      <trkpt lat="36.492760" lon="127.366165"><ele>25.7</ele><time>2026-09-14T03:54:24.000Z</time></trkpt>
      <trkpt lat="36.492694" lon="127.366078"><ele>22.5</ele><time>2026-09-14T03:54:32.000Z</time></trkpt>
      <trkpt lat="36.492636" lon="127.365981"><ele>21.6</ele><time>2026-09-14T03:54:42.000Z</time></trkpt>
      <trkpt lat="36.492581" lon="127.365881"><ele>22.2</ele><time>2026-09-14T03:54:50.000Z</time></trkpt>
      <trkpt lat="36.492518" lon="127.365790"><ele>22.0</ele><time>2026-09-14T03:54:59.000Z</time></trkpt>
      <trkpt lat="36.492455" lon="127.365696"><ele>23.1</ele><time>2026-09-14T03:55:08.000Z</time></trkpt>
      <trkpt lat="36.492403" lon="127.365605"><ele>22.7</ele><time>2026-09-14T03:55:16.000Z</time></trkpt>
      <trkpt lat="36.492371" lon="127.365496"><ele>22.3</ele><time>2026-09-14T03:55:24.000Z</time></trkpt>
      <trkpt lat="36.492380" lon="127.365371"><ele>21.2</ele><time>2026-09-14T03:55:33.000Z</time></trkpt>
      <trkpt lat="36.492356" lon="127.365257"><ele>21.4</ele><time>2026-09-14T03:55:41.000Z</time></trkpt>
      <trkpt lat="36.492269" lon="127.365211"><ele>21.5</ele><time>2026-09-14T03:55:50.000Z</time></trkpt>
      <trkpt lat="36.492183" lon="127.365170"><ele>21.9</ele><time>2026-09-14T03:55:58.000Z</time></trkpt>
      <trkpt lat="36.492098" lon="127.365128"><ele>20.9</ele><time>2026-09-14T03:56:06.000Z</time></trkpt>
      <trkpt lat="36.492009" lon="127.365080"><ele>19.9</ele><time>2026-09-14T03:56:15.000Z</time></trkpt>
      <trkpt lat="36.491930" lon="127.365022"><ele>19.9</ele><time>2026-09-14T03:56:22.000Z</time></trkpt>
      <trkpt lat="36.491841" lon="127.364980"><ele>20.0</ele><time>2026-09-14T03:56:31.000Z</time></trkpt>
      <trkpt lat="36.491760" lon="127.364928"><ele>19.9</ele><time>2026-09-14T03:56:39.000Z</time></trkpt>
      <trkpt lat="36.491674" lon="127.364889"><ele>20.5</ele><time>2026-09-14T03:56:48.000Z</time></trkpt>
      <trkpt lat="36.491589" lon="127.364835"><ele>21.8</ele><time>2026-09-14T03:56:57.000Z</time></trkpt>
      <trkpt lat="36.491659" lon="127.364912"><ele>22.0</ele><time>2026-09-14T03:57:08.000Z</time></trkpt>
      <trkpt lat="36.491746" lon="127.364948"><ele>21.6</ele><time>2026-09-14T03:57:17.000Z</time></trkpt>
      <trkpt lat="36.491831" lon="127.364992"><ele>21.5</ele><time>2026-09-14T03:57:25.000Z</time></trkpt>
      <trkpt lat="36.491914" lon="127.365046"><ele>20.4</ele><time>2026-09-14T03:57:34.000Z</time></trkpt>
      <trkpt lat="36.491997" lon="127.365097"><ele>20.2</ele><time>2026-09-14T03:57:43.000Z</time></trkpt>
      <trkpt lat="36.492083" lon="127.365133"><ele>22.0</ele><time>2026-09-14T03:57:51.000Z</time></trkpt>
      <trkpt lat="36.492173" lon="127.365171"><ele>21.2</ele><time>2026-09-14T03:58:00.000Z</time></trkpt>
      <trkpt lat="36.492261" lon="127.365210"><ele>22.5</ele><time>2026-09-14T03:58:09.000Z</time></trkpt>
      <trkpt lat="36.492333" lon="127.365284"><ele>23.4</ele><time>2026-09-14T03:58:17.000Z</time></trkpt>
      <trkpt lat="36.492352" lon="127.365394"><ele>23.5</ele><time>2026-09-14T03:58:26.000Z</time></trkpt>
      <trkpt lat="36.492356" lon="127.365515"><ele>21.9</ele><time>2026-09-14T03:58:36.000Z</time></trkpt>
      <trkpt lat="36.492408" lon="127.365624"><ele>22.8</ele><time>2026-09-14T03:58:42.000Z</time></trkpt>
      <trkpt lat="36.492461" lon="127.365721"><ele>23.1</ele><time>2026-09-14T03:58:50.000Z</time></trkpt>
      <trkpt lat="36.492529" lon="127.365814"><ele>24.7</ele><time>2026-09-14T03:58:58.000Z</time></trkpt>
      <trkpt lat="36.492591" lon="127.365906"><ele>24.5</ele><time>2026-09-14T03:59:07.000Z</time></trkpt>
      <trkpt lat="36.492657" lon="127.365986"><ele>24.2</ele><time>2026-09-14T03:59:14.000Z</time></trkpt>
      <trkpt lat="36.492718" lon="127.366088"><ele>24.6</ele><time>2026-09-14T03:59:23.000Z</time></trkpt>
      <trkpt lat="36.492781" lon="127.366189"><ele>24.3</ele><time>2026-09-14T03:59:30.000Z</time></trkpt>
      <trkpt lat="36.492837" lon="127.366283"><ele>24.2</ele><time>2026-09-14T03:59:38.000Z</time></trkpt>
      <trkpt lat="36.492901" lon="127.366373"><ele>24.8</ele><time>2026-09-14T03:59:46.000Z</time></trkpt>
      <trkpt lat="36.492967" lon="127.366455"><ele>25.8</ele><time>2026-09-14T03:59:54.000Z</time></trkpt>
      <trkpt lat="36.493034" lon="127.366532"><ele>28.3</ele><time>2026-09-14T04:00:01.000Z</time></trkpt>
      <trkpt lat="36.493096" lon="127.366629"><ele>28.7</ele><time>2026-09-14T04:00:09.000Z</time></trkpt>
      <trkpt lat="36.493121" lon="127.366738"><ele>27.9</ele><time>2026-09-14T04:00:18.000Z</time></trkpt>
      <trkpt lat="36.493173" lon="127.366831"><ele>29.0</ele><time>2026-09-14T04:00:27.000Z</time></trkpt>
      <trkpt lat="36.493228" lon="127.366923"><ele>30.0</ele><time>2026-09-14T04:00:35.000Z</time></trkpt>
      <trkpt lat="36.493270" lon="127.367026"><ele>29.1</ele><time>2026-09-14T04:00:44.000Z</time></trkpt>
      <trkpt lat="36.493338" lon="127.367115"><ele>30.0</ele><time>2026-09-14T04:00:53.000Z</time></trkpt>
      <trkpt lat="36.493388" lon="127.367210"><ele>30.7</ele><time>2026-09-14T04:01:01.000Z</time></trkpt>
      <trkpt lat="36.493403" lon="127.367334"><ele>30.7</ele><time>2026-09-14T04:01:10.000Z</time></trkpt>
      <trkpt lat="36.493393" lon="127.367456"><ele>29.1</ele><time>2026-09-14T04:01:19.000Z</time></trkpt>
      <trkpt lat="36.493389" lon="127.367578"><ele>29.2</ele><time>2026-09-14T04:01:27.000Z</time></trkpt>
      <trkpt lat="36.493381" lon="127.367697"><ele>27.9</ele><time>2026-09-14T04:01:37.000Z</time></trkpt>
      <trkpt lat="36.493363" lon="127.367807"><ele>29.1</ele><time>2026-09-14T04:01:44.000Z</time></trkpt>
      <trkpt lat="36.493382" lon="127.367922"><ele>30.5</ele><time>2026-09-14T04:01:51.000Z</time></trkpt>
      <trkpt lat="36.493401" lon="127.368033"><ele>30.3</ele><time>2026-09-14T04:01:59.000Z</time></trkpt>
      <trkpt lat="36.493435" lon="127.368148"><ele>29.5</ele><time>2026-09-14T04:02:08.000Z</time></trkpt>
      <trkpt lat="36.493472" lon="127.368251"><ele>29.7</ele><time>2026-09-14T04:02:15.000Z</time></trkpt>
      <trkpt lat="36.493495" lon="127.368363"><ele>28.9</ele><time>2026-09-14T04:02:24.000Z</time></trkpt>
      <trkpt lat="36.493526" lon="127.368480"><ele>28.6</ele><time>2026-09-14T04:02:33.000Z</time></trkpt>
      <trkpt lat="36.493554" lon="127.368588"><ele>28.1</ele><time>2026-09-14T04:02:42.000Z</time></trkpt>
      <trkpt lat="36.493646" lon="127.368603"><ele>28.2</ele><time>2026-09-14T04:02:51.000Z</time></trkpt>
      <trkpt lat="36.493729" lon="127.368537"><ele>28.2</ele><time>2026-09-14T04:03:00.000Z</time></trkpt>
      <trkpt lat="36.493811" lon="127.368478"><ele>28.1</ele><time>2026-09-14T04:03:09.000Z</time></trkpt>
      <trkpt lat="36.493891" lon="127.368412"><ele>28.3</ele><time>2026-09-14T04:03:18.000Z</time></trkpt>
      <trkpt lat="36.493930" lon="127.368303"><ele>28.0</ele><time>2026-09-14T04:03:27.000Z</time></trkpt>
      <trkpt lat="36.493959" lon="127.368187"><ele>27.3</ele><time>2026-09-14T04:03:36.000Z</time></trkpt>
      <trkpt lat="36.493980" lon="127.368070"><ele>26.3</ele><time>2026-09-14T04:03:45.000Z</time></trkpt>
      <trkpt lat="36.494011" lon="127.367957"><ele>26.6</ele><time>2026-09-14T04:03:54.000Z</time></trkpt>
      <trkpt lat="36.494080" lon="127.367867"><ele>28.2</ele><time>2026-09-14T04:04:03.000Z</time></trkpt>
      <trkpt lat="36.494155" lon="127.367798"><ele>28.6</ele><time>2026-09-14T04:04:12.000Z</time></trkpt>
      <trkpt lat="36.494231" lon="127.367707"><ele>32.4</ele><time>2026-09-14T04:04:23.000Z</time></trkpt>
      <trkpt lat="36.494308" lon="127.367624"><ele>30.1</ele><time>2026-09-14T04:04:31.000Z</time></trkpt>
      <trkpt lat="36.494387" lon="127.367544"><ele>28.5</ele><time>2026-09-14T04:04:39.000Z</time></trkpt>
      <trkpt lat="36.494461" lon="127.367462"><ele>31.1</ele><time>2026-09-14T04:04:48.000Z</time></trkpt>
      <trkpt lat="36.494541" lon="127.367402"><ele>31.5</ele><time>2026-09-14T04:04:57.000Z</time></trkpt>
      <trkpt lat="36.494639" lon="127.367364"><ele>32.3</ele><time>2026-09-14T04:05:05.000Z</time></trkpt>
      <trkpt lat="36.494739" lon="127.367331"><ele>28.4</ele><time>2026-09-14T04:05:14.000Z</time></trkpt>
      <trkpt lat="36.494832" lon="127.367327"><ele>27.6</ele><time>2026-09-14T04:05:22.000Z</time></trkpt>
      <trkpt lat="36.494927" lon="127.367337"><ele>26.5</ele><time>2026-09-14T04:05:31.000Z</time></trkpt>
      <trkpt lat="36.495020" lon="127.367347"><ele>28.3</ele><time>2026-09-14T04:05:40.000Z</time></trkpt>
      <trkpt lat="36.495114" lon="127.367318"><ele>31.1</ele><time>2026-09-14T04:05:50.000Z</time></trkpt>
      <trkpt lat="36.495198" lon="127.367265"><ele>31.7</ele><time>2026-09-14T04:05:59.000Z</time></trkpt>
      <trkpt lat="36.495279" lon="127.367214"><ele>33.4</ele><time>2026-09-14T04:06:06.000Z</time></trkpt>
      <trkpt lat="36.495370" lon="127.367227"><ele>30.6</ele><time>2026-09-14T04:06:13.000Z</time></trkpt>
      <trkpt lat="36.495468" lon="127.367243"><ele>32.8</ele><time>2026-09-14T04:06:21.000Z</time></trkpt>
      <trkpt lat="36.495568" lon="127.367233"><ele>33.3</ele><time>2026-09-14T04:06:31.000Z</time></trkpt>
      <trkpt lat="36.495655" lon="127.367182"><ele>34.3</ele><time>2026-09-14T04:06:40.000Z</time></trkpt>
      <trkpt lat="36.495741" lon="127.367135"><ele>33.5</ele><time>2026-09-14T04:06:49.000Z</time></trkpt>
      <trkpt lat="36.495827" lon="127.367081"><ele>37.4</ele><time>2026-09-14T04:06:57.000Z</time></trkpt>
      <trkpt lat="36.495883" lon="127.366989"><ele>36.4</ele><time>2026-09-14T04:07:09.000Z</time></trkpt>
      <trkpt lat="36.495936" lon="127.366890"><ele>37.1</ele><time>2026-09-14T04:07:20.000Z</time></trkpt>
      <trkpt lat="36.495990" lon="127.366785"><ele>37.2</ele><time>2026-09-14T04:07:30.000Z</time></trkpt>
      <trkpt lat="36.496060" lon="127.366696"><ele>36.0</ele><time>2026-09-14T04:07:40.000Z</time></trkpt>
      <trkpt lat="36.496096" lon="127.366590"><ele>38.3</ele><time>2026-09-14T04:07:50.000Z</time></trkpt>
      <trkpt lat="36.496145" lon="127.366482"><ele>39.3</ele><time>2026-09-14T04:08:00.000Z</time></trkpt>
      <trkpt lat="36.496198" lon="127.366386"><ele>42.6</ele><time>2026-09-14T04:08:11.000Z</time></trkpt>
      <trkpt lat="36.496245" lon="127.366283"><ele>40.8</ele><time>2026-09-14T04:08:21.000Z</time></trkpt>
      <trkpt lat="36.496279" lon="127.366172"><ele>42.4</ele><time>2026-09-14T04:08:34.000Z</time></trkpt>
      <trkpt lat="36.496336" lon="127.366075"><ele>43.2</ele><time>2026-09-14T04:08:46.000Z</time></trkpt>
      <trkpt lat="36.496408" lon="127.365998"><ele>43.5</ele><time>2026-09-14T04:08:57.000Z</time></trkpt>
      <trkpt lat="36.496473" lon="127.365912"><ele>46.9</ele><time>2026-09-14T04:09:07.000Z</time></trkpt>
      <trkpt lat="36.496536" lon="127.365821"><ele>48.1</ele><time>2026-09-14T04:09:17.000Z</time></trkpt>
      <trkpt lat="36.496580" lon="127.365724"><ele>49.8</ele><time>2026-09-14T04:09:27.000Z</time></trkpt>
      <trkpt lat="36.496591" lon="127.365601"><ele>50.3</ele><time>2026-09-14T04:09:37.000Z</time></trkpt>
      <trkpt lat="36.496585" lon="127.365489"><ele>50.2</ele><time>2026-09-14T04:09:47.000Z</time></trkpt>
      <trkpt lat="36.496567" lon="127.365379"><ele>48.8</ele><time>2026-09-14T04:09:56.000Z</time></trkpt>
      <trkpt lat="36.496554" lon="127.365265"><ele>46.7</ele><time>2026-09-14T04:10:05.000Z</time></trkpt>
      <trkpt lat="36.496559" lon="127.365150"><ele>49.3</ele><time>2026-09-14T04:10:14.000Z</time></trkpt>
      <trkpt lat="36.496550" lon="127.365035"><ele>49.3</ele><time>2026-09-14T04:10:24.000Z</time></trkpt>
      <trkpt lat="36.496542" lon="127.364922"><ele>48.7</ele><time>2026-09-14T04:10:33.000Z</time></trkpt>
      <trkpt lat="36.496539" lon="127.364801"><ele>48.7</ele><time>2026-09-14T04:10:42.000Z</time></trkpt>
      <trkpt lat="36.496526" lon="127.364686"><ele>49.8</ele><time>2026-09-14T04:10:51.000Z</time></trkpt>
      <trkpt lat="36.496533" lon="127.364575"><ele>50.4</ele><time>2026-09-14T04:11:00.000Z</time></trkpt>
      <trkpt lat="36.496533" lon="127.364453"><ele>50.8</ele><time>2026-09-14T04:11:10.000Z</time></trkpt>
      <trkpt lat="36.496531" lon="127.364334"><ele>51.1</ele><time>2026-09-14T04:11:19.000Z</time></trkpt>
      <trkpt lat="36.496518" lon="127.364214"><ele>50.3</ele><time>2026-09-14T04:11:28.000Z</time></trkpt>
      <trkpt lat="36.496532" lon="127.364100"><ele>46.8</ele><time>2026-09-14T04:11:36.000Z</time></trkpt>
      <trkpt lat="36.496547" lon="127.363984"><ele>47.2</ele><time>2026-09-14T04:11:45.000Z</time></trkpt>
      <trkpt lat="36.496594" lon="127.363880"><ele>45.3</ele><time>2026-09-14T04:11:53.000Z</time></trkpt>
      <trkpt lat="36.496682" lon="127.363919"><ele>43.8</ele><time>2026-09-14T04:12:01.000Z</time></trkpt>
      <trkpt lat="36.496766" lon="127.363978"><ele>41.8</ele><time>2026-09-14T04:12:11.000Z</time></trkpt>
      <trkpt lat="36.496840" lon="127.364053"><ele>43.7</ele><time>2026-09-14T04:12:19.000Z</time></trkpt>
      <trkpt lat="36.496923" lon="127.364111"><ele>45.2</ele><time>2026-09-14T04:12:28.000Z</time></trkpt>
      <trkpt lat="36.497006" lon="127.364176"><ele>46.8</ele><time>2026-09-14T04:12:38.000Z</time></trkpt>
      <trkpt lat="36.497093" lon="127.364239"><ele>50.0</ele><time>2026-09-14T04:12:48.000Z</time></trkpt>
      <trkpt lat="36.497178" lon="127.364288"><ele>51.4</ele><time>2026-09-14T04:12:57.000Z</time></trkpt>
      <trkpt lat="36.497259" lon="127.364340"><ele>52.5</ele><time>2026-09-14T04:13:06.000Z</time></trkpt>
      <trkpt lat="36.497346" lon="127.364400"><ele>53.4</ele><time>2026-09-14T04:13:16.000Z</time></trkpt>
      <trkpt lat="36.497424" lon="127.364461"><ele>50.2</ele><time>2026-09-14T04:13:26.000Z</time></trkpt>
      <trkpt lat="36.497510" lon="127.364506"><ele>49.7</ele><time>2026-09-14T04:13:34.000Z</time></trkpt>
      <trkpt lat="36.497583" lon="127.364582"><ele>50.2</ele><time>2026-09-14T04:13:44.000Z</time></trkpt>
      <trkpt lat="36.497667" lon="127.364636"><ele>53.1</ele><time>2026-09-14T04:13:53.000Z</time></trkpt>
      <trkpt lat="36.497737" lon="127.364715"><ele>51.9</ele><time>2026-09-14T04:14:03.000Z</time></trkpt>
      <trkpt lat="36.497770" lon="127.364827"><ele>51.0</ele><time>2026-09-14T04:14:13.000Z</time></trkpt>
      <trkpt lat="36.497819" lon="127.364924"><ele>52.7</ele><time>2026-09-14T04:14:23.000Z</time></trkpt>
      <trkpt lat="36.497764" lon="127.365013"><ele>50.6</ele><time>2026-09-14T04:14:31.000Z</time></trkpt>
      <trkpt lat="36.497709" lon="127.365104"><ele>51.5</ele><time>2026-09-14T04:14:39.000Z</time></trkpt>
      <trkpt lat="36.497665" lon="127.365204"><ele>52.9</ele><time>2026-09-14T04:14:47.000Z</time></trkpt>
      <trkpt lat="36.497617" lon="127.365303"><ele>53.9</ele><time>2026-09-14T04:14:56.000Z</time></trkpt>
      <trkpt lat="36.497570" lon="127.365402"><ele>53.4</ele><time>2026-09-14T04:15:05.000Z</time></trkpt>
      <trkpt lat="36.497518" lon="127.365498"><ele>56.3</ele><time>2026-09-14T04:15:15.000Z</time></trkpt>
      <trkpt lat="36.497478" lon="127.365607"><ele>55.0</ele><time>2026-09-14T04:15:25.000Z</time></trkpt>
    </trkseg>
  </trk>
</gpx>