<?xml version="1.0" encoding="UTF-8"?>
<gpx version="1.1" creator="gajago-nav" xmlns="http://www.topografix.com/GPX/1/1">
  <metadata><name>회사 두레길1</name></metadata>
  <wpt lat="36.497426" lon="127.365631">
    <name>들머리 (회사)</name>
  </wpt>
  <wpt lat="36.497820" lon="127.364925">
    <name>갈림길1</name>
  </wpt>
  <wpt lat="36.496592" lon="127.363878">
    <name>갈림길2</name>
  </wpt>
  <wpt lat="36.493625" lon="127.368605">
    <name>갈림길3</name>
  </wpt>
  <wpt lat="36.493411" lon="127.367253">
    <name>갈림길4</name>
  </wpt>
  <wpt lat="36.493094" lon="127.366627">
    <name>갈림길5</name>
  </wpt>
  <wpt lat="36.491594" lon="127.364838">
    <name>전망대</name>
  </wpt>
  <trk>
    <name>회사 두레길1</name>
    <trkseg>
      <trkpt lat="36.497426" lon="127.365631"><time>2026-09-29T21:38:34.544Z</time></trkpt>
      <trkpt lat="36.497446" lon="127.365585"><time>2026-09-29T21:38:41.275Z</time></trkpt>
      <trkpt lat="36.497635" lon="127.365155"><time>2026-09-29T21:39:44.357Z</time></trkpt>
      <trkpt lat="36.497840" lon="127.364682"><time>2026-09-29T21:40:53.525Z</time></trkpt>
      <trkpt lat="36.497859" lon="127.364639"><time>2026-09-29T21:40:59.841Z</time></trkpt>
      <trkpt lat="36.496618" lon="127.363831"><time>2026-09-29T21:44:44.124Z</time></trkpt>
      <trkpt lat="36.496591" lon="127.363813"><time>2026-09-29T21:44:49.029Z</time></trkpt>
      <trkpt lat="36.496618" lon="127.365463"><time>2026-09-29T21:48:21.460Z</time></trkpt>
      <trkpt lat="36.496604" lon="127.365669"><time>2026-09-29T21:48:48.071Z</time></trkpt>
      <trkpt lat="36.496601" lon="127.365708"><time>2026-09-29T21:48:53.114Z</time></trkpt>
      <trkpt lat="36.495797" lon="127.367106"><time>2026-09-29T21:52:34.373Z</time></trkpt>
      <trkpt lat="36.495636" lon="127.367196"><time>2026-09-29T21:53:02.636Z</time></trkpt>
      <trkpt lat="36.495059" lon="127.367375"><time>2026-09-29T21:54:37.856Z</time></trkpt>
      <trkpt lat="36.494747" lon="127.367354"><time>2026-09-29T21:55:27.886Z</time></trkpt>
      <trkpt lat="36.494510" lon="127.367456"><time>2026-09-29T21:56:08.042Z</time></trkpt>
      <trkpt lat="36.494210" lon="127.367746"><time>2026-09-29T21:57:08.878Z</time></trkpt>
      <trkpt lat="36.494003" lon="127.367983"><time>2026-09-29T21:57:53.926Z</time></trkpt>
      <trkpt lat="36.493852" lon="127.368413"><time>2026-09-29T21:58:54.327Z</time></trkpt>
      <trkpt lat="36.493610" lon="127.368613"><time>2026-09-29T21:59:40.849Z</time></trkpt>
      <trkpt lat="36.493596" lon="127.368625"><time>2026-09-29T21:59:43.572Z</time></trkpt>
      <trkpt lat="36.493538" lon="127.368593"><time>2026-09-29T21:59:53.731Z</time></trkpt>
      <trkpt lat="36.493358" lon="127.367855"><time>2026-09-29T22:01:33.006Z</time></trkpt>
      <trkpt lat="36.493391" lon="127.367241"><time>2026-09-29T22:02:52.220Z</time></trkpt>
      <trkpt lat="36.493393" lon="127.367203"><time>2026-09-29T22:02:57.122Z</time></trkpt>
      <trkpt lat="36.493193" lon="127.366859"><time>2026-09-29T22:03:51.770Z</time></trkpt>
      <trkpt lat="36.493104" lon="127.366639"><time>2026-09-29T22:04:23.473Z</time></trkpt>
      <trkpt lat="36.493117" lon="127.366627"><time>2026-09-29T22:04:26.065Z</time></trkpt>
      <trkpt lat="36.493104" lon="127.366639"><time>2026-09-29T22:04:28.657Z</time></trkpt>
      <trkpt lat="36.493089" lon="127.366602"><time>2026-09-29T22:04:33.991Z</time></trkpt>
      <trkpt lat="36.492703" lon="127.366095"><time>2026-09-29T22:06:03.877Z</time></trkpt>
      <trkpt lat="36.492473" lon="127.365728"><time>2026-09-29T22:07:03.778Z</time></trkpt>
      <trkpt lat="36.492367" lon="127.365579"><time>2026-09-29T22:07:29.390Z</time></trkpt>
      <trkpt lat="36.492359" lon="127.365279"><time>2026-09-29T22:08:08.029Z</time></trkpt>
      <trkpt lat="36.491538" lon="127.364826"><time>2026-09-29T22:10:31.841Z</time></trkpt>
    </trkseg>
  </trk>
</gpx>